{"type":"FeatureCollection","features":[{"type":"Feature","id":3,"geometry":{"type":"MultiPolygon","coordinates":[[[[-72.964708599999938,44.227383000000032],[-72.964827599999978,44.229381300000057],[-72.965014598999971,44.229360400000076],[-72.964708599999938,44.227383000000032]]],[[[-72.964445603999934,44.226559300000076],[-72.964432899999963,44.226560400000039],[-72.964633399999968,44.229390400000057],[-72.959449934999952,44.229943787000025],[-72.959771899999964,44.229912600000034],[-72.961362099999974,44.229777800000079],[-72.964640599999939,44.229402200000038],[-72.964445603999934,44.226559300000076]]],[[[-72.956030599999963,44.224551100000042],[-72.947997699999974,44.225326300000063],[-72.947663699999964,44.225358200000073],[-72.946666798999956,44.225451700000065],[-72.946665500999984,44.225484000000051],[-72.956016799999986,44.224561600000072],[-72.956294899999989,44.227250200000071],[-72.956164998999952,44.225917700000025],[-72.956030599999963,44.224551100000042]]],[[[-72.942310193999958,44.222105901000077],[-72.942039398999952,44.224659300000042],[-72.942086599999982,44.224662900000055],[-72.942276699999979,44.222484800000075],[-72.942310193999958,44.222105901000077]]],[[[-72.943743499999982,44.219063300000073],[-72.945086299999957,44.219123600000046],[-72.945201199999985,44.219128200000057],[-72.946190610999963,44.219197465000036],[-72.947191699999962,44.219219400000043],[-72.947198399999934,44.21915510000008],[-72.943743499999982,44.219063300000073]]],[[[-72.955003799999986,44.208833900000059],[-72.954856998999958,44.208911900000032],[-72.955040999999937,44.208844900000031],[-72.955225499999983,44.208919700000081],[-72.955393700999934,44.209186700000032],[-72.955424299999947,44.209219500000074],[-72.955885299999977,44.209291500000063],[-72.956207599999971,44.209233500000039],[-72.956803099999945,44.208888800000068],[-72.956390599999963,44.20906720000005],[-72.955667699999935,44.209228000000053],[-72.955372499999953,44.209074500000042],[-72.955189699999949,44.208853600000054],[-72.955003799999986,44.208833900000059]]],[[[-72.958551999999941,44.208305600000074],[-72.957987599999967,44.208432300000027],[-72.957785298999966,44.208576900000025],[-72.958239300999935,44.208538700000076],[-72.958551999999941,44.208305600000074]]],[[[-72.948329199999989,44.206043500000078],[-72.948249029999943,44.207041147000041],[-72.94825210099998,44.207005800000047],[-72.948299498999972,44.206803900000068],[-72.948397699999987,44.206790399000056],[-72.948955599999977,44.206758600000057],[-72.948329199999989,44.206043500000078]]],[[[-72.935419299999978,44.195922400000029],[-72.934882998999967,44.197019200000057],[-72.931925906999936,44.203065004000052],[-72.934883099999979,44.197019200000057],[-72.935242099999982,44.197530000000029],[-72.935388799999942,44.197916400000054],[-72.93542290299996,44.198299700000064],[-72.935425899999984,44.198365300000034],[-72.935385399999973,44.198652200000026],[-72.935639799999933,44.198129400000028],[-72.935716099999979,44.197613000000047],[-72.935419299999978,44.195922400000029]]]]},"properties":{"OBJECTID":3,"OBJECT_ID":417,"County":"Chittenden","RPC":"CCRPC","Municipal_Name":"BuelsGore","GEO_ID":"5000710300","District_Name":"Forestry And Conservation Two","Abbreviated_District_Name":"Fc2","District_Type":"Nonresidential","Bylaw_Date":"2023-08-02","Elderly_Housing_District":"No","District_Mapped":"Yes","Overlay_District":"No","Base_Density":null,"FIPS6":7010,"GIS_ID":null,"Last_Update":"4/1/26","F1F_Allowance":"Prohibited","F1F_Front_Setback":null,"F1F_Side_Setback":null,"F1F_Rear_Setback":null,"F1F_Frontage":null,"F1F_Max_Height":null,"F1F_Max_Stories":null,"F1F_Min_Lot_Size":null,"F1F_Max_Lot_Building_Coverage":null,"F1F_Max_Lot_Impervious_Coverage":null,"F1F_Min_Parking_Spaces":null,"F1F_Elderly_Housing_Only":null,"F1F_Affordable_Housing_Only":null,"F2F_Allowance":"Prohibited","F2F_Front_Setback":null,"F2F_Side_Setback":null,"F2F_Rear_Setback":null,"F2F_Frontage":null,"F2F_Max_Density":null,"F2F_Max_Height":null,"F2F_Max_Stories":null,"F2F_Min_Lot_Size":null,"F2F_Max_Lot_Building_Coverage":null,"F2F_Max_Lot_Impervious_Coverage":null,"F2F_Min_Parking_Spaces_per_1BR":null,"F2F_Min_Parking_Spaces_per_mult_BR":null,"F2F_Elderly_Housing_Only":"No","F2F_Affordable_Housing_Only":"No","F3F_Allowance":"Prohibited","F3F_Front_Setback":null,"F3F_Side_Setback":null,"F3F_Rear_Setback":null,"F3F_Frontage":null,"F3F_Max_Density":null,"F3F_Max_Height":null,"F3F_Max_Stories":null,"F3F_Min_Lot_Size":null,"F3F_Max_Lot_Building_Coverage":null,"F3F_Max_Lot_Impervious_Coverage":null,"F3F_Min_Parking_Spaces_per_1BR":null,"F3F_Min_Parking_Spaces_per_mult_BR":null,"F3F_Affordable_Housing_Only":"No","F3F_Proximity_to_Public_Transit_Required":"No","F3F_Connection_to_Sewage_Water_Required":"No","F4F_Allowance":"Prohibited","F4F_Front_Setback":null,"F4F_Side_Setback":null,"F4F_Rear_Setback":null,"F4F_Frontage":null,"F1F_Max_Density":null,"F4F_Max_Density":null,"F4F_Max_Height":null,"F4F_Max_Stories":null,"F4F_Min_Lot_Size":null,"F4F_Max_Lot_Building_Coverage":null,"F4F_Max_Lot_Impervious_Coverage":null,"F4F_Min_Parking_Spaces_per_1BR":null,"F4F_Min_Parking_Spaces_per_mult_BR":null,"F3F_Elderly_Housing_Only":"No","F4F_Elderly_Housing_Only":"No","F4F_Affordable_Housing_Only":"No","F4F_Proximity_to_Public_Transit_Required":"No","F4F_Connection_to_Sewage_Water_Required":"No","ADU_Allowance":"Prohibited","ADU_Elderly_Housing_Only":"No","ADU_Max_Size_as_Percent_of_Primary_Strcture":null,"ADU_Max_Size_in_sq_ft":null,"ADU_Min_Lot_Size":null,"ADU_Max_Bedrooms":null,"ADU_Min_Parking_Spaces":null,"ADU_Owner_Occupancy_Required":"No","ADU_Renter_Occupancy_Prohibited":"No","ADU_Employee_or_Family_Occupancy_Required":"No","ADU_Restricted_to_Primary_Structure":"No","Affordable_Housing_Allowance":"Prohibited","Affordable_Housing_District":"No","Affordable_Housing_Elderly_Only":"No","Affordable_Housing_Min_Lot_Size":null,"Affordable_Housing_Max_Density":null,"Affordable_Housing_Min_Parking_Spaces_per_mult_BR":null,"Affordable_Housing_Max_Units_per_Building":null,"Affordable_Housing_Min_Parking_Spaces_per_1BR":null,"PRD_Allowance":"Prohibited","PRD_Max_Density":null,"PRD_Max_Units":null,"PRD_Min_Lot_Size":null,"PRD_Mobile_or_Manufactured_Home_Park":"No","PUD_Allowance":"No","PUD_Required_with_Subdivision":"No","PUD_Requires_Land_Conservation":"No","PUD_Threshold_Number":null,"Notes":"None","Shape_Length":0.08493277966564762,"Shape_Area":2.1446399412581508e-06}}]}