{"type":"FeatureCollection","features":[{"type":"Feature","id":4,"geometry":{"type":"MultiPolygon","coordinates":[[[[-72.888188758999945,44.436604207000073],[-72.887732133999975,44.437234250000074],[-72.888208360999954,44.436921581000036],[-72.888188758999945,44.436604207000073]]],[[[-72.863858864999941,44.435833294000076],[-72.863644661999956,44.435872771000049],[-72.86283291999996,44.436956764000058],[-72.863150229999974,44.437529485000027],[-72.863117717999955,44.438069226000039],[-72.862506178999979,44.438433263000036],[-72.862017919999971,44.439211900000032],[-72.861632526999983,44.439427154000043],[-72.861620237999944,44.439708713000073],[-72.861500526999976,44.439872640000033],[-72.861081641999988,44.440241937000053],[-72.861186147999945,44.440790031000063],[-72.860941544999946,44.441330776000029],[-72.860525734999953,44.441679666000027],[-72.860292039999933,44.441797611000027],[-72.859858262999978,44.44193380400003],[-72.858662359999983,44.442156007000051],[-72.858095055999968,44.442419679000068],[-72.856468391999954,44.442950888000041],[-72.855732281999963,44.443299943000056],[-72.855645436999964,44.443507276000048],[-72.854809512999964,44.444259621000072],[-72.85434080999994,44.444573275000039],[-72.854179543999976,44.444886051000026],[-72.85427034199995,44.445123873000057],[-72.853621534999945,44.445655446000046],[-72.854059260999975,44.44621206000005],[-72.854089766999948,44.44643642300008],[-72.854017494999937,44.446600342000067],[-72.85389493699995,44.446838089000039],[-72.853399817999957,44.44728288500005],[-72.853261706999945,44.447816444000068],[-72.853034682999976,44.447934008000061],[-72.852768527999956,44.447970220000059],[-72.852562390999935,44.448068742000032],[-72.852643259999979,44.44815860500006],[-72.85305135599998,44.448322886000028],[-72.853113600999961,44.448800687000073],[-72.853229854999938,44.448945649000052],[-72.853585979999934,44.448885910000058],[-72.855006231999937,44.448464012000045],[-72.855992975999982,44.448356181000065],[-72.856662660999973,44.448404995000033],[-72.857891886999937,44.448595342000033],[-72.859104034999973,44.448496200000079],[-72.859597177999945,44.448501398000076],[-72.861447806999934,44.448802242000056],[-72.863374156999953,44.448901875000047],[-72.865585481999972,44.450753218000045],[-72.869452631999934,44.445622721000063],[-72.87646486899996,44.448314375000052],[-72.876674149999985,44.447947290000059],[-72.876964243999964,44.447621790000028],[-72.877144619999967,44.447270094000032],[-72.877153670999974,44.447140737000041],[-72.87697234999996,44.446678706000057],[-72.877035950999982,44.446138526000027],[-72.876667604999966,44.446042983000041],[-72.876517569999976,44.445885889000067],[-72.876458845999935,44.445584921000034],[-72.875976630999958,44.445255397000039],[-72.876049462999958,44.445133410000039],[-72.87612652699994,44.445082208000031],[-72.876364699999954,44.445247160000065],[-72.876672411999948,44.445292861000041],[-72.877120307999974,44.445559007000043],[-72.87930010599996,44.445488478000073],[-72.880052392999971,44.445317851000027],[-72.880226721999975,44.445188805000043],[-72.880299025999989,44.445050846000072],[-72.881004004999966,44.444537677000028],[-72.881410312999947,44.443956341000046],[-72.881327106999947,44.443406424000045],[-72.882019149999962,44.442974341000081],[-72.882234695999955,44.442762574000028],[-72.882417935999968,44.442340381000065],[-72.883095211999944,44.441798592000055],[-72.882979344999967,44.441241010000056],[-72.88318547199998,44.440836353000066],[-72.883198406999952,44.440805125000054],[-72.87832958599995,44.438859257000047],[-72.875371036999979,44.437879293000037],[-72.874663728999963,44.438767348000056],[-72.867342368999971,44.436002261000056],[-72.866829378999967,44.436944571000026],[-72.863858864999941,44.435833294000076]]],[[[-72.889901154999961,44.434226590000037],[-72.888520102999962,44.436128241000063],[-72.889139180999962,44.435857998000074],[-72.889408489999937,44.435496723000028],[-72.889861137999958,44.434744982000041],[-72.889901154999961,44.434226590000037]]],[[[-72.899403875999951,44.432210473000055],[-72.899195550999934,44.43268760400008],[-72.899054329999956,44.43333468600008],[-72.899661798999944,44.433323290000033],[-72.899930197999936,44.433197607000068],[-72.900194129999988,44.433087276000037],[-72.900919451999982,44.432914899000025],[-72.901493478999953,44.432864069000061],[-72.899403875999951,44.432210473000055]]],[[[-72.89307536299998,44.422471635000079],[-72.890642881999952,44.422704875000079],[-72.891053936999981,44.424262341000031],[-72.89142656599995,44.424108545000081],[-72.891757060999964,44.423784322000074],[-72.892350314999987,44.423801470000058],[-72.892787501999976,44.423699061000036],[-72.892691554999942,44.425140318000047],[-72.891518029999986,44.42709744900003],[-72.893450991999941,44.427745041000037],[-72.893493125999953,44.427183992000039],[-72.893871630999968,44.426642714000025],[-72.893641818999981,44.426085744000034],[-72.894272301999933,44.425561386000027],[-72.893583021999973,44.424490396000067],[-72.893328549999978,44.423937054000078],[-72.892988909999985,44.423583758000063],[-72.893220260999954,44.423387121000076],[-72.89307536299998,44.422471635000079]]],[[[-72.908722634999947,44.413570659000072],[-72.907929284999966,44.414539904000037],[-72.908250447999933,44.414650137000081],[-72.908722634999947,44.413570659000072]]],[[[-72.895685151999942,44.41152756300005],[-72.892596804999982,44.415494248000073],[-72.891655993999962,44.416499207000072],[-72.890658502999941,44.417365508000046],[-72.890598000999944,44.417497648000051],[-72.892191210999954,44.417976228000043],[-72.89163906899995,44.418763347000038],[-72.892962841999974,44.419250371000032],[-72.891979628999934,44.420324181000069],[-72.891671575999965,44.421712719000027],[-72.892456252999978,44.421618144000035],[-72.893038082999965,44.42174510500007],[-72.893088108999962,44.421227682000051],[-72.892799073999981,44.420851800000037],[-72.893039709999982,44.420716610000056],[-72.893079940999939,44.420535607000033],[-72.893435400999977,44.420183718000033],[-72.893671990999962,44.41971557800008],[-72.893798837999952,44.41852536500005],[-72.893691088999958,44.418036821000044],[-72.893846322999934,44.417150066000033],[-72.894383994999941,44.415840621000029],[-72.89467433599998,44.414742526000055],[-72.895094542999971,44.413739907000036],[-72.895616710999946,44.411954609000077],[-72.895685151999942,44.41152756300005]]],[[[-72.918924036999954,44.399218580000081],[-72.918506229999934,44.399754400000063],[-72.917879191999987,44.400356228000078],[-72.917504744999974,44.400518650000038],[-72.917018026999983,44.400995754000064],[-72.916495728999962,44.401098251000064],[-72.91625294399995,44.401287074000038],[-72.915967356999943,44.401702577000037],[-72.915888605999953,44.402212642000052],[-72.915562378999937,44.402249022000035],[-72.915954496999973,44.402347426000063],[-72.91608916399997,44.402457199000025],[-72.916084545999979,44.402573810000035],[-72.915949673999933,44.402624245000027],[-72.915699647999986,44.40259246800008],[-72.915268535999985,44.402336856000034],[-72.914514948999965,44.403005871000062],[-72.914054804999978,44.403144515000065],[-72.913772385999948,44.403466371000036],[-72.91344608199995,44.403513383000075],[-72.912858120999942,44.403896753000026],[-72.912052800999959,44.405519587000072],[-72.912088997999945,44.405742416000066],[-72.91181090699996,44.405986104000078],[-72.911875282999972,44.40609763100008],[-72.911819742999967,44.406202646000054],[-72.911525648999941,44.406211231000043],[-72.911264100999972,44.406405416000041],[-72.910017325999945,44.40708601800003],[-72.90870496399998,44.408891317000041],[-72.908530704999976,44.40896785700005],[-72.908107144999974,44.409313575000056],[-72.908096799999953,44.409467565000057],[-72.907773293999981,44.409818166000036],[-72.907785066999963,44.409975111000051],[-72.907032169999979,44.410022597000079],[-72.906681232999972,44.410138802000063],[-72.906684327999983,44.410264901000062],[-72.90882475899997,44.411059721000072],[-72.910737110999946,44.410015982000061],[-72.910856663999937,44.409699429000057],[-72.911306703999969,44.409439648000046],[-72.911757293999983,44.409258856000065],[-72.911372915999948,44.409740378000038],[-72.911707037999975,44.409856321000063],[-72.910556220999979,44.411242749000053],[-72.910990771999934,44.411050635000038],[-72.911565702999951,44.411031367000078],[-72.912311924999983,44.411132739000038],[-72.91389890399995,44.411503768000046],[-72.914577890999965,44.411532056000055],[-72.914878278999936,44.411221444000034],[-72.915431532999946,44.410349562000079],[-72.915362364999964,44.409319020000055],[-72.915653372999941,44.408447426000066],[-72.916310949999968,44.407840647000057],[-72.916898990999982,44.406850312000074],[-72.917282196999963,44.406040577000056],[-72.917559306999976,44.404948448000027],[-72.917743712999936,44.404626895000035],[-72.91849611799995,44.404315343000064],[-72.919216345999985,44.403873594000061],[-72.919649162999974,44.403332029000069],[-72.91978813299994,44.402791544000081],[-72.919750459999989,44.40221715000007],[-72.919901468999967,44.40063122600003],[-72.919833299999937,44.400134972000046],[-72.919776304999971,44.39983557000005],[-72.919015813999977,44.399603154000033],[-72.918924036999954,44.399218580000081]]],[[[-72.896413967999933,44.396627806000026],[-72.894959454999935,44.398678613000072],[-72.896525878999967,44.399281365000036],[-72.896445277999987,44.400024571000074],[-72.896638654999947,44.400549328000068],[-72.896692891999976,44.401104417000056],[-72.896792053999945,44.401368391000062],[-72.897155207999958,44.401804688000027],[-72.897350554999946,44.402334447000044],[-72.897338421999962,44.40135353900007],[-72.897220157999982,44.400686548000067],[-72.896808357999987,44.400173810000069],[-72.89698733299997,44.398956546000079],[-72.896913457999972,44.398535523000078],[-72.89670012199997,44.397996284000044],[-72.896592366999982,44.396934707000071],[-72.896413967999933,44.396627806000026]]],[[[-72.855288137999935,44.388858457000026],[-72.850080281999965,44.395677145000036],[-72.850464502999955,44.395904732000076],[-72.851609540999959,44.397064036000074],[-72.851871904999939,44.397621202000039],[-72.851836062999951,44.398143290000064],[-72.851483651999956,44.398684350000053],[-72.851273795999987,44.398857351000061],[-72.851214710999955,44.399206720000052],[-72.851103518999935,44.399339631000032],[-72.851147450999974,44.399671780000062],[-72.851015869999969,44.40032371500007],[-72.851067560999979,44.40065181500006],[-72.851010662999954,44.400791383000069],[-72.851108224999962,44.400907773000029],[-72.851071998999942,44.401306360000035],[-72.850921059999962,44.401708744000075],[-72.850923567999985,44.401943925000069],[-72.850719754999943,44.402105794000079],[-72.850731070999984,44.402480930000081],[-72.850457741999946,44.402989026000057],[-72.850134554999954,44.40330091800007],[-72.849741305999942,44.403852750000055],[-72.849519111999939,44.403937204000044],[-72.849336010999934,44.404108692000079],[-72.847722895999937,44.40481477000003],[-72.847177680999948,44.404962411000042],[-72.845468995999966,44.405901152000069],[-72.844491769999934,44.406611131000034],[-72.84383044599997,44.406888915000081],[-72.843437829999971,44.40714319600005],[-72.842150825999965,44.407666004000077],[-72.860134390999974,44.406274790000055],[-72.860990765999986,44.406208468000045],[-72.860981821999985,44.406389771000079],[-72.861641804999977,44.406510468000079],[-72.862594826999953,44.406557253000074],[-72.862594900999966,44.40655724100003],[-72.863188934999982,44.406463169000062],[-72.863543585999935,44.406275708000067],[-72.864116337999974,44.406220100000041],[-72.864205633999973,44.40590166100003],[-72.864749760999985,44.405680437000058],[-72.865155752999954,44.405681446000074],[-72.865370324999958,44.405555967000055],[-72.865298404999976,44.405127549000042],[-72.865320811999936,44.40405086800007],[-72.865643038999963,44.403499994000072],[-72.865836760999969,44.402633336000065],[-72.866138210999964,44.401878168000053],[-72.866253486999938,44.401090194000062],[-72.866653138999936,44.400274590000038],[-72.866709557999968,44.399075393000032],[-72.866285157999982,44.397103919000074],[-72.866409307999959,44.397047499000053],[-72.866536241999938,44.396799963000035],[-72.867246678999948,44.395952876000081],[-72.867363680999972,44.394923505000065],[-72.867089711999938,44.394586004000075],[-72.867137921999984,44.394283219000044],[-72.866958111999963,44.393885632000035],[-72.865506471999936,44.393044771000064],[-72.865356505999955,44.393085433000067],[-72.864654946999963,44.392650042000071],[-72.863014805999967,44.391868421000027],[-72.863377782999976,44.391643654000063],[-72.855288137999935,44.388858457000026]]],[[[-72.808955745999981,44.380425295000066],[-72.805539504999956,44.384666483000046],[-72.810083267999971,44.386520227000062],[-72.813274724999985,44.382596240000055],[-72.81261197699996,44.382353752000029],[-72.811007377999942,44.381540480000069],[-72.810202125999979,44.380984693000073],[-72.809697473999961,44.380801161000079],[-72.808955745999981,44.380425295000066]]],[[[-72.890021034999961,44.376778587000047],[-72.885449932999961,44.382560391000027],[-72.884883178999985,44.38327716100008],[-72.88777977999996,44.38440967300005],[-72.887555348999967,44.384737991000065],[-72.886506344999987,44.385078676000035],[-72.886123601999941,44.385332381000069],[-72.885851790999936,44.385614253000028],[-72.885173737999935,44.386809902000039],[-72.885182316999988,44.387776745000053],[-72.884979661999978,44.388316818000078],[-72.88468778899994,44.388611411000056],[-72.884293107999952,44.389187805000063],[-72.883602542999938,44.389994438000031],[-72.883433385999979,44.390404704000048],[-72.883494891999987,44.390843093000058],[-72.883860070999958,44.392324276000068],[-72.884006040999964,44.392657906000068],[-72.884391046999951,44.393178831000057],[-72.884779585999979,44.394275231000051],[-72.884870444999933,44.394814901000075],[-72.884767806999946,44.395117217000063],[-72.884773833999986,44.395658919000027],[-72.884896191999985,44.396367250000026],[-72.885101414999951,44.396443215000033],[-72.886016772999938,44.397137876000045],[-72.887570859999983,44.398027626000044],[-72.887788397999941,44.398275330000047],[-72.886569264999935,44.398511365000047],[-72.885639997999988,44.398761797000077],[-72.883688562999964,44.399007897000047],[-72.882968397999946,44.399016997000047],[-72.881889196999964,44.399316597000052],[-72.881486196999958,44.399589131000027],[-72.881260263999934,44.399654630000043],[-72.881134963999955,44.399635964000026],[-72.881019597999966,44.399510330000055],[-72.880758196999977,44.39942153100003],[-72.879752930999985,44.399260730000037],[-72.878746772999989,44.399008866000031],[-72.878712788999962,44.39955014700007],[-72.878876995999974,44.399755931000072],[-72.878912530999969,44.400079531000074],[-72.87911319799997,44.400242530000071],[-72.879427730999964,44.400353796000047],[-72.879490362999945,44.400489998000069],[-72.879934730999935,44.400795198000026],[-72.879983129999971,44.400948397000036],[-72.880154996999977,44.401084197000046],[-72.880280330999938,44.401353130000075],[-72.880314464999969,44.401651064000077],[-72.880458329999954,44.401875131000054],[-72.880390096999975,44.402007163000064],[-72.880509964999987,44.402308265000045],[-72.881002996999939,44.402805798000031],[-72.881051196999977,44.40292153200005],[-72.881014996999966,44.403211330000033],[-72.881305196999961,44.404004398000041],[-72.881635198999959,44.404299731000037],[-72.881724231999954,44.40455856400007],[-72.881965929999978,44.404710996000063],[-72.881833596999968,44.404817131000073],[-72.881820131999973,44.404915997000046],[-72.881917731999977,44.404959964000057],[-72.882016396999973,44.405181131000063],[-72.882188597999971,44.405289597000035],[-72.882385130999978,44.405592331000037],[-72.882533029999934,44.405648031000055],[-72.882519594999962,44.405755398000053],[-72.882697930999939,44.406150130000071],[-72.88265619699996,44.406308664000051],[-72.88273413099995,44.406586331000028],[-72.882669394999937,44.406886331000067],[-72.882704730999933,44.407189531000029],[-72.883103999999946,44.407925965000061],[-72.883379863999949,44.408294798000043],[-72.88416736399995,44.409120331000054],[-72.883676311999977,44.40889611700004],[-72.88305745599996,44.408750632000078],[-72.882159335999972,44.408703418000073],[-72.879897443999937,44.40809020100005],[-72.87934323099995,44.407646421000038],[-72.879146786999968,44.407320175000052],[-72.87891022499997,44.407278432000055],[-72.878958740999963,44.407181991000073],[-72.878567504999978,44.406895792000057],[-72.878610692999985,44.406704124000044],[-72.878390744999933,44.406340133000072],[-72.878235117999964,44.406301600000063],[-72.877869297999951,44.40664514000008],[-72.877914213999986,44.406832353000027],[-72.877872318999948,44.407148563000078],[-72.877971877999983,44.407246310000062],[-72.877899871999944,44.407348004000028],[-72.877939162999951,44.40767162700007],[-72.877638519999948,44.408048347000033],[-72.877452767999955,44.408731634000048],[-72.877682650999986,44.409865126000057],[-72.878089796999973,44.410272209000027],[-72.877348044999962,44.410528473000056],[-72.883405406999941,44.416374553000026],[-72.892156270999976,44.400713947000042],[-72.889514892999955,44.394675025000026],[-72.890373733999979,44.393261678000044],[-72.889230352999959,44.391381938000052],[-72.891282916999955,44.392194995000068],[-72.894525621999946,44.393240497000079],[-72.895932039999934,44.391209317000062],[-72.894878013999971,44.389920733000054],[-72.89466374899996,44.389481104000026],[-72.894091321999952,44.388959397000065],[-72.891811390999976,44.387606843000071],[-72.891508451999982,44.387214673000074],[-72.89112576399998,44.386854551000056],[-72.890631963999965,44.386150818000033],[-72.890337574999933,44.384992819000047],[-72.895436912999969,44.384591815000078],[-72.896371148999947,44.384900982000033],[-72.900189086999944,44.379315941000073],[-72.897126283999967,44.378441114000054],[-72.895378530999949,44.378169459000048],[-72.893184867999935,44.377692109000066],[-72.890021034999961,44.376778587000047]]],[[[-72.828022496999949,44.361843050000061],[-72.827643328999955,44.362165735000076],[-72.825373407999962,44.364852596000048],[-72.819177149999973,44.372186175000081],[-72.816439400999968,44.371072631000061],[-72.816181845999949,44.371394967000072],[-72.825403353999945,44.375266313000054],[-72.828428257999974,44.376641447000054],[-72.829610284999944,44.37344810500008],[-72.833880222999937,44.375306742000078],[-72.83583605299998,44.372640457000045],[-72.839720836999959,44.366887870000028],[-72.841804336999985,44.366479514000048],[-72.842057031999957,44.366533962000062],[-72.84207018799998,44.366059978000067],[-72.841865610999946,44.365757925000025],[-72.841857957999935,44.365650581000068],[-72.841947313999981,44.36542503700008],[-72.842388577999941,44.365019701000051],[-72.842394111999965,44.364402495000036],[-72.842577844999937,44.364208524000048],[-72.843226922999975,44.363991361000046],[-72.841544051999961,44.363690876000078],[-72.838382895999985,44.363015748000066],[-72.829331335999939,44.36208274300003],[-72.828022496999949,44.361843050000061]]],[[[-72.933906786999955,44.341391114000032],[-72.930222396999966,44.348404748000064],[-72.940998215999969,44.351430290000053],[-72.943320749999941,44.346932714000047],[-72.95031524999996,44.348874385000045],[-72.950329410999984,44.348847504000048],[-72.95107281099996,44.347436655000081],[-72.950493585999936,44.347056852000037],[-72.949837072999969,44.347079336000036],[-72.949875997999982,44.346615138000061],[-72.949999641999966,44.346505480000076],[-72.949740544999941,44.346159629000056],[-72.949344783999948,44.345423436000033],[-72.948462843999948,44.344628443000033],[-72.94763310899998,44.344443571000056],[-72.947379732999934,44.344485036000037],[-72.947091462999936,44.344831113000055],[-72.946911910999972,44.345316054000079],[-72.946639153999968,44.345434780000062],[-72.946300435999945,44.345740604000071],[-72.94582528899997,44.345921913000041],[-72.945994562999942,44.345586938000054],[-72.946034720999933,44.345204039000066],[-72.945848243999933,44.344957054000076],[-72.945902387999979,44.344667679000054],[-72.945707103999951,44.344536905000041],[-72.945565196999951,44.344748573000061],[-72.945074880999982,44.344498068000064],[-72.94507280199997,44.343994054000063],[-72.945277150999971,44.343918604000066],[-72.933906786999955,44.341391114000032]]]]},"properties":{"OBJECTID":4,"OBJECT_ID":409,"County":"Chittenden","RPC":"CCRPC","Municipal_Name":"Bolton","GEO_ID":"5000706550","District_Name":"Forest","Abbreviated_District_Name":"For","District_Type":"Primarily Residential","Bylaw_Date":"2023-07-29","Elderly_Housing_District":"No","District_Mapped":"Yes","Overlay_District":"No","Base_Density":0.040000000000000001,"FIPS6":7005,"GIS_ID":null,"Last_Update":"4/9/26","F1F_Allowance":"Permitted","F1F_Front_Setback":null,"F1F_Side_Setback":null,"F1F_Rear_Setback":null,"F1F_Frontage":null,"F1F_Max_Height":35,"F1F_Max_Stories":null,"F1F_Min_Lot_Size":25,"F1F_Max_Lot_Building_Coverage":null,"F1F_Max_Lot_Impervious_Coverage":null,"F1F_Min_Parking_Spaces":2,"F1F_Elderly_Housing_Only":null,"F1F_Affordable_Housing_Only":null,"F2F_Allowance":"Permitted","F2F_Front_Setback":null,"F2F_Side_Setback":null,"F2F_Rear_Setback":null,"F2F_Frontage":null,"F2F_Max_Density":null,"F2F_Max_Height":null,"F2F_Max_Stories":null,"F2F_Min_Lot_Size":null,"F2F_Max_Lot_Building_Coverage":null,"F2F_Max_Lot_Impervious_Coverage":null,"F2F_Min_Parking_Spaces_per_1BR":2,"F2F_Min_Parking_Spaces_per_mult_BR":2,"F2F_Elderly_Housing_Only":"No","F2F_Affordable_Housing_Only":"No","F3F_Allowance":"Prohibited","F3F_Front_Setback":null,"F3F_Side_Setback":null,"F3F_Rear_Setback":null,"F3F_Frontage":null,"F3F_Max_Density":null,"F3F_Max_Height":null,"F3F_Max_Stories":null,"F3F_Min_Lot_Size":null,"F3F_Max_Lot_Building_Coverage":null,"F3F_Max_Lot_Impervious_Coverage":null,"F3F_Min_Parking_Spaces_per_1BR":null,"F3F_Min_Parking_Spaces_per_mult_BR":null,"F3F_Affordable_Housing_Only":"No","F3F_Proximity_to_Public_Transit_Required":"No","F3F_Connection_to_Sewage_Water_Required":"No","F4F_Allowance":"Prohibited","F4F_Front_Setback":null,"F4F_Side_Setback":null,"F4F_Rear_Setback":null,"F4F_Frontage":null,"F1F_Max_Density":null,"F4F_Max_Density":null,"F4F_Max_Height":null,"F4F_Max_Stories":null,"F4F_Min_Lot_Size":null,"F4F_Max_Lot_Building_Coverage":null,"F4F_Max_Lot_Impervious_Coverage":null,"F4F_Min_Parking_Spaces_per_1BR":null,"F4F_Min_Parking_Spaces_per_mult_BR":null,"F3F_Elderly_Housing_Only":"No","F4F_Elderly_Housing_Only":"No","F4F_Affordable_Housing_Only":"No","F4F_Proximity_to_Public_Transit_Required":"No","F4F_Connection_to_Sewage_Water_Required":"No","ADU_Allowance":"Allowed/Conditional","ADU_Elderly_Housing_Only":"No","ADU_Max_Size_as_Percent_of_Primary_Strcture":30,"ADU_Max_Size_in_sq_ft":900,"ADU_Min_Lot_Size":null,"ADU_Max_Bedrooms":null,"ADU_Min_Parking_Spaces":1,"ADU_Owner_Occupancy_Required":"Yes","ADU_Renter_Occupancy_Prohibited":"No","ADU_Employee_or_Family_Occupancy_Required":"No","ADU_Restricted_to_Primary_Structure":"No","Affordable_Housing_Allowance":"Not Mentioned","Affordable_Housing_District":"No","Affordable_Housing_Elderly_Only":"No","Affordable_Housing_Min_Lot_Size":null,"Affordable_Housing_Max_Density":null,"Affordable_Housing_Min_Parking_Spaces_per_mult_BR":null,"Affordable_Housing_Max_Units_per_Building":null,"Affordable_Housing_Min_Parking_Spaces_per_1BR":null,"PRD_Allowance":"Public Hearing","PRD_Max_Density":null,"PRD_Max_Units":null,"PRD_Min_Lot_Size":null,"PRD_Mobile_or_Manufactured_Home_Park":"No","PUD_Allowance":"Yes","PUD_Required_with_Subdivision":"No","PUD_Requires_Land_Conservation":"Yes","PUD_Threshold_Number":4,"Notes":" Dwellings Required to Be In Approved Building Envelope. Must have setbacks of at least 150 ft from rivers, 100 ft from brooks/streams and 200ft from ponds","Shape_Length":0.56643160399229509,"Shape_Area":0.0012265010934851418}}]}