{"type":"FeatureCollection","features":[{"type":"Feature","id":12,"geometry":{"type":"Polygon","coordinates":[[[-72.705687367999985,44.473215224000057],[-72.706085363999989,44.47336159200006],[-72.706154796999954,44.473671247000027],[-72.706035932999953,44.474037318000057],[-72.706047588999979,44.474346542000035],[-72.706330571999956,44.474621078000041],[-72.706376300999978,44.474780316000079],[-72.706721820999974,44.475189446000059],[-72.710589951999964,44.476500522000038],[-72.711497839999936,44.476649303000045],[-72.714169552999977,44.476846394000063],[-72.714886530999934,44.477308939000068],[-72.715614948999985,44.477676264000081],[-72.716111714999954,44.477003319000062],[-72.716662280999969,44.477179875000047],[-72.717314902999988,44.476277703000051],[-72.718330793999939,44.476630402000069],[-72.718472068999972,44.47648965500008],[-72.719398192999961,44.476783175000037],[-72.719632478999984,44.476517240000078],[-72.719961010999953,44.476350118000028],[-72.720017647999953,44.476271608000047],[-72.720651465999936,44.47539301300003],[-72.719955322999965,44.47514856500004],[-72.71995312599995,44.475096145000066],[-72.720261340999969,44.474637810000047],[-72.720524532999946,44.474004063000052],[-72.720578576999969,44.473873929000035],[-72.720141928999965,44.47369646900006],[-72.720097020999958,44.473556079000048],[-72.719610467999985,44.473346683000045],[-72.718932740999946,44.473214086000041],[-72.718563845999938,44.473190748000036],[-72.717233466999971,44.47338551100006],[-72.716261859999975,44.473627670000042],[-72.715613164999979,44.473564775000057],[-72.713160805999962,44.472624148000079],[-72.712858101999984,44.472440507000044],[-72.712600608999935,44.472376865000058],[-72.712332468999989,44.472409565000078],[-72.711796576999973,44.472690808000038],[-72.711606564999954,44.472715067000081],[-72.710999125999933,44.472435377000068],[-72.710809825999945,44.47222058300008],[-72.710606005999978,44.472117746000038],[-72.708944816999974,44.471622733000061],[-72.708321141999988,44.471519675000081],[-72.708176361999961,44.471672086000069],[-72.707313929999941,44.472135159000061],[-72.707024950999937,44.472383733000072],[-72.706532406999941,44.472371870000075],[-72.705948918999979,44.472424205000038],[-72.705877229999942,44.472641019000037],[-72.705687367999985,44.473215224000057]]]},"properties":{"OBJECTID":12,"OBJECT_ID":602,"County":"Lamoille","RPC":"LCPC","Municipal_Name":"Stowe","GEO_ID":"5001570525","District_Name":"Mountain Road Village","Abbreviated_District_Name":"Mrv","District_Type":"Mixed with Residential","Bylaw_Date":"2024-02-21","Elderly_Housing_District":"No","District_Mapped":"Yes","Overlay_District":"No","Base_Density":null,"FIPS6":null,"GIS_ID":null,"Last_Update":"5/4/2026","F1F_Allowance":"Permitted","F1F_Front_Setback":20,"F1F_Side_Setback":10,"F1F_Rear_Setback":20,"F1F_Frontage":null,"F1F_Max_Height":28,"F1F_Max_Stories":null,"F1F_Min_Lot_Size":0.46000000000000002,"F1F_Max_Lot_Building_Coverage":20,"F1F_Max_Lot_Impervious_Coverage":null,"F1F_Min_Parking_Spaces":2,"F1F_Elderly_Housing_Only":null,"F1F_Affordable_Housing_Only":null,"F2F_Allowance":"Permitted","F2F_Front_Setback":20,"F2F_Side_Setback":10,"F2F_Rear_Setback":20,"F2F_Frontage":null,"F2F_Max_Density":4.3600000000000003,"F2F_Max_Height":28,"F2F_Max_Stories":null,"F2F_Min_Lot_Size":0.46000000000000002,"F2F_Max_Lot_Building_Coverage":20,"F2F_Max_Lot_Impervious_Coverage":null,"F2F_Min_Parking_Spaces_per_1BR":2,"F2F_Min_Parking_Spaces_per_mult_BR":2,"F2F_Elderly_Housing_Only":"No","F2F_Affordable_Housing_Only":"No","F3F_Allowance":"Public Hearing","F3F_Front_Setback":20,"F3F_Side_Setback":10,"F3F_Rear_Setback":20,"F3F_Frontage":null,"F3F_Max_Density":6.2199999999999998,"F3F_Max_Height":28,"F3F_Max_Stories":null,"F3F_Min_Lot_Size":0.46000000000000002,"F3F_Max_Lot_Building_Coverage":20,"F3F_Max_Lot_Impervious_Coverage":null,"F3F_Min_Parking_Spaces_per_1BR":2,"F3F_Min_Parking_Spaces_per_mult_BR":2,"F3F_Affordable_Housing_Only":"No","F3F_Proximity_to_Public_Transit_Required":"No","F3F_Connection_to_Sewage_Water_Required":"No","F4F_Allowance":"Public Hearing","F4F_Front_Setback":20,"F4F_Side_Setback":10,"F4F_Rear_Setback":20,"F4F_Frontage":null,"F1F_Max_Density":null,"F4F_Max_Density":6.2199999999999998,"F4F_Max_Height":28,"F4F_Max_Stories":null,"F4F_Min_Lot_Size":0.46000000000000002,"F4F_Max_Lot_Building_Coverage":20,"F4F_Max_Lot_Impervious_Coverage":null,"F4F_Min_Parking_Spaces_per_1BR":2,"F4F_Min_Parking_Spaces_per_mult_BR":2,"F3F_Elderly_Housing_Only":"No","F4F_Elderly_Housing_Only":"No","F4F_Affordable_Housing_Only":"No","F4F_Proximity_to_Public_Transit_Required":"No","F4F_Connection_to_Sewage_Water_Required":"No","ADU_Allowance":"Allowed/Conditional","ADU_Elderly_Housing_Only":"No","ADU_Max_Size_as_Percent_of_Primary_Strcture":30,"ADU_Max_Size_in_sq_ft":1200,"ADU_Min_Lot_Size":null,"ADU_Max_Bedrooms":2,"ADU_Min_Parking_Spaces":2,"ADU_Owner_Occupancy_Required":"No","ADU_Renter_Occupancy_Prohibited":"No","ADU_Employee_or_Family_Occupancy_Required":"No","ADU_Restricted_to_Primary_Structure":"No","Affordable_Housing_Allowance":"Allowed/Conditional","Affordable_Housing_District":"No","Affordable_Housing_Elderly_Only":"No","Affordable_Housing_Min_Lot_Size":null,"Affordable_Housing_Max_Density":9.3300000000000001,"Affordable_Housing_Min_Parking_Spaces_per_mult_BR":2,"Affordable_Housing_Max_Units_per_Building":null,"Affordable_Housing_Min_Parking_Spaces_per_1BR":2,"PRD_Allowance":"Public Hearing","PRD_Max_Density":9.3300000000000001,"PRD_Max_Units":null,"PRD_Min_Lot_Size":3,"PRD_Mobile_or_Manufactured_Home_Park":"No","PUD_Allowance":"Yes","PUD_Required_with_Subdivision":"No","PUD_Requires_Land_Conservation":"Yes","PUD_Threshold_Number":null,"Notes":"None","Shape_Length":0.037280595972133491,"Shape_Area":5.3077068848371842e-05}}]}