{"type":"FeatureCollection","features":[{"type":"Feature","id":1,"geometry":{"type":"Polygon","coordinates":[[[-73.035721815999977,43.82726690100003],[-73.035278726999934,43.827673169000036],[-73.03497086699997,43.828481562000036],[-73.035038872999962,43.828613861000065],[-73.035425045999943,43.828873066000028],[-73.035796982999955,43.82901743900004],[-73.036303816999975,43.829387316000066],[-73.037865866999937,43.830057402000079],[-73.038973336999959,43.830594182000027],[-73.040247162999947,43.831092618000071],[-73.041401224999959,43.83132060500003],[-73.041783165999959,43.83132174900004],[-73.04183812399998,43.832242913000073],[-73.042245968999964,43.832830087000048],[-73.042524251999964,43.832968273000063],[-73.042791586999954,43.833012710000048],[-73.043481522999969,43.832956553000031],[-73.045887635999975,43.83311075000006],[-73.046506511999951,43.833187250000037],[-73.04661009299997,43.833339763000026],[-73.046197961999951,43.834162183000046],[-73.045702043999938,43.835640911000041],[-73.04544365299995,43.837859355000035],[-73.045557676999977,43.838517955000043],[-73.045629760999987,43.83973351800006],[-73.045730228999957,43.840012614000045],[-73.046050807999961,43.840480092000064],[-73.046540208999943,43.841902640000058],[-73.046754917999976,43.842179642000076],[-73.047454937999987,43.84372507300003],[-73.047598406999953,43.844157392000056],[-73.047861993999959,43.84622562900006],[-73.047872842999936,43.846225324000045],[-73.051403457999982,43.84612614200006],[-73.05331831899997,43.84605623300007],[-73.054965721999963,43.845993455000041],[-73.05709821499994,43.845912193000061],[-73.057287981999934,43.845904962000077],[-73.073804287999963,43.845275581000067],[-73.073899086999972,43.842147667000063],[-73.073772282999983,43.840716245000067],[-73.073577480999973,43.840136410000071],[-73.073642019999966,43.839207071000033],[-73.073440498999958,43.838655115000051],[-73.073399242999983,43.837471480000033],[-73.073560277999945,43.837083088000043],[-73.073741402999985,43.836913229000061],[-73.074262633999979,43.836739935000026],[-73.075009338999962,43.836362519000033],[-73.075311291999981,43.836285480000072],[-73.075727605999987,43.836261586000035],[-73.078145419999942,43.83563312800004],[-73.079076432999955,43.835052859000029],[-73.079467749999935,43.834755074000043],[-73.079699741999946,43.83443649000003],[-73.079760000999954,43.834198937000053],[-73.079699135999988,43.833330137000075],[-73.079582981999977,43.833051430000069],[-73.078920125999957,43.832127460000038],[-73.078532398999982,43.831688822000046],[-73.078333418999989,43.831643280000037],[-73.078060201999961,43.831675741000026],[-73.076957999999934,43.832087177000062],[-73.076248810999971,43.832237857000052],[-73.07473151399995,43.832111756000074],[-73.074054101999934,43.832295030000068],[-73.073244929999987,43.832392752000032],[-73.072745130999976,43.832581878000042],[-73.072106413999961,43.832017343000075],[-73.071792182999957,43.831946210000069],[-73.070933446999959,43.832143310000049],[-73.070657940999979,43.832099262000042],[-73.069371482999941,43.831159080000077],[-73.068931597999949,43.830743172000041],[-73.068099780999944,43.830213608000065],[-73.067673583999976,43.829764717000046],[-73.065482704999965,43.828819560000056],[-73.064622952999969,43.828576579000071],[-73.064381361999949,43.828656435000028],[-73.063627253999982,43.829657473000054],[-73.063016001999983,43.830225126000073],[-73.062892190999946,43.830479297000068],[-73.062053588999959,43.830511691000027],[-73.062358991999986,43.829603390000045],[-73.063114510999981,43.828801299000077],[-73.063696213999947,43.82786139600006],[-73.063867469999934,43.826986379000061],[-73.063733434999961,43.826325785000051],[-73.063522109999951,43.826039094000066],[-73.063257045999933,43.825862359000041],[-73.062983900999939,43.825735167000062],[-73.062285651999957,43.825640022000073],[-73.061033361999989,43.825207964000072],[-73.059662260999971,43.824323919000051],[-73.057309925999959,43.823652503000062],[-73.055694186999972,43.823021195000081],[-73.054168242999936,43.822770121000076],[-73.052353595999989,43.822595240000055],[-73.049102219999952,43.822488558000032],[-73.046755171999962,43.822290409000061],[-73.045418398999971,43.822116786000038],[-73.043679066999971,43.822145608000028],[-73.042801511999983,43.82241659400006],[-73.042734770999971,43.822482348000051],[-73.042058500999985,43.822548905000076],[-73.041503329999955,43.822673887000064],[-73.040963320999936,43.822843516000034],[-73.040562418999968,43.823055364000027],[-73.03991115599996,43.823644334000051],[-73.039517165999939,43.823932921000051],[-73.039183113999968,43.824232898000048],[-73.038558534999936,43.824606728000049],[-73.037233482999966,43.825784443000032],[-73.036158334999982,43.826974719000077],[-73.035721815999977,43.82726690100003]]]},"properties":{"District_Name":"Aquifer Protection Area","OBJECTID":1,"OBJECTID_1":1,"OBJECT_ID":1053,"County":"Rutland","RPC":"RRPC","Municipal_Name":"Brandon","GEO_ID":"5002107750","Abbreviated_District_Name":"Apa","District_Type":"Mixed with Residential","Bylaw_Date":"2024-11-05","Elderly_Housing_District":"No","District_Mapped":"Yes","Overlay_District":"Yes","Base_Density":null,"FIPS6":21010,"GIS_ID":null,"Last_Update":"20260319","F1F_Allowance":null,"F1F_Front_Setback":null,"F1F_Side_Setback":null,"F1F_Rear_Setback":30,"F1F_Frontage":null,"F1F_Max_Height":36,"F1F_Max_Stories":null,"F1F_Min_Lot_Size":null,"F1F_Max_Lot_Building_Coverage":null,"F1F_Max_Lot_Impervious_Coverage":25,"F1F_Min_Parking_Spaces":null,"F1F_Elderly_Housing_Only":null,"F1F_Affordable_Housing_Only":null,"F2F_Allowance":null,"F2F_Front_Setback":null,"F2F_Side_Setback":null,"F2F_Rear_Setback":30,"F2F_Frontage":null,"F2F_Max_Density":null,"F2F_Max_Height":36,"F2F_Max_Stories":null,"F2F_Min_Lot_Size":0.5,"F2F_Max_Lot_Building_Coverage":null,"F2F_Max_Lot_Impervious_Coverage":25,"F2F_Min_Parking_Spaces_per_1BR":null,"F2F_Min_Parking_Spaces_per_mult_BR":null,"F2F_Elderly_Housing_Only":"No","F2F_Affordable_Housing_Only":"No","F3F_Allowance":null,"F3F_Front_Setback":null,"F3F_Side_Setback":null,"F3F_Rear_Setback":30,"F3F_Frontage":null,"F3F_Max_Density":null,"F3F_Max_Height":36,"F3F_Max_Stories":null,"F3F_Min_Lot_Size":null,"F3F_Max_Lot_Building_Coverage":null,"F3F_Max_Lot_Impervious_Coverage":25,"F3F_Min_Parking_Spaces_per_1BR":null,"F3F_Min_Parking_Spaces_per_mult_BR":null,"F3F_Affordable_Housing_Only":"No","F3F_Proximity_to_Public_Transit_Required":"No","F3F_Connection_to_Sewage_Water_Required":"No","F4F_Allowance":null,"F4F_Front_Setback":null,"F4F_Side_Setback":null,"F4F_Rear_Setback":30,"F4F_Frontage":null,"F1F_Max_Density":null,"F4F_Max_Density":null,"F4F_Max_Height":36,"F4F_Max_Stories":null,"F4F_Min_Lot_Size":null,"F4F_Max_Lot_Building_Coverage":null,"F4F_Max_Lot_Impervious_Coverage":25,"F4F_Min_Parking_Spaces_per_1BR":null,"F4F_Min_Parking_Spaces_per_mult_BR":null,"F3F_Elderly_Housing_Only":"No","F4F_Elderly_Housing_Only":"No","F4F_Affordable_Housing_Only":"No","F4F_Proximity_to_Public_Transit_Required":"No","F4F_Connection_to_Sewage_Water_Required":"No","ADU_Allowance":null,"ADU_Elderly_Housing_Only":"No","ADU_Max_Size_as_Percent_of_Primary_Strcture":30,"ADU_Max_Size_in_sq_ft":null,"ADU_Min_Lot_Size":null,"ADU_Max_Bedrooms":null,"ADU_Min_Parking_Spaces":null,"ADU_Owner_Occupancy_Required":"Yes","ADU_Renter_Occupancy_Prohibited":"No","ADU_Employee_or_Family_Occupancy_Required":"No","ADU_Restricted_to_Primary_Structure":"No","Affordable_Housing_Allowance":"Not Mentioned","Affordable_Housing_District":"No","Affordable_Housing_Elderly_Only":"No","Affordable_Housing_Min_Lot_Size":null,"Affordable_Housing_Max_Density":null,"Affordable_Housing_Min_Parking_Spaces_per_mult_BR":null,"Affordable_Housing_Max_Units_per_Building":null,"Affordable_Housing_Min_Parking_Spaces_per_1BR":null,"PRD_Allowance":"Not Mentioned","PRD_Max_Density":null,"PRD_Max_Units":null,"PRD_Min_Lot_Size":null,"PRD_Mobile_or_Manufactured_Home_Park":"No","PUD_Allowance":"Not Mentioned ","PUD_Required_with_Subdivision":null,"PUD_Requires_Land_Conservation":null,"PUD_Threshold_Number":null,"Notes":" Minimum Setbacks In Neighborhood Residential Districts:\r\n\r\nPrimary Structure From Town Or State Right Of Way: 20 Feet\r\nPrimary Structure From Private Right Of Way Or Private Road: 5 Feet\r\nPrimary Structure From Other Lot Lines: 20 Feet\r\nDriveway/Parking Lot From Other Lot Lines: 5 Feet ","Shape_Length":0.12707109995389798,"Shape_Area":0.00064432130478714929}},{"type":"Feature","id":2,"geometry":{"type":"Polygon","coordinates":[[[-73.087378549999983,43.801191697000036],[-73.087705507999942,43.80132635800004],[-73.088008439999953,43.800684759000035],[-73.087994329999958,43.800487495000027],[-73.088519041999973,43.800056333000043],[-73.089128072999983,43.800348904000032],[-73.089177734999964,43.800369219000061],[-73.089379494999946,43.800452844000063],[-73.089331716999936,43.800515835000056],[-73.088974359999952,43.800980118000041],[-73.089661374999935,43.801029252000035],[-73.089830665999955,43.800374222000073],[-73.090118023999935,43.800415917000066],[-73.090138305999972,43.800277025000071],[-73.090199127999938,43.799791686000049],[-73.090465613999982,43.799805809000077],[-73.090552189999983,43.799399521000055],[-73.090575226999988,43.799367478000079],[-73.089864286999955,43.799312659000066],[-73.089303949999987,43.79909015100003],[-73.089201350999986,43.798999289000051],[-73.089104688999953,43.798645062000048],[-73.089208492999944,43.798388340000031],[-73.089209392999976,43.798386165000068],[-73.090048240999977,43.798250770000038],[-73.090696079999987,43.797549487000026],[-73.090099145999943,43.79674818400008],[-73.088682594999966,43.79720272600008],[-73.087715931999981,43.797209920000057],[-73.087374308999983,43.797142490000056],[-73.087300266999989,43.797189218000028],[-73.086865681999939,43.79689847700007],[-73.086116585999946,43.79756962600004],[-73.085834546999934,43.797914921000029],[-73.085622041999954,43.79782558200003],[-73.085236282999972,43.797989827000038],[-73.085286708999945,43.798201385000027],[-73.085513667999976,43.798537883000051],[-73.085685372999933,43.799397447000047],[-73.087779436999938,43.799165206000055],[-73.087637808999943,43.799302629000067],[-73.087541803999954,43.799747419000028],[-73.087577869999961,43.799868785000058],[-73.087477029999945,43.800126621000061],[-73.087313545999962,43.800542445000076],[-73.087701117999984,43.800750299000072],[-73.087378549999983,43.801191697000036]]]},"properties":{"District_Name":"Central Business District","OBJECTID":2,"OBJECTID_1":2,"OBJECT_ID":1054,"County":"Rutland","RPC":"RRPC","Municipal_Name":"Brandon","GEO_ID":"5002107750","Abbreviated_District_Name":"Cbd","District_Type":"Mixed with Residential","Bylaw_Date":"2024-11-05","Elderly_Housing_District":"No","District_Mapped":"Yes","Overlay_District":"No","Base_Density":null,"FIPS6":21010,"GIS_ID":null,"Last_Update":"20260319","F1F_Allowance":"Permitted","F1F_Front_Setback":null,"F1F_Side_Setback":null,"F1F_Rear_Setback":null,"F1F_Frontage":null,"F1F_Max_Height":36,"F1F_Max_Stories":null,"F1F_Min_Lot_Size":0.02,"F1F_Max_Lot_Building_Coverage":null,"F1F_Max_Lot_Impervious_Coverage":100,"F1F_Min_Parking_Spaces":null,"F1F_Elderly_Housing_Only":null,"F1F_Affordable_Housing_Only":null,"F2F_Allowance":"Permitted","F2F_Front_Setback":null,"F2F_Side_Setback":null,"F2F_Rear_Setback":null,"F2F_Frontage":null,"F2F_Max_Density":null,"F2F_Max_Height":36,"F2F_Max_Stories":null,"F2F_Min_Lot_Size":0.02,"F2F_Max_Lot_Building_Coverage":null,"F2F_Max_Lot_Impervious_Coverage":100,"F2F_Min_Parking_Spaces_per_1BR":null,"F2F_Min_Parking_Spaces_per_mult_BR":null,"F2F_Elderly_Housing_Only":"No","F2F_Affordable_Housing_Only":"No","F3F_Allowance":"Permitted","F3F_Front_Setback":null,"F3F_Side_Setback":null,"F3F_Rear_Setback":null,"F3F_Frontage":null,"F3F_Max_Density":null,"F3F_Max_Height":36,"F3F_Max_Stories":null,"F3F_Min_Lot_Size":0.02,"F3F_Max_Lot_Building_Coverage":null,"F3F_Max_Lot_Impervious_Coverage":100,"F3F_Min_Parking_Spaces_per_1BR":null,"F3F_Min_Parking_Spaces_per_mult_BR":null,"F3F_Affordable_Housing_Only":"No","F3F_Proximity_to_Public_Transit_Required":"No","F3F_Connection_to_Sewage_Water_Required":"Yes","F4F_Allowance":"Permitted","F4F_Front_Setback":null,"F4F_Side_Setback":null,"F4F_Rear_Setback":null,"F4F_Frontage":null,"F1F_Max_Density":null,"F4F_Max_Density":null,"F4F_Max_Height":36,"F4F_Max_Stories":null,"F4F_Min_Lot_Size":0.02,"F4F_Max_Lot_Building_Coverage":null,"F4F_Max_Lot_Impervious_Coverage":100,"F4F_Min_Parking_Spaces_per_1BR":null,"F4F_Min_Parking_Spaces_per_mult_BR":null,"F3F_Elderly_Housing_Only":"No","F4F_Elderly_Housing_Only":"No","F4F_Affordable_Housing_Only":"No","F4F_Proximity_to_Public_Transit_Required":"No","F4F_Connection_to_Sewage_Water_Required":"Yes","ADU_Allowance":"Permitted","ADU_Elderly_Housing_Only":"No","ADU_Max_Size_as_Percent_of_Primary_Strcture":30,"ADU_Max_Size_in_sq_ft":null,"ADU_Min_Lot_Size":null,"ADU_Max_Bedrooms":null,"ADU_Min_Parking_Spaces":null,"ADU_Owner_Occupancy_Required":"Yes","ADU_Renter_Occupancy_Prohibited":"No","ADU_Employee_or_Family_Occupancy_Required":"No","ADU_Restricted_to_Primary_Structure":"No","Affordable_Housing_Allowance":"Not Mentioned","Affordable_Housing_District":"No","Affordable_Housing_Elderly_Only":"No","Affordable_Housing_Min_Lot_Size":null,"Affordable_Housing_Max_Density":null,"Affordable_Housing_Min_Parking_Spaces_per_mult_BR":null,"Affordable_Housing_Max_Units_per_Building":null,"Affordable_Housing_Min_Parking_Spaces_per_1BR":null,"PRD_Allowance":"Not Mentioned","PRD_Max_Density":null,"PRD_Max_Units":null,"PRD_Min_Lot_Size":null,"PRD_Mobile_or_Manufactured_Home_Park":"No","PUD_Allowance":"Not Mentioned","PUD_Required_with_Subdivision":null,"PUD_Requires_Land_Conservation":null,"PUD_Threshold_Number":null,"Notes":" Dwelling Units In The Central Business District\r\n(1) Are Allowed As Conditional Uses On All Non-Street-Level Floors;\r\n(2) Are Allowed As Conditional Uses At The Street Level Provided That No More Than 50% Of The Floor\r\nArea At Street Level Is Used For Residential Purposes And That Storefronts Are Maintained.\r\n\r\nMaximum Number Of Allowable Dwelling Units Per Structure Shall not Exceed The Rounded-Up Result\r\nObtained By Dividing The Total Number Of Square Feet Devoted to Dwelling Units And Associated Common\r\nAreas By 800. (See Section 324 For Density Exception.)\r\n\r\nAdus Require Sufficient Wastewater Capacity ","Shape_Length":0.023073078839316828,"Shape_Area":1.2812335664258379e-05}},{"type":"Feature","id":3,"geometry":{"type":"MultiPolygon","coordinates":[[[[-73.056862236999962,43.770785110000077],[-73.051022255999953,43.771381506000068],[-73.050916685999937,43.771456761000081],[-73.051504241999965,43.774861729000065],[-73.051461337999967,43.776263276000066],[-73.051244661999988,43.777081703000079],[-73.051039273999947,43.777294815000062],[-73.050840018999963,43.777914740000028],[-73.050945633999959,43.778593769000054],[-73.056760700999973,43.778311324000072],[-73.058206069999983,43.780141134000075],[-73.058402263999938,43.780014570000048],[-73.058710927999982,43.779700226000045],[-73.059073108999939,43.779006742000036],[-73.059172578999949,43.778732331000072],[-73.059178159999988,43.778161511000064],[-73.058977597999956,43.777513408000061],[-73.058752101999971,43.777205251000055],[-73.057090507999987,43.775682015000029],[-73.056995788999984,43.775516929000048],[-73.056944383999962,43.775084960000072],[-73.057070946999943,43.774425699000062],[-73.057118847999959,43.773113375000037],[-73.057067555999936,43.772221141000045],[-73.056862236999962,43.770785110000077]]],[[[-73.069982554999967,43.784082347000037],[-73.069779920999963,43.784151967000071],[-73.069602260999943,43.784326425000074],[-73.068788853999934,43.784832793000078],[-73.068725127999983,43.784908365000035],[-73.068781297999976,43.785033251000073],[-73.06867320799995,43.785467770000025],[-73.068307476999962,43.785629504000042],[-73.067903919999935,43.785600807000037],[-73.06784007899995,43.785668031000057],[-73.067571853999937,43.78572925800006],[-73.067412488999935,43.786137462000056],[-73.066009307999934,43.785720728000058],[-73.065807953999979,43.785877409000079],[-73.066257322999945,43.787599195000041],[-73.071421789999988,43.788920862000055],[-73.074947923999957,43.78967046300005],[-73.075231727999949,43.789806360000057],[-73.075474683999971,43.79003085800008],[-73.076219660999982,43.791446785000062],[-73.076396022999973,43.791973883000026],[-73.076472968999951,43.793016226000077],[-73.076647678999961,43.79348735800005],[-73.077056886999969,43.794257645000073],[-73.077546216999963,43.794797378000055],[-73.079532277999988,43.796532785000068],[-73.079482909999967,43.794237112000076],[-73.079954801999975,43.793777059000035],[-73.081666373999951,43.79325452900008],[-73.081104597999968,43.792740078000065],[-73.080973384999936,43.792476682000029],[-73.080947979999962,43.792172501000039],[-73.080947900999945,43.791973769000037],[-73.080736742999989,43.790911617000063],[-73.079822742999966,43.789025897000045],[-73.079312383999934,43.78823509800003],[-73.078447412999935,43.787475889000063],[-73.077399368999977,43.786880039000039],[-73.076664474999973,43.78662126100005],[-73.072822136999946,43.785788559000025],[-73.070740583999964,43.785266666000041],[-73.070880845999966,43.785156997000058],[-73.070999356999948,43.785089491000065],[-73.071105612999986,43.784906291000027],[-73.07110556799995,43.784696177000058],[-73.070823985999937,43.784214441000074],[-73.070564608999973,43.784117241000047],[-73.069982554999967,43.784082347000037]]],[[[-73.091669615999933,43.799217603000045],[-73.090748861999941,43.799220490000039],[-73.090797759999987,43.799367768000025],[-73.090609031999975,43.799358680000068],[-73.090575226999988,43.799367478000079],[-73.090552189999983,43.799399521000055],[-73.090514540999948,43.799570192000033],[-73.090465557999948,43.799800063000077],[-73.090401136999958,43.799796650000076],[-73.090199127999938,43.799791686000049],[-73.090138305999972,43.800277025000071],[-73.091042400999982,43.800334476000046],[-73.092026033999957,43.800523136000038],[-73.092679792999945,43.800806867000063],[-73.093368622999947,43.801405338000052],[-73.095253860999946,43.803254839000033],[-73.100850371999968,43.809675065000079],[-73.101608436999982,43.810720486000037],[-73.10179721999998,43.811379100000067],[-73.101947010999936,43.813466532000064],[-73.10194712599997,43.813468209000064],[-73.102024283999981,43.814591914000061],[-73.10584019199996,43.815286825000044],[-73.109124966999957,43.81597651800007],[-73.110787585999958,43.816503465000039],[-73.111139861999959,43.816901103000077],[-73.112048074999961,43.817585183000062],[-73.113163964999956,43.818557886000065],[-73.113242313999933,43.818508812000061],[-73.114855917999989,43.818323440000029],[-73.119781485999965,43.818005375000041],[-73.119444912999938,43.814438006000046],[-73.114206218999982,43.814701428000035],[-73.111221321999949,43.811770104000061],[-73.108982913999967,43.809969445000036],[-73.104517131999955,43.806762809000077],[-73.103139299999953,43.806027519000054],[-73.100805217999948,43.804521967000028],[-73.09951373499996,43.803350636000062],[-73.097909611999967,43.801394175000041],[-73.095793016999949,43.802139455000031],[-73.094274825999946,43.800585747000071],[-73.093945015999964,43.800311635000071],[-73.093425727999943,43.800079628000049],[-73.092948536999984,43.799948420000078],[-73.093181246999961,43.799523399000066],[-73.092558289999943,43.799369462000072],[-73.092048016999968,43.799249895000059],[-73.091669615999933,43.799217603000045]]]]},"properties":{"District_Name":"Mixed Use","OBJECTID":3,"OBJECTID_1":3,"OBJECT_ID":1055,"County":"Rutland","RPC":"RRPC","Municipal_Name":"Brandon","GEO_ID":"5002107750","Abbreviated_District_Name":"Hdmu","District_Type":"Mixed with Residential","Bylaw_Date":"2024-11-05","Elderly_Housing_District":"No","District_Mapped":"Yes","Overlay_District":"No","Base_Density":null,"FIPS6":21010,"GIS_ID":null,"Last_Update":"20260319","F1F_Allowance":"Permitted","F1F_Front_Setback":null,"F1F_Side_Setback":null,"F1F_Rear_Setback":null,"F1F_Frontage":null,"F1F_Max_Height":36,"F1F_Max_Stories":null,"F1F_Min_Lot_Size":null,"F1F_Max_Lot_Building_Coverage":null,"F1F_Max_Lot_Impervious_Coverage":40,"F1F_Min_Parking_Spaces":null,"F1F_Elderly_Housing_Only":null,"F1F_Affordable_Housing_Only":null,"F2F_Allowance":"Permitted","F2F_Front_Setback":null,"F2F_Side_Setback":null,"F2F_Rear_Setback":null,"F2F_Frontage":null,"F2F_Max_Density":null,"F2F_Max_Height":36,"F2F_Max_Stories":null,"F2F_Min_Lot_Size":null,"F2F_Max_Lot_Building_Coverage":null,"F2F_Max_Lot_Impervious_Coverage":40,"F2F_Min_Parking_Spaces_per_1BR":null,"F2F_Min_Parking_Spaces_per_mult_BR":null,"F2F_Elderly_Housing_Only":"No","F2F_Affordable_Housing_Only":"No","F3F_Allowance":"Permitted","F3F_Front_Setback":null,"F3F_Side_Setback":null,"F3F_Rear_Setback":null,"F3F_Frontage":null,"F3F_Max_Density":null,"F3F_Max_Height":36,"F3F_Max_Stories":null,"F3F_Min_Lot_Size":null,"F3F_Max_Lot_Building_Coverage":null,"F3F_Max_Lot_Impervious_Coverage":40,"F3F_Min_Parking_Spaces_per_1BR":null,"F3F_Min_Parking_Spaces_per_mult_BR":null,"F3F_Affordable_Housing_Only":"No","F3F_Proximity_to_Public_Transit_Required":"No","F3F_Connection_to_Sewage_Water_Required":"No","F4F_Allowance":"Permitted","F4F_Front_Setback":null,"F4F_Side_Setback":null,"F4F_Rear_Setback":null,"F4F_Frontage":null,"F1F_Max_Density":null,"F4F_Max_Density":null,"F4F_Max_Height":36,"F4F_Max_Stories":null,"F4F_Min_Lot_Size":null,"F4F_Max_Lot_Building_Coverage":null,"F4F_Max_Lot_Impervious_Coverage":40,"F4F_Min_Parking_Spaces_per_1BR":null,"F4F_Min_Parking_Spaces_per_mult_BR":null,"F3F_Elderly_Housing_Only":"No","F4F_Elderly_Housing_Only":"No","F4F_Affordable_Housing_Only":"No","F4F_Proximity_to_Public_Transit_Required":"No","F4F_Connection_to_Sewage_Water_Required":"No","ADU_Allowance":"Permitted","ADU_Elderly_Housing_Only":"No","ADU_Max_Size_as_Percent_of_Primary_Strcture":30,"ADU_Max_Size_in_sq_ft":null,"ADU_Min_Lot_Size":null,"ADU_Max_Bedrooms":null,"ADU_Min_Parking_Spaces":null,"ADU_Owner_Occupancy_Required":"Yes","ADU_Renter_Occupancy_Prohibited":"No","ADU_Employee_or_Family_Occupancy_Required":"No","ADU_Restricted_to_Primary_Structure":"No","Affordable_Housing_Allowance":"Not Mentioned","Affordable_Housing_District":"No","Affordable_Housing_Elderly_Only":"No","Affordable_Housing_Min_Lot_Size":null,"Affordable_Housing_Max_Density":null,"Affordable_Housing_Min_Parking_Spaces_per_mult_BR":null,"Affordable_Housing_Max_Units_per_Building":null,"Affordable_Housing_Min_Parking_Spaces_per_1BR":null,"PRD_Allowance":"Not Mentioned","PRD_Max_Density":null,"PRD_Max_Units":null,"PRD_Min_Lot_Size":null,"PRD_Mobile_or_Manufactured_Home_Park":"No","PUD_Allowance":"Not Mentioned","PUD_Required_with_Subdivision":null,"PUD_Requires_Land_Conservation":null,"PUD_Threshold_Number":null,"Notes":"Setbacks Based On Table On Page 13 Of Bylaws\r\n- not Specified Which Direction The Setbacks Apply\r\n\r\nMinimum Acres Per Dwelling Unit Is 1/5 Acre on public wastewater disposal. Private wastewater disposal: two acres. \r\n  ","Shape_Length":0.15771611719302839,"Shape_Area":0.00024937272756368691}},{"type":"Feature","id":4,"geometry":{"type":"MultiPolygon","coordinates":[[[[-73.096212751999985,43.799708145000068],[-73.096303836999937,43.799961146000044],[-73.09634323299997,43.800522847000025],[-73.09635101899994,43.800593087000038],[-73.095870498999943,43.800718154000037],[-73.095870446999982,43.801015001000053],[-73.096718712999973,43.801808333000054],[-73.098290554999949,43.801261711000052],[-73.098312877999945,43.801240101000076],[-73.098528747999978,43.801031076000072],[-73.098587270999985,43.800961494000035],[-73.098766784999953,43.800750380000068],[-73.098981550999952,43.80049370100005],[-73.099236647999987,43.800483632000066],[-73.099205396999935,43.800261047000049],[-73.099209976999987,43.800256579000063],[-73.099237465999977,43.800221512000064],[-73.099670968999988,43.799669083000026],[-73.099428023999963,43.798988564000069],[-73.098172170999987,43.798907401000065],[-73.095950139999957,43.79913274200004],[-73.095923806999963,43.798988973000064],[-73.095923788999983,43.798988906000034],[-73.095431636999933,43.798990977000074],[-73.095434386999955,43.79947506700006],[-73.09544888299996,43.799474064000037],[-73.096052666999981,43.799433227000065],[-73.096212751999985,43.799708145000068]]],[[[-73.077180503999955,43.80393444300006],[-73.075075583999933,43.807778296000038],[-73.074434460999953,43.808664219000036],[-73.074014886999976,43.808717841000032],[-73.073469714999987,43.808882240000059],[-73.071662568999955,43.809684012000048],[-73.070433398999967,43.810576085000037],[-73.070063403999939,43.811004427000057],[-73.069543260999978,43.811884072000055],[-73.069401299999981,43.812259429000051],[-73.06689860299997,43.814516848000039],[-73.063568822999969,43.815314164000029],[-73.06283149099994,43.815573610000058],[-73.062363176999952,43.815837499000054],[-73.061351085999945,43.816670953000028],[-73.054788315999986,43.822868520000043],[-73.054770309999981,43.822899705000054],[-73.054741964999948,43.822957644000041],[-73.05402076699994,43.824413008000079],[-73.054099791999988,43.824970067000038],[-73.052562461999969,43.826845845000037],[-73.052219331999936,43.826678152000056],[-73.05211262499995,43.82679031400005],[-73.052298489999941,43.826937066000028],[-73.051401046999956,43.827742369000077],[-73.051968546999944,43.828016829000035],[-73.052119979999986,43.828242528000033],[-73.052607058999968,43.828450314000065],[-73.052322206999975,43.828548647000048],[-73.052457625999978,43.829699891000075],[-73.051538728999958,43.829980932000069],[-73.050723810999955,43.829802511000025],[-73.050311296999951,43.830144613000073],[-73.05032082799994,43.830465643000025],[-73.049618661999943,43.83110589100005],[-73.049635409999951,43.831331615000067],[-73.049887948999981,43.831560354000032],[-73.04992757399998,43.831952103000049],[-73.050020910999933,43.832059233000052],[-73.050627935999955,43.831856741000081],[-73.051435076999951,43.831691602000035],[-73.051516770999967,43.831873905000066],[-73.052923969999938,43.831536262000043],[-73.053121843999975,43.831860946000063],[-73.054248839999957,43.831317553000076],[-73.054282563999948,43.831591787000036],[-73.054769400999987,43.831589128000076],[-73.054613878999987,43.831979485000033],[-73.054324935999944,43.833004299000038],[-73.053198262999956,43.833587841000053],[-73.052795640999989,43.834111381000071],[-73.052795740999954,43.835344668000062],[-73.053459359999977,43.835495242000036],[-73.053541636999967,43.835378800000058],[-73.054520388999947,43.835283034000042],[-73.054923342999984,43.836783526000033],[-73.055158610999968,43.838594749000038],[-73.054262846999961,43.838591069000074],[-73.054297530999975,43.839672670000027],[-73.055040107999957,43.839672584000027],[-73.055016914999953,43.840263191000076],[-73.055272462999937,43.840394735000075],[-73.055251256999952,43.841268599000045],[-73.05547101999997,43.841268629000069],[-73.055501780999975,43.841823583000064],[-73.056691729999955,43.841807302000063],[-73.056861434999973,43.84374566200006],[-73.06434911599996,43.843266180000057],[-73.064275615999975,43.840357128000051],[-73.064021582999942,43.837437673000068],[-73.064799637999954,43.837315850000039],[-73.064814583999976,43.835929513000053],[-73.063628811999934,43.833833288000051],[-73.057817107999938,43.83305596200006],[-73.055939085999967,43.832737566000048],[-73.055903604999969,43.831977413000061],[-73.056006585999967,43.831397499000047],[-73.055935463999958,43.830680253000025],[-73.055551088999948,43.830711498000028],[-73.055146568999987,43.830879945000049],[-73.055159400999969,43.829744321000078],[-73.054773352999973,43.829533112000036],[-73.054940896999938,43.829422214000033],[-73.054935265999973,43.82914592000003],[-73.055439800999977,43.829135493000081],[-73.054850122999937,43.828467910000029],[-73.059153595999987,43.824156806000076],[-73.064968392999958,43.81866597700008],[-73.065366772999937,43.818342032000032],[-73.065599250999981,43.818281481000042],[-73.065723318999972,43.818259547000025],[-73.068696067999952,43.81755600300005],[-73.069924853999964,43.816995139000028],[-73.070913484999949,43.816173207000077],[-73.073296161999963,43.813980657000059],[-73.073709350999934,43.813370835000057],[-73.073860934999971,43.812944795000078],[-73.074084178999954,43.812567533000049],[-73.074412638999945,43.81231398400007],[-73.075203392999981,43.811961998000072],[-73.075700021999978,43.811951846000056],[-73.076342346999979,43.811847230000069],[-73.076818930999934,43.811720079000054],[-73.077348428999983,43.811479226000074],[-73.077671506999934,43.811257014000034],[-73.078020176999985,43.810913227000071],[-73.079242509999972,43.809094790000074],[-73.081394457999977,43.805172775000074],[-73.082574724999972,43.80332994500003],[-73.085472911999943,43.805325893000031],[-73.087297836999937,43.805428444000029],[-73.088435790999938,43.81378959400007],[-73.10194712599997,43.813468209000064],[-73.101947346999964,43.813466524000034],[-73.101797161999968,43.811373354000068],[-73.101608379999959,43.810714741000027],[-73.100850371999968,43.809675065000079],[-73.095253860999946,43.803254839000033],[-73.093368622999947,43.801405338000052],[-73.092679792999945,43.800806867000063],[-73.092026033999957,43.800523136000038],[-73.091041937999989,43.800334250000049],[-73.090964542999984,43.800329649000048],[-73.09102612099997,43.800464257000044],[-73.091181020999954,43.800807954000049],[-73.089718624999989,43.800799343000051],[-73.089661317999969,43.801023506000035],[-73.08912898799997,43.800989884000046],[-73.089115956999933,43.801452773000051],[-73.088435770999979,43.801737094000032],[-73.088172335999957,43.801587286000029],[-73.087705451999966,43.80132061300003],[-73.087378549999983,43.801191697000036],[-73.087701117999984,43.800750299000072],[-73.087313545999962,43.800542445000076],[-73.087577869999961,43.799868785000058],[-73.087541803999954,43.799747419000028],[-73.087637752999967,43.799296884000057],[-73.087779436999938,43.799165206000055],[-73.085685316999957,43.799391701000047],[-73.084366728999953,43.799106744000028],[-73.084084795999956,43.79910631100006],[-73.083999150999944,43.798985585000025],[-73.083592909999936,43.798965855000063],[-73.082824989999949,43.799267748000034],[-73.082846763999953,43.799443376000056],[-73.080264470999964,43.799677642000063],[-73.080212265999933,43.798785569000074],[-73.080264241999942,43.797788590000039],[-73.080339156999969,43.796507112000029],[-73.080386594999936,43.795886585000062],[-73.080480417999979,43.795159351000052],[-73.080529149999961,43.794785299000068],[-73.081135754999934,43.79442326700007],[-73.081691724999985,43.794408449000059],[-73.081647492999934,43.793897740000034],[-73.082305997999981,43.793894297000065],[-73.082369682999968,43.793840508000073],[-73.082619351999938,43.79376617500003],[-73.083039747999976,43.793719314000043],[-73.083394520999946,43.793708711000079],[-73.084019074999958,43.793659933000072],[-73.084092753999983,43.793795288000069],[-73.084747289999939,43.793790426000044],[-73.084983232999946,43.793844138000054],[-73.085293487999934,43.793859169000029],[-73.085717700999965,43.793844413000045],[-73.086014082999952,43.793844334000028],[-73.086263138999982,43.793873508000047],[-73.086499003999961,43.793781111000044],[-73.087348006999946,43.794432845000074],[-73.087413873999935,43.79450190600005],[-73.087469391999946,43.794559402000061],[-73.087624334999987,43.794700398000032],[-73.087765840999964,43.794768494000039],[-73.088010313999973,43.794913535000035],[-73.088043232999951,43.79493255400007],[-73.088083868999945,43.794956073000037],[-73.088110098999948,43.794971198000042],[-73.088141717999974,43.79498946800004],[-73.088228216999937,43.795039384000063],[-73.088402684999949,43.795121373000029],[-73.088603077999949,43.795186806000061],[-73.088917998999989,43.795259767000061],[-73.088897920999955,43.795872624000026],[-73.088904014999969,43.795879615000047],[-73.089538065999989,43.796607062000078],[-73.089470897999945,43.796645875000081],[-73.089459022999961,43.796651596000061],[-73.089369747999967,43.796694555000045],[-73.089312637999967,43.796716400000037],[-73.089255166999976,43.79673837100006],[-73.089079814999934,43.79673837200005],[-73.088848316999986,43.796743163000031],[-73.088844009999946,43.796743266000078],[-73.088822022999977,43.79675248500007],[-73.088762776999943,43.796777177000081],[-73.088715983999975,43.796796763000032],[-73.088648590999981,43.796864864000042],[-73.088655577999987,43.796964725000066],[-73.088673771999936,43.797146465000026],[-73.088682538999933,43.797202756000047],[-73.090099088999978,43.796742438000081],[-73.090696079999987,43.797549487000026],[-73.090048184999944,43.798245024000039],[-73.089209392999976,43.798386165000068],[-73.089208492999944,43.798388340000031],[-73.089104688999953,43.798645062000048],[-73.089199847999964,43.798998765000078],[-73.089302445999976,43.79909015100003],[-73.089861335999956,43.799312659000066],[-73.090575226999988,43.799367478000079],[-73.090590941999949,43.799363394000068],[-73.090609031999975,43.799358680000068],[-73.090797759999987,43.799367768000025],[-73.090748861999941,43.799220490000039],[-73.091669615999933,43.799217603000045],[-73.092048016999968,43.799249895000059],[-73.092558366999981,43.799369478000074],[-73.09312142899995,43.798963099000048],[-73.09313799399996,43.798759870000026],[-73.092972365999969,43.798542728000029],[-73.093322874999956,43.798120459000074],[-73.093480134999936,43.797662274000061],[-73.093587876999948,43.797508794000066],[-73.093648576999954,43.796626361000051],[-73.095614224999963,43.797265473000039],[-73.096023680999963,43.796270341000081],[-73.092079246999958,43.792055841000035],[-73.092762462999985,43.790639271000032],[-73.094229932999951,43.787909889000048],[-73.095486538999978,43.785764623000034],[-73.095596356999977,43.785247107000032],[-73.095475152999938,43.78404220300007],[-73.093090558999961,43.783457177000059],[-73.090811608999957,43.783468348000042],[-73.090265294999938,43.783637676000069],[-73.09036810799995,43.783748948000039],[-73.090339954999934,43.783886352000025],[-73.089900570999987,43.784369166000033],[-73.089741688999936,43.784399097000062],[-73.090299998999967,43.785033708000071],[-73.090882934999968,43.78523750100004],[-73.091108343999963,43.785371945000065],[-73.091251797999973,43.785549103000051],[-73.091272111999956,43.785719305000043],[-73.091488325999933,43.786109711000051],[-73.091407305999951,43.786476341000025],[-73.091341292999971,43.78651465400003],[-73.091371556999945,43.786827687000027],[-73.091197530999978,43.787015489000055],[-73.091254325999955,43.787105482000072],[-73.091176644999962,43.78729925600004],[-73.090858251999975,43.787454051000054],[-73.090718366999965,43.78779707800004],[-73.090297669999984,43.78797208900005],[-73.090548784999953,43.788278779000052],[-73.090619834999984,43.788476003000028],[-73.090395382999986,43.788768722000043],[-73.090397180999958,43.789088486000026],[-73.090215840999974,43.789187383000069],[-73.089948252999989,43.78908186600006],[-73.089922583999964,43.789152957000056],[-73.089708556999938,43.789222269000049],[-73.089527620999945,43.789486467000074],[-73.089329030999977,43.78940082400004],[-73.089447090999954,43.789679551000063],[-73.089419332999967,43.789818077000064],[-73.088751780999985,43.79020108800006],[-73.088172982999936,43.790370578000079],[-73.087947876999976,43.79053824600004],[-73.087793723999937,43.790775022000048],[-73.087675113999978,43.791393403000029],[-73.084499235999942,43.79238378000008],[-73.084211128999982,43.790813023000055],[-73.083688676999941,43.786848275000068],[-73.083357788999933,43.785204981000049],[-73.081025079999961,43.785368431000052],[-73.080247161999978,43.78556756200004],[-73.080018541999948,43.78569346300003],[-73.079347048999978,43.786875941000062],[-73.078904317999957,43.787345230000028],[-73.078558558999987,43.787540469000078],[-73.079391723999947,43.788320419000058],[-73.079860413999938,43.789089149000063],[-73.080736686999956,43.790905872000053],[-73.080903209999974,43.791528677000031],[-73.080947900999945,43.791973769000037],[-73.080947979999962,43.792172501000039],[-73.08097332899996,43.792470936000029],[-73.081104542999981,43.792734332000066],[-73.081666373999951,43.79325452900008],[-73.079954744999952,43.793771314000026],[-73.079482909999967,43.794237112000076],[-73.07953234699994,43.796532848000027],[-73.079590522999979,43.799234098000056],[-73.079754172999969,43.802060680000068],[-73.078261229999953,43.802226783000037],[-73.077180503999955,43.80393444300006]]]]},"properties":{"District_Name":"Neighborhood Residential","OBJECTID":4,"OBJECTID_1":4,"OBJECT_ID":1056,"County":"Rutland","RPC":"RRPC","Municipal_Name":"Brandon","GEO_ID":"5002107750","Abbreviated_District_Name":"Nr","District_Type":"Mixed with Residential","Bylaw_Date":"2024-11-05","Elderly_Housing_District":"No","District_Mapped":"Yes","Overlay_District":"No","Base_Density":null,"FIPS6":21010,"GIS_ID":null,"Last_Update":"20260319","F1F_Allowance":"Permitted","F1F_Front_Setback":null,"F1F_Side_Setback":null,"F1F_Rear_Setback":20,"F1F_Frontage":null,"F1F_Max_Height":36,"F1F_Max_Stories":null,"F1F_Min_Lot_Size":0.20000000000000001,"F1F_Max_Lot_Building_Coverage":null,"F1F_Max_Lot_Impervious_Coverage":40,"F1F_Min_Parking_Spaces":null,"F1F_Elderly_Housing_Only":null,"F1F_Affordable_Housing_Only":null,"F2F_Allowance":"Permitted","F2F_Front_Setback":null,"F2F_Side_Setback":null,"F2F_Rear_Setback":20,"F2F_Frontage":null,"F2F_Max_Density":null,"F2F_Max_Height":36,"F2F_Max_Stories":null,"F2F_Min_Lot_Size":0.20000000000000001,"F2F_Max_Lot_Building_Coverage":null,"F2F_Max_Lot_Impervious_Coverage":40,"F2F_Min_Parking_Spaces_per_1BR":null,"F2F_Min_Parking_Spaces_per_mult_BR":null,"F2F_Elderly_Housing_Only":"No","F2F_Affordable_Housing_Only":"No","F3F_Allowance":"Permitted","F3F_Front_Setback":null,"F3F_Side_Setback":null,"F3F_Rear_Setback":20,"F3F_Frontage":null,"F3F_Max_Density":null,"F3F_Max_Height":36,"F3F_Max_Stories":null,"F3F_Min_Lot_Size":0.20000000000000001,"F3F_Max_Lot_Building_Coverage":null,"F3F_Max_Lot_Impervious_Coverage":40,"F3F_Min_Parking_Spaces_per_1BR":null,"F3F_Min_Parking_Spaces_per_mult_BR":null,"F3F_Affordable_Housing_Only":"No","F3F_Proximity_to_Public_Transit_Required":"No","F3F_Connection_to_Sewage_Water_Required":"Yes","F4F_Allowance":"Permitted","F4F_Front_Setback":null,"F4F_Side_Setback":null,"F4F_Rear_Setback":20,"F4F_Frontage":null,"F1F_Max_Density":null,"F4F_Max_Density":null,"F4F_Max_Height":36,"F4F_Max_Stories":null,"F4F_Min_Lot_Size":0.20000000000000001,"F4F_Max_Lot_Building_Coverage":null,"F4F_Max_Lot_Impervious_Coverage":40,"F4F_Min_Parking_Spaces_per_1BR":null,"F4F_Min_Parking_Spaces_per_mult_BR":null,"F3F_Elderly_Housing_Only":"No","F4F_Elderly_Housing_Only":"No","F4F_Affordable_Housing_Only":"No","F4F_Proximity_to_Public_Transit_Required":"No","F4F_Connection_to_Sewage_Water_Required":"Yes","ADU_Allowance":"Permitted","ADU_Elderly_Housing_Only":"No","ADU_Max_Size_as_Percent_of_Primary_Strcture":30,"ADU_Max_Size_in_sq_ft":null,"ADU_Min_Lot_Size":null,"ADU_Max_Bedrooms":null,"ADU_Min_Parking_Spaces":null,"ADU_Owner_Occupancy_Required":"Yes","ADU_Renter_Occupancy_Prohibited":"No","ADU_Employee_or_Family_Occupancy_Required":"No","ADU_Restricted_to_Primary_Structure":"No","Affordable_Housing_Allowance":"Not Mentioned","Affordable_Housing_District":"No","Affordable_Housing_Elderly_Only":"No","Affordable_Housing_Min_Lot_Size":null,"Affordable_Housing_Max_Density":null,"Affordable_Housing_Min_Parking_Spaces_per_mult_BR":null,"Affordable_Housing_Max_Units_per_Building":null,"Affordable_Housing_Min_Parking_Spaces_per_1BR":null,"PRD_Allowance":"Not Mentioned","PRD_Max_Density":null,"PRD_Max_Units":null,"PRD_Min_Lot_Size":null,"PRD_Mobile_or_Manufactured_Home_Park":"No","PUD_Allowance":"Not Mentioned","PUD_Required_with_Subdivision":null,"PUD_Requires_Land_Conservation":null,"PUD_Threshold_Number":null,"Notes":" Setbacks Based On Table On Page 15 Of Bylaws\r\n- not Specified Which Direction The Setbacks Apply\r\n\r\nMinimum Acres Per Dwelling Unit Is 1/4 Acre\r\n\r\nMobile Home Parks Conditional (Public Hearing), No Prd Use Mentioned ","Shape_Length":0.31421731947597725,"Shape_Area":0.00056066647068657135}},{"type":"Feature","id":5,"geometry":{"type":"Polygon","coordinates":[[[-73.003544493999982,43.756945753000025],[-73.005902237999976,43.763421712000081],[-73.006800511999984,43.765650792000031],[-73.012995043999979,43.789769960000058],[-73.01453933099998,43.795211594000079],[-73.02131419899996,43.82072310500007],[-73.026845574999982,43.842148137000038],[-73.028347795999935,43.842104923000079],[-73.02908019399996,43.841996903000052],[-73.029930793999938,43.841733183000031],[-73.030805740999938,43.841390514000068],[-73.033083875999978,43.844198045000041],[-73.032074713999975,43.84472999500008],[-73.030094479999946,43.844937524000045],[-73.029944041999954,43.846728366000036],[-73.047861993999959,43.84622562900006],[-73.047872842999936,43.846225324000045],[-73.047608886999967,43.844149726000069],[-73.047465366999973,43.843717411000057],[-73.046765382999979,43.842171962000066],[-73.046550699999955,43.841894979000074],[-73.046061257999952,43.840472412000054],[-73.045740671999965,43.840004940000028],[-73.04564024299998,43.839725847000068],[-73.045568167999988,43.838510295000049],[-73.045454122999956,43.837851685000032],[-73.045712528999957,43.835633251000047],[-73.046208428999989,43.834154518000048],[-73.046620529999984,43.833332087000031],[-73.046516941999982,43.833179578000056],[-73.045898088999934,43.833103083000026],[-73.043492005999951,43.832948877000035],[-73.04280205799995,43.833005046000039],[-73.042534738999962,43.832960597000067],[-73.042256401999964,43.832822413000031],[-73.041848580999954,43.832235251000043],[-73.041793628999983,43.831314070000076],[-73.041411704999973,43.83131293100007],[-73.040257649999944,43.831084956000041],[-73.038983797999947,43.830586502000074],[-73.037876342999937,43.830049743000075],[-73.036314256999958,43.829379649000032],[-73.035807409999961,43.829009779000046],[-73.035435522999933,43.828865410000049],[-73.03504931699996,43.828606187000048],[-73.034981310999967,43.828473892000034],[-73.035289194999962,43.827665509000042],[-73.035721815999977,43.82726690100003],[-73.036158334999982,43.826974719000077],[-73.037243943999954,43.825776766000047],[-73.038558534999936,43.824606728000049],[-73.039183113999968,43.824232898000048],[-73.039517165999939,43.823932921000051],[-73.03991115599996,43.823644334000051],[-73.040562418999968,43.823055364000027],[-73.040973775999987,43.822835840000039],[-73.041513817999942,43.822666214000037],[-73.04206894899994,43.822541224000076],[-73.042734770999971,43.822482348000051],[-73.042801511999983,43.82241659400006],[-73.043689494999967,43.82213794200004],[-73.04542885799998,43.822109105000038],[-73.046765593999964,43.822282732000076],[-73.049112651999963,43.822480892000044],[-73.052364061999981,43.822587579000071],[-73.054178729999933,43.82276244500008],[-73.054788315999986,43.822868520000043],[-73.061361602999966,43.816669035000075],[-73.062373681999986,43.815835578000076],[-73.062841997999953,43.81557169000007],[-73.063579318999984,43.815312233000043],[-73.066909120999981,43.814514913000039],[-73.069411770999977,43.812257503000069],[-73.069553746999986,43.81188215700007],[-73.070073928999989,43.811002496000071],[-73.070443921999981,43.810574169000063],[-73.071673069999974,43.809682079000027],[-73.073480226999948,43.80888030400007],[-73.074014886999976,43.808717841000032],[-73.074434460999953,43.808664219000036],[-73.075086105999958,43.807776358000069],[-73.077191040999935,43.803932518000067],[-73.078261229999953,43.802226783000037],[-73.079754172999969,43.802060680000068],[-73.07953234699994,43.796532848000027],[-73.079532277999988,43.796532785000068],[-73.077556682999955,43.794789694000031],[-73.077004991999956,43.794152183000051],[-73.076483407999945,43.793008550000025],[-73.076406489999954,43.791966219000074],[-73.076230124999938,43.791439118000028],[-73.075485154999967,43.790023176000034],[-73.075242187999947,43.789798692000033],[-73.074958376999973,43.789662789000033],[-73.071432208999965,43.788913182000044],[-73.066267737999965,43.787591518000056],[-73.065818369999988,43.785869743000035],[-73.066009307999934,43.785720728000058],[-73.067412488999935,43.786137462000056],[-73.067571853999937,43.78572925800006],[-73.06784007899995,43.785668031000057],[-73.067903919999935,43.785600807000037],[-73.067959868999935,43.785571169000036],[-73.068317931999957,43.785621835000029],[-73.06867320799995,43.785467770000025],[-73.068788853999934,43.784832793000078],[-73.069602260999943,43.784326425000074],[-73.069779920999963,43.784151967000071],[-73.069993008999973,43.784074679000071],[-73.070575019999978,43.784109563000072],[-73.070834407999939,43.784206768000047],[-73.07111604399995,43.78468851000008],[-73.07111604399995,43.78489862400005],[-73.070999356999948,43.785089491000065],[-73.070880845999966,43.785156997000058],[-73.070751032999965,43.785258989000056],[-73.072832596999945,43.785780876000047],[-73.076674930999957,43.786613587000033],[-73.077451201999963,43.786892574000035],[-73.077966258999936,43.787151953000034],[-73.078558558999987,43.787540469000078],[-73.078589464999936,43.787564058000044],[-73.07891482399998,43.787343313000065],[-73.079357524999978,43.786874006000062],[-73.080029015999969,43.785691526000051],[-73.080257664999976,43.785565646000066],[-73.081025079999961,43.785368431000052],[-73.083368291999989,43.785203054000078],[-73.083710212999961,43.786915906000047],[-73.084221620999983,43.790811096000027],[-73.084499235999942,43.79238378000008],[-73.087685609999937,43.791391471000054],[-73.087804214999949,43.790773100000081],[-73.087958402999959,43.790536306000035],[-73.088183471999969,43.790368642000033],[-73.08876225399996,43.790199152000071],[-73.089429815999949,43.789816144000042],[-73.089457605999939,43.789677634000043],[-73.089329030999977,43.78940082400004],[-73.089527620999945,43.789486467000074],[-73.089719030999959,43.789220352000029],[-73.089933081999959,43.78915101900003],[-73.089948252999989,43.78908186600006],[-73.090215840999974,43.789187383000069],[-73.090407714999969,43.789086551000025],[-73.090405890999989,43.788766790000068],[-73.090630329999954,43.78847408300004],[-73.090559304999942,43.788276849000056],[-73.090308197999946,43.787970156000029],[-73.090728862999981,43.787795162000066],[-73.090868733999969,43.787452115000065],[-73.091187143999946,43.787297335000062],[-73.091264834999947,43.787103543000057],[-73.091208058999939,43.787013562000027],[-73.09138203699996,43.78682574700008],[-73.09135178799994,43.786512713000036],[-73.091417828999965,43.786474410000039],[-73.091498817999934,43.786107770000058],[-73.091282589999935,43.785717366000029],[-73.091262308999944,43.785547178000058],[-73.091118857999959,43.785370025000077],[-73.090893437999966,43.785235582000041],[-73.090310513999952,43.785031776000039],[-73.089752155999975,43.784397175000038],[-73.089911045999941,43.784367231000033],[-73.090350446999935,43.783884423000075],[-73.090378589999943,43.783747013000038],[-73.090275774999952,43.783635746000073],[-73.090811608999957,43.783468348000042],[-73.093101046999948,43.783455243000049],[-73.095485652999969,43.784040276000042],[-73.095606855999961,43.785245183000029],[-73.095497021999961,43.785762687000044],[-73.094240432999982,43.787907965000045],[-73.092772951999962,43.790637352000033],[-73.092089740999938,43.792053912000029],[-73.096034186999987,43.796268414000053],[-73.094909818999952,43.798977535000063],[-73.095923099999936,43.798988899000051],[-73.095923790999962,43.798988903000065],[-73.095950108999943,43.79913276700006],[-73.098172171999977,43.798907401000065],[-73.09942800999994,43.798988573000031],[-73.099670949999961,43.799669076000043],[-73.099204673999964,43.800263310000048],[-73.09923654499994,43.800483598000028],[-73.098981502999948,43.800493863000042],[-73.098531778999984,43.801027591000036],[-73.098528744999953,43.80103108000003],[-73.098291896999967,43.80126040500005],[-73.098290558999963,43.801261687000078],[-73.09790148999997,43.801384367000026],[-73.099524211999949,43.803342970000074],[-73.100815680999972,43.804514287000075],[-73.103149755999937,43.806019837000065],[-73.104527546999975,43.806755125000052],[-73.108993366999982,43.809961768000051],[-73.111231785999962,43.811762436000038],[-73.114216648999957,43.814693754000075],[-73.119455371999948,43.814430317000074],[-73.119781485999965,43.818005375000041],[-73.114866383999981,43.818315763000044],[-73.113252784999986,43.818501124000079],[-73.113174391999962,43.818550218000041],[-73.112058517999969,43.817577504000042],[-73.111150306999946,43.816893420000042],[-73.110797998999942,43.816495797000073],[-73.109135412999933,43.815968837000071],[-73.10585066699997,43.81527913900004],[-73.102034720999939,43.81458424200008],[-73.101947346999964,43.813466524000034],[-73.101947010999936,43.813466532000064],[-73.088446299999987,43.813787672000046],[-73.087308316999952,43.805426511000064],[-73.085483402999955,43.805323971000064],[-73.082574724999972,43.80332994500003],[-73.081404981999981,43.805170858000054],[-73.079253025999947,43.809092866000071],[-73.078030685999977,43.810911310000051],[-73.07768202699998,43.811255085000028],[-73.077358913999944,43.811477311000033],[-73.076829468999961,43.811718148000068],[-73.076342346999979,43.811847230000069],[-73.075710504999961,43.811949919000028],[-73.075203392999981,43.811961998000072],[-73.074423176999971,43.812312045000056],[-73.074094660999947,43.812565616000029],[-73.073871414999985,43.812942880000037],[-73.073719823999966,43.813368912000044],[-73.073306669999965,43.813978719000033],[-73.07092395899997,43.81617127100003],[-73.069935390999945,43.816993204000028],[-73.068706592999945,43.817554083000061],[-73.065723318999972,43.818259547000025],[-73.065599250999981,43.818281481000042],[-73.065377281999986,43.818340095000053],[-73.064978865999933,43.818664052000031],[-73.059164098999986,43.824154877000069],[-73.059672699999965,43.824316245000034],[-73.060051816999987,43.82452070100004],[-73.061043823999967,43.82520029300008],[-73.062296132999961,43.825632363000068],[-73.062994360999937,43.825727501000074],[-73.063267504999942,43.825854688000049],[-73.063532578999968,43.826031418000071],[-73.06374389299998,43.826318120000053],[-73.063877937999962,43.826978705000045],[-73.063706696999986,43.827853726000058],[-73.063124967999954,43.828793616000041],[-73.062369469999965,43.829595707000067],[-73.062064043999953,43.830504029000053],[-73.062892190999946,43.830479297000068],[-73.063026432999948,43.830217450000077],[-73.063637708999977,43.829649804000042],[-73.064381361999949,43.828656435000028],[-73.064633435999951,43.828568898000071],[-73.065493151999988,43.828811894000069],[-73.067684057999941,43.829757036000046],[-73.068110265999962,43.83020593100008],[-73.068942050999965,43.83073550000006],[-73.069381943999986,43.831151405000071],[-73.070668358999967,43.832091598000034],[-73.070943889999967,43.832135643000072],[-73.071802623999986,43.83193852800008],[-73.07211689199994,43.83200965900005],[-73.072755608999955,43.832574194000074],[-73.073255367999934,43.832385079000062],[-73.074064551999982,43.832287345000054],[-73.074741937999988,43.832104077000054],[-73.076259249999964,43.83223018800004],[-73.07696842699994,43.832079498000041],[-73.078070688999958,43.831668080000043],[-73.078343901999972,43.831635603000052],[-73.078542865999964,43.831681142000036],[-73.078930543999945,43.832119797000075],[-73.079593402999933,43.833043749000069],[-73.079709621999939,43.833322468000063],[-73.079770467999936,43.834191272000055],[-73.079710183999964,43.834428828000057],[-73.079478236999989,43.834747408000055],[-73.079076432999955,43.835052859000029],[-73.078155887999969,43.83562545500007],[-73.075738085999944,43.836253918000068],[-73.075321772999985,43.836277812000048],[-73.075019784999938,43.836354835000066],[-73.074273059999939,43.836732252000047],[-73.073741402999985,43.836913229000061],[-73.073570759999939,43.837075422000055],[-73.073409694999953,43.837463795000076],[-73.073450961999981,43.838647453000078],[-73.07365244999994,43.839199396000026],[-73.073587954999937,43.84012873100005],[-73.073782705999974,43.840708577000044],[-73.073909523999987,43.842139996000071],[-73.073815274999959,43.845275162000064],[-73.074574432999952,43.845246233000069],[-73.075870007999981,43.845196863000069],[-73.080273999999974,43.845029041000032],[-73.08148239999997,43.844982994000077],[-73.084323748999964,43.844874719000074],[-73.08460569999994,43.844863975000067],[-73.092565358999934,43.844560659000081],[-73.096303229999933,43.844473278000066],[-73.100867530999949,43.844366579000052],[-73.100884856999983,43.844366172000036],[-73.108842294999988,43.844159767000065],[-73.126108948999956,43.843562932000054],[-73.128209159999983,43.843487185000072],[-73.13002327199996,43.843421468000031],[-73.132060109999941,43.843347682000058],[-73.133213764999937,43.843305890000067],[-73.136841111999956,43.843174487000056],[-73.143979477999949,43.842902226000035],[-73.156173410999941,43.842324244000054],[-73.155476392999958,43.839280971000051],[-73.152863311999965,43.829542792000041],[-73.152752960999976,43.829240416000061],[-73.150968233999947,43.822758865000026],[-73.15094665099997,43.822681071000034],[-73.150941856999964,43.822663795000039],[-73.150027657999942,43.819322983000063],[-73.150023813999951,43.81930882100005],[-73.149876762999952,43.818767081000033],[-73.145153064999988,43.801883355000029],[-73.144964022999943,43.801197614000046],[-73.138217681999947,43.776736004000043],[-73.131476949999978,43.752273858000081],[-73.128504709999959,43.752401490000068],[-73.124877720999962,43.752548003000072],[-73.119988488999979,43.752753608000035],[-73.114164310999968,43.75299728400006],[-73.100529731999984,43.753543987000057],[-73.099707266999985,43.753576334000059],[-73.091174613999954,43.753941221000048],[-73.090059140999983,43.753987038000048],[-73.088299282999969,43.754059090000055],[-73.083730524999964,43.754255531000069],[-73.08159483299994,43.754338423000036],[-73.080237629999942,43.75438915400008],[-73.080165799999975,43.754688796000039],[-73.080144988999962,43.754966563000039],[-73.08015319499998,43.755086016000064],[-73.080191739999975,43.755252214000052],[-73.080239756999958,43.75536474300003],[-73.080299000999958,43.755638666000038],[-73.080156154999941,43.755757906000042],[-73.080117135999956,43.75577234800005],[-73.079999595999936,43.755816507000077],[-73.079938099999936,43.755868092000071],[-73.079912955999987,43.755922714000064],[-73.079900291999934,43.75599965400005],[-73.079897783999968,43.75602822500008],[-73.079854172999944,43.756226412000046],[-73.079755318999958,43.756276867000054],[-73.079708794999988,43.756281153000032],[-73.079527864999989,43.75619053500003],[-73.079386257999943,43.756082616000072],[-73.079183513999965,43.756053870000073],[-73.078900867999948,43.756083815000068],[-73.07880991899998,43.756155650000039],[-73.078765990999955,43.756223197000054],[-73.078573971999958,43.756388769000068],[-73.078530213999954,43.756406300000037],[-73.078525939999963,43.756408013000055],[-73.078490870999985,43.756422063000059],[-73.078267592999964,43.756485657000042],[-73.078061559999981,43.756534493000061],[-73.078017116999945,43.756552734000081],[-73.077991475999966,43.756576901000074],[-73.07791833899995,43.756645834000039],[-73.077871374999972,43.756733558000064],[-73.077868108999951,43.756842607000067],[-73.077904176999937,43.756916194000041],[-73.077932646999955,43.756945508000058],[-73.078063482999937,43.757137990000047],[-73.07808784599996,43.757252697000069],[-73.078134682999973,43.757324341000071],[-73.078212539999981,43.757577078000054],[-73.07794617199994,43.757783608000068],[-73.077843286999951,43.757830372000058],[-73.077826988999959,43.757845135000025],[-73.07772771499998,43.75793505300004],[-73.077695073999962,43.758031949000042],[-73.077701928999943,43.758068662000028],[-73.077752114999953,43.758122142000047],[-73.077793479999968,43.758149295000067],[-73.077841207999938,43.758192436000058],[-73.077770915999963,43.758347548000074],[-73.077647585999955,43.758494817000042],[-73.077642559999958,43.758552826000027],[-73.077657579999936,43.758621883000046],[-73.077648262999958,43.758866836000038],[-73.076876270999946,43.758690183000056],[-73.075742762999937,43.758613813000068],[-73.075356876999933,43.758517110000071],[-73.074948650999943,43.758486402000074],[-73.073221644999933,43.757936770000072],[-73.072470898999939,43.75762848200003],[-73.071878539999943,43.757286635000071],[-73.071779837999941,43.757114917000081],[-73.071685731999935,43.757251687000064],[-73.070307877999937,43.756730956000069],[-73.069676929999957,43.756403061000071],[-73.068607437999958,43.755462603000069],[-73.068293844999971,43.755050226000037],[-73.068162735999977,43.754842064000059],[-73.067882031999943,43.753757626000038],[-73.067549346999954,43.753097285000081],[-73.066761612999983,43.752557287000059],[-73.065943887999936,43.752324893000036],[-73.06495842399994,43.752224912000031],[-73.064499307999938,43.752157229000034],[-73.063995115999944,43.752117252000062],[-73.063523351999947,43.752033335000078],[-73.063523315999987,43.752033330000074],[-73.062969267999961,43.751960478000058],[-73.062484154999936,43.75186836000006],[-73.061916949999954,43.751628134000043],[-73.061442532999934,43.751351537000062],[-73.061103019999962,43.751118120000058],[-73.06087542299997,43.75096964100004],[-73.060798000999966,43.750919133000025],[-73.060512291999942,43.750793565000038],[-73.060003135999978,43.750750624000034],[-73.059644812999977,43.750801101000036],[-73.059421923999935,43.750883443000077],[-73.059112907999975,43.751014723000026],[-73.058871904999933,43.751174853000066],[-73.058690664999972,43.751356976000068],[-73.058688123999957,43.75135999400004],[-73.058495808999965,43.75157550800003],[-73.058442026999955,43.751735714000063],[-73.058395576999942,43.751928164000049],[-73.058395566999934,43.751928213000042],[-73.05838855899998,43.752072706000035],[-73.058347938999987,43.753045759000031],[-73.058305904999941,43.753199065000047],[-73.058213474999945,43.753354236000064],[-73.058078543999954,43.753452192000054],[-73.057682534999969,43.753595884000049],[-73.057533789999979,43.753623792000042],[-73.057079705999968,43.753626006000047],[-73.05694376699995,43.753627951000055],[-73.056380820999948,43.753578377000053],[-73.056434134999961,43.755258259000072],[-73.055309848999968,43.755296347000069],[-73.055168332999983,43.75530113700006],[-73.048930532999975,43.755511819000048],[-73.048886939999988,43.755513048000068],[-73.042913887999987,43.755681525000057],[-73.039619374999972,43.755792197000062],[-73.039596375999963,43.755792970000073],[-73.030654955999978,43.756068771000059],[-73.029748260999952,43.756094434000033],[-73.029031041999986,43.756114703000037],[-73.027630807999969,43.756154344000038],[-73.027114405999953,43.756168560000049],[-73.026968079999961,43.756170931000042],[-73.021274001999984,43.756372130000045],[-73.018297525999969,43.756477306000079],[-73.017531150999957,43.756499827000027],[-73.015556057999959,43.756557004000058],[-73.010926049999966,43.756690450000065],[-73.00485406699994,43.756847676000064],[-73.003544493999982,43.756945753000025]],[[-73.050916685999937,43.771456761000081],[-73.051032731999953,43.771373833000041],[-73.056872692999946,43.770777451000072],[-73.057077972999934,43.772213461000035],[-73.057129274999966,43.773105704000045],[-73.057081411999945,43.774418035000053],[-73.056954804999975,43.775077294000027],[-73.057006246999947,43.775509271000033],[-73.057100921999961,43.775674342000059],[-73.058762523999974,43.777197570000055],[-73.058988014999954,43.777505738000059],[-73.059188592999988,43.778153840000073],[-73.059183048999955,43.778724661000069],[-73.059083531999988,43.77899907300008],[-73.058721398999978,43.779692561000047],[-73.058402263999938,43.780014570000048],[-73.058216516999948,43.780133472000045],[-73.056760700999973,43.778311324000072],[-73.050945633999959,43.778593769000054],[-73.050840018999963,43.777914740000028],[-73.051039273999947,43.777294815000062],[-73.051244661999988,43.777081703000079],[-73.051471782999954,43.77625560000007],[-73.051514663999967,43.77485407100005],[-73.050916685999937,43.771456761000081]]]},"properties":{"District_Name":"Rural Development","OBJECTID":5,"OBJECTID_1":5,"OBJECT_ID":1057,"County":"Rutland","RPC":"RRPC","Municipal_Name":"Brandon","GEO_ID":"5002107750","Abbreviated_District_Name":"Rd","District_Type":"Primarily Residential","Bylaw_Date":"2024-11-05","Elderly_Housing_District":"No","District_Mapped":"Yes","Overlay_District":"No","Base_Density":null,"FIPS6":21010,"GIS_ID":null,"Last_Update":"20260319","F1F_Allowance":"Permitted","F1F_Front_Setback":null,"F1F_Side_Setback":null,"F1F_Rear_Setback":30,"F1F_Frontage":null,"F1F_Max_Height":36,"F1F_Max_Stories":null,"F1F_Min_Lot_Size":2,"F1F_Max_Lot_Building_Coverage":null,"F1F_Max_Lot_Impervious_Coverage":30,"F1F_Min_Parking_Spaces":null,"F1F_Elderly_Housing_Only":null,"F1F_Affordable_Housing_Only":null,"F2F_Allowance":"Permitted","F2F_Front_Setback":null,"F2F_Side_Setback":null,"F2F_Rear_Setback":30,"F2F_Frontage":null,"F2F_Max_Density":null,"F2F_Max_Height":36,"F2F_Max_Stories":null,"F2F_Min_Lot_Size":2,"F2F_Max_Lot_Building_Coverage":null,"F2F_Max_Lot_Impervious_Coverage":30,"F2F_Min_Parking_Spaces_per_1BR":null,"F2F_Min_Parking_Spaces_per_mult_BR":null,"F2F_Elderly_Housing_Only":"No","F2F_Affordable_Housing_Only":"No","F3F_Allowance":"Public Hearing","F3F_Front_Setback":null,"F3F_Side_Setback":null,"F3F_Rear_Setback":30,"F3F_Frontage":null,"F3F_Max_Density":null,"F3F_Max_Height":36,"F3F_Max_Stories":null,"F3F_Min_Lot_Size":2,"F3F_Max_Lot_Building_Coverage":null,"F3F_Max_Lot_Impervious_Coverage":30,"F3F_Min_Parking_Spaces_per_1BR":null,"F3F_Min_Parking_Spaces_per_mult_BR":null,"F3F_Affordable_Housing_Only":"No","F3F_Proximity_to_Public_Transit_Required":"No","F3F_Connection_to_Sewage_Water_Required":"No","F4F_Allowance":"Public Hearing","F4F_Front_Setback":null,"F4F_Side_Setback":null,"F4F_Rear_Setback":30,"F4F_Frontage":null,"F1F_Max_Density":null,"F4F_Max_Density":null,"F4F_Max_Height":36,"F4F_Max_Stories":null,"F4F_Min_Lot_Size":2,"F4F_Max_Lot_Building_Coverage":null,"F4F_Max_Lot_Impervious_Coverage":30,"F4F_Min_Parking_Spaces_per_1BR":null,"F4F_Min_Parking_Spaces_per_mult_BR":null,"F3F_Elderly_Housing_Only":"No","F4F_Elderly_Housing_Only":"No","F4F_Affordable_Housing_Only":"No","F4F_Proximity_to_Public_Transit_Required":"No","F4F_Connection_to_Sewage_Water_Required":"No","ADU_Allowance":"Permitted","ADU_Elderly_Housing_Only":"No","ADU_Max_Size_as_Percent_of_Primary_Strcture":30,"ADU_Max_Size_in_sq_ft":null,"ADU_Min_Lot_Size":null,"ADU_Max_Bedrooms":null,"ADU_Min_Parking_Spaces":null,"ADU_Owner_Occupancy_Required":"Yes","ADU_Renter_Occupancy_Prohibited":"No","ADU_Employee_or_Family_Occupancy_Required":"No","ADU_Restricted_to_Primary_Structure":"No","Affordable_Housing_Allowance":"Not Mentioned","Affordable_Housing_District":"No","Affordable_Housing_Elderly_Only":"No","Affordable_Housing_Min_Lot_Size":null,"Affordable_Housing_Max_Density":null,"Affordable_Housing_Min_Parking_Spaces_per_mult_BR":null,"Affordable_Housing_Max_Units_per_Building":null,"Affordable_Housing_Min_Parking_Spaces_per_1BR":null,"PRD_Allowance":"Not Mentioned","PRD_Max_Density":null,"PRD_Max_Units":null,"PRD_Min_Lot_Size":null,"PRD_Mobile_or_Manufactured_Home_Park":"No","PUD_Allowance":"Not Mentioned","PUD_Required_with_Subdivision":null,"PUD_Requires_Land_Conservation":null,"PUD_Threshold_Number":null,"Notes":"Setbacks Based On Table On Page 14 Of Bylaws\r\n- not Specified Which Direction The Setbacks Apply\r\n\r\nMinimum Acres Per Dwelling Unit Is 2 Acres  ","Shape_Length":0.80605097450725627,"Shape_Area":0.01018967294510853}},{"type":"Feature","id":6,"geometry":{"type":"MultiPolygon","coordinates":[[[[-73.085685444999967,43.799391687000025],[-73.085692055999971,43.79939311000004],[-73.085691619999977,43.799391019000041],[-73.085685444999967,43.799391687000025]]],[[[-73.080265836999956,43.799676114000079],[-73.081269881999958,43.799588568000047],[-73.082846701999983,43.799442658000032],[-73.082826486999977,43.799267566000026],[-73.083594681999955,43.798966018000044],[-73.083998994999945,43.798985472000027],[-73.084086595999963,43.799107065000044],[-73.084362875999943,43.799107065000044],[-73.085685307999938,43.799391658000047],[-73.085542455999985,43.798676533000048],[-73.085512025999947,43.798530773000039],[-73.085357549999969,43.798300754000081],[-73.085286652999969,43.798195640000074],[-73.085272947999954,43.798139641000034],[-73.085234689999936,43.797991446000026],[-73.085236486999975,43.79799065900005],[-73.085236282999972,43.797989827000038],[-73.085621984999989,43.797819836000031],[-73.085816060999946,43.797901428000046],[-73.085833522999962,43.797908570000061],[-73.085963041999946,43.797751794000078],[-73.08611652999997,43.797563881000031],[-73.086865624999973,43.79689273200006],[-73.086867954999946,43.796894291000058],[-73.086868674999948,43.796893651000062],[-73.08700185899994,43.796983873000045],[-73.087300210999956,43.797183471000039],[-73.087374251999961,43.797136745000046],[-73.087375505999944,43.797136992000048],[-73.087379184999975,43.797134632000052],[-73.087716580999938,43.797203484000079],[-73.087859612999978,43.797203105000051],[-73.088678913999956,43.797197007000079],[-73.088655332999963,43.796962139000073],[-73.088648594999938,43.796864861000074],[-73.088715979999961,43.796796767000046],[-73.088844012999971,43.796743264000042],[-73.089079861999949,43.796738400000038],[-73.089255063999985,43.796738400000038],[-73.089369619999957,43.796694625000043],[-73.089470697999957,43.796645987000034],[-73.089538083999969,43.796607075000054],[-73.088897920999955,43.795872623000037],[-73.088918136999951,43.795259762000057],[-73.088608163999936,43.795186801000057],[-73.088406006999946,43.795123569000054],[-73.088230804999966,43.795040881000034],[-73.087994954999942,43.794904688000031],[-73.087765844999979,43.794768495000028],[-73.087624334999987,43.794700398000032],[-73.087469347999956,43.794559341000081],[-73.08734805399996,43.794432875000041],[-73.086498996999978,43.793781086000081],[-73.086263147999944,43.793873504000032],[-73.086013820999938,43.793844320000062],[-73.085717324999962,43.793844320000062],[-73.085292795999976,43.793858912000076],[-73.084982822999962,43.793844320000062],[-73.084746973999984,43.793790814000033],[-73.084093333999988,43.793795678000038],[-73.084019209999951,43.793659483000056],[-73.083412740999961,43.793708124000034],[-73.083048858999973,43.793717852000043],[-73.082617591999963,43.793766494000067],[-73.082375003999971,43.793839455000068],[-73.082307617999959,43.79389296100004],[-73.081647239999938,43.793897825000045],[-73.081694409999955,43.794408555000075],[-73.08113511099998,43.794423147000032],[-73.080528640999944,43.794783087000042],[-73.080387130999952,43.795896943000059],[-73.080339960999936,43.796480614000075],[-73.080259098999989,43.79788140200003],[-73.080211928999972,43.798786060000054],[-73.080265836999956,43.799676114000079]]],[[[-73.08980087599997,43.800483523000025],[-73.089726492999944,43.800799831000063],[-73.091181071999983,43.80080779900004],[-73.090964757999984,43.800329542000043],[-73.090140356999939,43.80027715500006],[-73.090123948999974,43.800411368000027],[-73.090091289999975,43.800406301000066],[-73.089830608999989,43.800368476000074],[-73.08980087599997,43.800483523000025]]],[[[-73.087703331999933,43.801321762000043],[-73.088437521999936,43.801738108000052],[-73.08911650899995,43.801453240000058],[-73.089127531999964,43.800989792000053],[-73.088974359999952,43.800980118000041],[-73.089378180999972,43.800452264000057],[-73.089392774999965,43.800433825000027],[-73.089318925999976,43.800424808000059],[-73.089184144999933,43.800371791000032],[-73.089128072999983,43.800348904000032],[-73.088654040999984,43.800116734000028],[-73.088520324999934,43.800054777000071],[-73.087995903999968,43.800489061000064],[-73.088012464999963,43.800686280000036],[-73.087780220999946,43.801163703000043],[-73.087705451999966,43.80132061300003],[-73.08770414199995,43.80132009600004],[-73.087703331999933,43.801321762000043]]],[[[-73.093177760999936,43.799522595000042],[-73.093181246999961,43.799523399000066],[-73.093179391999968,43.799526858000036],[-73.093016186999989,43.799822749000043],[-73.092948973999967,43.799947608000025],[-73.09304707299998,43.799975513000049],[-73.093425727999943,43.800079628000049],[-73.093945015999964,43.800311635000071],[-73.094274825999946,43.800585747000071],[-73.094275142999948,43.800586072000044],[-73.094280675999983,43.800590659000079],[-73.094622492999974,43.800941551000051],[-73.095793016999949,43.802139455000031],[-73.096274598999969,43.801968141000032],[-73.096720793999964,43.801810062000072],[-73.096359038999935,43.80143929500008],[-73.095870498999943,43.801014978000069],[-73.095870498999943,43.800718154000037],[-73.096350758999961,43.800592651000045],[-73.096342919999984,43.800525317000051],[-73.096336957999938,43.800311762000035],[-73.096303836999937,43.799961146000044],[-73.096212752999975,43.799708144000078],[-73.096052666999981,43.799433227000065],[-73.095434401999967,43.799475062000056],[-73.095431641999937,43.798990966000076],[-73.095362213999977,43.798990704000062],[-73.094894044999933,43.798992210000051],[-73.095610769999951,43.797265268000046],[-73.093648609999946,43.796626212000035],[-73.093587887999945,43.797508772000072],[-73.093480243999977,43.797662173000049],[-73.093322916999966,43.798120381000047],[-73.093165590999945,43.798301671000047],[-73.09297238299996,43.798542726000051],[-73.093137989999946,43.798759874000041],[-73.09312142899995,43.798963076000064],[-73.092558366999981,43.799369478000074],[-73.092857963999961,43.79944540200006],[-73.093177760999936,43.799522595000042]]]]},"properties":{"District_Name":"Village District","OBJECTID":6,"OBJECTID_1":8,"OBJECT_ID":1058,"County":"Rutland","RPC":"RRPC","Municipal_Name":"Brandon","GEO_ID":"5002107750","Abbreviated_District_Name":"Vd","District_Type":"Primarily Residential","Bylaw_Date":"2024-11-05","Elderly_Housing_District":"No","District_Mapped":"Yes","Overlay_District":"No","Base_Density":null,"FIPS6":21010,"GIS_ID":null,"Last_Update":"20260319","F1F_Allowance":"Permitted","F1F_Front_Setback":null,"F1F_Side_Setback":"15","F1F_Rear_Setback":20,"F1F_Frontage":null,"F1F_Max_Height":36,"F1F_Max_Stories":null,"F1F_Min_Lot_Size":0.125,"F1F_Max_Lot_Building_Coverage":null,"F1F_Max_Lot_Impervious_Coverage":50,"F1F_Min_Parking_Spaces":null,"F1F_Elderly_Housing_Only":null,"F1F_Affordable_Housing_Only":null,"F2F_Allowance":"Permitted","F2F_Front_Setback":null,"F2F_Side_Setback":"15","F2F_Rear_Setback":20,"F2F_Frontage":null,"F2F_Max_Density":null,"F2F_Max_Height":36,"F2F_Max_Stories":null,"F2F_Min_Lot_Size":0.125,"F2F_Max_Lot_Building_Coverage":null,"F2F_Max_Lot_Impervious_Coverage":50,"F2F_Min_Parking_Spaces_per_1BR":null,"F2F_Min_Parking_Spaces_per_mult_BR":null,"F2F_Elderly_Housing_Only":"No","F2F_Affordable_Housing_Only":"No","F3F_Allowance":"Permitted","F3F_Front_Setback":null,"F3F_Side_Setback":"15","F3F_Rear_Setback":20,"F3F_Frontage":null,"F3F_Max_Density":null,"F3F_Max_Height":36,"F3F_Max_Stories":null,"F3F_Min_Lot_Size":0.125,"F3F_Max_Lot_Building_Coverage":null,"F3F_Max_Lot_Impervious_Coverage":50,"F3F_Min_Parking_Spaces_per_1BR":null,"F3F_Min_Parking_Spaces_per_mult_BR":null,"F3F_Affordable_Housing_Only":"No","F3F_Proximity_to_Public_Transit_Required":"No","F3F_Connection_to_Sewage_Water_Required":"Yes","F4F_Allowance":"Permitted","F4F_Front_Setback":null,"F4F_Side_Setback":"15","F4F_Rear_Setback":20,"F4F_Frontage":null,"F1F_Max_Density":null,"F4F_Max_Density":null,"F4F_Max_Height":36,"F4F_Max_Stories":null,"F4F_Min_Lot_Size":0.125,"F4F_Max_Lot_Building_Coverage":null,"F4F_Max_Lot_Impervious_Coverage":50,"F4F_Min_Parking_Spaces_per_1BR":null,"F4F_Min_Parking_Spaces_per_mult_BR":null,"F3F_Elderly_Housing_Only":"No","F4F_Elderly_Housing_Only":"No","F4F_Affordable_Housing_Only":"No","F4F_Proximity_to_Public_Transit_Required":"No","F4F_Connection_to_Sewage_Water_Required":"Yes","ADU_Allowance":"Permitted","ADU_Elderly_Housing_Only":"No","ADU_Max_Size_as_Percent_of_Primary_Strcture":30,"ADU_Max_Size_in_sq_ft":null,"ADU_Min_Lot_Size":null,"ADU_Max_Bedrooms":null,"ADU_Min_Parking_Spaces":null,"ADU_Owner_Occupancy_Required":"Yes","ADU_Renter_Occupancy_Prohibited":"No","ADU_Employee_or_Family_Occupancy_Required":"No","ADU_Restricted_to_Primary_Structure":"No","Affordable_Housing_Allowance":"Not Mentioned","Affordable_Housing_District":"No","Affordable_Housing_Elderly_Only":"No","Affordable_Housing_Min_Lot_Size":null,"Affordable_Housing_Max_Density":null,"Affordable_Housing_Min_Parking_Spaces_per_mult_BR":null,"Affordable_Housing_Max_Units_per_Building":null,"Affordable_Housing_Min_Parking_Spaces_per_1BR":null,"PRD_Allowance":"Not Mentioned","PRD_Max_Density":null,"PRD_Max_Units":null,"PRD_Min_Lot_Size":null,"PRD_Mobile_or_Manufactured_Home_Park":"No","PUD_Allowance":"Not Mentioned","PUD_Required_with_Subdivision":null,"PUD_Requires_Land_Conservation":null,"PUD_Threshold_Number":null,"Notes":"Setbacks Based On Table On Page 14 Of Bylaws\r\n- not Specified Which Direction The Setbacks Apply. Side and front setback are standard between speed limit groupings. ","Shape_Length":0.055660495823801982,"Shape_Area":5.0247772692336298e-05}}]}