{"type":"FeatureCollection","features":[{"type":"Feature","id":3,"geometry":{"type":"MultiPolygon","coordinates":[[[[-73.365282663999949,43.74118328000003],[-73.365043427999979,43.74103053400006],[-73.364887489999944,43.740923989000066],[-73.364765252999973,43.740867816000048],[-73.364681952999945,43.740956202000064],[-73.364545807999946,43.741173668000044],[-73.364463404999981,43.741405354000051],[-73.364449342999933,43.741479574000039],[-73.364408955999977,43.741746382000031],[-73.364415538999936,43.741961221000054],[-73.364337012999954,43.741977144000032],[-73.364124241999946,43.742046117000029],[-73.363369905999946,43.74233266400006],[-73.363285432999987,43.742366773000072],[-73.363017414999945,43.742506057000071],[-73.362786702999983,43.742676700000061],[-73.36260021399994,43.74287415200007],[-73.362464057999944,43.743091616000072],[-73.362408954999978,43.743225915000039],[-73.362255719999951,43.743686102000026],[-73.361440855999945,43.745083540000053],[-73.361341958999958,43.745302550000076],[-73.361192577999986,43.745761862000052],[-73.360263153999938,43.74669521900006],[-73.360173651999958,43.746785054000043],[-73.359459196999978,43.747396703000049],[-73.35917445399997,43.747725115000037],[-73.358926096999937,43.748129196000036],[-73.35860215799994,43.748376052000026],[-73.358510883999941,43.74845085100003],[-73.358324362999952,43.748648296000056],[-73.358188178999967,43.748865755000054],[-73.358152363999977,43.748966015000065],[-73.35794468499995,43.749094988000081],[-73.357550272999958,43.74943406400007],[-73.356871012999989,43.750259337000045],[-73.354559562999953,43.751971565000076],[-73.35405450899998,43.752254780000044],[-73.353878972999951,43.752353410000069],[-73.35379153699995,43.752398785000025],[-73.353560760999983,43.752569410000035],[-73.353374598999949,43.752766844000064],[-73.353237998999987,43.752984300000037],[-73.353155924999953,43.753215974000057],[-73.353130919999955,43.75344975400003],[-73.353136607999943,43.753604268000061],[-73.354012861999934,43.753528110000047],[-73.354644182999948,43.753473325000073],[-73.354651984999975,43.75344893700003],[-73.354818121999983,43.753316905000077],[-73.355002923999962,43.753214969000055],[-73.355191685999955,43.753145912000036],[-73.355474966999964,43.75306560000007],[-73.355693556999938,43.752911375000053],[-73.356006620999949,43.752688517000081],[-73.356417217999933,43.752393907000055],[-73.356782764999934,43.752096820000077],[-73.357231252999952,43.751711776000036],[-73.357498632999977,43.751469708000059],[-73.357637907999958,43.75133224800004],[-73.357962295999982,43.751196914000047],[-73.358245591999946,43.751037136000036],[-73.358452284999942,43.750811694000049],[-73.358715416999985,43.750490197000033],[-73.358737708999968,43.750366834000033],[-73.358808648999968,43.75019936800004],[-73.358921145999943,43.750061967000079],[-73.359014780999985,43.749880830000052],[-73.359135076999962,43.74974618300007],[-73.359335103999967,43.74962485900005],[-73.359504637999976,43.749514733000069],[-73.359715354999935,43.74927294500003],[-73.359933358999967,43.74899819400008],[-73.360223126999983,43.748668336000037],[-73.360493488999964,43.748311199000057],[-73.360824685999944,43.747975684000039],[-73.360952978999933,43.747912276000079],[-73.361050970999941,43.747846283000058],[-73.361269757999935,43.747681077000038],[-73.361246223999956,43.74755510600005],[-73.361222896999948,43.747497622000026],[-73.361370438999984,43.74747794600006],[-73.361597397999958,43.747449796000069],[-73.361672453999972,43.747353740000051],[-73.361789009999939,43.747202523000055],[-73.361980855999946,43.746971702000053],[-73.362263125999959,43.746688586000062],[-73.362507770999969,43.74646031900005],[-73.362751772999957,43.746133331000067],[-73.362815764999937,43.746023575000038],[-73.362985156999969,43.745877724000025],[-73.363123725999969,43.745638865000046],[-73.363202039999976,43.745391883000025],[-73.363339635999978,43.744977520000077],[-73.363413715999968,43.744705958000054],[-73.363462580999965,43.744623599000079],[-73.363669461999962,43.744387177000078],[-73.363774368999941,43.744236046000026],[-73.363788962999934,43.744090801000027],[-73.363829863999968,43.743967296000051],[-73.363972906999948,43.74382431500004],[-73.364073932999986,43.743673214000069],[-73.36413327799994,43.74345646900008],[-73.364181574999975,43.74328087400005],[-73.364351720999935,43.743242038000062],[-73.364612570999952,43.743224736000059],[-73.364854525999988,43.743188450000048],[-73.365016816999969,43.743089200000043],[-73.365318723999962,43.742959499000051],[-73.365477669999962,43.74297826600008],[-73.365674515999956,43.742988589000049],[-73.365894211999944,43.742996206000043],[-73.366071638999983,43.742924404000064],[-73.366240619999985,43.742751128000066],[-73.366284502999974,43.742485137000074],[-73.366230362999943,43.742255048000061],[-73.36619107599995,43.742005720000066],[-73.366121560999943,43.741731729000037],[-73.36588980199997,43.741559801000051],[-73.365468393999947,43.741284115000042],[-73.365282663999949,43.74118328000003]]],[[[-73.364910125999984,43.740017148000049],[-73.365027242999986,43.740391474000035],[-73.365090210999938,43.74058844800004],[-73.365040682999961,43.740624403000027],[-73.365078942999958,43.740641131000075],[-73.365435373999958,43.740796365000051],[-73.36567828699998,43.740908017000038],[-73.36590572199998,43.741022458000032],[-73.366250740999988,43.741139242000031],[-73.36634515999998,43.741122494000081],[-73.366503603999945,43.741026083000065],[-73.366684627999973,43.740935127000057],[-73.366775064999956,43.740830653000046],[-73.366898603999971,43.740627483000026],[-73.366851776999965,43.740339679000044],[-73.366756103999933,43.740161799000077],[-73.366690722999977,43.73995921900007],[-73.366666358999964,43.739668713000071],[-73.366733652999983,43.73949297200005],[-73.366834531999984,43.739278865000074],[-73.366992536999987,43.739152361000038],[-73.367113030999974,43.739034158000038],[-73.367225797999936,43.738891262000038],[-73.367255034999971,43.73871299700005],[-73.36723871099997,43.738468979000061],[-73.367222887999958,43.738340278000067],[-73.367146383999966,43.738173363000044],[-73.367118747999939,43.737978794000071],[-73.367147867999961,43.737792373000048],[-73.36716163799997,43.737510016000044],[-73.367134405999934,43.737370291000047],[-73.367107544999953,43.737310022000031],[-73.367102605999946,43.737129063000054],[-73.367112741999961,43.736890611000035],[-73.36709246099997,43.736641139000028],[-73.367060704999972,43.73640286400007],[-73.367010767999943,43.736221965000027],[-73.366888005999954,43.73596750400003],[-73.366769138999985,43.735633415000052],[-73.366737864999948,43.735455327000068],[-73.366739594999956,43.735118073000081],[-73.366727572999935,43.734983858000078],[-73.366673271999957,43.734715377000043],[-73.36667224699994,43.734509777000028],[-73.366505194999945,43.734411615000056],[-73.366315573999941,43.734335422000072],[-73.366375553999944,43.734244681000064],[-73.36654151099998,43.734159323000029],[-73.366786854999987,43.734037923000074],[-73.366903941999965,43.733979938000061],[-73.366967563999935,43.733872854000026],[-73.366947460999938,43.733689338000033],[-73.366875046999951,43.733563457000059],[-73.366757422999967,43.733503454000072],[-73.366534152999975,43.73348770900003],[-73.366325764999942,43.733427972000072],[-73.366352126999971,43.73337306500008],[-73.36643464499997,43.733285106000039],[-73.366630733999955,43.73319136300006],[-73.366891002999978,43.73305620800005],[-73.367098401999954,43.732913016000055],[-73.367131610999934,43.732795053000075],[-73.367123300999936,43.732622417000073],[-73.367088464999938,43.732466296000041],[-73.366951190999941,43.732307717000026],[-73.36704150199995,43.732222370000045],[-73.367150788999936,43.732161771000051],[-73.367313048999961,43.732062658000075],[-73.367369139999937,43.731944521000059],[-73.367375878999951,43.731766427000025],[-73.367385211999988,43.731445569000073],[-73.367372777999947,43.731229086000042],[-73.367326907999939,43.731141538000031],[-73.367197795999971,43.731037745000037],[-73.367068035999978,43.730835231000071],[-73.366953160999969,43.730589008000038],[-73.36687988999995,43.730295918000081],[-73.366809265999962,43.729890442000055],[-73.366735752999944,43.729553477000024],[-73.366640017999941,43.729370112000026],[-73.366539461999935,43.729268439000066],[-73.366538871999978,43.729268638000065],[-73.366485729999965,43.729295339000032],[-73.366373074999956,43.729337258000044],[-73.366289763999987,43.729369814000052],[-73.366198786999973,43.729381895000074],[-73.366129693999937,43.729405201000077],[-73.36607810299995,43.729431891000047],[-73.365984195999943,43.729482809000046],[-73.365868723999938,43.729571580000027],[-73.365817509999943,43.729624425000054],[-73.365782213999978,43.729678274000037],[-73.36571745599997,43.729787194000039],[-73.365673277999974,43.72987078400007],[-73.365628959999981,43.729971533000025],[-73.365622156999962,43.730037823000032],[-73.365611895999962,43.73010639000006],[-73.365611231999935,43.730167993000066],[-73.365587172999938,43.73024805600005],[-73.365588694999985,43.730326800000057],[-73.365569321999942,43.730409077000047],[-73.365546319999964,43.730454817000066],[-73.365489245999981,43.730531754000026],[-73.365478178999979,43.730544354000074],[-73.365437981999946,43.730581224000048],[-73.365364890999956,43.730650266000055],[-73.365325822999978,43.730684736000057],[-73.365275946999986,43.730722804000038],[-73.36518807799996,43.730762284000036],[-73.365171720999967,43.730767418000028],[-73.365263130999949,43.731018093000046],[-73.365401930999951,43.731283122000036],[-73.365631676999953,43.731614405000073],[-73.365471235999962,43.731947658000081],[-73.36539111899998,43.732175389000076],[-73.365365849999989,43.732413956000073],[-73.365383906999966,43.733317677000059],[-73.36499551299994,43.733849262000035],[-73.364882983999962,43.734035329000051],[-73.364800591999938,43.734267016000047],[-73.364775319999978,43.734505582000054],[-73.364807445999986,43.734743292000076],[-73.364896099999953,43.734973543000081],[-73.36494425099994,43.735057841000071],[-73.365019686999972,43.735178216000065],[-73.36500093799998,43.735250081000061],[-73.364994342999978,43.735276992000081],[-73.364969070999962,43.735515559000078],[-73.365001198999948,43.735753269000043],[-73.365089854999951,43.735983520000048],[-73.365232609999964,43.736199157000044],[-73.365287785999953,43.736259352000047],[-73.365255864999938,43.73654973400005],[-73.365344127999947,43.736696861000041],[-73.36543953599994,43.736857025000063],[-73.365549071999965,43.737028472000077],[-73.365634910999972,43.737170566000032],[-73.365688201999944,43.737261434000061],[-73.365720770999985,43.737341068000035],[-73.365774827999985,43.737458088000039],[-73.365828416999989,43.737569627000028],[-73.365913931999955,43.737716083000066],[-73.36595809399995,43.737846397000055],[-73.365970249999975,43.737882308000053],[-73.366007490999948,43.737963031000049],[-73.366043930999979,43.738068934000069],[-73.366104217999975,43.738214455000048],[-73.366132281999967,43.738304389000064],[-73.366155789999937,43.738401249000049],[-73.366175799999951,43.738470711000048],[-73.366191220999951,43.738544709000053],[-73.366199075999987,43.738605262000078],[-73.366199949999952,43.738612006000039],[-73.366188852999983,43.738703362000081],[-73.366161803999944,43.73879146400003],[-73.366132855999979,43.73885553100007],[-73.366123486999982,43.738878385000078],[-73.366110327999934,43.738934316000041],[-73.366085738999971,43.73897781800008],[-73.366047871999967,43.73904209300008],[-73.366041053999936,43.739053537000075],[-73.366015109999978,43.739110690000075],[-73.365976631999956,43.739186362000055],[-73.365967781999984,43.739218353000069],[-73.365946510999947,43.739276736000079],[-73.365935001999958,43.739339546000053],[-73.365927983999939,43.739390931000059],[-73.365925555999979,43.739437781000049],[-73.365929578999953,43.739501598000061],[-73.365939727999944,43.739559744000076],[-73.365945757999953,43.739628187000051],[-73.365971742999989,43.739681572000052],[-73.365972583999962,43.739686066000047],[-73.365985193999961,43.739753475000043],[-73.366008470999986,43.739834304000055],[-73.36602821799994,43.739885486000048],[-73.366045157999963,43.739957222000044],[-73.366052004999972,43.740001610000036],[-73.366055831999972,43.740051788000073],[-73.366069670999934,43.74012368700005],[-73.366076549999946,43.740170326000055],[-73.366068194999968,43.740236628000048],[-73.366058887999941,43.740290702000038],[-73.366056381999954,43.740305206000073],[-73.36604026699996,43.740371427000071],[-73.365885894999963,43.740373581000028],[-73.365899507999984,43.74032214600004],[-73.365915308999945,43.740234130000033],[-73.365911169999947,43.74016229700004],[-73.365907113999981,43.740096230000063],[-73.365901701999974,43.740043674000049],[-73.365886444999944,43.739981066000041],[-73.365852174999986,43.73989117900004],[-73.365819231999978,43.739812674000063],[-73.365804083999933,43.739730658000042],[-73.365795822999985,43.73972270400003],[-73.365764671999955,43.739633919000028],[-73.365760960999978,43.739591757000028],[-73.365742469999986,43.739520033000076],[-73.365744636999978,43.739455043000078],[-73.365750563999939,43.739435591000074],[-73.365754420999963,43.739353290000054],[-73.365759986999933,43.739308808000033],[-73.365769696999962,43.739228854000032],[-73.365792519999957,43.739170458000046],[-73.365817041999946,43.739122316000078],[-73.365867838999975,43.739039942000034],[-73.365906095999947,43.738975804000063],[-73.365965715999948,43.738832749000039],[-73.365994316999945,43.738744636000035],[-73.366000922999945,43.738664705000076],[-73.366006888999948,43.738540339000053],[-73.365999531999989,43.738460515000043],[-73.365987376999954,43.738397743000064],[-73.365934287999949,43.738213352000059],[-73.365885222999964,43.738092778000066],[-73.365800026999977,43.737914677000049],[-73.36579723899996,43.73790963600004],[-73.365742895999972,43.737745786000062],[-73.365677878999975,43.737621958000034],[-73.365591787999961,43.737435426000047],[-73.365528552999933,43.737327476000075],[-73.365444835999938,43.737198023000076],[-73.365353637999988,43.73700702900004],[-73.365294025999958,43.736908192000044],[-73.36526065399994,43.736849441000061],[-73.365274350999982,43.737023521000026],[-73.365442704999964,43.737642584000071],[-73.365393143999938,43.737864599000034],[-73.365369333999979,43.73809682600006],[-73.365401464999934,43.738334536000025],[-73.365450223999972,43.738460878000069],[-73.365453791999983,43.738627784000073],[-73.365141777999952,43.73899692100008],[-73.365106710999953,43.739040221000039],[-73.364970572999937,43.739257687000077],[-73.364888561999976,43.739489370000058],[-73.364863286999935,43.739727796000068],[-73.364895415999968,43.739965506000033],[-73.364910125999984,43.740017148000049]]],[[[-73.365359329999933,43.72897099100004],[-73.36541529699997,43.728817276000029],[-73.365387705999979,43.728598094000063],[-73.365303218999941,43.728387361000046],[-73.365245775999938,43.728303837000055],[-73.365223235999963,43.728327774000036],[-73.365140887999985,43.728454125000042],[-73.365082447999953,43.728543870000067],[-73.364993428999981,43.728691929000036],[-73.364943171999982,43.728784285000074],[-73.364861173999941,43.729015968000056],[-73.36483590499995,43.729254534000063],[-73.364848027999983,43.729396202000032],[-73.364967106999984,43.730150931000026],[-73.365018009999972,43.730345887000055],[-73.365121226999975,43.730628945000035],[-73.365134472999955,43.73062219600007],[-73.365234423999937,43.730559841000058],[-73.365285687999972,43.730510372000026],[-73.365338207999969,43.730440360000046],[-73.365372339999965,43.730386379000038],[-73.365394378999952,43.730300707000026],[-73.365398187999972,43.730215031000057],[-73.365407783999956,43.730127203000052],[-73.365406878999977,43.730064346000063],[-73.36540993899996,43.729953643000044],[-73.365440039999953,43.729862144000037],[-73.365469015999963,43.729800326000031],[-73.365490886999964,43.729766578000067],[-73.365397900999938,43.729818022000075],[-73.365208846999963,43.729780076000054],[-73.365106129999958,43.729731069000024],[-73.364980857999967,43.729597148000039],[-73.364866156999938,43.729389174000062],[-73.36486881999997,43.729169905000049],[-73.364985740999941,43.729100953000057],[-73.365197234999982,43.729081210000061],[-73.365287827999964,43.729042553000056],[-73.365359329999933,43.72897099100004]]],[[[-73.365729675999944,43.723149428000056],[-73.365747769999984,43.722870834000048],[-73.365737187999969,43.722809316000053],[-73.365742678999936,43.72273277000005],[-73.365740975999984,43.722725789000037],[-73.36538775799994,43.724183714000048],[-73.365359577999982,43.724435382000081],[-73.365391700999965,43.724673092000046],[-73.365465625999946,43.724871611000026],[-73.365468396999972,43.724854915000037],[-73.365518183999939,43.72459548900008],[-73.36554496499997,43.724489107000068],[-73.36558765999996,43.724302864000038],[-73.365595907999989,43.724229250000064],[-73.36560445899994,43.724149727000054],[-73.365648418999967,43.723916643000052],[-73.365676890999964,43.723712226000032],[-73.36571324099998,43.723408602000063],[-73.365729675999944,43.723149428000056]]],[[[-73.365803670999981,43.725486497000077],[-73.365995354999939,43.725680949000036],[-73.366074217999937,43.725743778000037],[-73.36639179499997,43.725980872000036],[-73.366136420999965,43.726485994000029],[-73.366186543999959,43.726540747000058],[-73.366237895999973,43.72660533100003],[-73.366311799999949,43.726700684000036],[-73.366373214999953,43.726817648000065],[-73.366404666999983,43.72690080600006],[-73.366442813999981,43.727017947000036],[-73.366447134999987,43.727102435000063],[-73.366453416999946,43.727215317000059],[-73.366458032999958,43.727320336000048],[-73.366478613999959,43.727429594000057],[-73.366478049999955,43.727498087000072],[-73.366466789999947,43.72760491400004],[-73.366461588999982,43.727647707000074],[-73.366484533999937,43.727705755000045],[-73.366515283999945,43.727767120000067],[-73.36653038999998,43.727792601000033],[-73.366550655999959,43.727826200000038],[-73.366628116999948,43.727926026000034],[-73.366698119999967,43.72799285900004],[-73.366755886999954,43.728044877000059],[-73.366838489999964,43.728097833000049],[-73.366851391999944,43.728104907000045],[-73.366908469999942,43.728136117000076],[-73.367009782999958,43.728168538000034],[-73.367100070999982,43.728189511000039],[-73.367191925999975,43.72821159700004],[-73.367281760999958,43.728228073000025],[-73.367333876999965,43.728237944000057],[-73.367378668999947,43.728249393000056],[-73.367499460999966,43.728101115000072],[-73.367611438999973,43.727851342000065],[-73.367625504999978,43.727670379000074],[-73.367596931999969,43.727303118000066],[-73.367622189999963,43.72706455000008],[-73.367737623999972,43.726705056000071],[-73.367908960999955,43.726268631000039],[-73.367970973999945,43.725862711000048],[-73.367936251999936,43.725687462000053],[-73.367782803999944,43.725348010000062],[-73.367638522999982,43.725186673000053],[-73.367402376999962,43.724921541000072],[-73.367246131999934,43.724683507000066],[-73.367195162999963,43.724376607000067],[-73.367223571999943,43.724033805000033],[-73.367251823999936,43.723680176000073],[-73.367287545999943,43.723279799000068],[-73.367278399999975,43.723022226000069],[-73.367345714999942,43.722849296000049],[-73.367484299999944,43.722643199000061],[-73.367706226999985,43.722434360000079],[-73.367962269999964,43.722197837000067],[-73.368316553999989,43.721996710000042],[-73.368414605999988,43.721911444000057],[-73.368477514999938,43.721675403000063],[-73.368419873999983,43.721497516000056],[-73.368309751999959,43.721418331000052],[-73.367957322999985,43.721317923000072],[-73.367650917999981,43.721316171000069],[-73.367556078999939,43.721247839000057],[-73.367574465999951,43.721124503000055],[-73.367678705999936,43.720850037000048],[-73.367764466999972,43.720638715000064],[-73.36781956599998,43.720345214000076],[-73.367810528999939,43.720068373000061],[-73.367677474999937,43.719931701000064],[-73.367499175999967,43.719830813000044],[-73.367297381999947,43.719606626000029],[-73.367085275999955,43.719527792000065],[-73.366850810999949,43.719511991000047],[-73.366537093999966,43.719540388000041],[-73.366121391999968,43.719596417000048],[-73.366043226999977,43.719608401000073],[-73.366045783999937,43.719624414000066],[-73.366062770999974,43.719699806000051],[-73.366108495999981,43.719858799000065],[-73.366130531999943,43.719934715000079],[-73.366272863999939,43.720150355000044],[-73.36639766199994,43.720279496000046],[-73.366462224999964,43.720346230000075],[-73.366585704999977,43.720464552000067],[-73.366572746999964,43.720534124000039],[-73.366542372999959,43.720767667000075],[-73.366532598999981,43.720842981000033],[-73.366515171999936,43.721006109000029],[-73.366547296999954,43.721243819000051],[-73.366556687999946,43.721276516000046],[-73.36661055899998,43.721462308000071],[-73.366465112999947,43.721542166000063],[-73.366234489999954,43.721712817000025],[-73.366048463999959,43.72191027100007],[-73.365911978999975,43.722127742000055],[-73.365832907999959,43.722346325000046],[-73.365802637999934,43.722471268000049],[-73.365811178999934,43.722480233000056],[-73.365864192999936,43.722552821000079],[-73.365914550999946,43.722656369000049],[-73.365940611999974,43.722715519000076],[-73.365935278999984,43.72277603200007],[-73.365934745999937,43.72284677600004],[-73.365919228999985,43.723088785000073],[-73.365900183999941,43.723382153000045],[-73.365859435999937,43.72373039200005],[-73.365843237999968,43.723898291000069],[-73.36579317099995,43.724138172000039],[-73.365775949999943,43.72423505900008],[-73.365764142999979,43.724303918000032],[-73.365728503999946,43.724468450000074],[-73.365670437999938,43.724691514000028],[-73.365617655999984,43.725066143000049],[-73.365604595999969,43.725156488000039],[-73.365650553999956,43.725249844000075],[-73.365660939999941,43.72527086000008],[-73.365803670999981,43.725486497000077]]],[[[-73.365938483999969,43.729331955000077],[-73.365860693999934,43.729364205000081],[-73.365819547999934,43.729401177000057],[-73.365875425999945,43.729363672000034],[-73.365938483999969,43.729331955000077]]],[[[-73.366258456999958,43.727547568000034],[-73.366251132999935,43.727469993000057],[-73.366254635999951,43.727390086000071],[-73.366251704999968,43.727290280000034],[-73.366239254999982,43.727345481000043],[-73.366175590999944,43.727422468000043],[-73.366111934999935,43.727526880000028],[-73.366067374999943,43.727691479000043],[-73.36605035599996,43.728017739000052],[-73.366021126999954,43.728223428000035],[-73.365999344999977,43.728434545000027],[-73.366079665999962,43.728571336000073],[-73.366227279999976,43.728559951000079],[-73.366495632999943,43.728556370000035],[-73.36685489499996,43.72853606700005],[-73.366998346999935,43.728478162000044],[-73.367220509999981,43.728368565000039],[-73.367180101999963,43.728359916000045],[-73.367118273999949,43.728348993000054],[-73.367055149999942,43.72832894000004],[-73.367001497999979,43.728320205000045],[-73.36693506499995,43.728312693000078],[-73.366871388999982,43.728281252000045],[-73.366820658999984,43.728259979000029],[-73.36672533899997,43.728212746000054],[-73.366626832999941,43.728159770000048],[-73.366521810999984,43.728085327000031],[-73.366446781999969,43.728019657000061],[-73.366335879999951,43.727887035000037],[-73.366285927999968,43.727812034000067],[-73.366274197999985,43.727751650000073],[-73.366256997999983,43.727661633000025],[-73.366258456999958,43.727547568000034]]],[[[-73.366126052999959,43.729260235000027],[-73.366230032999965,43.729235398000071],[-73.366393139999957,43.729195487000027],[-73.366406643999937,43.72918999400008],[-73.366325263999954,43.729195580000066],[-73.366113628999983,43.72925934400007],[-73.366057063999961,43.729282795000074],[-73.366126052999959,43.729260235000027]]],[[[-73.366223514999945,43.726996837000058],[-73.366214723999974,43.726935154000046],[-73.366176689999975,43.726825888000064],[-73.366126937999979,43.726764667000054],[-73.366080758999942,43.726699465000081],[-73.366168261999974,43.726833124000052],[-73.366223514999945,43.726996837000058]]],[[[-73.368904411999949,43.718073033000053],[-73.368585166999935,43.71801343900006],[-73.368256432999942,43.71799498200005],[-73.368229291999967,43.717995329000075],[-73.368192462999957,43.717996172000028],[-73.368322011999965,43.718158886000026],[-73.36844038299995,43.718353188000037],[-73.368649590999951,43.718607413000029],[-73.368946174999962,43.718869693000045],[-73.369136497999989,43.719104934000029],[-73.369326948999969,43.719375754000055],[-73.369501630999935,43.719440946000077],[-73.369864652999979,43.719469967000066],[-73.370079979999957,43.719422762000079],[-73.370347917999936,43.719339717000025],[-73.370464597999955,43.719202272000075],[-73.370614479999972,43.718974286000048],[-73.370681463999972,43.718779419000043],[-73.370809426999983,43.718644700000027],[-73.371145253999941,43.718536806000031],[-73.371549288999972,43.718425858000046],[-73.371756725999944,43.718342989000064],[-73.372035842999935,43.718202335000058],[-73.372382601999959,43.717992956000046],[-73.372869179999952,43.717744817000039],[-73.37341592599995,43.717474419000041],[-73.373623205999934,43.717301119000069],[-73.373860423999986,43.717133216000036],[-73.373977181999976,43.717028676000041],[-73.374262785999974,43.716748175000077],[-73.374499696999976,43.716506158000072],[-73.374601239999947,43.716368825000075],[-73.374601198999983,43.716366012000037],[-73.374600590999989,43.716297528000041],[-73.374576769999976,43.716072835000034],[-73.374499943999979,43.715856564000035],[-73.374302265999972,43.715676235000046],[-73.374115293999978,43.715405396000051],[-73.374206049999941,43.715353089000075],[-73.37430427299995,43.715360917000055],[-73.374509126999953,43.715448090000052],[-73.374815774999945,43.715548547000026],[-73.374913817999982,43.715490699000043],[-73.374943361999954,43.715389075000076],[-73.374908596999944,43.715238440000064],[-73.375036953999938,43.715158561000067],[-73.375108848999957,43.715169262000074],[-73.375271625999972,43.715242833000048],[-73.375332709999952,43.715363311000033],[-73.375416819999941,43.71546715900007],[-73.375590539999962,43.715466672000048],[-73.375726354999983,43.715419644000065],[-73.375865745999988,43.715298614000062],[-73.376170902999945,43.715083776000029],[-73.376461359999951,43.714951321000058],[-73.376661393999939,43.714920535000033],[-73.376820295999948,43.714914534000059],[-73.37708084999997,43.714858953000032],[-73.377371926999956,43.714822404000074],[-73.377560357999982,43.714687495000078],[-73.377736597999956,43.71443468700005],[-73.377837648999957,43.714264445000026],[-73.378127326999959,43.713972934000026],[-73.378402277999953,43.713788418000036],[-73.378715867999972,43.713727222000045],[-73.378934988999958,43.713729194000052],[-73.379331837999985,43.713686904000042],[-73.379679559999943,43.713652867000064],[-73.380049691999943,43.713533853000058],[-73.380483438999988,43.713389878000044],[-73.380894922999971,43.713235102000056],[-73.381529000999933,43.713054983000063],[-73.381982424999933,43.712957540000048],[-73.382069643999955,43.712982041000032],[-73.382323380999935,43.713044212000057],[-73.382592282999951,43.713109219000046],[-73.38283787599994,43.713091993000035],[-73.382985125999937,43.71305865000005],[-73.383215001999986,43.712948163000078],[-73.383381275999966,43.712890062000042],[-73.383603501999971,43.712760507000041],[-73.383825833999936,43.712611824000078],[-73.384062907999976,43.712410992000059],[-73.384216503999937,43.712150051000037],[-73.384324667999977,43.711911260000079],[-73.384478383999976,43.711658615000033],[-73.384636438999962,43.711542915000052],[-73.384790802999987,43.71141360200005],[-73.385016503999964,43.711204558000077],[-73.385332109999979,43.710912969000049],[-73.385516721999977,43.710731385000031],[-73.385723976999941,43.710612912000045],[-73.38605112099998,43.710367921000056],[-73.386382130999948,43.710043441000039],[-73.386555662999967,43.709952370000053],[-73.386803760999953,43.709737805000032],[-73.386976214999947,43.709468558000026],[-73.386975662999987,43.709325958000079],[-73.387038883999935,43.709169503000055],[-73.387184712999954,43.708856583000056],[-73.38733732299994,43.708477794000032],[-73.387501546999943,43.708071630000063],[-73.387552620999941,43.707775338000033],[-73.387685310999984,43.707229346000076],[-73.387823116999982,43.706872610000062],[-73.388047531999973,43.706446992000053],[-73.388182560999951,43.706243710000081],[-73.388452650999966,43.705891992000033],[-73.388765145999969,43.705655264000029],[-73.389044284999954,43.705522725000037],[-73.389206095999953,43.705374221000056],[-73.389461395999945,43.705071838000038],[-73.389712792999944,43.704794096000057],[-73.389873514999977,43.704467415000067],[-73.390050520999978,43.704324277000069],[-73.390298262999977,43.704035733000069],[-73.390572589999977,43.703736012000036],[-73.390643525999963,43.703604106000057],[-73.390703585999972,43.703497036000044],[-73.390876872999968,43.70336489500005],[-73.391121333999934,43.703169475000038],[-73.391362300999958,43.703026117000036],[-73.391475068999966,43.702891634000025],[-73.391677882999943,43.702685428000052],[-73.391851064999969,43.702520378000031],[-73.391963723999936,43.702404881000064],[-73.392245077999974,43.702031127000055],[-73.392496127999948,43.701679407000029],[-73.392683839999961,43.701396530000068],[-73.39269392999995,43.70118817000008],[-73.392613707999942,43.70105955300005],[-73.392469213999959,43.700936641000055],[-73.392366122999988,43.700756027000068],[-73.392274903999976,43.700643950000028],[-73.392051262999985,43.700595348000036],[-73.391963940999972,43.700510664000035],[-73.391947933999973,43.700346246000038],[-73.39205562099994,43.700052602000028],[-73.392235896999978,43.699843618000045],[-73.392385811999986,43.699626572000057],[-73.392324306999967,43.699426647000053],[-73.392198406999967,43.699276307000048],[-73.391970454999978,43.699093432000041],[-73.391954305999946,43.698893293000026],[-73.391986581999959,43.698586175000059],[-73.391970413999957,43.698410789000036],[-73.391893526999979,43.698219140000049],[-73.391802191999943,43.698098906000041],[-73.391570628999943,43.697959797000067],[-73.391395505999981,43.697757522000074],[-73.391225167999949,43.697695002000046],[-73.391115561999982,43.697728203000054],[-73.391029292999974,43.697819023000079],[-73.390890156999944,43.69792628700003],[-73.390648700999975,43.698061491000033],[-73.390566504999981,43.698217955000075],[-73.390472217999957,43.698264818000041],[-73.390260843999954,43.698284748000049],[-73.390037756999959,43.698299142000053],[-73.389852336999979,43.69829158500005],[-73.389750805999938,43.698346661000073],[-73.389584658999979,43.698410256000045],[-73.389467504999971,43.698405120000075],[-73.38936143899997,43.698337034000076],[-73.389391030999946,43.698240891000069],[-73.389537818999941,43.698152695000033],[-73.389654773999951,43.698092015000043],[-73.389824368999939,43.698025721000079],[-73.390009348999968,43.697951150000051],[-73.390269211999964,43.69780230300006],[-73.390415617999963,43.697609899000042],[-73.390456171999972,43.697442508000051],[-73.39043294399994,43.697313727000051],[-73.390336507999962,43.697031801000037],[-73.39021070299998,43.696834767000041],[-73.390172132999965,43.696717074000048],[-73.390235976999975,43.696656525000037],[-73.390257540999983,43.696437107000065],[-73.390298193999968,43.696302624000054],[-73.390256112999964,43.696209570000065],[-73.390194034999979,43.695943972000066],[-73.390144549999945,43.695848303000048],[-73.390014946999941,43.695708818000071],[-73.389889529999948,43.695563955000068],[-73.389706366999974,43.695315191000077],[-73.389516642999979,43.695173219000026],[-73.389285519999987,43.69508894900008],[-73.388926349999963,43.695048990000032],[-73.388774750999971,43.694994618000067],[-73.388520319999941,43.694828256000051],[-73.388270065999961,43.694708410000032],[-73.388107769999976,43.694717125000068],[-73.387816714999985,43.69474821700004],[-73.387499705999971,43.694806792000065],[-73.387489689999938,43.694811089000041],[-73.387515337999957,43.694999341000027],[-73.387603629999944,43.695229579000056],[-73.387746366999977,43.695445189000054],[-73.387938023999936,43.695639606000043],[-73.387983525999971,43.695675817000051],[-73.388160036999977,43.695815784000047],[-73.388464002999967,43.696054893000053],[-73.389122578999945,43.696864331000029],[-73.389105158999939,43.696892313000035],[-73.389012750999939,43.697039995000068],[-73.388930500999948,43.697271699000055],[-73.388905337999972,43.697510271000056],[-73.388937536999947,43.697747976000073],[-73.389014540999938,43.697948204000056],[-73.389026226999988,43.697978209000041],[-73.389168586999972,43.698193821000075],[-73.389360256999964,43.698388234000049],[-73.389595721999967,43.698555446000057],[-73.38986792999998,43.698690587000044],[-73.390125139999952,43.698781403000055],[-73.390162551999936,43.698794613000075],[-73.390668644999948,43.699068284000077],[-73.390268563999939,43.699644912000053],[-73.390204369999935,43.699760592000075],[-73.390068603999964,43.700200853000069],[-73.390048393999962,43.700276110000061],[-73.390023234999944,43.700514682000062],[-73.390055439999969,43.700752386000033],[-73.390144138999972,43.700982619000058],[-73.390286509999953,43.701198228000067],[-73.390478193999968,43.701392640000051],[-73.390573404999941,43.701460247000057],[-73.390291639999987,43.701937789000056],[-73.389476135999985,43.702450284000065],[-73.389071994999938,43.702806845000055],[-73.388175001999969,43.703946213000052],[-73.38814119999995,43.703993869000044],[-73.388023430999965,43.704157921000046],[-73.387807333999945,43.704463513000064],[-73.386965651999958,43.705123860000072],[-73.386644284999988,43.705469222000033],[-73.386280695999972,43.706028113000059],[-73.386166137999965,43.706252752000069],[-73.385098604999939,43.709089757000072],[-73.383076479999943,43.710750406000045],[-73.383032050999986,43.71078787700003],[-73.382846112999971,43.710985358000073],[-73.382720257999949,43.711181532000069],[-73.382497862999969,43.711616405000029],[-73.38241401199997,43.711689198000045],[-73.382279866999966,43.711664075000044],[-73.38195077599994,43.711645661000034],[-73.381623075999983,43.711669143000051],[-73.381305667999982,43.711733471000059],[-73.381231161999949,43.711756125000079],[-73.381001850999951,43.711825679000071],[-73.38017307399997,43.71208155000005],[-73.37984953199998,43.712230442000077],[-73.379697299999975,43.712241318000054],[-73.379379498999981,43.712305643000036],[-73.379327753999974,43.712320386000044],[-73.378740517999972,43.712495070000045],[-73.378290182999933,43.712538613000049],[-73.378192632999969,43.712550051000051],[-73.377875216999939,43.71261436900005],[-73.377577753999958,43.712717488000067],[-73.377499170999954,43.712753250000048],[-73.376987399999962,43.712998086000027],[-73.376798127999962,43.713101639000058],[-73.376567565999949,43.713272310000036],[-73.376381599999945,43.713469781000072],[-73.376245171999983,43.713687264000043],[-73.376197944999944,43.713799291000043],[-73.376163674999987,43.713895748000027],[-73.374722807999945,43.714569174000076],[-73.374516194999956,43.714680872000031],[-73.374285621999945,43.714851539000051],[-73.374149554999974,43.714988011000059],[-73.374011472999939,43.715145875000076],[-73.373599342999967,43.715365041000041],[-73.37322317099995,43.715630621000059],[-73.372897201999933,43.71593533600003],[-73.372743742999944,43.716102879000061],[-73.372607682999956,43.71632035500005],[-73.372525343999939,43.716552046000061],[-73.372519212999975,43.716583877000062],[-73.372510571999953,43.71662979000007],[-73.372081618999971,43.716786355000067],[-73.370813554999984,43.71743028700007],[-73.370673532999945,43.717508703000078],[-73.369551166999941,43.718200311000032],[-73.369397013999958,43.718267300000036],[-73.369204443999934,43.718171586000039],[-73.368904411999949,43.718073033000053]]],[[[-73.388142847999973,43.693705684000065],[-73.387912392999965,43.693876378000027],[-73.387726522999969,43.694073868000032],[-73.387590178999972,43.694291364000037],[-73.387548504999984,43.694409540000038],[-73.387841240999933,43.694413736000058],[-73.388105895999956,43.69438003700003],[-73.388517564999972,43.694326630000035],[-73.388702590999969,43.694282158000078],[-73.388883441999951,43.694191167000042],[-73.389052706999962,43.694050762000074],[-73.389252752999937,43.69397340300003],[-73.389468272999977,43.693972710000025],[-73.389528956999982,43.69406562000006],[-73.389575155999978,43.694175237000024],[-73.389557145999959,43.694320513000036],[-73.389584627999966,43.694501297000045],[-73.389649654999971,43.694651974000067],[-73.389718015999961,43.69468730400007],[-73.389895834999948,43.69470589000008],[-73.39019820599998,43.694732366000039],[-73.390285580999944,43.694795112000065],[-73.390380703999938,43.694909973000051],[-73.390570410999942,43.695024519000071],[-73.39075281099997,43.695169218000046],[-73.391014172999974,43.695253390000062],[-73.39126786199995,43.695342966000055],[-73.391295068999966,43.695452449000072],[-73.391284129999974,43.695499085000051],[-73.391167361999976,43.695598159000042],[-73.391130239999939,43.695735286000058],[-73.391109006999955,43.695924466000065],[-73.391120912999952,43.69604785100006],[-73.391208248999988,43.696107784000048],[-73.39148053599996,43.696117896000032],[-73.391665764999971,43.696139233000054],[-73.391802455999937,43.696207360000074],[-73.391871080999977,43.696338740000044],[-73.392057645999955,43.696554706000029],[-73.392190052999979,43.696595301000059],[-73.392227719999937,43.696521173000065],[-73.39222356199997,43.696449904000076],[-73.392195645999948,43.696214276000035],[-73.392243561999976,43.695994792000079],[-73.392275411999947,43.695632970000077],[-73.392345466999984,43.695364091000044],[-73.39244989599996,43.695138963000034],[-73.392581795999945,43.695067193000057],[-73.392710207999983,43.694995451000068],[-73.392890587999943,43.694846937000079],[-73.393210902999954,43.694645717000071],[-73.393545703999962,43.694376033000026],[-73.393775004999952,43.69418072600007],[-73.394041884999979,43.693905806000032],[-73.394255514999941,43.693595300000027],[-73.394515187999957,43.693383440000048],[-73.394820350999964,43.693206944000053],[-73.395201363999945,43.693074155000033],[-73.395510766999962,43.69297441100008],[-73.395812295999974,43.692866572000071],[-73.396076427999958,43.692772526000056],[-73.396396761999938,43.69262614400003],[-73.396569801999988,43.692480354000054],[-73.396750816999941,43.692375567000056],[-73.396870403999969,43.692180552000025],[-73.396887920999973,43.691925443000059],[-73.39684938399995,43.691810565000026],[-73.396745987999964,43.691583265000077],[-73.396662568999943,43.691525978000072],[-73.396563973999946,43.691490749000025],[-73.396442670999988,43.691414351000049],[-73.396355192999977,43.691318701000057],[-73.39617317799997,43.691226043000029],[-73.395896771999958,43.691172097000049],[-73.395681525999976,43.691216678000046],[-73.395398388999979,43.691283448000036],[-73.395160782999938,43.691388395000047],[-73.39496477299997,43.69144927800005],[-73.39471184699994,43.691488526000057],[-73.394428582999979,43.691546997000046],[-73.394206559999986,43.691709481000032],[-73.393951012999935,43.691989938000063],[-73.393609693999963,43.692393980000077],[-73.393500259999939,43.69249032700003],[-73.393281823999985,43.692581479000069],[-73.393115909999949,43.69260724600008],[-73.392997603999959,43.692732632000059],[-73.392861668999956,43.692950132000078],[-73.392821572999935,43.693043265000028],[-73.392754063999973,43.693222118000051],[-73.391536582999947,43.693935220000071],[-73.391493552999975,43.69396129200004],[-73.391376604999948,43.694047991000048],[-73.391315622999969,43.693987431000039],[-73.391080171999988,43.693820223000046],[-73.390807982999945,43.693685085000027],[-73.390524768999967,43.693590675000053],[-73.390016920999983,43.693457230000035],[-73.389681833999987,43.693393740000033],[-73.389353229999983,43.693375343000071],[-73.389025631999971,43.693398846000036],[-73.38870794099995,43.693463196000039],[-73.388410978999957,43.693566340000075],[-73.388142847999973,43.693705684000065]]],[[[-73.406646298999988,43.673894067000049],[-73.406057301999965,43.673870118000025],[-73.405631839999955,43.673846418000039],[-73.404949709999983,43.673813849000055],[-73.404392769999959,43.673782746000029],[-73.404206572999954,43.673847505000026],[-73.403938952999965,43.673986812000066],[-73.403743047999967,43.674127802000044],[-73.403175847999989,43.674601305000067],[-73.403141030999961,43.674631114000078],[-73.40295526899996,43.674828558000058],[-73.40281902299995,43.675046143000031],[-73.402718851999964,43.675266115000056],[-73.401823113999967,43.676005265000072],[-73.401508774999968,43.676364186000058],[-73.401162825999961,43.67694169300006],[-73.399473903999933,43.677353980000078],[-73.399410978999981,43.677370367000037],[-73.399114114999975,43.677473538000072],[-73.398846468999977,43.677612904000057],[-73.398650921999945,43.677753530000075],[-73.398041534999948,43.678261655000028],[-73.397863485999949,43.678354467000077],[-73.397633116999941,43.678525180000065],[-73.397446937999973,43.67872268800005],[-73.397311049999985,43.678940193000074],[-73.39722885499998,43.679171903000054],[-73.39720373199998,43.679410477000033],[-73.397207058999982,43.679477675000044],[-73.397225477999939,43.679699454000058],[-73.397254372999953,43.67986995900003],[-73.397343066999952,43.680100186000061],[-73.39748541299997,43.68031578800003],[-73.398275358999967,43.681283766000035],[-73.398466607999978,43.681477606000044],[-73.398702029999981,43.681644799000026],[-73.398836445999962,43.681717998000067],[-73.399951241999986,43.682272753000063],[-73.399999195999953,43.682343537000065],[-73.400363057999982,43.682883244000038],[-73.399986867999985,43.683229920000031],[-73.399842579999984,43.683455932000072],[-73.399760775999937,43.683687640000073],[-73.399735658999987,43.683926075000045],[-73.399767892999989,43.684163777000037],[-73.399856602999989,43.684394002000033],[-73.399998968999967,43.684609600000044],[-73.40019062999994,43.684803996000028],[-73.400277597999946,43.684865754000043],[-73.400098382999943,43.684959422000077],[-73.399867994999966,43.68513013900008],[-73.399811034999971,43.685183045000031],[-73.399548296999967,43.68544557000007],[-73.399494069999946,43.68549986000005],[-73.39936053699995,43.685641968000027],[-73.399261842999977,43.685807148000038],[-73.399230084999942,43.685860699000045],[-73.399180738999974,43.685982315000047],[-73.398724975999983,43.686167178000062],[-73.398449221999954,43.686207458000069],[-73.398157493999975,43.686268256000062],[-73.397860583999943,43.686371424000072],[-73.397592894999946,43.686510787000032],[-73.397362493999935,43.686681499000031],[-73.397253992999936,43.686787265000078],[-73.396945012999936,43.687121168000033],[-73.396816847999958,43.687181944000031],[-73.396618451999984,43.687289821000036],[-73.396388044999981,43.687460531000056],[-73.396202222999989,43.687658034000037],[-73.396065922999981,43.687875541000039],[-73.395984098999975,43.688107247000062],[-73.395958967999945,43.688345821000041],[-73.395965514999943,43.688447168000039],[-73.396049873999971,43.689166701000033],[-73.39579422199995,43.68915239100005],[-73.395466649999946,43.689175912000053],[-73.395149375999949,43.689240277000067],[-73.394852058999959,43.689343441000062],[-73.394584348999956,43.689482797000039],[-73.394397562999984,43.689616175000026],[-73.394271573999958,43.689719684000067],[-73.393941524999946,43.689785411000059],[-73.393644201999962,43.689888572000029],[-73.393376487999944,43.690027924000049],[-73.393146061999971,43.690198628000076],[-73.392959832999964,43.690396129000078],[-73.392823902999965,43.69061362900004],[-73.392741674999968,43.690845336000052],[-73.392716916999973,43.691083906000074],[-73.392749127999934,43.691321610000045],[-73.392768332999935,43.691388121000045],[-73.392810137999959,43.691514788000063],[-73.392879236999988,43.691678370000034],[-73.393021595999983,43.691893977000063],[-73.393024348999973,43.691896627000062],[-73.393114672999957,43.691792555000063],[-73.393317584999977,43.691621925000049],[-73.39349077299994,43.691459684000051],[-73.393667262999941,43.691258884000035],[-73.393915683999978,43.691151183000045],[-73.394319758999984,43.691031998000028],[-73.394693129999951,43.690907426000081],[-73.394813186999954,43.690769930000044],[-73.39500464799994,43.690533569000081],[-73.395193004999953,43.690401444000031],[-73.395393028999933,43.690376110000045],[-73.395650254999964,43.690391674000068],[-73.395854500999974,43.69041566900006],[-73.396100304999948,43.690445104000048],[-73.396206426999981,43.69049138400004],[-73.396391904999973,43.690556450000031],[-73.396619410999961,43.690632578000077],[-73.396861827999942,43.690694806000067],[-73.396933370999989,43.690683556000067],[-73.397065379999958,43.690620078000052],[-73.397158664999949,43.690403189000051],[-73.397176655999942,43.69025791200005],[-73.397214271999985,43.690233006000028],[-73.39739091499996,43.69009548400004],[-73.397601580999947,43.689900175000048],[-73.397646373999976,43.68978478300005],[-73.397667480999985,43.689562695000063],[-73.397663110999986,43.689425610000058],[-73.397583181999948,43.689316260000055],[-73.39753266699995,43.689151973000037],[-73.397524094999937,43.688992982000059],[-73.397610217999954,43.688841966000041],[-73.397772022999959,43.688671511000052],[-73.397789845999966,43.688515124000048],[-73.397830621999958,43.68841635900003],[-73.397845347999976,43.688312173000043],[-73.397931919999962,43.688243285000055],[-73.398044825999989,43.688146907000032],[-73.398198714999978,43.688017578000029],[-73.398375469999962,43.687836176000076],[-73.398541104999936,43.687714912000047],[-73.398672532999967,43.687613043000056],[-73.398755574999939,43.687541509000027],[-73.398932699999989,43.687488925000025],[-73.399079959999938,43.687461046000067],[-73.399253529999953,43.687378112000033],[-73.399472102999937,43.68729791800007],[-73.399766495999984,43.687181827000074],[-73.400041877999968,43.687090495000064],[-73.400248796999961,43.686982827000065],[-73.400365492999981,43.686881072000062],[-73.40054609699996,43.686776282000039],[-73.400775818999989,43.686638477000031],[-73.400850918999936,43.686528611000028],[-73.400903191999987,43.686421457000051],[-73.401045889999978,43.686270274000037],[-73.401211287999956,43.686107943000025],[-73.401406918999953,43.685945653000033],[-73.401599021999971,43.685832614000049],[-73.401787019999972,43.685678401000075],[-73.402039191999961,43.685513133000029],[-73.402314038999975,43.685309293000046],[-73.402395898999941,43.68513355500005],[-73.402534749999973,43.684933037000064],[-73.402552993999961,43.684831495000026],[-73.402453783999988,43.684703034000052],[-73.402278645999957,43.684525388000054],[-73.40204758699997,43.684443955000063],[-73.401929922999955,43.684351221000043],[-73.401845863999938,43.68417327700007],[-73.401765891999958,43.684061118000045],[-73.40165146399994,43.683899727000039],[-73.401650966999966,43.683814787000074],[-73.401710557999934,43.683704903000034],[-73.401789300999951,43.68355394200006],[-73.40185216499998,43.683326179000062],[-73.401857289999953,43.682969768000078],[-73.401897595999969,43.682736838000039],[-73.401881051999965,43.682512093000071],[-73.401838399999974,43.682303866000041],[-73.401738592999948,43.682057557000064],[-73.401582325999982,43.681819569000027],[-73.401316015999953,43.681557274000056],[-73.401019725999959,43.681311529000027],[-73.400826414999983,43.681213482000032],[-73.400496192999981,43.681030867000061],[-73.400211948999981,43.680864625000027],[-73.400006373999986,43.680646008000053],[-73.399714522999943,43.680463229000054],[-73.399474742999985,43.680211831000065],[-73.399265399999933,43.679974117000029],[-73.398999495999988,43.67971181300004],[-73.398874174999946,43.67962448000003],[-73.398593593999976,43.679469174000076],[-73.398324251999952,43.67931377900004],[-73.398119980999979,43.679259693000063],[-73.397986992999961,43.679177903000038],[-73.397827447999987,43.679030364000027],[-73.397633330999952,43.678825435000078],[-73.397678321999933,43.678775859000041],[-73.397750116999987,43.678756450000037],[-73.397878756999944,43.678780754000059],[-73.397985185999971,43.678848830000049],[-73.398106731999974,43.678969103000043],[-73.398246959999938,43.67904267800003],[-73.398546114999988,43.679118380000034],[-73.398924471999976,43.679177566000078],[-73.399188826999989,43.679154673000028],[-73.39931338599996,43.679113189000077],[-73.399460397999974,43.679044106000049],[-73.399614178999968,43.678909291000025],[-73.399795353999934,43.67881828000003],[-73.399994924999987,43.678713482000035],[-73.400236140999937,43.678594715000031],[-73.400481009999964,43.678487028000063],[-73.400722494999968,43.678412276000074],[-73.400994286999946,43.678342769000039],[-73.401201938999975,43.678312020000078],[-73.401398225999969,43.678272923000065],[-73.401587091999943,43.678255823000029],[-73.401892785999962,43.678224721000049],[-73.402127255999972,43.678199244000041],[-73.402323090999971,43.678130053000075],[-73.402428714999985,43.67806663600004],[-73.402567841999939,43.677937277000069],[-73.402638617999969,43.677772597000057],[-73.402750277999985,43.677517305000038],[-73.402963372999977,43.677152078000063],[-73.403207288999965,43.67685242500005],[-73.403395254999964,43.676698209000051],[-73.403620950999937,43.676527522000072],[-73.403850645999967,43.676365099000066],[-73.404084047999959,43.676191608000067],[-73.404256716999953,43.676051293000057],[-73.404365420999966,43.675883710000051],[-73.404534057999967,43.675655600000027],[-73.404687497999987,43.675422056000059],[-73.404807749999975,43.675301071000035],[-73.405040963999966,43.675141291000045],[-73.40525966499996,43.675047302000053],[-73.405452682999965,43.675049429000069],[-73.405618592999986,43.675026949000028],[-73.405814801999952,43.674957749000043],[-73.405976265999982,43.674820122000028],[-73.406165259999966,43.674786630000028],[-73.406316046999962,43.674712093000039],[-73.406372184999952,43.674657081000078],[-73.406413050999959,43.674514363000071],[-73.406487960999982,43.674393525000028],[-73.406566224999949,43.674212328000067],[-73.406614452999975,43.674069622000047],[-73.406701375999944,43.673897357000044],[-73.406646298999988,43.673894067000049]]]]},"properties":{"OBJECTID":3,"OBJECT_ID":1050,"County":"Rutland","RPC":"RRPC","Municipal_Name":"Benson","GEO_ID":"5002105200","District_Name":"Lake Champlain Shoreline","Abbreviated_District_Name":"LCS","District_Type":"Primarily Residential","Bylaw_Date":"2018-04-16","Elderly_Housing_District":"No","District_Mapped":"Yes","Overlay_District":"No","Base_Density":1,"FIPS6":21005,"GIS_ID":null,"Last_Update":"2026-04-09","F1F_Allowance":"Allowed/Conditional","F1F_Front_Setback":65,"F1F_Side_Setback":5,"F1F_Rear_Setback":5,"F1F_Frontage":0,"F1F_Max_Height":40,"F1F_Max_Stories":null,"F1F_Min_Lot_Size":0.5,"F1F_Max_Lot_Building_Coverage":null,"F1F_Max_Lot_Impervious_Coverage":null,"F1F_Min_Parking_Spaces":2,"F1F_Elderly_Housing_Only":null,"F1F_Affordable_Housing_Only":null,"F2F_Allowance":"Prohibited","F2F_Front_Setback":65,"F2F_Side_Setback":20,"F2F_Rear_Setback":20,"F2F_Frontage":null,"F2F_Max_Density":1,"F2F_Max_Height":40,"F2F_Max_Stories":null,"F2F_Min_Lot_Size":2,"F2F_Max_Lot_Building_Coverage":null,"F2F_Max_Lot_Impervious_Coverage":null,"F2F_Min_Parking_Spaces_per_1BR":2,"F2F_Min_Parking_Spaces_per_mult_BR":2,"F2F_Elderly_Housing_Only":"No","F2F_Affordable_Housing_Only":"No","F3F_Allowance":"Prohibited","F3F_Front_Setback":65,"F3F_Side_Setback":20,"F3F_Rear_Setback":20,"F3F_Frontage":null,"F3F_Max_Density":0.33000000000000002,"F3F_Max_Height":40,"F3F_Max_Stories":null,"F3F_Min_Lot_Size":9,"F3F_Max_Lot_Building_Coverage":null,"F3F_Max_Lot_Impervious_Coverage":null,"F3F_Min_Parking_Spaces_per_1BR":2,"F3F_Min_Parking_Spaces_per_mult_BR":2,"F3F_Affordable_Housing_Only":"No","F3F_Proximity_to_Public_Transit_Required":"No","F3F_Connection_to_Sewage_Water_Required":"No","F4F_Allowance":"Prohibited","F4F_Front_Setback":65,"F4F_Side_Setback":20,"F4F_Rear_Setback":20,"F4F_Frontage":null,"F1F_Max_Density":null,"F4F_Max_Density":0.33000000000000002,"F4F_Max_Height":40,"F4F_Max_Stories":null,"F4F_Min_Lot_Size":12,"F4F_Max_Lot_Building_Coverage":null,"F4F_Max_Lot_Impervious_Coverage":null,"F4F_Min_Parking_Spaces_per_1BR":2,"F4F_Min_Parking_Spaces_per_mult_BR":2,"F3F_Elderly_Housing_Only":"No","F4F_Elderly_Housing_Only":"No","F4F_Affordable_Housing_Only":"No","F4F_Proximity_to_Public_Transit_Required":"No","F4F_Connection_to_Sewage_Water_Required":"No","ADU_Allowance":"Allowed/Conditional","ADU_Elderly_Housing_Only":"No","ADU_Max_Size_as_Percent_of_Primary_Strcture":"No","ADU_Max_Size_in_sq_ft":null,"ADU_Min_Lot_Size":null,"ADU_Max_Bedrooms":null,"ADU_Min_Parking_Spaces":null,"ADU_Owner_Occupancy_Required":"No","ADU_Renter_Occupancy_Prohibited":"No","ADU_Employee_or_Family_Occupancy_Required":"No","ADU_Restricted_to_Primary_Structure":"No","Affordable_Housing_Allowance":"Not Mentioned","Affordable_Housing_District":"No","Affordable_Housing_Elderly_Only":"No","Affordable_Housing_Min_Lot_Size":null,"Affordable_Housing_Max_Density":null,"Affordable_Housing_Min_Parking_Spaces_per_mult_BR":null,"Affordable_Housing_Max_Units_per_Building":null,"Affordable_Housing_Min_Parking_Spaces_per_1BR":null,"PRD_Allowance":"Prohibited","PRD_Max_Density":1,"PRD_Max_Units":null,"PRD_Min_Lot_Size":null,"PRD_Mobile_or_Manufactured_Home_Park":"No","PUD_Allowance":"No","PUD_Required_with_Subdivision":"Yes","PUD_Requires_Land_Conservation":"Yes","PUD_Threshold_Number":null,"Notes":"None","Shape_Length":0.28935612248531589,"Shape_Area":0.00017291562822609042}}]}