{"type":"FeatureCollection","features":[{"type":"Feature","id":6,"geometry":{"type":"MultiPolygon","coordinates":[[[[-73.275818484999945,43.583233062000033],[-73.274651534999975,43.583522124000069],[-73.274003341999958,43.583586253000078],[-73.272702941999967,43.583401210000034],[-73.272425358999953,43.583201945000042],[-73.272185140999966,43.582922397000061],[-73.271221471999979,43.582639626000059],[-73.271693303999939,43.584888334000027],[-73.273873956999978,43.584935333000033],[-73.273907555999983,43.584265738000056],[-73.275778635999984,43.584312898000064],[-73.275818484999945,43.583233062000033]]],[[[-73.275585498999988,43.584429391000072],[-73.274070900999959,43.584390925000037],[-73.274066077999976,43.584467535000044],[-73.274050055999965,43.584938360000081],[-73.275558407999938,43.584971454000026],[-73.275585498999988,43.584429391000072]]],[[[-73.275722236999968,43.585103737000054],[-73.271719542999961,43.585003691000054],[-73.271935869999936,43.585944296000037],[-73.274004543999979,43.585704865000025],[-73.275679396999976,43.585865725000076],[-73.275722236999968,43.585103737000054]]],[[[-73.275649992999945,43.586438603000033],[-73.275673065999968,43.586005562000025],[-73.273984645999974,43.585843106000027],[-73.271959397999979,43.586059390000059],[-73.272032206999938,43.586397344000034],[-73.275649992999945,43.586438603000033]]],[[[-73.272213845999943,43.587257104000059],[-73.27403116399995,43.587027317000036],[-73.273930008999969,43.586561927000048],[-73.272062994999942,43.586535453000067],[-73.272213845999943,43.587257104000059]]],[[[-73.271830931999943,43.588724436000064],[-73.272094713999934,43.589259049000077],[-73.273462250999955,43.589105931000063],[-73.275686889999974,43.589038455000036],[-73.275901157999954,43.589031953000074],[-73.275896737999972,43.588956446000054],[-73.275801437999974,43.586992252000073],[-73.271579366999958,43.587510107000071],[-73.271808703999966,43.588589995000063],[-73.273745634999955,43.58839034600004],[-73.273789438999984,43.588577520000058],[-73.273415344999989,43.588615914000059],[-73.27340914499996,43.588554849000047],[-73.271830931999943,43.588724436000064]]],[[[-73.26972778399994,43.587725037000041],[-73.270261747999939,43.587964252000063],[-73.270184577999942,43.587981719000027],[-73.270523872999945,43.589250028000038],[-73.271898348999969,43.589276056000074],[-73.271647906999988,43.588816242000064],[-73.271450315999971,43.587525322000033],[-73.26972778399994,43.587725037000041]]],[[[-73.280896447999964,43.59249923200008],[-73.280787584999985,43.591762110000047],[-73.281106638999972,43.590898140000036],[-73.280977059999941,43.590745004000041],[-73.280262768999933,43.590547248000064],[-73.279270976999953,43.589802243000065],[-73.278848914999969,43.589659895000068],[-73.27856451599996,43.589690053000027],[-73.278298849999942,43.589806000000067],[-73.277756034999982,43.590247700000077],[-73.277442838999946,43.590404729000056],[-73.277111241999933,43.590379618000043],[-73.276780181999982,43.590206759000068],[-73.276544500999989,43.590278135000062],[-73.276398939999979,43.590932065000061],[-73.275790169999937,43.591351670000051],[-73.275642946999938,43.591514275000065],[-73.275649119999969,43.591615680000075],[-73.275781398999982,43.591679661000057],[-73.27609081199995,43.591382659000033],[-73.276331531999972,43.591297272000077],[-73.276602174999937,43.591267124000069],[-73.276812090999954,43.591310522000072],[-73.27696919999994,43.591412081000044],[-73.277322953999942,43.591877345000057],[-73.277769988999978,43.592134457000043],[-73.277835385999936,43.592320114000074],[-73.277801803999978,43.592523008000057],[-73.277363917999935,43.593309214000044],[-73.277070949999938,43.593391954000026],[-73.276825112999973,43.59320606700004],[-73.276723842999957,43.593188149000071],[-73.276255336999952,43.593388383000047],[-73.275628026999982,43.593777227000032],[-73.275365250999982,43.593864612000061],[-73.274567543999979,43.593913986000075],[-73.273772129999941,43.594114563000062],[-73.273355872999957,43.594154998000079],[-73.27297243199996,43.594103235000034],[-73.272590443999945,43.593934946000047],[-73.272006760999943,43.593510562000063],[-73.271866191999948,43.593272539000054],[-73.271914655999979,43.593043125000065],[-73.272486278999963,43.592405102000043],[-73.272399638999957,43.592305966000026],[-73.27130245799998,43.593198396000048],[-73.271075794999945,43.593699027000071],[-73.27052748899996,43.593858419000071],[-73.270254578999982,43.593871085000046],[-73.270015030999957,43.59371724500005],[-73.269928182999934,43.593585337000036],[-73.269540801999938,43.593443863000061],[-73.269317439999952,43.593253266000033],[-73.269156224999961,43.592669045000036],[-73.269202978999942,43.59241512400007],[-73.269097321999936,43.592223915000034],[-73.268947627999978,43.59215600400006],[-73.268371668999976,43.592167335000056],[-73.268239530999949,43.592098984000074],[-73.268028578999974,43.591838692000067],[-73.267972394999958,43.591565474000049],[-73.268036404999975,43.591562544000055],[-73.267971694999972,43.591561762000026],[-73.267785598999978,43.591559517000064],[-73.267773179999949,43.591952402000061],[-73.267609516999983,43.591985566000062],[-73.266834367999934,43.591954555000029],[-73.26678616199996,43.592760311000063],[-73.267566955999939,43.592838751000045],[-73.267365251999934,43.594629373000032],[-73.267405824999969,43.594807218000028],[-73.267529820999982,43.594880150000051],[-73.271398175999934,43.595016620000081],[-73.271427978999952,43.594320121000067],[-73.271523253999987,43.59432573600003],[-73.271503525999947,43.595023152000067],[-73.277833860999976,43.595234036000079],[-73.278067569999962,43.592587256000058],[-73.278371085999936,43.592595949000042],[-73.278174655999976,43.59359982400008],[-73.278036311999983,43.59523751100005],[-73.278786159999981,43.595253500000069],[-73.279012879999982,43.592608102000042],[-73.279194092999944,43.592615868000053],[-73.278978963999975,43.595259078000026],[-73.279986769999937,43.59529116300007],[-73.281488963999948,43.595426253000028],[-73.283295917999965,43.595783624000035],[-73.283778297999959,43.594365645000039],[-73.283499645999939,43.594464317000075],[-73.283266578999985,43.594450689000041],[-73.282815846999938,43.59424165300004],[-73.281834780999986,43.594094217000077],[-73.281313355999941,43.593745020000028],[-73.280753502999971,43.593627323000078],[-73.280746015999966,43.59331671700005],[-73.280625580999981,43.592896926000037],[-73.280896447999964,43.59249923200008]]],[[[-73.271120690999965,43.59635026400008],[-73.269486878999942,43.596728970000072],[-73.269914736999965,43.597169450000081],[-73.270092982999984,43.597368378000056],[-73.27188369199996,43.596940153000048],[-73.272875082999974,43.596776292000072],[-73.272886042999971,43.596423146000063],[-73.271120690999965,43.59635026400008]]],[[[-73.280793577999987,43.598874032000026],[-73.280979062999961,43.59888148400006],[-73.28169115299994,43.598219627000049],[-73.282160813999951,43.59694976000003],[-73.281951719999938,43.596344197000064],[-73.28219635399995,43.595689822000054],[-73.281281194999963,43.595550379000031],[-73.280811338999968,43.595518711000068],[-73.280806799999937,43.595556855000041],[-73.280570300999955,43.598128909000025],[-73.280793577999987,43.598874032000026]]],[[[-73.270547612999962,43.597813527000028],[-73.272317218999945,43.597398799000075],[-73.272124858999973,43.596974457000044],[-73.270161374999986,43.59742037500007],[-73.270547612999962,43.597813527000028]]],[[[-73.281869075999964,43.598270798000044],[-73.281080897999971,43.599004549000028],[-73.28063505199998,43.599006048000035],[-73.28037706899994,43.598120877000042],[-73.280621597999982,43.595510655000055],[-73.279358209999941,43.595407046000048],[-73.272876247999989,43.595234540000035],[-73.272801965999975,43.596325057000058],[-73.274542648999955,43.596435843000052],[-73.274540340999977,43.596497317000058],[-73.273081206999962,43.596431461000066],[-73.273061136999956,43.596828758000072],[-73.272972674999949,43.59690213600004],[-73.272338892999983,43.597005499000034],[-73.272543574999986,43.597455072000059],[-73.270608364999987,43.597873381000056],[-73.270816254999943,43.598089898000069],[-73.270745659999989,43.598108024000055],[-73.27116166899998,43.598528538000039],[-73.271249463999936,43.598523657000044],[-73.272594250999987,43.599933331000045],[-73.272671714999944,43.599968037000053],[-73.274349757999971,43.599622669000041],[-73.274411876999977,43.599698051000075],[-73.272742705999974,43.600041111000053],[-73.273918367999954,43.601243767000028],[-73.278291987999978,43.601292373000035],[-73.277593386999968,43.600732077000032],[-73.27761544699996,43.600662383000042],[-73.278090377999945,43.600727763000066],[-73.278376167999966,43.60092609000003],[-73.278523304999965,43.600949899000057],[-73.279803754999989,43.600461217000031],[-73.280141766999975,43.600378301000035],[-73.280322650999949,43.600383560000068],[-73.280790828999955,43.600495247000026],[-73.28152266099994,43.600924648000046],[-73.28304224599998,43.596545860000049],[-73.283104153999943,43.595888165000076],[-73.282381425999972,43.595725755000046],[-73.282138250999935,43.59634327200007],[-73.282363828999962,43.596936416000062],[-73.281869075999964,43.598270798000044]]],[[[-73.270513696999956,43.599644369000032],[-73.270526758999949,43.600213020000069],[-73.270540444999938,43.600891084000068],[-73.27333699999997,43.60126415700006],[-73.27338998099998,43.60117006400003],[-73.272569193999971,43.600273985000058],[-73.270755038999937,43.598478893000049],[-73.270263888999978,43.598539162000066],[-73.270513696999956,43.599644369000032]]],[[[-73.280999554999937,43.601281689000075],[-73.280775868999967,43.601100876000032],[-73.280574761999958,43.601048582000033],[-73.280032338999945,43.601115536000066],[-73.279691728999978,43.601284565000071],[-73.280999554999937,43.601281689000075]]],[[[-73.26513130799998,43.582369308000068],[-73.264902574999951,43.582364651000034],[-73.264903840999978,43.582434118000037],[-73.265047727999956,43.584660513000074],[-73.269036107999966,43.584793800000057],[-73.268836646999944,43.582529459000057],[-73.26513130799998,43.582369308000068]]],[[[-73.271060660999979,43.582615669000063],[-73.269026005999933,43.582541265000032],[-73.269029384999953,43.58259391100006],[-73.269234807999965,43.584809269000061],[-73.271534508999935,43.584846440000035],[-73.271060660999979,43.582615669000063]]],[[[-73.270032396999966,43.58493820800004],[-73.269247894999978,43.58492534800007],[-73.269261158999939,43.585055349000072],[-73.269390689999966,43.586111163000055],[-73.270159261999936,43.586056975000076],[-73.270032396999966,43.58493820800004]]],[[[-73.27033524999996,43.58617244900006],[-73.269404622999957,43.586232861000042],[-73.269461495999963,43.586839755000028],[-73.270645833999936,43.58652539600007],[-73.271878103999939,43.586420113000031],[-73.271565014999965,43.58496275300007],[-73.270186426999942,43.584940265000057],[-73.270208612999966,43.585102201000041],[-73.27033524999996,43.58617244900006]]],[[[-73.267136838999988,43.587707505000026],[-73.267643689999943,43.587427818000037],[-73.267666175999977,43.587644321000028],[-73.268395003999956,43.587232277000055],[-73.26840760999994,43.587310667000054],[-73.269284704999961,43.586904231000062],[-73.26904609099995,43.584909267000057],[-73.265057355999943,43.584779148000052],[-73.265368943999988,43.587596436000069],[-73.266540888999941,43.587552862000052],[-73.266545263999944,43.587623222000047],[-73.265378745999953,43.587667604000046],[-73.265458883999941,43.58849493300005],[-73.265407281999956,43.589064442000051],[-73.265729224999973,43.588879949000045],[-73.265542506999964,43.588864322000063],[-73.266204975999983,43.588465746000054],[-73.266047176999962,43.588319836000039],[-73.267136838999988,43.587707505000026]]],[[[-73.272067460999949,43.58727848500007],[-73.271910999999989,43.586541683000064],[-73.271850667999956,43.586544271000037],[-73.270624889999965,43.586673348000033],[-73.269483428999933,43.586981933000061],[-73.269572307999965,43.58757982000003],[-73.272067460999949,43.58727848500007]]],[[[-73.268453522999948,43.587452122000059],[-73.268440777999956,43.587545311000042],[-73.267819535999934,43.58789749400006],[-73.267969881999989,43.588065601000039],[-73.268531311999936,43.587817891000043],[-73.269381196999973,43.587613945000044],[-73.269303984999965,43.587050928000053],[-73.268453522999948,43.587452122000059]]],[[[-73.266368746999945,43.59499855200005],[-73.266352494999978,43.595181701000058],[-73.266274101999954,43.596110016000068],[-73.266914786999962,43.59615395700007],[-73.268309489999979,43.595962959000076],[-73.267386768999984,43.595043477000047],[-73.266368746999945,43.59499855200005]]],[[[-73.267871605999972,43.59506708400005],[-73.269071134999933,43.596296985000038],[-73.26940215999997,43.596640869000055],[-73.271103905999951,43.596248133000074],[-73.272632969999961,43.596305104000066],[-73.272723686999939,43.595228400000053],[-73.267871605999972,43.59506708400005]]],[[[-73.266226515999961,43.596721406000029],[-73.26619059099994,43.597184275000075],[-73.266892178999967,43.597207910000066],[-73.269216358999984,43.596911792000071],[-73.268969793999986,43.59666621000008],[-73.268954206999979,43.596566672000051],[-73.268887320999966,43.596572114000026],[-73.268366389999983,43.596024528000044],[-73.266968691999978,43.59622356400007],[-73.266266510999969,43.596182776000035],[-73.266226515999961,43.596721406000029]]],[[[-73.266823975999955,43.597322916000053],[-73.266187058999947,43.597302364000029],[-73.266181224999968,43.597361120000073],[-73.266125320999947,43.59811011000005],[-73.266171069999984,43.598116343000072],[-73.267065270999979,43.598159570000064],[-73.270053252999958,43.59777340200003],[-73.269309286999942,43.597006308000061],[-73.266823975999955,43.597322916000053]]],[[[-73.267048624999973,43.598250674000042],[-73.266122480999968,43.598191278000058],[-73.266113436999944,43.598302090000061],[-73.266072811999948,43.598821739000073],[-73.266861100999961,43.598844299000064],[-73.270669116999954,43.598387917000025],[-73.270155845999966,43.597866797000052],[-73.267048624999973,43.598250674000042]]],[[[-73.270361982999987,43.599675207000075],[-73.268068533999951,43.599656605000064],[-73.268069069999967,43.59951617400003],[-73.268534796999973,43.599525561000064],[-73.268536148999942,43.599570978000031],[-73.270348063999961,43.599585292000029],[-73.270111222999958,43.598555731000033],[-73.267006971999933,43.598932415000036],[-73.266065191999985,43.598922697000035],[-73.265971508999939,43.600049905000049],[-73.265951528999949,43.60027498900007],[-73.270395046999965,43.60087117900008],[-73.270361982999987,43.599675207000075]],[[-73.267353229999969,43.599774130000071],[-73.267353293999975,43.59996188100007],[-73.267247745999953,43.599940438000033],[-73.267353229999969,43.599774130000071]]],[[[-73.270265140999982,43.602581156000042],[-73.27039065799994,43.601012480000065],[-73.268698927999935,43.600804402000051],[-73.268386016999955,43.603649077000057],[-73.268191170999955,43.603637097000046],[-73.26850742299996,43.600780586000042],[-73.262126575999957,43.599861833000034],[-73.260730128999967,43.603609147000043],[-73.261808235999979,43.603619405000074],[-73.261827194999967,43.603710694000029],[-73.261881473999949,43.603993999000068],[-73.261653238999941,43.604004733000068],[-73.263131108999971,43.604467490000047],[-73.263929274999953,43.604653143000064],[-73.272949640999968,43.605593217000035],[-73.273248832999968,43.601391328000034],[-73.270539194999969,43.601035739000054],[-73.27041096499994,43.602573493000079],[-73.270265140999982,43.602581156000042]]],[[[-73.264338967999947,43.589593498000056],[-73.264388862999965,43.589285659000041],[-73.264888247999977,43.589300602000037],[-73.265200347999951,43.589133053000069],[-73.265248688999975,43.588886401000025],[-73.265249580999978,43.588162671000077],[-73.264861007999968,43.584723882000048],[-73.263413060999937,43.584674043000064],[-73.263367244999984,43.58470624000006],[-73.263686409999934,43.586064536000038],[-73.26380758199997,43.586910070000044],[-73.263521680999986,43.587573558000031],[-73.264483895999945,43.587591389000067],[-73.264073652999969,43.589697093000041],[-73.264338967999947,43.589593498000056]]],[[[-73.259852270999943,43.590938726000047],[-73.26043875299996,43.590647291000039],[-73.260167205999949,43.589795494000043],[-73.260945041999946,43.589673590000075],[-73.260825858999965,43.588598923000063],[-73.260507301999951,43.587588995000033],[-73.256795153999974,43.587605824000036],[-73.243554003999975,43.587394019000044],[-73.24337497199997,43.58846318500008],[-73.24336821299994,43.589423224000029],[-73.243192907999969,43.590523451000081],[-73.243054404999953,43.592161942000075],[-73.243109704999938,43.592378868000026],[-73.243305820999979,43.592528849000075],[-73.24342573499996,43.592555775000051],[-73.24381711999996,43.592503796000074],[-73.246266507999962,43.591290650000076],[-73.246552303999977,43.591212839000036],[-73.246869152999977,43.589671978000069],[-73.247083629999963,43.58914761300008],[-73.247337247999951,43.588753294000071],[-73.247467171999972,43.588870440000051],[-73.247064158999933,43.589700871000048],[-73.246750245999976,43.591197062000049],[-73.251106668999967,43.591331450000041],[-73.253187658999934,43.591344480000032],[-73.255480756999987,43.591669974000069],[-73.256200351999951,43.591715425000075],[-73.258430425999961,43.591580617000034],[-73.259109848999969,43.59110862600005],[-73.258726330999934,43.590090843000041],[-73.258845826999959,43.590084424000054],[-73.259232664999956,43.591058236000038],[-73.25919123999995,43.59121082200005],[-73.259263382999961,43.591316173000052],[-73.259852270999943,43.590938726000047]]],[[[-73.261650839999959,43.591006101000062],[-73.261615847999963,43.59103284400004],[-73.261627780999959,43.591098584000065],[-73.261650839999959,43.591006101000062]]],[[[-73.261847854999985,43.591686293000066],[-73.262345947999961,43.591745329000048],[-73.262417124999956,43.591861778000066],[-73.262346554999965,43.591998176000061],[-73.262859878999961,43.591772473000049],[-73.262870744999987,43.591617701000075],[-73.261930404999987,43.591551577000075],[-73.261734980999961,43.591575963000025],[-73.261847854999985,43.591686293000066]]],[[[-73.262047601999939,43.592128821000074],[-73.262005710999972,43.592137023000078],[-73.261703599999976,43.592277796000076],[-73.262047601999939,43.592128821000074]]],[[[-73.257263697999974,43.592664163000052],[-73.258548272999974,43.59171998100004],[-73.25595857899998,43.591846622000048],[-73.253533451999942,43.59151666300005],[-73.253398870999945,43.592082283000025],[-73.25329770899998,43.592069799000058],[-73.253398285999936,43.591508131000069],[-73.246650970999951,43.591336941000066],[-73.246418266999967,43.591389372000037],[-73.244973519999974,43.592100932000051],[-73.242965210999955,43.592994851000071],[-73.242903837999961,43.593922387000077],[-73.244204172999957,43.593513519000055],[-73.244202469999948,43.593442463000031],[-73.246764804999941,43.592562281000028],[-73.257263697999974,43.592664163000052]]],[[[-73.243315256999949,43.592697976000068],[-73.243060853999964,43.592591690000063],[-73.243051457999968,43.59280313000005],[-73.243315256999949,43.592697976000068]]],[[[-73.264048510999942,43.597742529000072],[-73.264846520999981,43.595631069000035],[-73.265357700999971,43.594679327000051],[-73.264275854999937,43.594581636000044],[-73.262730954999938,43.59440412400005],[-73.262273691999951,43.593181605000041],[-73.261895097999968,43.593017471000053],[-73.261768814999982,43.593921992000048],[-73.261616275999984,43.59447644200003],[-73.260899148999954,43.595973927000045],[-73.259999307999976,43.597337191000065],[-73.259697074999963,43.597930633000033],[-73.259538038999949,43.598076869000067],[-73.258853487999943,43.598294580000072],[-73.258128946999989,43.598525087000041],[-73.25734278699997,43.599063018000038],[-73.257795429999987,43.599047924000047],[-73.258395683999936,43.599106316000075],[-73.261554839999974,43.599610315000064],[-73.261754946999986,43.599610951000045],[-73.262099454999941,43.599460915000066],[-73.263365394999937,43.598690562000058],[-73.263768275999951,43.598260614000026],[-73.264048510999942,43.597742529000072]]],[[[-73.266222780999954,43.594993483000053],[-73.265492478999988,43.594961879000039],[-73.265399109999976,43.595137248000071],[-73.26505436399998,43.59575456500005],[-73.264322132999951,43.597711447000052],[-73.265994541999987,43.597807912000064],[-73.266222780999954,43.594993483000053]]],[[[-73.258313563999934,43.598391812000045],[-73.258698501999959,43.598310480000066],[-73.25836781199996,43.598337689000061],[-73.258313563999934,43.598391812000045]]],[[[-73.262755059999961,43.599304724000035],[-73.262161812999977,43.599679120000076],[-73.264413506999972,43.600037550000025],[-73.264539609999986,43.599237180000046],[-73.265877296999975,43.599274496000078],[-73.265984603999982,43.597939827000062],[-73.264258855999969,43.597849203000067],[-73.263970135999955,43.598369525000066],[-73.263681757999962,43.598703005000061],[-73.262755059999961,43.599304724000035]]],[[[-73.264644989999965,43.600070669000047],[-73.265799480999988,43.600249216000066],[-73.265872983999941,43.599361650000048],[-73.26479222599994,43.599319381000043],[-73.264644989999965,43.600070669000047]]],[[[-73.257264202999977,43.599210179000067],[-73.256108489999974,43.604282804000036],[-73.256434252999952,43.604425225000057],[-73.257570209999983,43.604448502000025],[-73.258458601999962,43.604207184000074],[-73.260499420999963,43.603484882000032],[-73.261874776999946,43.599844244000053],[-73.257778358999985,43.599198731000058],[-73.257264202999977,43.599210179000067]]]]},"properties":{"District_Name":"Residential","OBJECTID":6,"OBJECT_ID":1078,"County":"Rutland","RPC":"RRPC","Municipal_Name":"FairHaven","GEO_ID":"5002125375","Abbreviated_District_Name":"Residential","District_Type":"Primarily Residential","Bylaw_Date":"2023-12-12","Elderly_Housing_District":"No","District_Mapped":"Yes","Overlay_District":"No","Base_Density":null,"FIPS6":21035,"GIS_ID":null,"Last_Update":"2026-04-16","F1F_Allowance":"Permitted","F1F_Front_Setback":30,"F1F_Side_Setback":20,"F1F_Rear_Setback":30,"F1F_Frontage":null,"F1F_Max_Height":40,"F1F_Max_Stories":null,"F1F_Min_Lot_Size":null,"F1F_Max_Lot_Building_Coverage":30,"F1F_Max_Lot_Impervious_Coverage":null,"F1F_Min_Parking_Spaces":1,"F1F_Elderly_Housing_Only":null,"F1F_Affordable_Housing_Only":null,"F2F_Allowance":"Permitted","F2F_Front_Setback":30,"F2F_Side_Setback":20,"F2F_Rear_Setback":30,"F2F_Frontage":null,"F2F_Max_Density":null,"F2F_Max_Height":40,"F2F_Max_Stories":null,"F2F_Min_Lot_Size":null,"F2F_Max_Lot_Building_Coverage":30,"F2F_Max_Lot_Impervious_Coverage":null,"F2F_Min_Parking_Spaces_per_1BR":1,"F2F_Min_Parking_Spaces_per_mult_BR":1,"F2F_Elderly_Housing_Only":"No","F2F_Affordable_Housing_Only":"No","F3F_Allowance":"Permitted","F3F_Front_Setback":30,"F3F_Side_Setback":20,"F3F_Rear_Setback":30,"F3F_Frontage":null,"F3F_Max_Density":null,"F3F_Max_Height":40,"F3F_Max_Stories":null,"F3F_Min_Lot_Size":null,"F3F_Max_Lot_Building_Coverage":30,"F3F_Max_Lot_Impervious_Coverage":null,"F3F_Min_Parking_Spaces_per_1BR":1,"F3F_Min_Parking_Spaces_per_mult_BR":1,"F3F_Affordable_Housing_Only":"No","F3F_Proximity_to_Public_Transit_Required":"No","F3F_Connection_to_Sewage_Water_Required":"No","F4F_Allowance":"Permitted","F4F_Front_Setback":30,"F4F_Side_Setback":20,"F4F_Rear_Setback":30,"F4F_Frontage":null,"F1F_Max_Density":null,"F4F_Max_Density":null,"F4F_Max_Height":40,"F4F_Max_Stories":null,"F4F_Min_Lot_Size":null,"F4F_Max_Lot_Building_Coverage":30,"F4F_Max_Lot_Impervious_Coverage":null,"F4F_Min_Parking_Spaces_per_1BR":1,"F4F_Min_Parking_Spaces_per_mult_BR":1,"F3F_Elderly_Housing_Only":"No","F4F_Elderly_Housing_Only":"No","F4F_Affordable_Housing_Only":"No","F4F_Proximity_to_Public_Transit_Required":"No","F4F_Connection_to_Sewage_Water_Required":"No","ADU_Allowance":"Permitted","ADU_Elderly_Housing_Only":"No","ADU_Max_Size_as_Percent_of_Primary_Strcture":30,"ADU_Max_Size_in_sq_ft":900,"ADU_Min_Lot_Size":null,"ADU_Max_Bedrooms":null,"ADU_Min_Parking_Spaces":null,"ADU_Owner_Occupancy_Required":"No","ADU_Renter_Occupancy_Prohibited":"No","ADU_Employee_or_Family_Occupancy_Required":"No","ADU_Restricted_to_Primary_Structure":"No","Affordable_Housing_Allowance":"Not Mentioned","Affordable_Housing_District":"No","Affordable_Housing_Elderly_Only":"No","Affordable_Housing_Min_Lot_Size":null,"Affordable_Housing_Max_Density":null,"Affordable_Housing_Min_Parking_Spaces_per_mult_BR":null,"Affordable_Housing_Max_Units_per_Building":null,"Affordable_Housing_Min_Parking_Spaces_per_1BR":null,"PRD_Allowance":"Not Mentioned","PRD_Max_Density":null,"PRD_Max_Units":null,"PRD_Min_Lot_Size":null,"PRD_Mobile_or_Manufactured_Home_Park":"No","PUD_Allowance":"Permitted","PUD_Required_with_Subdivision":null,"PUD_Requires_Land_Conservation":"Yes","PUD_Threshold_Number":null,"Notes":"Minimum lot Sizes and min lot area per family unit are separated into water and sewer connections. Data reflectied in this table is the minimum assuming no connection to water or sewer. -WJP 04/2026","Shape_Length":0.54131530163026909,"Shape_Area":0.00036739708134107639}}]}