{"type":"FeatureCollection","features":[{"type":"Feature","id":6,"geometry":{"type":"MultiPolygon","coordinates":[[[[-72.761922704999961,44.342520592000028],[-72.761932804999958,44.343286137000064],[-72.763025959999936,44.343756019000068],[-72.763198967999983,44.343767677000073],[-72.764465177999966,44.343852997000056],[-72.761922704999961,44.342520592000028]]],[[[-72.752152394999939,44.318486508000035],[-72.751071096999965,44.318491229000074],[-72.75052603599994,44.318672430000049],[-72.749441725999986,44.320828787000039],[-72.748232996999945,44.322559928000032],[-72.747996310999952,44.323048076000077],[-72.747918227999946,44.323209101000032],[-72.747849432999942,44.323350982000079],[-72.747636125999975,44.324291075000076],[-72.747374065999963,44.324331314000062],[-72.747359505999952,44.324361334000059],[-72.746982119999984,44.325139614000079],[-72.746857432999946,44.325396741000077],[-72.746732659999964,44.325654045000078],[-72.746908163999933,44.325818473000027],[-72.746913787999972,44.325870162000058],[-72.746762837999938,44.325924656000041],[-72.746601390999956,44.325924590000056],[-72.746587658999943,44.325951661000033],[-72.746562422999943,44.32600141100005],[-72.746142523999936,44.326829196000062],[-72.746132600999942,44.326909078000028],[-72.746314522999967,44.326906028000053],[-72.746376841999961,44.326980387000049],[-72.746103104999975,44.327173316000028],[-72.746184932999938,44.327229417000069],[-72.746233779999955,44.327384671000061],[-72.746148243999983,44.327514875000077],[-72.746103414999936,44.327944934000072],[-72.745824458999948,44.327897162000056],[-72.745802652999942,44.327499198000055],[-72.745676051999965,44.327748771000074],[-72.745472348999954,44.328149180000025],[-72.745891835999942,44.32829038400007],[-72.746978621999972,44.32862285300007],[-72.747753106999937,44.328779031000067],[-72.749227230999963,44.328729402000079],[-72.751537738999957,44.32836496300007],[-72.752836548999937,44.328372805000072],[-72.753394755999977,44.328450670000052],[-72.754120050999973,44.328551841000035],[-72.755215877999944,44.328902671000037],[-72.755885184999954,44.329179923000027],[-72.756449600999986,44.329424828000072],[-72.757395043999963,44.330047189000027],[-72.758011859999954,44.330863961000034],[-72.758254083999987,44.331775084000071],[-72.759117395999965,44.332525414000031],[-72.761651115999939,44.333054556000036],[-72.762539333999939,44.333398640000041],[-72.762947001999976,44.33357699700008],[-72.763439266999967,44.334448664000035],[-72.763807275999966,44.336111040000048],[-72.763879444999986,44.336391583000079],[-72.763949744999934,44.337834792000081],[-72.763619242999937,44.33873215300008],[-72.763615434999963,44.338740704000031],[-72.762265813999988,44.341412628000057],[-72.761919782999939,44.34229915800006],[-72.761920312999962,44.342339312000036],[-72.764913342999989,44.34392026900008],[-72.765310664999959,44.343981320000069],[-72.766330219999986,44.344137974000034],[-72.766820540999959,44.344213312000079],[-72.76851821799994,44.344130226000061],[-72.769469423999965,44.343836690000046],[-72.769910700999958,44.34370262200008],[-72.770325645999947,44.343587052000032],[-72.770937594999964,44.343416604000026],[-72.771519005999949,44.343254663000039],[-72.771909339999979,44.343369213000074],[-72.772714268999948,44.343605413000034],[-72.773029807999933,44.344323429000042],[-72.773121082999978,44.344646197000031],[-72.773193687999935,44.345572408000066],[-72.773514776999946,44.346603903000073],[-72.773621323999976,44.347670110000081],[-72.77419630199995,44.348555367000074],[-72.77425545899996,44.348646447000078],[-72.774313022999934,44.348737275000076],[-72.775406612999973,44.350448610000058],[-72.776349609999954,44.351182326000071],[-72.777570954999987,44.351704045000076],[-72.778926958999989,44.352025540000056],[-72.780234545999974,44.352159135000079],[-72.78085660399995,44.35213321100008],[-72.782681433999983,44.352024999000037],[-72.783195191999937,44.351999488000047],[-72.784077939999975,44.351961638000034],[-72.786470280999936,44.352337069000043],[-72.788090131999979,44.352949458000069],[-72.789465866999933,44.353374389000066],[-72.790193750999947,44.353601962000027],[-72.791577394999933,44.354046683000036],[-72.794153980999965,44.354768960000058],[-72.79850599699995,44.355435255000032],[-72.800234255999953,44.356913870000028],[-72.80078102899995,44.357819508000034],[-72.801192394999987,44.358759788000043],[-72.802222741999969,44.359413052000036],[-72.803023408999934,44.360112184000059],[-72.803653466999947,44.359996386000034],[-72.806231127999979,44.359482563000029],[-72.807515871999954,44.358778938000057],[-72.808695711999974,44.35845635700008],[-72.810061121999979,44.358311275000062],[-72.810188034999953,44.358377160000032],[-72.811171560999981,44.358887743000025],[-72.811945622999986,44.359826096000063],[-72.813324213999977,44.360313704000077],[-72.814674148999984,44.360176972000033],[-72.814687152999966,44.360174964000066],[-72.816218646999971,44.35992585200006],[-72.817086532999951,44.359216973000059],[-72.817705639999986,44.358413473000041],[-72.818645495999988,44.357729491000043],[-72.820251728999949,44.357403711000075],[-72.821681686999966,44.357396183000048],[-72.82293515799995,44.357458163000047],[-72.824472933999971,44.357939787000078],[-72.825748955999984,44.358650638000029],[-72.825958440999955,44.359034956000073],[-72.827448766999964,44.360150257000043],[-72.82780881399998,44.360335601000031],[-72.828207645999953,44.36043426100008],[-72.828552543999933,44.36041995100004],[-72.828954608999936,44.360310258000027],[-72.829987887999948,44.359748936000074],[-72.830609027999969,44.35949239200005],[-72.830632305999984,44.359483416000046],[-72.830765250999946,44.35943059400006],[-72.830899621999947,44.359373082000047],[-72.831841202999954,44.358879861000048],[-72.832233307999957,44.358769927000026],[-72.832572995999953,44.358745989000056],[-72.832918264999989,44.358800242000029],[-72.833327291999979,44.358948533000046],[-72.834638607999977,44.35964415400008],[-72.834783673999937,44.359730359000025],[-72.835385568999982,44.360030747000053],[-72.83611155899996,44.360228863000032],[-72.836258685999951,44.360254611000073],[-72.836401902999967,44.360276682000062],[-72.836428511999941,44.36028060700005],[-72.836545071999979,44.360297776000039],[-72.837273853999989,44.360441781000077],[-72.838635778999958,44.360917520000044],[-72.839606290999939,44.361173371000064],[-72.840764540999942,44.361411205000081],[-72.842501880999976,44.361665927000047],[-72.842924082999957,44.361805958000048],[-72.843734899999959,44.362180601000034],[-72.844294214999934,44.362340912000036],[-72.848898365999958,44.362898060000077],[-72.849632295999982,44.363032340000075],[-72.850850903999969,44.363449608000053],[-72.85272370499996,44.364317256000049],[-72.853364649999946,44.364632777000054],[-72.853622604999941,44.364757535000081],[-72.853751929999987,44.36481913700004],[-72.855753837999941,44.365652384000043],[-72.855881758999942,44.365688007000074],[-72.856885274999968,44.365935515000047],[-72.859282511999936,44.366346754000062],[-72.861253271999942,44.366909496000062],[-72.86154255699995,44.366349957000068],[-72.861751907999974,44.365945028000056],[-72.861821024999983,44.36581134100004],[-72.862147018999963,44.365180802000054],[-72.861419996999985,44.365115148000029],[-72.86042337799995,44.365207453000039],[-72.859600666999938,44.365425419000076],[-72.859333791999973,44.365452047000076],[-72.859068812999965,44.36560357500008],[-72.858544442999971,44.365459865000048],[-72.858194469999944,44.365429814000038],[-72.857714166999983,44.365467618000025],[-72.85766212599998,44.365526401000068],[-72.856747475999953,44.365523211000038],[-72.856466472999955,44.365416836000065],[-72.856087531999947,44.36535891300008],[-72.855509966999989,44.365083708000043],[-72.85513409899994,44.364821226000061],[-72.85418670599995,44.364391592000061],[-72.852737256999944,44.364066277000063],[-72.852382692999981,44.363862079000057],[-72.851695508999967,44.363574566000068],[-72.851445758999944,44.363377865000075],[-72.851277895999942,44.363331955000035],[-72.850735662999966,44.363016041000037],[-72.84989509199994,44.362768790000075],[-72.848723149999955,44.362707534000037],[-72.848074791999977,44.362532722000026],[-72.84761840699997,44.362334501000078],[-72.847294470999941,44.362119070000062],[-72.847258517999933,44.361957462000078],[-72.847069934999979,44.361723952000034],[-72.847141748999945,44.361631873000078],[-72.846716475999983,44.36156290200006],[-72.84669914899996,44.361463105000041],[-72.846816807999971,44.361445820000029],[-72.846803955999974,44.361404662000041],[-72.846575313999949,44.361382656000046],[-72.846468995999942,44.361287278000077],[-72.84631436899997,44.361252315000058],[-72.846296748999976,44.361038329000053],[-72.846202523999978,44.360915025000054],[-72.845662124999933,44.360539135000067],[-72.845440416999963,44.36045732000008],[-72.845339534999937,44.360468989000026],[-72.845199018999949,44.360397414000033],[-72.84456277399994,44.360483802000033],[-72.843972525999959,44.360737942000071],[-72.843470162999949,44.360731592000036],[-72.84334185299997,44.360687469000027],[-72.843260452999971,44.360771770000042],[-72.843377185999941,44.360828171000037],[-72.843245969999941,44.360885672000052],[-72.843465748999961,44.360978775000035],[-72.843814049999935,44.361037141000054],[-72.844108361999986,44.36086952900007],[-72.844373985999937,44.360835314000042],[-72.844873369999959,44.361127272000033],[-72.844867671999964,44.361203727000031],[-72.844690685999979,44.361308184000052],[-72.84461651099997,44.361529527000073],[-72.844435419999968,44.36170287300007],[-72.844045149999943,44.361881002000075],[-72.84364164599998,44.361914063000029],[-72.843280515999936,44.361731582000061],[-72.843151506999959,44.361606954000081],[-72.843187737999983,44.361409361000028],[-72.843066707999981,44.361202886000058],[-72.842734552999957,44.360943956000028],[-72.842334783999945,44.360755462000043],[-72.841497451999942,44.360592139000062],[-72.840383922999933,44.360522290000063],[-72.839489017999938,44.360241497000061],[-72.838960954999948,44.360412869000072],[-72.83898271399994,44.360522040000035],[-72.838215788999946,44.360377736000032],[-72.837944701999959,44.360270933000038],[-72.83716717599998,44.359791225000038],[-72.837215306999951,44.359678268000039],[-72.837145461999967,44.359622604000037],[-72.836923054999943,44.359601446000056],[-72.836745311999948,44.359729099000049],[-72.836631170999965,44.359663595000029],[-72.835801507999975,44.359528721000061],[-72.835725518999936,44.359379997000076],[-72.835665688999939,44.359493340000029],[-72.835731610999972,44.359567264000077],[-72.835502776999988,44.359555736000061],[-72.835040366999976,44.359165106000034],[-72.834964018999983,44.358914174000063],[-72.834740364999959,44.358982504000039],[-72.834594366999966,44.358879147000039],[-72.834155175999967,44.358854306000069],[-72.834099669999944,44.358978488000048],[-72.834003306999989,44.35899480900008],[-72.833814032999953,44.358827776000055],[-72.833900235999977,44.358758669000053],[-72.833696482999983,44.358553488000041],[-72.833212860999936,44.358314998000026],[-72.832945589999952,44.358311248000064],[-72.832873908999943,44.358377972000028],[-72.832036180999978,44.358560737000062],[-72.831761000999961,44.358728222000025],[-72.831529242999977,44.358661917000063],[-72.83094177199996,44.358750111000063],[-72.830647891999945,44.358867603000078],[-72.830479133999972,44.358809188000066],[-72.830311394999967,44.358831317000067],[-72.830029241999966,44.358957565000026],[-72.830088199999977,44.359031228000049],[-72.830285078999964,44.359105868000029],[-72.830133003999947,44.359253864000038],[-72.829917868999985,44.359258971000031],[-72.829574384999944,44.359138533000078],[-72.829499593999969,44.359151877000045],[-72.828997151999943,44.359649141000034],[-72.828645171999938,44.359761257000059],[-72.828396873999964,44.359763027000042],[-72.828279729999963,44.359661324000058],[-72.827910456999973,44.359609039000077],[-72.827762871999937,44.359382463000031],[-72.827791953999963,44.359314923000056],[-72.827974542999982,44.359231315000045],[-72.828045406999934,44.358926216000043],[-72.827778745999979,44.358512248000068],[-72.827284397999961,44.35837026400003],[-72.827338478999934,44.35856795400008],[-72.827555746999963,44.358787351000046],[-72.827550479999957,44.358910975000072],[-72.827073446999975,44.358420534000061],[-72.826899450999974,44.358371755000064],[-72.826899006999952,44.358186809000074],[-72.826613076999934,44.358162930000049],[-72.826506479999978,44.358093395000026],[-72.826542865999954,44.357974993000028],[-72.826734300999988,44.357798180000032],[-72.827517186999955,44.357571398000061],[-72.827575914999954,44.357493343000044],[-72.827406544999974,44.357473697000046],[-72.826804739999943,44.357658582000056],[-72.826502582999979,44.35768592800008],[-72.826168218999953,44.358018456000025],[-72.826021826999977,44.357918650000045],[-72.82582169899996,44.357953244000043],[-72.825055192999969,44.357534916000077],[-72.825002926999957,44.357457817000068],[-72.824087821999967,44.357118094000043],[-72.822203703999946,44.356783870000072],[-72.821478066999987,44.356558229000029],[-72.821420701999955,44.356581135000056],[-72.821495367999944,44.356688762000033],[-72.821412838999947,44.356696403000058],[-72.821375455999942,44.35656797300004],[-72.821130555999957,44.356412426000077],[-72.820356420999985,44.356195480000054],[-72.819947645999946,44.355918550000069],[-72.819528347999949,44.355754930000046],[-72.818898010999987,44.355620994000049],[-72.818623933999959,44.355459936000045],[-72.81843435199994,44.355452181000032],[-72.81833964599997,44.355543189000059],[-72.818558423999946,44.35557112500004],[-72.818576793999966,44.355888127000071],[-72.818979705999936,44.355882660000077],[-72.818990753999969,44.356023115000028],[-72.818659244999935,44.356069360000049],[-72.818512597999984,44.355969286000061],[-72.818373927999971,44.355991373000052],[-72.818232318999947,44.355886006000048],[-72.818012280999938,44.355995710000059],[-72.817941532999953,44.356133312000054],[-72.817735073999984,44.356123934000038],[-72.817540378999979,44.356217395000044],[-72.817501236999988,44.356309150000072],[-72.817157730999952,44.356414207000057],[-72.816943657999957,44.356638167000028],[-72.81695233399995,44.356909531000042],[-72.816501896999966,44.357332682000049],[-72.816413831999967,44.357552502000033],[-72.816542277999986,44.358064200000058],[-72.816475061999938,44.358219357000053],[-72.816600489999985,44.358341240000073],[-72.816899533999958,44.35832399800006],[-72.816977289999954,44.358614248000038],[-72.816662623999946,44.358844303000069],[-72.816990227999952,44.358967394000047],[-72.816564813999946,44.359034766000036],[-72.816593605999969,44.359222402000057],[-72.816301219999957,44.359261306000064],[-72.816332693999982,44.359452350000026],[-72.816103358999953,44.359647368000026],[-72.815616129999967,44.359873844000049],[-72.815472255999964,44.359780083000032],[-72.814958786999966,44.359811624000031],[-72.81461851499995,44.359780378000039],[-72.814475363999975,44.359693017000041],[-72.814021385999979,44.35958932300008],[-72.813680034999948,44.359641396000029],[-72.813116251999986,44.359643370000072],[-72.812700263999943,44.359717219000061],[-72.812048223999966,44.359539041000062],[-72.811927726999954,44.359452074000046],[-72.811849108999979,44.359240709000062],[-72.811869465999962,44.358896837000032],[-72.812225506999937,44.358409825000081],[-72.81197138899995,44.358002596000063],[-72.811901626999941,44.357754584000077],[-72.811987901999942,44.357670440000049],[-72.812569334999978,44.35782461000008],[-72.812643923999985,44.357691917000068],[-72.812519450999957,44.357335662000025],[-72.812521295999943,44.357125975000031],[-72.81233543899998,44.356865128000038],[-72.811551498999961,44.356408460000068],[-72.811245914999972,44.356459008000058],[-72.811130574999936,44.356424621000031],[-72.811053756999968,44.356238124000072],[-72.810810733999972,44.356061867000051],[-72.810032601999978,44.355968980000057],[-72.810006044999966,44.35630648700004],[-72.809698928999978,44.355938674000072],[-72.807593519999955,44.35568928400005],[-72.804739181999935,44.355180837000034],[-72.804727055999933,44.355297956000072],[-72.805153967999956,44.355463093000026],[-72.805174930999954,44.355546763000063],[-72.803949145999979,44.355864679000035],[-72.80390164399995,44.355819178000047],[-72.803991020999945,44.355558212000062],[-72.803950437999958,44.355498014000034],[-72.804193401999953,44.35525023200006],[-72.804454007999936,44.355244454000058],[-72.804597150999939,44.355174163000072],[-72.804545189999942,44.35513082600005],[-72.804307326999947,44.355081170000062],[-72.804197527999975,44.355155564000029],[-72.804054467999947,44.355155671000034],[-72.803842155999973,44.355074742000056],[-72.804133017999959,44.355079647000025],[-72.804101436999986,44.355040627000051],[-72.802741759999947,44.354721494000046],[-72.799026974999947,44.354012497000042],[-72.798956981999936,44.354033833000074],[-72.798989800999948,44.354096136000067],[-72.798752176999983,44.354157617000055],[-72.798527835999948,44.353956357000072],[-72.798325531999978,44.353873621000048],[-72.798234463999961,44.353894596000032],[-72.798317255999962,44.354047405000074],[-72.79825544299996,44.354064631000028],[-72.797579021999979,44.353937352000059],[-72.795619029999955,44.353778050000074],[-72.795533169999942,44.35372198400006],[-72.795615658999964,44.353608516000065],[-72.795014853999987,44.353582207000045],[-72.794264169999963,44.353121617000056],[-72.792394178999984,44.352748941000073],[-72.792272431999947,44.35262483300005],[-72.792442732999973,44.352457181000034],[-72.792412894999984,44.35240243700008],[-72.792280277999964,44.352460592000057],[-72.792186804999972,44.352606165000054],[-72.791985108999938,44.352640357000041],[-72.791883279999979,44.352569393000067],[-72.791257605999988,44.352427024000065],[-72.788234279999983,44.351815299000066],[-72.788046474999987,44.351793377000035],[-72.787949142999935,44.351828750000038],[-72.78745668199997,44.351667924000026],[-72.783967493999967,44.350975423000079],[-72.780558769999971,44.35031490700004],[-72.780152612999984,44.35030279700004],[-72.779722601999936,44.35016235900008],[-72.778888347999953,44.350089497000056],[-72.777829337999947,44.349767275000033],[-72.776198989999955,44.349387844000034],[-72.77612219699995,44.349295242000039],[-72.77614564299995,44.349190440000029],[-72.776622612999972,44.349315048000051],[-72.776746236999941,44.349293338000052],[-72.776173772999982,44.348864339000045],[-72.775689315999955,44.348595957000043],[-72.775727912999969,44.34847927900006],[-72.775560821999989,44.348441973000035],[-72.775293737999959,44.348112177000075],[-72.775062574999936,44.34807653200005],[-72.774918483999954,44.347645260000036],[-72.774789085999942,44.34761582200008],[-72.774465936999945,44.347112735000053],[-72.77433919899994,44.347018320000075],[-72.774341228999958,44.346701451000058],[-72.773980601999938,44.345156803000066],[-72.773680604999981,44.344672309000032],[-72.773669483999981,44.343781403000037],[-72.773563741999965,44.343535812000027],[-72.773369558999946,44.343316898000069],[-72.773238225999933,44.343294788000037],[-72.772775612999965,44.34301921000008],[-72.771236795999982,44.342684400000053],[-72.770929458999944,44.342777745000035],[-72.770666525999957,44.34274582300003],[-72.770610544999954,44.342587320000064],[-72.770403587999965,44.342491447000043],[-72.768896326999936,44.342227981000065],[-72.768228618999956,44.342210521000027],[-72.76718776599995,44.34243624100003],[-72.766655785999944,44.342484490000061],[-72.76627074299995,44.342435444000046],[-72.765991025999938,44.34229676800004],[-72.765576470999974,44.342287733000035],[-72.765390857999989,44.342329376000066],[-72.765024763999975,44.341989044000059],[-72.764776901999937,44.341867130000026],[-72.764644693999969,44.34193728300005],[-72.764623752999967,44.342079826000031],[-72.764755935999972,44.342677374000061],[-72.764635367999972,44.342742705000035],[-72.764488635999953,44.342749241000035],[-72.764250686999958,44.342628980000029],[-72.764134273999957,44.342312604000028],[-72.763954078999973,44.34217226100003],[-72.763909353999964,44.342055395000045],[-72.763896121999949,44.34106786500007],[-72.76396082499997,44.340893360000052],[-72.76387290699995,44.340624987000069],[-72.763927040999988,44.340484023000045],[-72.76358374199998,44.340258818000052],[-72.763921950999986,44.340128023000034],[-72.76423628799995,44.338561431000073],[-72.764319856999975,44.338524474000053],[-72.764454837999949,44.338095093000049],[-72.764574840999956,44.336786776000054],[-72.764819219999936,44.336402819000057],[-72.764988023999933,44.335759166000059],[-72.764970963999986,44.335359459000074],[-72.765051683999957,44.334986221000065],[-72.764984159999983,44.334900951000066],[-72.765090028999964,44.334393814000066],[-72.764996596999936,44.334304148000058],[-72.764956103999964,44.33405256900005],[-72.764771994999933,44.333744209000031],[-72.764625919999958,44.333753909000052],[-72.764521284999944,44.333705274000067],[-72.763518003999934,44.333058003000076],[-72.763351008999962,44.332902723000075],[-72.763357956999982,44.332725006000032],[-72.763396650999937,44.331834361000062],[-72.763290894999955,44.33147761400005],[-72.763254819999986,44.330980526000076],[-72.76319721599998,44.330909634000079],[-72.763106028999971,44.330898629000046],[-72.763248608999959,44.330756252000072],[-72.763135596999973,44.330522880000046],[-72.76298203999994,44.330540054000039],[-72.762998650999975,44.330760566000038],[-72.762843241999974,44.330945961000054],[-72.76182503299998,44.330893503000027],[-72.76093435599995,44.331099370000061],[-72.76065994399994,44.330978043000073],[-72.760043703999941,44.330958449000036],[-72.759919985999943,44.331019972000036],[-72.759812329999988,44.331006836000029],[-72.759599985999955,44.330812101000049],[-72.759178414999951,44.330581008000081],[-72.759264857999938,44.330544091000036],[-72.759199987999978,44.330035116000033],[-72.759281849999979,44.329907723000076],[-72.758982103999983,44.329380932000049],[-72.758930900999985,44.328481908000072],[-72.758878425999967,44.328412333000074],[-72.758528471999966,44.32824981400006],[-72.758355028999972,44.328022402000045],[-72.75840898499996,44.327769510000053],[-72.758759324999971,44.327081314000054],[-72.758607499999982,44.326699416000054],[-72.758092106999982,44.326434044000052],[-72.757804668999938,44.326365386000077],[-72.757576599999936,44.326176884000063],[-72.757186499999989,44.325986640000053],[-72.756782088999955,44.326018116000057],[-72.756685612999945,44.325935702000038],[-72.75630868199994,44.325924422000071],[-72.755828164999969,44.325974875000043],[-72.755238110999983,44.325942976000078],[-72.755197821999957,44.325974877000078],[-72.755098246999978,44.326071644000081],[-72.754758093999953,44.326248795000026],[-72.754685068999947,44.326518770000064],[-72.754368699999986,44.326749041000028],[-72.754276404999985,44.326960794000058],[-72.753882063999981,44.327040274000069],[-72.753526462999957,44.327242352000042],[-72.753312215999983,44.327266720000068],[-72.753059452999935,44.327382019000027],[-72.753032410999936,44.327548447000026],[-72.752884469999969,44.327661564000039],[-72.752669218999984,44.327580625000053],[-72.752553721999959,44.327456659000063],[-72.75217324099998,44.327379560000054],[-72.752243489999955,44.327146404000075],[-72.752522853999949,44.327021366000054],[-72.752324900999952,44.326819299000078],[-72.752115899999978,44.326744861000066],[-72.751727228999982,44.326847814000075],[-72.751385232999951,44.326802774000043],[-72.751066451999975,44.326673266000057],[-72.750275749999957,44.326492024000061],[-72.750193818999946,44.326542741000026],[-72.749579013999949,44.326505025000074],[-72.749515514999985,44.326555666000047],[-72.749468459999946,44.32689937400005],[-72.74935052099994,44.326977665000072],[-72.749193873999957,44.326923222000062],[-72.749031268999943,44.326948895000044],[-72.749281031999942,44.327065769000058],[-72.749264418999985,44.327100378000068],[-72.749166538999987,44.32716509200003],[-72.748941440999943,44.32710026400008],[-72.74888550299994,44.327064632000031],[-72.748947665999935,44.326969791000067],[-72.748855834999972,44.326971983000078],[-72.748758537999947,44.327093133000062],[-72.748787361999973,44.327177889000041],[-72.74864951099994,44.32722300100005],[-72.74836884299998,44.327040679000049],[-72.748135552999941,44.327028210000037],[-72.748091288999944,44.326904310000032],[-72.747956401999943,44.326957193000055],[-72.74787334399997,44.326918988000045],[-72.747804422999934,44.32682730700003],[-72.747856142999979,44.326679686000034],[-72.747726298999964,44.326632028000063],[-72.747841974999972,44.326437862000034],[-72.747777503999941,44.32635644800007],[-72.747645933999934,44.32640546600004],[-72.747558757999968,44.326277447000052],[-72.747373077999953,44.326323518000038],[-72.747185807999983,44.326232993000076],[-72.747062487999983,44.325872270000048],[-72.747220031999973,44.325502671000038],[-72.747261199999969,44.325133006000044],[-72.74729432099997,44.325012026000081],[-72.747416480999959,44.324904575000062],[-72.747758295999972,44.324918143000048],[-72.748019671999941,44.324765211000056],[-72.748224139999934,44.324495675000037],[-72.748465347999968,44.32348556200003],[-72.748261060999937,44.323024052000051],[-72.748253783999985,44.32287404200008],[-72.748478432999946,44.322687691000056],[-72.748905298999944,44.322523215000047],[-72.749032763999935,44.322274931000038],[-72.749095179999983,44.321824463000041],[-72.749001067999984,44.321536587000026],[-72.749265075999972,44.321209771000042],[-72.749566950999963,44.320967248000045],[-72.749626311999975,44.320780453000054],[-72.749578020999934,44.320654431000037],[-72.750502810999933,44.319776018000027],[-72.750816984999972,44.319546645000059],[-72.751174397999989,44.319374415000027],[-72.751671949999945,44.319347131000029],[-72.752322932999959,44.31958148800004],[-72.753139542999975,44.320372436000071],[-72.753567988999976,44.320481102000031],[-72.754732391999937,44.321119513000042],[-72.75501374199996,44.321347107000065],[-72.755337318999977,44.321755962000054],[-72.755939857999977,44.322256978000041],[-72.756443329999968,44.322086834000061],[-72.756647998999938,44.321874431000026],[-72.75721817699997,44.321794581000063],[-72.757479351999962,44.321690136000029],[-72.757867628999975,44.321611052000037],[-72.75779165299997,44.321724260000053],[-72.757914673999949,44.321825775000036],[-72.758022534999952,44.322173725000027],[-72.758213112999954,44.322327320000056],[-72.758345186999975,44.322394479000025],[-72.759217260999947,44.322318705000043],[-72.759736650999969,44.322008025000059],[-72.760015098999986,44.32198345200004],[-72.760415843999965,44.321832604000065],[-72.760659818999954,44.321414638000078],[-72.760893511999939,44.32110523700004],[-72.761332666999976,44.321035857000027],[-72.761579453999957,44.320849550000048],[-72.761791273999961,44.320721864000063],[-72.76168064899997,44.320596212000055],[-72.761279861999981,44.320706656000027],[-72.760748964999948,44.320679340000027],[-72.760345768999969,44.320982650000076],[-72.760031107999964,44.321095143000036],[-72.758972337999978,44.32093096400007],[-72.758555016999935,44.321074825000039],[-72.758247706999953,44.321349382000051],[-72.757879021999941,44.32153190400004],[-72.757465378999939,44.321619789000067],[-72.757335937999983,44.321432347000041],[-72.757007826999939,44.321480694000059],[-72.756638313999986,44.321176794000053],[-72.756454451999957,44.320841428000051],[-72.755966379999961,44.320744875000059],[-72.755272070999979,44.320470228000033],[-72.754635145999941,44.320300084000053],[-72.75409446599997,44.32026987900008],[-72.753921888999969,44.320192595000037],[-72.75379940299996,44.320015753000064],[-72.753984879999962,44.318872946000056],[-72.753795043999958,44.318687614000055],[-72.753436369999974,44.318593193000027],[-72.752152394999939,44.318486508000035]]],[[[-72.770489651999981,44.278560412000047],[-72.770357263999983,44.278827855000031],[-72.770481164999978,44.278725188000067],[-72.770489651999981,44.278560412000047]]],[[[-72.784982059999948,44.24833360100007],[-72.784918535999964,44.248459026000035],[-72.784788373999959,44.24872295800003],[-72.784943684999973,44.248823388000062],[-72.785142743999984,44.248845211000059],[-72.785346539999978,44.248603416000037],[-72.784985650999943,44.248335913000062],[-72.784982059999948,44.24833360100007]]]]},"properties":{"OBJECTID":6,"OBJECT_ID":1200,"County":"Washington","RPC":"CVRPC","Municipal_Name":"Duxbury","GEO_ID":"5002318550","District_Name":"Flood Hazard Overlay District","Abbreviated_District_Name":"Fho","District_Type":"Mixed with Residential","Bylaw_Date":"2024-05-28","Elderly_Housing_District":"No","District_Mapped":"No","Overlay_District":"Yes","Base_Density":null,"FIPS6":null,"GIS_ID":null,"Last_Update":"4/10/26","F1F_Allowance":"Public Hearing","F1F_Front_Setback":null,"F1F_Side_Setback":null,"F1F_Rear_Setback":null,"F1F_Frontage":null,"F1F_Max_Height":null,"F1F_Max_Stories":null,"F1F_Min_Lot_Size":null,"F1F_Max_Lot_Building_Coverage":null,"F1F_Max_Lot_Impervious_Coverage":null,"F1F_Min_Parking_Spaces":null,"F1F_Elderly_Housing_Only":null,"F1F_Affordable_Housing_Only":null,"F2F_Allowance":"Public Hearing","F2F_Front_Setback":null,"F2F_Side_Setback":null,"F2F_Rear_Setback":null,"F2F_Frontage":null,"F2F_Max_Density":null,"F2F_Max_Height":null,"F2F_Max_Stories":null,"F2F_Min_Lot_Size":null,"F2F_Max_Lot_Building_Coverage":null,"F2F_Max_Lot_Impervious_Coverage":null,"F2F_Min_Parking_Spaces_per_1BR":null,"F2F_Min_Parking_Spaces_per_mult_BR":null,"F2F_Elderly_Housing_Only":"No","F2F_Affordable_Housing_Only":"No","F3F_Allowance":"Public Hearing","F3F_Front_Setback":null,"F3F_Side_Setback":null,"F3F_Rear_Setback":null,"F3F_Frontage":null,"F3F_Max_Density":null,"F3F_Max_Height":null,"F3F_Max_Stories":null,"F3F_Min_Lot_Size":null,"F3F_Max_Lot_Building_Coverage":null,"F3F_Max_Lot_Impervious_Coverage":null,"F3F_Min_Parking_Spaces_per_1BR":null,"F3F_Min_Parking_Spaces_per_mult_BR":null,"F3F_Affordable_Housing_Only":"No","F3F_Proximity_to_Public_Transit_Required":"No","F3F_Connection_to_Sewage_Water_Required":"No","F4F_Allowance":"Public Hearing","F4F_Front_Setback":null,"F4F_Side_Setback":null,"F4F_Rear_Setback":null,"F4F_Frontage":null,"F1F_Max_Density":null,"F4F_Max_Density":null,"F4F_Max_Height":null,"F4F_Max_Stories":null,"F4F_Min_Lot_Size":null,"F4F_Max_Lot_Building_Coverage":null,"F4F_Max_Lot_Impervious_Coverage":null,"F4F_Min_Parking_Spaces_per_1BR":null,"F4F_Min_Parking_Spaces_per_mult_BR":null,"F3F_Elderly_Housing_Only":"No","F4F_Elderly_Housing_Only":"No","F4F_Affordable_Housing_Only":"No","F4F_Proximity_to_Public_Transit_Required":"No","F4F_Connection_to_Sewage_Water_Required":"No","ADU_Allowance":"Allowed/Conditional","ADU_Elderly_Housing_Only":"No","ADU_Max_Size_as_Percent_of_Primary_Strcture":30,"ADU_Max_Size_in_sq_ft":null,"ADU_Min_Lot_Size":null,"ADU_Max_Bedrooms":null,"ADU_Min_Parking_Spaces":1,"ADU_Owner_Occupancy_Required":"No","ADU_Renter_Occupancy_Prohibited":"No","ADU_Employee_or_Family_Occupancy_Required":"No","ADU_Restricted_to_Primary_Structure":"Yes","Affordable_Housing_Allowance":"Not Mentioned","Affordable_Housing_District":"No","Affordable_Housing_Elderly_Only":"No","Affordable_Housing_Min_Lot_Size":null,"Affordable_Housing_Max_Density":null,"Affordable_Housing_Min_Parking_Spaces_per_mult_BR":null,"Affordable_Housing_Max_Units_per_Building":null,"Affordable_Housing_Min_Parking_Spaces_per_1BR":null,"PRD_Allowance":"Public Hearing","PRD_Max_Density":null,"PRD_Max_Units":null,"PRD_Min_Lot_Size":null,"PRD_Mobile_or_Manufactured_Home_Park":"No","PUD_Allowance":"Yes","PUD_Required_with_Subdivision":"No","PUD_Requires_Land_Conservation":"No","PUD_Threshold_Number":null,"Notes":" New Residential Developments Of Any Kind Are not Permitted Within The Floodway. Adus Equal Or Less Than 500 Square Feet May Be Conditionally Permitted Within The Floodway (Public Hearing), And Adus Are Permitted Outside The Floodway. Outside The Floodway Residential Development Is Permitted Conditionally (With Public Hearing). ","Shape_Length":0.37615714204958423,"Shape_Area":0.00020613128211964261}}]}