{"type":"FeatureCollection","features":[{"type":"Feature","id":1,"geometry":{"type":"MultiPolygon","coordinates":[[[[-72.652931120999938,44.147562956000058],[-72.651873920999947,44.149168028000076],[-72.649718249999978,44.151400678000073],[-72.648949741999957,44.153076704000057],[-72.649987994999947,44.153560654000046],[-72.650612682999963,44.154530450000038],[-72.652324582999938,44.154826832000026],[-72.652840797999943,44.153930188000061],[-72.654292749999968,44.153965568000046],[-72.654756392999957,44.152807665000068],[-72.654410730999984,44.150970681000047],[-72.655138857999987,44.147874707000028],[-72.654140169999948,44.147937487000036],[-72.652931120999938,44.147562956000058]]],[[[-72.662155793999943,44.142670115000044],[-72.659864087999949,44.145527704000074],[-72.661772671999984,44.146507566000025],[-72.660769042999959,44.147127781000052],[-72.660408746999963,44.14873616400007],[-72.661011963999954,44.148759668000025],[-72.66082703099994,44.150173495000047],[-72.658022578999976,44.150751999000079],[-72.657568355999956,44.15180941400007],[-72.656404459999976,44.151711146000025],[-72.655845654999951,44.152955511000073],[-72.656679025999949,44.154372966000039],[-72.656961607999961,44.158986465000055],[-72.656527761999939,44.160403111000051],[-72.658060512999953,44.160425697000051],[-72.658359623999957,44.159310742000059],[-72.658429786999989,44.157046905000072],[-72.658652532999952,44.155885162000061],[-72.658006282999963,44.154255022000029],[-72.659535225999946,44.154410107000047],[-72.660482830999968,44.153006546000029],[-72.664014247999944,44.154236769000079],[-72.663460617999988,44.15502045900007],[-72.666193774999954,44.155903799000043],[-72.66701453099995,44.153855538000073],[-72.669443659999956,44.15496762600003],[-72.670544484999937,44.154536190000044],[-72.66355531399995,44.150700223000058],[-72.665820482999948,44.146945429000027],[-72.665746517999935,44.145522017000076],[-72.665029234999963,44.144848646000071],[-72.665175850999958,44.142914691000044],[-72.663960632999988,44.143208327000025],[-72.662155793999943,44.142670115000044]]]]},"properties":{"OBJECTID":1,"OBJECT_ID":1323,"County":"Washington","RPC":"CVRPC","Municipal_Name":"Northfield","GEO_ID":"5002350275","District_Name":"High Density Residential District","Abbreviated_District_Name":"Hdr","District_Type":"Primarily Residential","Bylaw_Date":"2024-06-03","Elderly_Housing_District":"No","District_Mapped":"Yes","Overlay_District":"No","Base_Density":8,"FIPS6":23065,"GIS_ID":null,"Last_Update":"5/5/26","F1F_Allowance":"Permitted","F1F_Front_Setback":null,"F1F_Side_Setback":10,"F1F_Rear_Setback":10,"F1F_Frontage":"75","F1F_Max_Height":null,"F1F_Max_Stories":null,"F1F_Min_Lot_Size":0.17000000000000001,"F1F_Max_Lot_Building_Coverage":50,"F1F_Max_Lot_Impervious_Coverage":null,"F1F_Min_Parking_Spaces":2,"F1F_Elderly_Housing_Only":null,"F1F_Affordable_Housing_Only":null,"F2F_Allowance":"Permitted","F2F_Front_Setback":null,"F2F_Side_Setback":10,"F2F_Rear_Setback":10,"F2F_Frontage":"75","F2F_Max_Density":8,"F2F_Max_Height":null,"F2F_Max_Stories":null,"F2F_Min_Lot_Size":0.27000000000000002,"F2F_Max_Lot_Building_Coverage":50,"F2F_Max_Lot_Impervious_Coverage":null,"F2F_Min_Parking_Spaces_per_1BR":2,"F2F_Min_Parking_Spaces_per_mult_BR":null,"F2F_Elderly_Housing_Only":"No","F2F_Affordable_Housing_Only":"No","F3F_Allowance":"Public Hearing","F3F_Front_Setback":null,"F3F_Side_Setback":10,"F3F_Rear_Setback":10,"F3F_Frontage":"75","F3F_Max_Density":8,"F3F_Max_Height":null,"F3F_Max_Stories":null,"F3F_Min_Lot_Size":0.37,"F3F_Max_Lot_Building_Coverage":50,"F3F_Max_Lot_Impervious_Coverage":null,"F3F_Min_Parking_Spaces_per_1BR":2,"F3F_Min_Parking_Spaces_per_mult_BR":null,"F3F_Affordable_Housing_Only":"No","F3F_Proximity_to_Public_Transit_Required":"No","F3F_Connection_to_Sewage_Water_Required":"Yes","F4F_Allowance":"Public Hearing","F4F_Front_Setback":null,"F4F_Side_Setback":10,"F4F_Rear_Setback":10,"F4F_Frontage":"75","F1F_Max_Density":null,"F4F_Max_Density":8,"F4F_Max_Height":null,"F4F_Max_Stories":null,"F4F_Min_Lot_Size":0.46999999999999997,"F4F_Max_Lot_Building_Coverage":50,"F4F_Max_Lot_Impervious_Coverage":null,"F4F_Min_Parking_Spaces_per_1BR":2,"F4F_Min_Parking_Spaces_per_mult_BR":null,"F3F_Elderly_Housing_Only":"No","F4F_Elderly_Housing_Only":"No","F4F_Affordable_Housing_Only":"No","F4F_Proximity_to_Public_Transit_Required":"No","F4F_Connection_to_Sewage_Water_Required":"Yes","ADU_Allowance":"Public Hearing","ADU_Elderly_Housing_Only":"Yes","ADU_Max_Size_as_Percent_of_Primary_Strcture":null,"ADU_Max_Size_in_sq_ft":30,"ADU_Min_Lot_Size":null,"ADU_Max_Bedrooms":1,"ADU_Min_Parking_Spaces":2,"ADU_Owner_Occupancy_Required":"No","ADU_Renter_Occupancy_Prohibited":"No","ADU_Employee_or_Family_Occupancy_Required":"No","ADU_Restricted_to_Primary_Structure":"No","Affordable_Housing_Allowance":"Not Mentioned","Affordable_Housing_District":"No","Affordable_Housing_Elderly_Only":"No","Affordable_Housing_Min_Lot_Size":null,"Affordable_Housing_Max_Density":null,"Affordable_Housing_Min_Parking_Spaces_per_mult_BR":null,"Affordable_Housing_Max_Units_per_Building":null,"Affordable_Housing_Min_Parking_Spaces_per_1BR":null,"PRD_Allowance":"Public Hearing","PRD_Max_Density":8,"PRD_Max_Units":null,"PRD_Min_Lot_Size":null,"PRD_Mobile_or_Manufactured_Home_Park":"Yes","PUD_Allowance":null,"PUD_Required_with_Subdivision":null,"PUD_Requires_Land_Conservation":null,"PUD_Threshold_Number":null,"Notes":"  Accessory Dwelling Units Are Issued By Permit Unless The Building Would Require A New Accessory Structure, An Increase In The Height Or Floor Area Of The Existing Dwelling, Or An Increase In The Dimensions Of The Parking Areas. In These Cases, A Pubic Hearing Is Required.","Shape_Length":0.091507550252535749,"Shape_Area":0.00010732875492742946}},{"type":"Feature","id":2,"geometry":{"type":"MultiPolygon","coordinates":[[[[-72.654756392999957,44.152807665000068],[-72.654292749999968,44.153965568000046],[-72.652840797999943,44.153930188000061],[-72.652324582999938,44.154826832000026],[-72.650612682999963,44.154530450000038],[-72.649987994999947,44.153560654000046],[-72.648949741999957,44.153076704000057],[-72.648171786999967,44.153003052000031],[-72.648551846999965,44.155685943000037],[-72.648495120999939,44.159532648000038],[-72.647675339999978,44.161851245000037],[-72.649128423999969,44.162260003000029],[-72.650785447999965,44.161287211000058],[-72.652808598999968,44.161545842000066],[-72.652651290999984,44.160874088000071],[-72.653423809999936,44.160459876000061],[-72.653340756999967,44.159079572000053],[-72.654408425999975,44.158557178000081],[-72.655131573999938,44.157473587000027],[-72.655025517999945,44.156577777000052],[-72.655073558999959,44.155121785000063],[-72.656679025999949,44.154372966000039],[-72.655845654999951,44.152955511000073],[-72.654756392999957,44.152807665000068]]],[[[-72.658022578999976,44.150751999000079],[-72.656713962999959,44.151021913000079],[-72.656404459999976,44.151711146000025],[-72.657568355999956,44.15180941400007],[-72.658022578999976,44.150751999000079]]],[[[-72.659864087999949,44.145527704000074],[-72.658678298999973,44.147006170000054],[-72.657466360999933,44.147728358000052],[-72.657103511999935,44.147751176000043],[-72.656971838999937,44.148602187000051],[-72.660408746999963,44.14873616400007],[-72.660769042999959,44.147127781000052],[-72.661772671999984,44.146507566000025],[-72.659864087999949,44.145527704000074]]]]},"properties":{"OBJECTID":2,"OBJECT_ID":1324,"County":"Washington","RPC":"CVRPC","Municipal_Name":"Northfield","GEO_ID":"5002350275","District_Name":"Industrial District","Abbreviated_District_Name":"Idd","District_Type":"Mixed with Residential","Bylaw_Date":"2024-06-03","Elderly_Housing_District":"No","District_Mapped":"Yes","Overlay_District":"No","Base_Density":null,"FIPS6":23065,"GIS_ID":null,"Last_Update":"5/5/26","F1F_Allowance":"Public Hearing","F1F_Front_Setback":45,"F1F_Side_Setback":10,"F1F_Rear_Setback":10,"F1F_Frontage":"100","F1F_Max_Height":null,"F1F_Max_Stories":null,"F1F_Min_Lot_Size":0.5,"F1F_Max_Lot_Building_Coverage":50,"F1F_Max_Lot_Impervious_Coverage":null,"F1F_Min_Parking_Spaces":2,"F1F_Elderly_Housing_Only":null,"F1F_Affordable_Housing_Only":null,"F2F_Allowance":"Public Hearing","F2F_Front_Setback":45,"F2F_Side_Setback":10,"F2F_Rear_Setback":10,"F2F_Frontage":"100","F2F_Max_Density":2,"F2F_Max_Height":null,"F2F_Max_Stories":null,"F2F_Min_Lot_Size":1,"F2F_Max_Lot_Building_Coverage":50,"F2F_Max_Lot_Impervious_Coverage":null,"F2F_Min_Parking_Spaces_per_1BR":2,"F2F_Min_Parking_Spaces_per_mult_BR":null,"F2F_Elderly_Housing_Only":"No","F2F_Affordable_Housing_Only":"No","F3F_Allowance":"Public Hearing","F3F_Front_Setback":45,"F3F_Side_Setback":10,"F3F_Rear_Setback":10,"F3F_Frontage":"100","F3F_Max_Density":2,"F3F_Max_Height":null,"F3F_Max_Stories":null,"F3F_Min_Lot_Size":1.5,"F3F_Max_Lot_Building_Coverage":50,"F3F_Max_Lot_Impervious_Coverage":null,"F3F_Min_Parking_Spaces_per_1BR":2,"F3F_Min_Parking_Spaces_per_mult_BR":null,"F3F_Affordable_Housing_Only":"No","F3F_Proximity_to_Public_Transit_Required":"No","F3F_Connection_to_Sewage_Water_Required":"Yes","F4F_Allowance":"Public Hearing","F4F_Front_Setback":45,"F4F_Side_Setback":10,"F4F_Rear_Setback":10,"F4F_Frontage":"100","F1F_Max_Density":null,"F4F_Max_Density":2,"F4F_Max_Height":null,"F4F_Max_Stories":null,"F4F_Min_Lot_Size":2,"F4F_Max_Lot_Building_Coverage":50,"F4F_Max_Lot_Impervious_Coverage":null,"F4F_Min_Parking_Spaces_per_1BR":2,"F4F_Min_Parking_Spaces_per_mult_BR":null,"F3F_Elderly_Housing_Only":"No","F4F_Elderly_Housing_Only":"No","F4F_Affordable_Housing_Only":"No","F4F_Proximity_to_Public_Transit_Required":"No","F4F_Connection_to_Sewage_Water_Required":"Yes","ADU_Allowance":"Public Hearing","ADU_Elderly_Housing_Only":"Yes","ADU_Max_Size_as_Percent_of_Primary_Strcture":null,"ADU_Max_Size_in_sq_ft":30,"ADU_Min_Lot_Size":null,"ADU_Max_Bedrooms":1,"ADU_Min_Parking_Spaces":2,"ADU_Owner_Occupancy_Required":"No","ADU_Renter_Occupancy_Prohibited":"No","ADU_Employee_or_Family_Occupancy_Required":"No","ADU_Restricted_to_Primary_Structure":"No","Affordable_Housing_Allowance":"Not Mentioned","Affordable_Housing_District":"No","Affordable_Housing_Elderly_Only":"No","Affordable_Housing_Min_Lot_Size":null,"Affordable_Housing_Max_Density":null,"Affordable_Housing_Min_Parking_Spaces_per_mult_BR":null,"Affordable_Housing_Max_Units_per_Building":null,"Affordable_Housing_Min_Parking_Spaces_per_1BR":null,"PRD_Allowance":"Public Hearing","PRD_Max_Density":null,"PRD_Max_Units":null,"PRD_Min_Lot_Size":null,"PRD_Mobile_or_Manufactured_Home_Park":"Yes","PUD_Allowance":null,"PUD_Required_with_Subdivision":null,"PUD_Requires_Land_Conservation":null,"PUD_Threshold_Number":null,"Notes":"  Accessory Dwelling Units Are Issued By Permit Unless The Building Would Require A New Accessory Structure, An Increase In The Height Or Floor Area Of The Existing Dwelling, Or An Increase In The Dimensions Of The Parking Areas. In These Cases, A Pubic Hearing Is Required.","Shape_Length":0.05270764169825512,"Shape_Area":5.7323591420883838e-05}},{"type":"Feature","id":3,"geometry":{"type":"MultiPolygon","coordinates":[[[[-72.656527761999939,44.160403111000051],[-72.656385067999963,44.160869037000055],[-72.655537986999946,44.163283468000031],[-72.657804586999987,44.16357938200008],[-72.658060512999953,44.160425697000051],[-72.656527761999939,44.160403111000051]]],[[[-72.660482830999968,44.153006546000029],[-72.659535225999946,44.154410107000047],[-72.658006282999963,44.154255022000029],[-72.658652532999952,44.155885162000061],[-72.658429786999989,44.157046905000072],[-72.658359623999957,44.159310742000059],[-72.659151505999944,44.158901884000045],[-72.659108996999976,44.157134987000063],[-72.659864772999981,44.157351404000053],[-72.660650054999962,44.154523174000076],[-72.662155792999954,44.155057114000044],[-72.661120380999989,44.156415601000049],[-72.661810726999988,44.156686591000039],[-72.663275931999976,44.158152311000038],[-72.663282600999935,44.160570582000048],[-72.664951366999958,44.161003127000072],[-72.665406953999934,44.159715039000048],[-72.664172984999936,44.159194887000069],[-72.666193774999954,44.155903799000043],[-72.663460617999988,44.15502045900007],[-72.664014247999944,44.154236769000079],[-72.660482830999968,44.153006546000029]]],[[[-72.666941338999948,44.134386069000072],[-72.666009044999953,44.134648749000064],[-72.665804733999948,44.135731661000079],[-72.662331618999985,44.135699317000046],[-72.662474704999966,44.135322181000049],[-72.660409321999964,44.135344672000031],[-72.659590132999938,44.136990494000031],[-72.658162968999989,44.138422902000059],[-72.657539982999936,44.141195257000049],[-72.662155793999943,44.142670115000044],[-72.666455828999972,44.137905456000055],[-72.666941338999948,44.134386069000072]]]]},"properties":{"OBJECTID":3,"OBJECT_ID":1325,"County":"Washington","RPC":"CVRPC","Municipal_Name":"Northfield","GEO_ID":"5002350275","District_Name":"Institutional District","Abbreviated_District_Name":"Isd","District_Type":"Mixed with Residential","Bylaw_Date":"2024-06-03","Elderly_Housing_District":"No","District_Mapped":"Yes","Overlay_District":"No","Base_Density":2,"FIPS6":23065,"GIS_ID":null,"Last_Update":"5/5/26","F1F_Allowance":"Permitted","F1F_Front_Setback":45,"F1F_Side_Setback":10,"F1F_Rear_Setback":10,"F1F_Frontage":"100","F1F_Max_Height":null,"F1F_Max_Stories":null,"F1F_Min_Lot_Size":0.5,"F1F_Max_Lot_Building_Coverage":50,"F1F_Max_Lot_Impervious_Coverage":null,"F1F_Min_Parking_Spaces":2,"F1F_Elderly_Housing_Only":null,"F1F_Affordable_Housing_Only":null,"F2F_Allowance":"Permitted","F2F_Front_Setback":45,"F2F_Side_Setback":10,"F2F_Rear_Setback":10,"F2F_Frontage":"100","F2F_Max_Density":2,"F2F_Max_Height":null,"F2F_Max_Stories":null,"F2F_Min_Lot_Size":1,"F2F_Max_Lot_Building_Coverage":50,"F2F_Max_Lot_Impervious_Coverage":null,"F2F_Min_Parking_Spaces_per_1BR":2,"F2F_Min_Parking_Spaces_per_mult_BR":null,"F2F_Elderly_Housing_Only":"No","F2F_Affordable_Housing_Only":"No","F3F_Allowance":"Public Hearing","F3F_Front_Setback":45,"F3F_Side_Setback":10,"F3F_Rear_Setback":10,"F3F_Frontage":"100","F3F_Max_Density":2,"F3F_Max_Height":null,"F3F_Max_Stories":null,"F3F_Min_Lot_Size":1.5,"F3F_Max_Lot_Building_Coverage":50,"F3F_Max_Lot_Impervious_Coverage":null,"F3F_Min_Parking_Spaces_per_1BR":2,"F3F_Min_Parking_Spaces_per_mult_BR":null,"F3F_Affordable_Housing_Only":"No","F3F_Proximity_to_Public_Transit_Required":"No","F3F_Connection_to_Sewage_Water_Required":"Yes","F4F_Allowance":"Public Hearing","F4F_Front_Setback":45,"F4F_Side_Setback":10,"F4F_Rear_Setback":10,"F4F_Frontage":"100","F1F_Max_Density":null,"F4F_Max_Density":2,"F4F_Max_Height":null,"F4F_Max_Stories":null,"F4F_Min_Lot_Size":2,"F4F_Max_Lot_Building_Coverage":50,"F4F_Max_Lot_Impervious_Coverage":null,"F4F_Min_Parking_Spaces_per_1BR":2,"F4F_Min_Parking_Spaces_per_mult_BR":null,"F3F_Elderly_Housing_Only":"No","F4F_Elderly_Housing_Only":"No","F4F_Affordable_Housing_Only":"No","F4F_Proximity_to_Public_Transit_Required":"No","F4F_Connection_to_Sewage_Water_Required":"Yes","ADU_Allowance":"Public Hearing","ADU_Elderly_Housing_Only":"Yes","ADU_Max_Size_as_Percent_of_Primary_Strcture":null,"ADU_Max_Size_in_sq_ft":30,"ADU_Min_Lot_Size":null,"ADU_Max_Bedrooms":1,"ADU_Min_Parking_Spaces":2,"ADU_Owner_Occupancy_Required":"No","ADU_Renter_Occupancy_Prohibited":"No","ADU_Employee_or_Family_Occupancy_Required":"No","ADU_Restricted_to_Primary_Structure":"No","Affordable_Housing_Allowance":"Not Mentioned","Affordable_Housing_District":"No","Affordable_Housing_Elderly_Only":"No","Affordable_Housing_Min_Lot_Size":null,"Affordable_Housing_Max_Density":null,"Affordable_Housing_Min_Parking_Spaces_per_mult_BR":null,"Affordable_Housing_Max_Units_per_Building":null,"Affordable_Housing_Min_Parking_Spaces_per_1BR":null,"PRD_Allowance":"Public Hearing","PRD_Max_Density":null,"PRD_Max_Units":null,"PRD_Min_Lot_Size":null,"PRD_Mobile_or_Manufactured_Home_Park":"Yes","PUD_Allowance":null,"PUD_Required_with_Subdivision":null,"PUD_Requires_Land_Conservation":null,"PUD_Threshold_Number":null,"Notes":"  Accessory Dwelling Units Are Issued By Permit Unless The Building Would Require A New Accessory Structure, An Increase In The Height Or Floor Area Of The Existing Dwelling, Or An Increase In The Dimensions Of The Parking Areas. In These Cases, A Pubic Hearing Is Required.","Shape_Length":0.078772524613841294,"Shape_Area":7.6607604009226932e-05}},{"type":"Feature","id":4,"geometry":{"type":"Polygon","coordinates":[[[-72.735555861999956,44.21186534800006],[-72.737790193999956,44.213053677000062],[-72.740457718999949,44.210538588000077],[-72.745646999999963,44.204428279000069],[-72.747075514999949,44.202746223000076],[-72.747337150999954,44.202437248000081],[-72.748378557999956,44.201195376000044],[-72.747450729999969,44.200688857000046],[-72.740775121999945,44.197059184000068],[-72.74252878599998,44.19494545200007],[-72.745055151999964,44.191890562000026],[-72.747662433999949,44.18874727900004],[-72.748109691999957,44.18821388300006],[-72.748636554999962,44.187587011000062],[-72.749953714999947,44.186000827000044],[-72.750615446999973,44.185219763000077],[-72.751725572999987,44.183909148000055],[-72.751726333999954,44.183908244000065],[-72.754687526999987,44.180390843000055],[-72.75114661799995,44.177736679000077],[-72.749274354999955,44.176748985000074],[-72.753604516999985,44.17208809400006],[-72.753802524999969,44.171885382000028],[-72.755795861999957,44.169857380000053],[-72.761041215999967,44.164339136000081],[-72.767860840999958,44.157142046000047],[-72.769777900999941,44.155069231000027],[-72.770120591999955,44.154698301000053],[-72.770995275999951,44.153782099000068],[-72.763905775999945,44.149824301000081],[-72.768775262999952,44.144939023000063],[-72.768927767999969,44.144786019000037],[-72.78306592499996,44.130273170000066],[-72.770467636999967,44.12670468500005],[-72.753459435999957,44.122040631000061],[-72.736453901999937,44.117374035000068],[-72.719451035999953,44.11270489900005],[-72.702450838999937,44.108033223000064],[-72.685453312999982,44.10335900900003],[-72.668458457999975,44.098682258000053],[-72.65146627699994,44.094002972000055],[-72.634476769999935,44.089321151000036],[-72.629114166999955,44.087842496000064],[-72.626001728999938,44.093315559000075],[-72.618783061999977,44.105368451000061],[-72.611561465999955,44.117420865000042],[-72.606866862999937,44.125672898000062],[-72.601891078999984,44.133951348000039],[-72.601237991999938,44.135287735000077],[-72.601188181999987,44.135138985000026],[-72.600732881999988,44.136321278000025],[-72.599076500999956,44.139710251000054],[-72.596629365999945,44.142950800000051],[-72.596691426999939,44.142972603000032],[-72.596320649999939,44.143479722000052],[-72.586559258999955,44.160268828000028],[-72.597126517999982,44.163017212000057],[-72.597261871999933,44.163052561000029],[-72.597335512999962,44.16307183300006],[-72.601044118999937,44.164042140000049],[-72.60330477399998,44.164641343000028],[-72.604542780999964,44.164972915000078],[-72.607795541999963,44.165830840000069],[-72.608590368999955,44.166040440000074],[-72.62097285599998,44.169240314000035],[-72.621139238999945,44.169282870000075],[-72.643108770999959,44.174879940000039],[-72.64398525699994,44.174182353000049],[-72.643048960999977,44.17357189300003],[-72.64312928399994,44.171645137000041],[-72.642299996999952,44.171340355000041],[-72.64565095599994,44.169011911000041],[-72.644769781999969,44.161257662000025],[-72.647675339999978,44.161851245000037],[-72.648495120999939,44.159532648000038],[-72.648551846999965,44.155685943000037],[-72.648171786999967,44.153003052000031],[-72.648949741999957,44.153076704000057],[-72.649718249999978,44.151400678000073],[-72.651873920999947,44.149168028000076],[-72.652931120999938,44.147562956000058],[-72.651682751999942,44.147176228000035],[-72.651647184999945,44.146244480000064],[-72.65045188199997,44.145935462000068],[-72.653428203999965,44.140490061000037],[-72.653888656999982,44.138137553000035],[-72.654506917999981,44.136680789000025],[-72.656623642999989,44.133430059000034],[-72.656255489999978,44.13141465700005],[-72.655537283999934,44.131566576000068],[-72.655237732999979,44.130680104000078],[-72.653879236999956,44.130773688000033],[-72.65399131099997,44.128967284000055],[-72.652498296999966,44.128849826000078],[-72.65106566299994,44.126390828000069],[-72.652221206999968,44.124286777000066],[-72.651654223999969,44.123069025000063],[-72.651915403999965,44.121444004000068],[-72.650676888999953,44.118617397000037],[-72.650674137999943,44.117534781000074],[-72.652954029999933,44.117457088000037],[-72.654408683999975,44.118873735000079],[-72.657000142999948,44.119019531000049],[-72.658558179999943,44.120286655000029],[-72.658235302999969,44.122308309000061],[-72.659393762999969,44.122674719000031],[-72.661673331999964,44.122410195000043],[-72.664422298999966,44.123227568000061],[-72.666130223999971,44.122403801000075],[-72.667526104999979,44.121207150000032],[-72.669082187999948,44.121690169000033],[-72.670585074999963,44.121687935000068],[-72.67095010099996,44.122471354000027],[-72.668829129999949,44.123818448000065],[-72.66745810599997,44.126070558000038],[-72.667149074999941,44.129676807000067],[-72.666941338999948,44.134386069000072],[-72.666455828999972,44.137905456000055],[-72.662155793999943,44.142670115000044],[-72.663960632999988,44.143208327000025],[-72.665175850999958,44.142914691000044],[-72.665029234999963,44.144848646000071],[-72.665746517999935,44.145522017000076],[-72.665820482999948,44.146945429000027],[-72.66355531399995,44.150700223000058],[-72.670544484999937,44.154536190000044],[-72.669443659999956,44.15496762600003],[-72.66701453099995,44.153855538000073],[-72.666193774999954,44.155903799000043],[-72.664172984999936,44.159194887000069],[-72.665406953999934,44.159715039000048],[-72.664951366999958,44.161003127000072],[-72.663282600999935,44.160570582000048],[-72.663275931999976,44.158152311000038],[-72.661810726999988,44.156686591000039],[-72.661120380999989,44.156415601000049],[-72.662155792999954,44.155057114000044],[-72.660650054999962,44.154523174000076],[-72.659864772999981,44.157351404000053],[-72.659108996999976,44.157134987000063],[-72.659151505999944,44.158901884000045],[-72.658359623999957,44.159310742000059],[-72.658060512999953,44.160425697000051],[-72.657804586999987,44.16357938200008],[-72.655537986999946,44.163283468000031],[-72.654123219999974,44.163518079000028],[-72.65556599699994,44.165136850000067],[-72.654898670999955,44.167553381000062],[-72.65206481599995,44.17017234900004],[-72.652072393999958,44.171355219000077],[-72.651303075999976,44.17299162200004],[-72.650073541999973,44.17428067000003],[-72.648589458999936,44.174804041000073],[-72.647033630999942,44.174918049000041],[-72.646142140999984,44.175644938000062],[-72.646409787999971,44.175712966000049],[-72.647591573999989,44.176013324000053],[-72.649752684999953,44.176561549000041],[-72.657026941999959,44.178416258000027],[-72.658336973999951,44.178750754000077],[-72.661469190999981,44.179541509000046],[-72.662015769999982,44.179679487000044],[-72.662575535999963,44.179823547000069],[-72.67171547099997,44.182163912000078],[-72.681036439999957,44.184540689000073],[-72.683685375999971,44.185276250000072],[-72.685235139999975,44.186070242000028],[-72.699052579999943,44.193188986000052],[-72.705425299999945,44.196429094000052],[-72.706430252999951,44.196918045000075],[-72.706445082999949,44.196925367000063],[-72.706479062999961,44.196942819000071],[-72.727113546999988,44.207510046000039],[-72.728833214999952,44.208384109000065],[-72.731723357999954,44.209856674000036],[-72.735555861999956,44.21186534800006]]]},"properties":{"OBJECTID":4,"OBJECT_ID":1326,"County":"Washington","RPC":"CVRPC","Municipal_Name":"Northfield","GEO_ID":"5002350275","District_Name":"Low Density Residential District","Abbreviated_District_Name":"Ldr","District_Type":"Primarily Residential","Bylaw_Date":"2024-06-03","Elderly_Housing_District":"No","District_Mapped":"Yes","Overlay_District":"No","Base_Density":0.20000000000000001,"FIPS6":23065,"GIS_ID":null,"Last_Update":"5/5/26","F1F_Allowance":"Permitted","F1F_Front_Setback":45,"F1F_Side_Setback":25,"F1F_Rear_Setback":25,"F1F_Frontage":"200","F1F_Max_Height":35,"F1F_Max_Stories":null,"F1F_Min_Lot_Size":5,"F1F_Max_Lot_Building_Coverage":null,"F1F_Max_Lot_Impervious_Coverage":null,"F1F_Min_Parking_Spaces":2,"F1F_Elderly_Housing_Only":null,"F1F_Affordable_Housing_Only":null,"F2F_Allowance":"Permitted","F2F_Front_Setback":45,"F2F_Side_Setback":25,"F2F_Rear_Setback":25,"F2F_Frontage":"200","F2F_Max_Density":0.20000000000000001,"F2F_Max_Height":35,"F2F_Max_Stories":null,"F2F_Min_Lot_Size":10,"F2F_Max_Lot_Building_Coverage":null,"F2F_Max_Lot_Impervious_Coverage":null,"F2F_Min_Parking_Spaces_per_1BR":2,"F2F_Min_Parking_Spaces_per_mult_BR":null,"F2F_Elderly_Housing_Only":"No","F2F_Affordable_Housing_Only":"No","F3F_Allowance":"Prohibited","F3F_Front_Setback":null,"F3F_Side_Setback":null,"F3F_Rear_Setback":null,"F3F_Frontage":null,"F3F_Max_Density":null,"F3F_Max_Height":null,"F3F_Max_Stories":null,"F3F_Min_Lot_Size":null,"F3F_Max_Lot_Building_Coverage":null,"F3F_Max_Lot_Impervious_Coverage":null,"F3F_Min_Parking_Spaces_per_1BR":null,"F3F_Min_Parking_Spaces_per_mult_BR":null,"F3F_Affordable_Housing_Only":"No","F3F_Proximity_to_Public_Transit_Required":"No","F3F_Connection_to_Sewage_Water_Required":"No","F4F_Allowance":"Prohibited","F4F_Front_Setback":null,"F4F_Side_Setback":null,"F4F_Rear_Setback":null,"F4F_Frontage":"200","F1F_Max_Density":null,"F4F_Max_Density":null,"F4F_Max_Height":null,"F4F_Max_Stories":null,"F4F_Min_Lot_Size":null,"F4F_Max_Lot_Building_Coverage":null,"F4F_Max_Lot_Impervious_Coverage":null,"F4F_Min_Parking_Spaces_per_1BR":null,"F4F_Min_Parking_Spaces_per_mult_BR":null,"F3F_Elderly_Housing_Only":"No","F4F_Elderly_Housing_Only":"No","F4F_Affordable_Housing_Only":"No","F4F_Proximity_to_Public_Transit_Required":"No","F4F_Connection_to_Sewage_Water_Required":"No","ADU_Allowance":"Public Hearing","ADU_Elderly_Housing_Only":"Yes","ADU_Max_Size_as_Percent_of_Primary_Strcture":null,"ADU_Max_Size_in_sq_ft":30,"ADU_Min_Lot_Size":null,"ADU_Max_Bedrooms":1,"ADU_Min_Parking_Spaces":2,"ADU_Owner_Occupancy_Required":"No","ADU_Renter_Occupancy_Prohibited":"No","ADU_Employee_or_Family_Occupancy_Required":"No","ADU_Restricted_to_Primary_Structure":"No","Affordable_Housing_Allowance":"Not Mentioned","Affordable_Housing_District":"No","Affordable_Housing_Elderly_Only":"No","Affordable_Housing_Min_Lot_Size":null,"Affordable_Housing_Max_Density":null,"Affordable_Housing_Min_Parking_Spaces_per_mult_BR":null,"Affordable_Housing_Max_Units_per_Building":null,"Affordable_Housing_Min_Parking_Spaces_per_1BR":null,"PRD_Allowance":"Public Hearing","PRD_Max_Density":null,"PRD_Max_Units":null,"PRD_Min_Lot_Size":null,"PRD_Mobile_or_Manufactured_Home_Park":"Yes","PUD_Allowance":null,"PUD_Required_with_Subdivision":null,"PUD_Requires_Land_Conservation":null,"PUD_Threshold_Number":null,"Notes":"  Accessory Dwelling Units Are Issued By Permit Unless The Building Would Require A New Accessory Structure, An Increase In The Height Or Floor Area Of The Existing Dwelling, Or An Increase In The Dimensions Of The Parking Areas. In These Cases, A Pubic Hearing Is Required.","Shape_Length":0.72017789371535068,"Shape_Area":0.012346017256489738}},{"type":"Feature","id":5,"geometry":{"type":"MultiPolygon","coordinates":[[[[-72.654256651999958,44.160013309000078],[-72.653423809999936,44.160459876000061],[-72.652651290999984,44.160874088000071],[-72.652808598999968,44.161545842000066],[-72.650785447999965,44.161287211000058],[-72.649128423999969,44.162260003000029],[-72.647675339999978,44.161851245000037],[-72.644769781999969,44.161257662000025],[-72.64565095599994,44.169011911000041],[-72.642299996999952,44.171340355000041],[-72.64312928399994,44.171645137000041],[-72.643048960999977,44.17357189300003],[-72.64398525699994,44.174182353000049],[-72.643108770999959,44.174879940000039],[-72.643569191999973,44.174996055000065],[-72.644533511999953,44.175236684000026],[-72.645463870999947,44.175472518000049],[-72.646142140999984,44.175644938000062],[-72.647033630999942,44.174918049000041],[-72.648589458999936,44.174804041000073],[-72.648691416999952,44.174094614000069],[-72.648066459999939,44.17308747900006],[-72.647960388999934,44.172154334000027],[-72.649930234999943,44.171703790000038],[-72.64946069299998,44.170621795000045],[-72.65206481599995,44.17017234900004],[-72.654898670999955,44.167553381000062],[-72.65556599699994,44.165136850000067],[-72.654123219999974,44.163518079000028],[-72.654932151999958,44.160933428000078],[-72.656385067999963,44.160869037000055],[-72.654256651999958,44.160013309000078]]],[[[-72.652954029999933,44.117457088000037],[-72.650674137999943,44.117534781000074],[-72.650676888999953,44.118617397000037],[-72.651915403999965,44.121444004000068],[-72.651654223999969,44.123069025000063],[-72.652221206999968,44.124286777000066],[-72.65106566299994,44.126390828000069],[-72.652498296999966,44.128849826000078],[-72.65399131099997,44.128967284000055],[-72.653879236999956,44.130773688000033],[-72.655237732999979,44.130680104000078],[-72.655537283999934,44.131566576000068],[-72.656255489999978,44.13141465700005],[-72.656623642999989,44.133430059000034],[-72.654506917999981,44.136680789000025],[-72.653888656999982,44.138137553000035],[-72.653428203999965,44.140490061000037],[-72.65045188199997,44.145935462000068],[-72.651647184999945,44.146244480000064],[-72.651682751999942,44.147176228000035],[-72.652931120999938,44.147562956000058],[-72.654140169999948,44.147937487000036],[-72.655138857999987,44.147874707000028],[-72.657103511999935,44.147751176000043],[-72.657466360999933,44.147728358000052],[-72.658678298999973,44.147006170000054],[-72.659864087999949,44.145527704000074],[-72.662155793999943,44.142670115000044],[-72.657539982999936,44.141195257000049],[-72.658162968999989,44.138422902000059],[-72.659590132999938,44.136990494000031],[-72.660409321999964,44.135344672000031],[-72.662474704999966,44.135322181000049],[-72.662331618999985,44.135699317000046],[-72.665804733999948,44.135731661000079],[-72.666009044999953,44.134648749000064],[-72.666941338999948,44.134386069000072],[-72.667149074999941,44.129676807000067],[-72.66745810599997,44.126070558000038],[-72.668829129999949,44.123818448000065],[-72.67095010099996,44.122471354000027],[-72.670585074999963,44.121687935000068],[-72.669082187999948,44.121690169000033],[-72.667526104999979,44.121207150000032],[-72.666130223999971,44.122403801000075],[-72.664422298999966,44.123227568000061],[-72.661673331999964,44.122410195000043],[-72.659393762999969,44.122674719000031],[-72.658235302999969,44.122308309000061],[-72.658558179999943,44.120286655000029],[-72.657000142999948,44.119019531000049],[-72.654408683999975,44.118873735000079],[-72.652954029999933,44.117457088000037]]]]},"properties":{"OBJECTID":5,"OBJECT_ID":1327,"County":"Washington","RPC":"CVRPC","Municipal_Name":"Northfield","GEO_ID":"5002350275","District_Name":"Medium Density Residential District","Abbreviated_District_Name":"Mdr","District_Type":"Primarily Residential","Bylaw_Date":"2024-06-03","Elderly_Housing_District":"No","District_Mapped":"Yes","Overlay_District":"No","Base_Density":null,"FIPS6":23065,"GIS_ID":null,"Last_Update":"5/5/26","F1F_Allowance":"Permitted","F1F_Front_Setback":45,"F1F_Side_Setback":10,"F1F_Rear_Setback":10,"F1F_Frontage":"75","F1F_Max_Height":35,"F1F_Max_Stories":null,"F1F_Min_Lot_Size":0.25,"F1F_Max_Lot_Building_Coverage":30,"F1F_Max_Lot_Impervious_Coverage":null,"F1F_Min_Parking_Spaces":2,"F1F_Elderly_Housing_Only":null,"F1F_Affordable_Housing_Only":null,"F2F_Allowance":"Permitted","F2F_Front_Setback":45,"F2F_Side_Setback":10,"F2F_Rear_Setback":10,"F2F_Frontage":"75","F2F_Max_Density":null,"F2F_Max_Height":35,"F2F_Max_Stories":null,"F2F_Min_Lot_Size":0.25,"F2F_Max_Lot_Building_Coverage":30,"F2F_Max_Lot_Impervious_Coverage":null,"F2F_Min_Parking_Spaces_per_1BR":2,"F2F_Min_Parking_Spaces_per_mult_BR":null,"F2F_Elderly_Housing_Only":"No","F2F_Affordable_Housing_Only":"No","F3F_Allowance":"Prohibited","F3F_Front_Setback":null,"F3F_Side_Setback":null,"F3F_Rear_Setback":null,"F3F_Frontage":null,"F3F_Max_Density":null,"F3F_Max_Height":null,"F3F_Max_Stories":null,"F3F_Min_Lot_Size":null,"F3F_Max_Lot_Building_Coverage":null,"F3F_Max_Lot_Impervious_Coverage":null,"F3F_Min_Parking_Spaces_per_1BR":null,"F3F_Min_Parking_Spaces_per_mult_BR":null,"F3F_Affordable_Housing_Only":"No","F3F_Proximity_to_Public_Transit_Required":"No","F3F_Connection_to_Sewage_Water_Required":"No","F4F_Allowance":"Prohibited","F4F_Front_Setback":null,"F4F_Side_Setback":null,"F4F_Rear_Setback":null,"F4F_Frontage":"75","F1F_Max_Density":null,"F4F_Max_Density":null,"F4F_Max_Height":null,"F4F_Max_Stories":null,"F4F_Min_Lot_Size":null,"F4F_Max_Lot_Building_Coverage":null,"F4F_Max_Lot_Impervious_Coverage":null,"F4F_Min_Parking_Spaces_per_1BR":null,"F4F_Min_Parking_Spaces_per_mult_BR":null,"F3F_Elderly_Housing_Only":"No","F4F_Elderly_Housing_Only":"No","F4F_Affordable_Housing_Only":"No","F4F_Proximity_to_Public_Transit_Required":"No","F4F_Connection_to_Sewage_Water_Required":"No","ADU_Allowance":"Public Hearing","ADU_Elderly_Housing_Only":"Yes","ADU_Max_Size_as_Percent_of_Primary_Strcture":null,"ADU_Max_Size_in_sq_ft":30,"ADU_Min_Lot_Size":null,"ADU_Max_Bedrooms":1,"ADU_Min_Parking_Spaces":2,"ADU_Owner_Occupancy_Required":"No","ADU_Renter_Occupancy_Prohibited":"No","ADU_Employee_or_Family_Occupancy_Required":"No","ADU_Restricted_to_Primary_Structure":"No","Affordable_Housing_Allowance":"Not Mentioned","Affordable_Housing_District":"No","Affordable_Housing_Elderly_Only":"No","Affordable_Housing_Min_Lot_Size":null,"Affordable_Housing_Max_Density":null,"Affordable_Housing_Min_Parking_Spaces_per_mult_BR":null,"Affordable_Housing_Max_Units_per_Building":null,"Affordable_Housing_Min_Parking_Spaces_per_1BR":null,"PRD_Allowance":"Public Hearing","PRD_Max_Density":null,"PRD_Max_Units":null,"PRD_Min_Lot_Size":null,"PRD_Mobile_or_Manufactured_Home_Park":"Yes","PUD_Allowance":null,"PUD_Required_with_Subdivision":null,"PUD_Requires_Land_Conservation":null,"PUD_Threshold_Number":null,"Notes":"  Accessory Dwelling Units Are Issued By Permit Unless The Building Would Require A New Accessory Structure, An Increase In The Height Or Floor Area Of The Existing Dwelling, Or An Increase In The Dimensions Of The Parking Areas. In These Cases, A Pubic Hearing Is Required. Min Lot size becomes 0.50 on private wastewater","Shape_Length":0.16540833148861567,"Shape_Area":0.00040264422971809591}},{"type":"Feature","id":6,"geometry":{"type":"MultiPolygon","coordinates":[[[[-72.656385067999963,44.160869037000055],[-72.654932151999958,44.160933428000078],[-72.654123219999974,44.163518079000028],[-72.655537986999946,44.163283468000031],[-72.656385067999963,44.160869037000055]]],[[[-72.656679025999949,44.154372966000039],[-72.655073558999959,44.155121785000063],[-72.655025517999945,44.156577777000052],[-72.655131573999938,44.157473587000027],[-72.654408425999975,44.158557178000081],[-72.653340756999967,44.159079572000053],[-72.653423809999936,44.160459876000061],[-72.654256651999958,44.160013309000078],[-72.656385067999963,44.160869037000055],[-72.656527761999939,44.160403111000051],[-72.656961607999961,44.158986465000055],[-72.656679025999949,44.154372966000039]]]]},"properties":{"OBJECTID":6,"OBJECT_ID":1328,"County":"Washington","RPC":"CVRPC","Municipal_Name":"Northfield","GEO_ID":"5002350275","District_Name":"Mixed Use District","Abbreviated_District_Name":"Mud","District_Type":"Mixed with Residential","Bylaw_Date":"2024-06-03","Elderly_Housing_District":"No","District_Mapped":"Yes","Overlay_District":"No","Base_Density":null,"FIPS6":23065,"GIS_ID":null,"Last_Update":"5/5/26","F1F_Allowance":"Permitted","F1F_Front_Setback":35,"F1F_Side_Setback":10,"F1F_Rear_Setback":10,"F1F_Frontage":"75","F1F_Max_Height":null,"F1F_Max_Stories":null,"F1F_Min_Lot_Size":0.25,"F1F_Max_Lot_Building_Coverage":50,"F1F_Max_Lot_Impervious_Coverage":null,"F1F_Min_Parking_Spaces":2,"F1F_Elderly_Housing_Only":null,"F1F_Affordable_Housing_Only":null,"F2F_Allowance":"Permitted","F2F_Front_Setback":35,"F2F_Side_Setback":10,"F2F_Rear_Setback":10,"F2F_Frontage":"75","F2F_Max_Density":8,"F2F_Max_Height":null,"F2F_Max_Stories":null,"F2F_Min_Lot_Size":0.25,"F2F_Max_Lot_Building_Coverage":50,"F2F_Max_Lot_Impervious_Coverage":null,"F2F_Min_Parking_Spaces_per_1BR":2,"F2F_Min_Parking_Spaces_per_mult_BR":null,"F2F_Elderly_Housing_Only":"No","F2F_Affordable_Housing_Only":"No","F3F_Allowance":"Public Hearing","F3F_Front_Setback":35,"F3F_Side_Setback":10,"F3F_Rear_Setback":10,"F3F_Frontage":"75","F3F_Max_Density":12,"F3F_Max_Height":null,"F3F_Max_Stories":null,"F3F_Min_Lot_Size":0.25,"F3F_Max_Lot_Building_Coverage":50,"F3F_Max_Lot_Impervious_Coverage":null,"F3F_Min_Parking_Spaces_per_1BR":2,"F3F_Min_Parking_Spaces_per_mult_BR":null,"F3F_Affordable_Housing_Only":"No","F3F_Proximity_to_Public_Transit_Required":"No","F3F_Connection_to_Sewage_Water_Required":"Yes","F4F_Allowance":"Public Hearing","F4F_Front_Setback":35,"F4F_Side_Setback":10,"F4F_Rear_Setback":10,"F4F_Frontage":"75","F1F_Max_Density":null,"F4F_Max_Density":16,"F4F_Max_Height":null,"F4F_Max_Stories":null,"F4F_Min_Lot_Size":0.25,"F4F_Max_Lot_Building_Coverage":50,"F4F_Max_Lot_Impervious_Coverage":null,"F4F_Min_Parking_Spaces_per_1BR":2,"F4F_Min_Parking_Spaces_per_mult_BR":null,"F3F_Elderly_Housing_Only":"No","F4F_Elderly_Housing_Only":"No","F4F_Affordable_Housing_Only":"No","F4F_Proximity_to_Public_Transit_Required":"No","F4F_Connection_to_Sewage_Water_Required":"Yes","ADU_Allowance":"Public Hearing","ADU_Elderly_Housing_Only":"Yes","ADU_Max_Size_as_Percent_of_Primary_Strcture":null,"ADU_Max_Size_in_sq_ft":30,"ADU_Min_Lot_Size":null,"ADU_Max_Bedrooms":1,"ADU_Min_Parking_Spaces":2,"ADU_Owner_Occupancy_Required":"No","ADU_Renter_Occupancy_Prohibited":"No","ADU_Employee_or_Family_Occupancy_Required":"No","ADU_Restricted_to_Primary_Structure":"No","Affordable_Housing_Allowance":"Not Mentioned","Affordable_Housing_District":"No","Affordable_Housing_Elderly_Only":"No","Affordable_Housing_Min_Lot_Size":null,"Affordable_Housing_Max_Density":null,"Affordable_Housing_Min_Parking_Spaces_per_mult_BR":null,"Affordable_Housing_Max_Units_per_Building":null,"Affordable_Housing_Min_Parking_Spaces_per_1BR":null,"PRD_Allowance":"Public Hearing","PRD_Max_Density":null,"PRD_Max_Units":null,"PRD_Min_Lot_Size":null,"PRD_Mobile_or_Manufactured_Home_Park":"Yes","PUD_Allowance":null,"PUD_Required_with_Subdivision":null,"PUD_Requires_Land_Conservation":null,"PUD_Threshold_Number":null,"Notes":"  Accessory Dwelling Units Are Issued By Permit Unless The Building Would Require A New Accessory Structure, An Increase In The Height Or Floor Area Of The Existing Dwelling, Or An Increase In The Dimensions Of The Parking Areas. In These Cases, A Pubic Hearing Is Required.","Shape_Length":0.025989972275892038,"Shape_Area":1.6487286377065043e-05}},{"type":"Feature","id":7,"geometry":{"type":"MultiPolygon","coordinates":[[[[-72.65206481599995,44.17017234900004],[-72.64946069299998,44.170621795000045],[-72.649930234999943,44.171703790000038],[-72.647960388999934,44.172154334000027],[-72.648066459999939,44.17308747900006],[-72.648691416999952,44.174094614000069],[-72.648589458999936,44.174804041000073],[-72.650073541999973,44.17428067000003],[-72.651303075999976,44.17299162200004],[-72.652072393999958,44.171355219000077],[-72.65206481599995,44.17017234900004]]],[[[-72.657103511999935,44.147751176000043],[-72.655138857999987,44.147874707000028],[-72.654410730999984,44.150970681000047],[-72.654756392999957,44.152807665000068],[-72.655845654999951,44.152955511000073],[-72.656404459999976,44.151711146000025],[-72.656713962999959,44.151021913000079],[-72.658022578999976,44.150751999000079],[-72.66082703099994,44.150173495000047],[-72.661011963999954,44.148759668000025],[-72.660408746999963,44.14873616400007],[-72.656971838999937,44.148602187000051],[-72.657103511999935,44.147751176000043]]]]},"properties":{"OBJECTID":7,"OBJECT_ID":1329,"County":"Washington","RPC":"CVRPC","Municipal_Name":"Northfield","GEO_ID":"5002350275","District_Name":"Village Center","Abbreviated_District_Name":"Vcd","District_Type":"Mixed with Residential","Bylaw_Date":"2024-06-03","Elderly_Housing_District":"No","District_Mapped":"Yes","Overlay_District":"No","Base_Density":null,"FIPS6":23065,"GIS_ID":null,"Last_Update":"5/5/26","F1F_Allowance":"Permitted","F1F_Front_Setback":45,"F1F_Side_Setback":10,"F1F_Rear_Setback":10,"F1F_Frontage":"75","F1F_Max_Height":null,"F1F_Max_Stories":null,"F1F_Min_Lot_Size":0.25,"F1F_Max_Lot_Building_Coverage":50,"F1F_Max_Lot_Impervious_Coverage":null,"F1F_Min_Parking_Spaces":2,"F1F_Elderly_Housing_Only":null,"F1F_Affordable_Housing_Only":null,"F2F_Allowance":"Permitted","F2F_Front_Setback":45,"F2F_Side_Setback":10,"F2F_Rear_Setback":10,"F2F_Frontage":"75","F2F_Max_Density":4,"F2F_Max_Height":null,"F2F_Max_Stories":null,"F2F_Min_Lot_Size":0.5,"F2F_Max_Lot_Building_Coverage":50,"F2F_Max_Lot_Impervious_Coverage":null,"F2F_Min_Parking_Spaces_per_1BR":2,"F2F_Min_Parking_Spaces_per_mult_BR":null,"F2F_Elderly_Housing_Only":"No","F2F_Affordable_Housing_Only":"No","F3F_Allowance":"Public Hearing","F3F_Front_Setback":45,"F3F_Side_Setback":10,"F3F_Rear_Setback":10,"F3F_Frontage":"75","F3F_Max_Density":4,"F3F_Max_Height":null,"F3F_Max_Stories":null,"F3F_Min_Lot_Size":0.75,"F3F_Max_Lot_Building_Coverage":50,"F3F_Max_Lot_Impervious_Coverage":null,"F3F_Min_Parking_Spaces_per_1BR":2,"F3F_Min_Parking_Spaces_per_mult_BR":null,"F3F_Affordable_Housing_Only":"No","F3F_Proximity_to_Public_Transit_Required":"No","F3F_Connection_to_Sewage_Water_Required":"Yes","F4F_Allowance":"Public Hearing","F4F_Front_Setback":45,"F4F_Side_Setback":10,"F4F_Rear_Setback":10,"F4F_Frontage":"75","F1F_Max_Density":null,"F4F_Max_Density":4,"F4F_Max_Height":null,"F4F_Max_Stories":null,"F4F_Min_Lot_Size":1,"F4F_Max_Lot_Building_Coverage":50,"F4F_Max_Lot_Impervious_Coverage":null,"F4F_Min_Parking_Spaces_per_1BR":2,"F4F_Min_Parking_Spaces_per_mult_BR":null,"F3F_Elderly_Housing_Only":"No","F4F_Elderly_Housing_Only":"No","F4F_Affordable_Housing_Only":"No","F4F_Proximity_to_Public_Transit_Required":"No","F4F_Connection_to_Sewage_Water_Required":"Yes","ADU_Allowance":"Public Hearing","ADU_Elderly_Housing_Only":"Yes","ADU_Max_Size_as_Percent_of_Primary_Strcture":null,"ADU_Max_Size_in_sq_ft":30,"ADU_Min_Lot_Size":null,"ADU_Max_Bedrooms":1,"ADU_Min_Parking_Spaces":2,"ADU_Owner_Occupancy_Required":"No","ADU_Renter_Occupancy_Prohibited":"No","ADU_Employee_or_Family_Occupancy_Required":"No","ADU_Restricted_to_Primary_Structure":"No","Affordable_Housing_Allowance":"Not Mentioned","Affordable_Housing_District":"No","Affordable_Housing_Elderly_Only":"No","Affordable_Housing_Min_Lot_Size":null,"Affordable_Housing_Max_Density":null,"Affordable_Housing_Min_Parking_Spaces_per_mult_BR":null,"Affordable_Housing_Max_Units_per_Building":null,"Affordable_Housing_Min_Parking_Spaces_per_1BR":null,"PRD_Allowance":"Public Hearing","PRD_Max_Density":null,"PRD_Max_Units":null,"PRD_Min_Lot_Size":null,"PRD_Mobile_or_Manufactured_Home_Park":"Yes","PUD_Allowance":null,"PUD_Required_with_Subdivision":null,"PUD_Requires_Land_Conservation":null,"PUD_Threshold_Number":null,"Notes":"  Accessory Dwelling Units Are Issued By Permit Unless The Building Would Require A New Accessory Structure, An Increase In The Height Or Floor Area Of The Existing Dwelling, Or An Increase In The Dimensions Of The Parking Areas. In These Cases, A Pubic Hearing Is Required.","Shape_Length":0.03579708049610477,"Shape_Area":2.8343582423060558e-05}}]}