{"type":"FeatureCollection","features":[{"type":"Feature","id":2,"geometry":{"type":"MultiPolygon","coordinates":[[[[-72.682205262999958,44.190767579000067],[-72.681691250999961,44.190512747000071],[-72.681107815999951,44.190318269000045],[-72.679752874999963,44.192968326000027],[-72.679728759999989,44.19301549000005],[-72.679458056999977,44.193544665000047],[-72.67944601399995,44.193568201000062],[-72.677701001999935,44.196978209000065],[-72.678323614999954,44.197342400000025],[-72.680440976999989,44.19838922200006],[-72.680613471999948,44.198923047000051],[-72.681069302999958,44.199560329000064],[-72.683392559999959,44.201779177000049],[-72.69207105299995,44.208971172000076],[-72.692748174999963,44.209423678000064],[-72.692920466999965,44.209607736000066],[-72.693106011999987,44.20967760700006],[-72.693229332999977,44.209835718000079],[-72.699652065999942,44.214910065000026],[-72.700210294999977,44.215309706000028],[-72.701299862999974,44.215809835000073],[-72.70420534699997,44.222355460000074],[-72.703126099999963,44.227077704000067],[-72.703064900999948,44.228040645000078],[-72.703475315999981,44.23181984200005],[-72.703733924999938,44.232512231000044],[-72.704620523999949,44.234383179000076],[-72.705044489999977,44.235032690000025],[-72.705618422999976,44.235619148000069],[-72.709535014999972,44.238387508000073],[-72.718444560999956,44.243956775000072],[-72.718480535999959,44.252190431000031],[-72.717684075999955,44.253952390000052],[-72.717422727999974,44.254708891000064],[-72.717329015999951,44.255503157000078],[-72.713603465999938,44.274794096000051],[-72.713690113999974,44.274942158000044],[-72.709575216999951,44.278570516000059],[-72.709089938999966,44.27917016300006],[-72.708599370999934,44.279597293000052],[-72.707525955999984,44.280270721000079],[-72.707029130999956,44.280479304000039],[-72.705931368999984,44.280805989000044],[-72.705340646999957,44.280924323000079],[-72.703531464999969,44.281128354000032],[-72.702575249999938,44.281174085000032],[-72.699680078999961,44.281014400000061],[-72.696839788999966,44.283129894000069],[-72.696078610999962,44.28391517700004],[-72.693352007999977,44.287456156000076],[-72.692957085999979,44.28808162200005],[-72.679047453999942,44.284607711000035],[-72.67847751499994,44.284209014000055],[-72.67783708199994,44.284239483000079],[-72.670904295999946,44.284569159000057],[-72.670431900999972,44.28407880900005],[-72.670501269999988,44.282488547000071],[-72.670435916999963,44.282086897000056],[-72.669986186999949,44.280894110000077],[-72.669794957999954,44.280564623000032],[-72.662277459999984,44.27466253800003],[-72.660507571999972,44.273730201000035],[-72.660058913999933,44.27356251100008],[-72.658056152999961,44.273206142000049],[-72.654092324999965,44.272843831000046],[-72.654075710999962,44.272783820000029],[-72.653965206999942,44.272740561000035],[-72.653626173999953,44.272641551000049],[-72.653429126999981,44.272654619000036],[-72.653282588999957,44.272597436000069],[-72.652591155999971,44.272532266000042],[-72.652271832999986,44.272412731000031],[-72.65214438199996,44.272168798000052],[-72.652000747999978,44.27218528700007],[-72.651824724999983,44.271924384000044],[-72.652028818999952,44.271687033000035],[-72.651891601999978,44.271445770000071],[-72.651902488999951,44.271114599000043],[-72.647051851999947,44.265870960000029],[-72.64728598399995,44.263087314000074],[-72.650570572999982,44.257034449000059],[-72.655291170999988,44.25309112900004],[-72.655616791999989,44.252819124000041],[-72.657594018999987,44.250996787000076],[-72.660426577999942,44.248831777000078],[-72.660966263999967,44.248310848000074],[-72.661311756999964,44.247736046000057],[-72.662441176999948,44.244975155000077],[-72.662497755999937,44.244498087000068],[-72.662458313999934,44.243955060000076],[-72.662753433999967,44.241825686000027],[-72.66277886599994,44.241567982000049],[-72.662735589999954,44.240930994000053],[-72.662562177999973,44.240469436000069],[-72.66055367599995,44.236578583000039],[-72.660277513999972,44.236157067000079],[-72.659894604999977,44.235765969000056],[-72.659423901999958,44.235428314000046],[-72.65887782599998,44.23515487700007],[-72.658297176999952,44.234961191000025],[-72.657575311999949,44.236366973000031],[-72.657428468999967,44.236652931000037],[-72.65570143399998,44.240016301000026],[-72.650480207999976,44.250201361000052],[-72.650480184999935,44.250201406000031],[-72.648147938999955,44.254188873000032],[-72.647827065999934,44.254737415000079],[-72.645609966999984,44.25852741500006],[-72.645564598999954,44.258604963000039],[-72.63969125899996,44.27076813900004],[-72.639137287999972,44.271908590000066],[-72.63910466599998,44.27197575100007],[-72.641530451999984,44.272856024000077],[-72.641605746999971,44.272883260000071],[-72.643867186999955,44.273623026000053],[-72.647781815999963,44.274171516000081],[-72.650253352999982,44.274763088000043],[-72.651674837999963,44.275592791000065],[-72.653224972999965,44.275732919000063],[-72.65477169199994,44.275188956000079],[-72.657588584999985,44.275114703000042],[-72.658212111999944,44.275105041000074],[-72.659056808999935,44.275087672000041],[-72.659514813999976,44.275416772000028],[-72.660173229999941,44.275889876000065],[-72.660616885999957,44.276208663000034],[-72.660563307999951,44.277233725000031],[-72.66021851499994,44.278549979000047],[-72.660407160999966,44.280111177000038],[-72.660785897999972,44.28088544600007],[-72.660890865999988,44.281094371000052],[-72.661539087999984,44.282196542000065],[-72.662963143999946,44.282973001000073],[-72.664229272999933,44.283260081000037],[-72.665163534999976,44.284125323000069],[-72.666470797999978,44.285124291000045],[-72.667918560999965,44.285774656000058],[-72.669588897999972,44.286348984000028],[-72.669663121999974,44.287673551000069],[-72.669481637999979,44.288697094000042],[-72.67021073899997,44.289530289000027],[-72.67181441699995,44.289500979000081],[-72.673034938999933,44.289939226000058],[-72.673684523999952,44.290978523000035],[-72.674979629999939,44.291581421000046],[-72.67677626699998,44.291492167000058],[-72.677781403999973,44.290909222000039],[-72.679322100999968,44.291129918000081],[-72.680886122999937,44.291557551000039],[-72.682082124999965,44.292256823000059],[-72.682416896999939,44.292381754000075],[-72.683570543999963,44.292812267000045],[-72.683862732999955,44.292916657000035],[-72.684425657999952,44.293116201000032],[-72.685431593999965,44.293488740000043],[-72.685916886999962,44.293743420000055],[-72.686927633999971,44.294280253000068],[-72.68722338699996,44.294486033000055],[-72.688168885999971,44.295143893000045],[-72.688522587999955,44.29603320700005],[-72.689382211999941,44.296816654000054],[-72.691308761999949,44.297755898000048],[-72.692986343999962,44.298455778000061],[-72.694320746999949,44.298408657000039],[-72.694794210999987,44.298515233000046],[-72.695736738999983,44.298727390000067],[-72.696058170999947,44.299669834000042],[-72.696042936999959,44.30042129800006],[-72.696806232999961,44.30074546700007],[-72.700520634999975,44.302322958000047],[-72.700898910999967,44.302302172000054],[-72.702184552999938,44.302053098000044],[-72.703390116999969,44.30164656200003],[-72.704479263999986,44.301096622000045],[-72.706782874999988,44.299555497000028],[-72.707420257999956,44.299070732000075],[-72.708181506999949,44.298284810000041],[-72.708741556999939,44.297418692000065],[-72.709083268999962,44.296494193000058],[-72.709195815999976,44.295539860000076],[-72.70907651899995,44.294587654000054],[-72.708418928999947,44.292226566000068],[-72.717457821999972,44.295543420000058],[-72.718338358999972,44.295817636000038],[-72.719624846999977,44.296063076000053],[-72.720953376999944,44.296143891000042],[-72.721848039999941,44.296104500000069],[-72.727525325999977,44.295611837000081],[-72.729240111999957,44.295315919000075],[-72.730445351999947,44.294909053000026],[-72.731349752999961,44.294467094000026],[-72.738069018999965,44.290642863000073],[-72.739007957999945,44.289964930000053],[-72.739768658999935,44.28917881700005],[-72.740143147999959,44.288645787000064],[-72.742324924999934,44.285056599000029],[-72.747766822999949,44.282320936000076],[-72.748705499999971,44.28164294000004],[-72.749465976999943,44.280856738000068],[-72.749705929999948,44.280485279000061],[-72.752082802999951,44.281526540000073],[-72.75328914399995,44.281928027000049],[-72.754369803999964,44.282145132000039],[-72.757891184999949,44.282653450000055],[-72.759219905999942,44.282733834000055],[-72.760543535999943,44.282647414000053],[-72.761828530999935,44.282397708000076],[-72.763033281999981,44.281990379000035],[-72.763603700999965,44.281728476000069],[-72.766266985999948,44.283018412000047],[-72.767298525999934,44.283413035000081],[-72.768556650999983,44.280906667000068],[-72.768660657999988,44.280699469000069],[-72.769783827999959,44.278461950000064],[-72.769885589999944,44.278259161000051],[-72.76991038999995,44.278209739000033],[-72.769946578999964,44.278137621000042],[-72.770019246999937,44.277992476000065],[-72.770029933999979,44.277971142000069],[-72.77259412799998,44.272849311000073],[-72.769833810999955,44.271531657000025],[-72.768626408999978,44.271130638000045],[-72.767340267999941,44.270885749000058],[-72.76334761399994,44.270410422000054],[-72.762075162999963,44.270336741000051],[-72.760751004999975,44.27042313000004],[-72.759466329999952,44.270673438000074],[-72.757921869999961,44.271234202000073],[-72.754053967999937,44.269534737000072],[-72.754775994999989,44.266514953000069],[-72.756020237999962,44.265895387000057],[-72.75695860899998,44.26521732100008],[-72.75771875099997,44.264431081000055],[-72.758206371999961,44.263701121000054],[-72.758848470999965,44.262520425000048],[-72.759520582999983,44.262371544000075],[-72.760724961999983,44.261964353000053],[-72.761302889999968,44.261671941000031],[-72.77625197499998,44.265533907000076],[-72.780135589999986,44.257891916000062],[-72.781642875999978,44.254925954000043],[-72.781933705999961,44.254351936000035],[-72.782653897999978,44.252930155000058],[-72.783562478999954,44.251136474000077],[-72.783819386999937,44.250629249000042],[-72.784792202999938,44.24870846400006],[-72.784918535999964,44.248459026000035],[-72.784982059999948,44.24833360100007],[-72.784982925999941,44.248331891000078],[-72.789363492999939,44.239790936000077],[-72.78947366899996,44.239576630000045],[-72.786117443999956,44.23795593300008],[-72.785989365999967,44.237892755000075],[-72.783115383999984,44.236495700000035],[-72.781643234999933,44.235780600000055],[-72.780442038999979,44.23519238800003],[-72.779848489999949,44.234875153000075],[-72.779124314999933,44.234488101000068],[-72.778144461999943,44.233964381000078],[-72.776340845999982,44.233031436000033],[-72.775007412999969,44.232351059000052],[-72.774658283999941,44.23217291900005],[-72.774483072999942,44.232083523000028],[-72.774336841999968,44.232008900000039],[-72.773744402999966,44.231706249000069],[-72.773020309999936,44.231335689000048],[-72.767715095999961,44.228602429000034],[-72.767071697999938,44.228267950000031],[-72.764937705999955,44.227159857000061],[-72.764827990999947,44.227103457000055],[-72.762514668999984,44.225914193000051],[-72.762325845999953,44.225817121000034],[-72.759805692999976,44.224517079000066],[-72.759711748999962,44.224468341000033],[-72.759560573999977,44.224389913000039],[-72.757045142999971,44.22308492500008],[-72.756707097999936,44.222908980000057],[-72.753632424999978,44.22130061200005],[-72.753308910999976,44.221131377000063],[-72.752040325999985,44.220481411000037],[-72.751846581999985,44.220383051000056],[-72.749514115999943,44.219198924000068],[-72.74950155099998,44.219192404000069],[-72.749362196999982,44.219119369000055],[-72.747483908999982,44.218134995000071],[-72.747048881999945,44.21858863600005],[-72.746623644999943,44.219208418000051],[-72.744371950999948,44.223114293000037],[-72.74403080999997,44.22403892400007],[-72.743918960999963,44.22499272500005],[-72.744039081999972,44.225944346000063],[-72.744385930999954,44.226866937000068],[-72.744926100999976,44.227726244000053],[-72.744584548999967,44.228651982000031],[-72.744472733999942,44.229605795000055],[-72.744592473999944,44.230557438000062],[-72.745295048999935,44.232837664000044],[-72.740289607999955,44.241472945000055],[-72.739928178999946,44.241396671000075],[-72.738424486999975,44.240464513000063],[-72.737534171999982,44.240011448000075],[-72.736629263999987,44.23971073000007],[-72.735665395999945,44.23952670400007],[-72.734670300999937,44.239466168000035],[-72.731278873999941,44.239567840000063],[-72.72713560699998,44.236431970000069],[-72.727125089999959,44.236750358000052],[-72.727347278999957,44.237155476000055],[-72.727225296999961,44.237678408000079],[-72.727288920999968,44.238459985000077],[-72.721229893999976,44.233956368000065],[-72.720683589999965,44.233683216000031],[-72.72008040999998,44.233482438000067],[-72.71943767199997,44.233359642000039],[-72.715688211999975,44.232915113000047],[-72.715206896999973,44.232440316000066],[-72.714335113999937,44.231820943000059],[-72.713208437999981,44.231244810000078],[-72.712877744999957,44.230546237000055],[-72.712609162999968,44.227870127000074],[-72.713835900999982,44.22249955400008],[-72.713886248999984,44.222047503000056],[-72.713826654999934,44.221571464000078],[-72.710687392999944,44.214453330000026],[-72.710860234999984,44.213025387000073],[-72.710800656999936,44.212549358000047],[-72.710626958999967,44.212087877000045],[-72.710344628999962,44.211654969000051],[-72.709961633999967,44.211264061000065],[-72.709490804999973,44.210926578000056],[-72.708944737999957,44.210653366000031],[-72.708421738999959,44.210473784000044],[-72.706406784999956,44.20991379600008],[-72.705805410999972,44.209245383000052],[-72.705007859999967,44.208606151000026],[-72.701258505999988,44.206415836000076],[-72.700655655999981,44.205628708000063],[-72.70023107999998,44.205184231000032],[-72.700004681999985,44.205064396000068],[-72.69782429199995,44.203382228000066],[-72.697439868999936,44.20309250300005],[-72.692329118999965,44.19924072200007],[-72.691020730999981,44.197698438000032],[-72.689487911999947,44.196245548000036],[-72.689041499999973,44.195035228000052],[-72.688759441999935,44.194602293000059],[-72.688377036999952,44.194211279000058],[-72.686932431999935,44.193284845000051],[-72.685383510999941,44.192522681000071],[-72.684860135999941,44.192266622000034],[-72.682205262999958,44.190767579000067]],[[-72.766341310999962,44.244952694000062],[-72.768510103999972,44.244632337000041],[-72.769917038999949,44.244552393000049],[-72.77024378699997,44.244580497000072],[-72.771121746999938,44.244656010000028],[-72.770948121999936,44.244752734000031],[-72.770780536999951,44.245321245000071],[-72.770641159999968,44.245388657000035],[-72.770393618999947,44.245411447000038],[-72.769866556999943,44.245401446000074],[-72.769495462999942,44.245536065000067],[-72.769325422999941,44.245658940000055],[-72.768242513999951,44.245929080000053],[-72.767964106999955,44.246052234000047],[-72.767217527999946,44.246564029000069],[-72.766788794999968,44.246750229000043],[-72.765957580999952,44.246799406000036],[-72.765525690999937,44.246898290000047],[-72.765559579999945,44.247387853000077],[-72.765440123999952,44.247532131000071],[-72.765048870999976,44.247797828000046],[-72.764563779999946,44.248513308000042],[-72.764316190999978,44.248709624000071],[-72.763357784999982,44.249016866000034],[-72.762556196999981,44.249576842000067],[-72.762367960999939,44.250096008000071],[-72.762971971999946,44.250325901000053],[-72.764372734999938,44.250933303000068],[-72.761850794999987,44.253643538000063],[-72.759335147999934,44.255973646000029],[-72.758202869999934,44.257097673000033],[-72.757943320999971,44.257284753000079],[-72.757352189999949,44.257084077000059],[-72.757099855999968,44.256865115000039],[-72.756955491999975,44.256598825000026],[-72.75698325999997,44.256497460000048],[-72.756586951999964,44.256333059000042],[-72.754936218999944,44.255590656000038],[-72.756376131999957,44.253581162000046],[-72.757903251999949,44.252022733000047],[-72.758999832999962,44.25108300100004],[-72.759475177999946,44.251159964000067],[-72.759854179999934,44.250854236000066],[-72.760562764999975,44.250572912000052],[-72.760849273999952,44.249502739000036],[-72.761018733999947,44.24910449500004],[-72.761558125999954,44.248530353000035],[-72.764016367999943,44.246496362000073],[-72.764713121999989,44.246075230000031],[-72.764956149999989,44.245966573000032],[-72.766341310999962,44.244952694000062]]],[[[-72.752429161999942,44.313882401000058],[-72.754483334999975,44.309606931000076],[-72.742487231999974,44.306330557000081],[-72.739843471999961,44.310829962000071],[-72.73887289399994,44.312669067000058],[-72.738406879999957,44.313662824000062],[-72.737927441999943,44.315506941000081],[-72.737879389999989,44.316120428000033],[-72.73681443299995,44.315763777000029],[-72.73587972699994,44.31525792900004],[-72.735191716999964,44.314629788000047],[-72.73373664099995,44.313675710000041],[-72.731690570999945,44.312131783000041],[-72.730724042999952,44.311275952000074],[-72.729575018999981,44.31001858500008],[-72.728890306999972,44.309399399000029],[-72.720661627999959,44.310873127000036],[-72.731933995999952,44.315658903000042],[-72.747588500999939,44.323889085000076],[-72.747849432999942,44.323350982000079],[-72.747918227999946,44.323209101000032],[-72.747996310999952,44.323048076000077],[-72.748232996999945,44.322559928000032],[-72.748494273999938,44.322021050000046],[-72.749123445999942,44.320723294000061],[-72.749851922999937,44.319220725000037],[-72.752429161999942,44.313882401000058]]]]},"properties":{"OBJECTID":2,"OBJECT_ID":1425,"County":"Washington","RPC":"CVRPC","Municipal_Name":"Moretown","GEO_ID":"5002346225","District_Name":"Agricultural-Residential District","Abbreviated_District_Name":"Ag_res","District_Type":"Primarily Residential","Bylaw_Date":"2024-06-03","Elderly_Housing_District":"No","District_Mapped":"Yes","Overlay_District":"No","Base_Density":0.5,"FIPS6":null,"GIS_ID":null,"Last_Update":null,"F1F_Allowance":"Permitted","F1F_Front_Setback":40,"F1F_Side_Setback":10,"F1F_Rear_Setback":10,"F1F_Frontage":80,"F1F_Max_Height":45,"F1F_Max_Stories":null,"F1F_Min_Lot_Size":1,"F1F_Max_Lot_Building_Coverage":null,"F1F_Max_Lot_Impervious_Coverage":50,"F1F_Min_Parking_Spaces":null,"F1F_Elderly_Housing_Only":null,"F1F_Affordable_Housing_Only":null,"F2F_Allowance":"Permitted","F2F_Front_Setback":40,"F2F_Side_Setback":10,"F2F_Rear_Setback":10,"F2F_Frontage":80,"F2F_Max_Density":2,"F2F_Max_Height":45,"F2F_Max_Stories":null,"F2F_Min_Lot_Size":1,"F2F_Max_Lot_Building_Coverage":null,"F2F_Max_Lot_Impervious_Coverage":50,"F2F_Min_Parking_Spaces_per_1BR":null,"F2F_Min_Parking_Spaces_per_mult_BR":null,"F2F_Elderly_Housing_Only":"No","F2F_Affordable_Housing_Only":"No","F3F_Allowance":"Public Hearing","F3F_Front_Setback":40,"F3F_Side_Setback":10,"F3F_Rear_Setback":10,"F3F_Frontage":80,"F3F_Max_Density":2,"F3F_Max_Height":45,"F3F_Max_Stories":null,"F3F_Min_Lot_Size":1.5,"F3F_Max_Lot_Building_Coverage":null,"F3F_Max_Lot_Impervious_Coverage":50,"F3F_Min_Parking_Spaces_per_1BR":null,"F3F_Min_Parking_Spaces_per_mult_BR":null,"F3F_Affordable_Housing_Only":"No","F3F_Proximity_to_Public_Transit_Required":"No","F3F_Connection_to_Sewage_Water_Required":"Yes","F4F_Allowance":"Public Hearing","F4F_Front_Setback":40,"F4F_Side_Setback":10,"F4F_Rear_Setback":10,"F4F_Frontage":80,"F1F_Max_Density":"2","F4F_Max_Density":2,"F4F_Max_Height":45,"F4F_Max_Stories":null,"F4F_Min_Lot_Size":2,"F4F_Max_Lot_Building_Coverage":null,"F4F_Max_Lot_Impervious_Coverage":50,"F4F_Min_Parking_Spaces_per_1BR":null,"F4F_Min_Parking_Spaces_per_mult_BR":null,"F3F_Elderly_Housing_Only":"No","F4F_Elderly_Housing_Only":"No","F4F_Affordable_Housing_Only":"No","F4F_Proximity_to_Public_Transit_Required":"No","F4F_Connection_to_Sewage_Water_Required":"Yes","ADU_Allowance":"Allowed/Conditional","ADU_Elderly_Housing_Only":"No","ADU_Max_Size_as_Percent_of_Primary_Strcture":100,"ADU_Max_Size_in_sq_ft":2000,"ADU_Min_Lot_Size":1,"ADU_Max_Bedrooms":null,"ADU_Min_Parking_Spaces":null,"ADU_Owner_Occupancy_Required":"No","ADU_Renter_Occupancy_Prohibited":"No","ADU_Employee_or_Family_Occupancy_Required":"No","ADU_Restricted_to_Primary_Structure":"No","Affordable_Housing_Allowance":"Not Mentioned","Affordable_Housing_District":"No","Affordable_Housing_Elderly_Only":"No","Affordable_Housing_Min_Lot_Size":null,"Affordable_Housing_Max_Density":null,"Affordable_Housing_Min_Parking_Spaces_per_mult_BR":null,"Affordable_Housing_Max_Units_per_Building":null,"Affordable_Housing_Min_Parking_Spaces_per_1BR":null,"PRD_Allowance":"Public Hearing","PRD_Max_Density":2,"PRD_Max_Units":null,"PRD_Min_Lot_Size":null,"PRD_Mobile_or_Manufactured_Home_Park":"Yes","PUD_Allowance":"Yes","PUD_Required_with_Subdivision":"No","PUD_Requires_Land_Conservation":"No","PUD_Threshold_Number":null,"Notes":"None","Shape_Length":0.81316885783496418,"Shape_Area":0.0050224169799335779}}]}