{"type":"FeatureCollection","features":[{"type":"Feature","id":1,"geometry":{"type":"MultiPolygon","coordinates":[[[[-73.253069399999958,44.09025360000004],[-73.252980899999955,44.090071100000046],[-73.252701699999989,44.089806900000042],[-73.251493399999958,44.089253800000051],[-73.249560857999938,44.088490187000048],[-73.249543787999983,44.088637634000065],[-73.248732998999969,44.095640844000059],[-73.248259964999988,44.099726686000054],[-73.246855595999989,44.111856960000068],[-73.245334312999944,44.112500870000076],[-73.242904892999945,44.113504964000072],[-73.241766999999982,44.113982800000031],[-73.242155699999955,44.115727800000059],[-73.242576699999972,44.116926800000044],[-73.243354599999975,44.120664100000056],[-73.243838799999935,44.122529100000065],[-73.24416569999994,44.124719700000071],[-73.246913099999972,44.123882200000025],[-73.246898699999974,44.124755600000071],[-73.257811998999955,44.120094900000026],[-73.25808399899995,44.120069700000045],[-73.258207900999935,44.119302700000048],[-73.259626199999957,44.119174300000054],[-73.259909999999934,44.118460000000027],[-73.260999999999967,44.116720000000043],[-73.261519999999962,44.114840000000072],[-73.261739999999975,44.113170000000025],[-73.261689999999987,44.112500000000068],[-73.26158000099997,44.112120000000061],[-73.261409999999955,44.111800000000073],[-73.261129399999959,44.111498300000051],[-73.260534800999949,44.111166300000036],[-73.260238199999947,44.111058900000046],[-73.258910199999946,44.110719900000049],[-73.257178298999975,44.110142300000064],[-73.256429999999966,44.109620000000064],[-73.256208899999933,44.109344400000055],[-73.255979299999979,44.108968700000048],[-73.255693199999939,44.108234200000027],[-73.255298099999948,44.10630720000006],[-73.254647299999988,44.104375300000072],[-73.254559999999969,44.103710000000035],[-73.254598499999986,44.103513200000066],[-73.254949999999951,44.10283000000004],[-73.256359299999986,44.100606500000026],[-73.256399999999985,44.100410000000068],[-73.256529999999941,44.100350000000049],[-73.256609999999966,44.100130000000036],[-73.256760399999962,44.100054300000068],[-73.256945198999972,44.099849800000072],[-73.257553499999972,44.099061300000074],[-73.25765309999997,44.098443900000063],[-73.257515798999975,44.098078600000065],[-73.257551799999987,44.097916700000042],[-73.257358002999979,44.097636694000073],[-73.256817299999966,44.097290800000053],[-73.256549999999947,44.097180000000037],[-73.254659901999958,44.096839697000064],[-73.253675200999965,44.096708700000079],[-73.252972599999964,44.096442400000058],[-73.252187098999968,44.095831100000055],[-73.251828399999965,44.095119500000067],[-73.251794400999984,44.09501096200006],[-73.251707199999942,44.094258600000046],[-73.251806899999963,44.09339360000007],[-73.252383400999975,44.092459101000031],[-73.252909099999954,44.091414600000064],[-73.25306749899994,44.090592800000081],[-73.253069399999958,44.09025360000004]]],[[[-73.21795039999995,44.111696800000061],[-73.218018499999971,44.111416400000053],[-73.218020999999965,44.110070000000064],[-73.218199600999981,44.109323400000051],[-73.218446899999947,44.108759900000052],[-73.213174266999943,44.109161598000071],[-73.210058999999944,44.109405200000026],[-73.210977599999978,44.111560900000029],[-73.21170534099997,44.113490292000051],[-73.212207899999953,44.114805100000069],[-73.213378399999954,44.114336600000058],[-73.216956299999936,44.112691300000051],[-73.217528899999934,44.112329700000032],[-73.21795039999995,44.111696800000061]]],[[[-73.209816499999988,44.115389200000038],[-73.20979989999995,44.115343700000039],[-73.207671999999945,44.115849300000036],[-73.206597099999954,44.112630600000045],[-73.205338360999974,44.109774432000052],[-73.204814883999973,44.109816008000053],[-73.204786920999936,44.109818229000041],[-73.205780199999936,44.116356500000052],[-73.209816499999988,44.115389200000038]]],[[[-73.210389999999961,44.11850000000004],[-73.210159999999973,44.118470000000059],[-73.210159999999973,44.118280000000027],[-73.210662098999933,44.11792760000003],[-73.209783899999934,44.115575100000058],[-73.205815998999981,44.116520100000059],[-73.206034993999936,44.117868501000032],[-73.206289561999938,44.119406814000058],[-73.207645199999945,44.127888000000041],[-73.209222299999965,44.136905400000046],[-73.209242299999971,44.137453200000039],[-73.209662699999967,44.139565600000026],[-73.209659999999985,44.140041800000063],[-73.209834099999966,44.140567400000066],[-73.209830799999963,44.141011200000037],[-73.211018199999955,44.148230600000034],[-73.214008600999989,44.150450400000068],[-73.218054599999959,44.153712600000063],[-73.218487999999979,44.15316880000006],[-73.218785300999969,44.152553800000078],[-73.219752399999948,44.149684800000045],[-73.220588899999939,44.146879700000056],[-73.220919899999956,44.145455200000072],[-73.221102199999962,44.145197800000062],[-73.222284499999944,44.144085100000041],[-73.222599299999956,44.143905200000063],[-73.222313899999961,44.144016100000044],[-73.221902399999976,44.144444400000054],[-73.221094099999959,44.145103600000027],[-73.220925699999952,44.145418300000074],[-73.220244899999955,44.147887000000026],[-73.217813499999977,44.148028100000033],[-73.218342799999959,44.146453800000074],[-73.218772398999988,44.144806200000062],[-73.219026699999972,44.144298400000025],[-73.216916798999989,44.144429900000034],[-73.216676899999982,44.142125600000043],[-73.21938400099998,44.141845700000033],[-73.217234799999972,44.138567400000056],[-73.216495198999951,44.137249200000042],[-73.218601299999989,44.136987700000077],[-73.215699699999959,44.132626500000072],[-73.210799999999949,44.11834470000008],[-73.210789999999974,44.11841000000004],[-73.210669999999936,44.118460000000027],[-73.210389999999961,44.11850000000004]]],[[[-73.261114299999974,44.124076900000034],[-73.261177300999975,44.123834200000033],[-73.261029399999984,44.123234700000069],[-73.26009879999998,44.121620200000052],[-73.259584699999948,44.120002400000033],[-73.257844699999964,44.120160500000054],[-73.256994800999962,44.120523902000059],[-73.246816100999979,44.124864400000035],[-73.246829499999933,44.123982200000057],[-73.244179799999984,44.124789900000053],[-73.245156599999973,44.130499500000042],[-73.245919399999934,44.133178500000042],[-73.246028999999965,44.133749900000055],[-73.245975200999965,44.134891100000061],[-73.245064399999933,44.138404300000047],[-73.245642999999973,44.139640800000052],[-73.245898799999964,44.140708200000063],[-73.246428999999978,44.146144000000049],[-73.246404299999938,44.147500400000069],[-73.247250636999979,44.152846214000078],[-73.24903825399997,44.153059509000059],[-73.249165019999964,44.153110605000052],[-73.249568899999986,44.153273400000046],[-73.250079099999937,44.152419800000075],[-73.250544699999978,44.151862600000072],[-73.250763976999963,44.151390030000073],[-73.251068113999963,44.150871257000063],[-73.25106999999997,44.150870000000054],[-73.251169999999945,44.15077000000008],[-73.251179999999977,44.150640000000067],[-73.251452698999969,44.15038670000007],[-73.251639500999943,44.149882901000069],[-73.251968213999987,44.149192336000056],[-73.252048098999978,44.149065700000051],[-73.252680999999939,44.148535500000037],[-73.253939999999943,44.14790000000005],[-73.257349999999974,44.146890000000042],[-73.257679999999937,44.146700000000067],[-73.257811200999981,44.146700000000067],[-73.258887698999956,44.146332900000061],[-73.260384399999964,44.14562920000003],[-73.262004399999967,44.145123800000079],[-73.262475299999949,44.144860200000039],[-73.262602799999968,44.144501200000036],[-73.262530399999946,44.144114200000047],[-73.261828299999934,44.143123800000069],[-73.261263299999939,44.142012600000044],[-73.261179999999968,44.141480000000058],[-73.261289399999953,44.140880400000071],[-73.261487399999965,44.140487800000074],[-73.261852299999987,44.140113300000053],[-73.26219679999997,44.139907900000026],[-73.263069999999971,44.139577400000064],[-73.263464299999953,44.139360000000067],[-73.264152099999933,44.138715300000058],[-73.264238299999988,44.138523500000076],[-73.264225299999964,44.138218100000074],[-73.264123299999937,44.138024800000039],[-73.263488199999983,44.13759170000003],[-73.262769999999989,44.136680000000069],[-73.262419999999963,44.136000000000081],[-73.262149999999963,44.135150000000067],[-73.262250000999984,44.134370000000047],[-73.262883299999942,44.133290500000044],[-73.263018899999963,44.132809200000054],[-73.263049999999964,44.132249500000057],[-73.262828699999943,44.131527100000028],[-73.262287299999969,44.130562600000076],[-73.261662699999988,44.129862800000069],[-73.261545000999945,44.129619200000036],[-73.260987000999933,44.128897000000052],[-73.260418899999934,44.127948900000035],[-73.259835399999986,44.127303200000028],[-73.259331398999961,44.12684610000008],[-73.259164699999985,44.126382300000046],[-73.259134199999949,44.125957200000073],[-73.259188599999959,44.125622800000031],[-73.259325499999989,44.12533250000007],[-73.259491800999967,44.125211800000045],[-73.259209999999939,44.125000000000057],[-73.259200000999954,44.124920000000031],[-73.259559999999965,44.125110000000063],[-73.259669999999971,44.125100000000032],[-73.261011999999937,44.124191200000041],[-73.261114299999974,44.124076900000034]],[[-73.247469999999964,44.147340000000042],[-73.246879999999976,44.147150000000067],[-73.24643999999995,44.147090000000048],[-73.24643999999995,44.14677000000006],[-73.246509999999944,44.146710000000041],[-73.246759999999938,44.146740000000079],[-73.246989999999983,44.146900000000073],[-73.247369999999989,44.147060000000067],[-73.247480000999985,44.147230000000036],[-73.247699999999952,44.14730000000003],[-73.247779999999977,44.147410000000036],[-73.248159999999984,44.147600000000068],[-73.249019999999973,44.147780000000068],[-73.249099999999942,44.147870000000069],[-73.248809999999935,44.147970000000043],[-73.248410000999968,44.147850000000062],[-73.248339999999985,44.147780000000068],[-73.248069999999984,44.147770000000037],[-73.247969999999953,44.14766000000003],[-73.247629999999958,44.147550000000081],[-73.247589999999946,44.147420000000068],[-73.247469999999964,44.147340000000042]]],[[[-73.243606499999942,44.141660500000057],[-73.241487499999948,44.141828100000055],[-73.240454299999953,44.141695200000072],[-73.24081289999998,44.140197300000068],[-73.238159999999937,44.139787800000079],[-73.237655299999972,44.141269900000054],[-73.23576135899998,44.141426567000053],[-73.232040799999936,44.141788800000029],[-73.229826799999955,44.141862300000071],[-73.23038379999997,44.143265000000042],[-73.229558688999987,44.144735746000038],[-73.229201699999976,44.145372100000031],[-73.232639199999937,44.147918000000061],[-73.233469399999933,44.147241600000029],[-73.234740599999952,44.147433000000035],[-73.243583998999952,44.14671020000003],[-73.244021499999974,44.147176000000059],[-73.244003099999986,44.145990700000027],[-73.243606499999942,44.141660500000057]],[[-73.243049999999982,44.145420000000058],[-73.24286000099994,44.145250000000033],[-73.242999999999938,44.144890000000032],[-73.242999999999938,44.144440000000031],[-73.24309999999997,44.144420000000025],[-73.24318999999997,44.144600000000025],[-73.243359998999949,44.144640000000038],[-73.243549999999971,44.144860000000051],[-73.243289999999945,44.145110000000045],[-73.243389999999977,44.145250000000033],[-73.24336999999997,44.145340000000033],[-73.243259999999964,44.145420000000058],[-73.243049999999982,44.145420000000058]]],[[[-73.225900900999989,44.145835099000067],[-73.224943500999984,44.145237100000031],[-73.224886958999946,44.14518669000006],[-73.223449899999935,44.143922500000031],[-73.223293199999944,44.143904100000043],[-73.222689299999956,44.144026600000075],[-73.222428399999956,44.144175700000062],[-73.221216499999969,44.145336300000054],[-73.22107079999995,44.145624500000054],[-73.220770399999935,44.146904800000073],[-73.219932599999936,44.149714300000028],[-73.218990599999984,44.152554900000041],[-73.218685299999947,44.153202600000043],[-73.218208599999969,44.153836700000056],[-73.220660799999962,44.155907400000046],[-73.221738800999958,44.15658140000005],[-73.225677499999961,44.15843760000007],[-73.226574399999947,44.15866520000003],[-73.227808098999958,44.159355000000062],[-73.229803799999956,44.157101600000033],[-73.232265599999948,44.157443000000058],[-73.233908399999962,44.15218230000005],[-73.232633800999963,44.151997700000038],[-73.232289299999934,44.150299800000028],[-73.228031700999964,44.147127500000067],[-73.226855834999981,44.146400884000059],[-73.226625794999961,44.146264587000076],[-73.226610484999981,44.146255518000032],[-73.225900900999989,44.145835099000067]]],[[[-73.249415899999974,44.153571500000055],[-73.249409998999965,44.153580000000034],[-73.249451199999953,44.153521200000057],[-73.249415899999974,44.153571500000055]]],[[[-73.215353000999983,44.157320900000059],[-73.212242498999956,44.156030000000044],[-73.212849699999936,44.15973050000008],[-73.213446499999975,44.15982340000005],[-73.215353000999983,44.157320900000059]]]]},"properties":{"District_Name":"Agricultural District","OBJECTID":1,"OBJECT_ID":153,"County":"Addison","RPC":"ACRPC","Municipal_Name":"waltham","GEO_ID":"5000176075","Abbreviated_District_Name":"A-10","District_Type":"Primarily Residential","Bylaw_Date":"2019-09-09","Elderly_Housing_District":"No","District_Mapped":"Yes","Overlay_District":"No","Base_Density":0.10000000000000001,"FIPS6":1105,"GIS_ID":null,"Last_Update":"2026-07-16","F1F_Allowance":"Permitted","F1F_Front_Setback":100,"F1F_Side_Setback":25,"F1F_Rear_Setback":25,"F1F_Frontage":400,"F1F_Max_Height":35,"F1F_Max_Stories":null,"F1F_Min_Lot_Size":10,"F1F_Max_Lot_Building_Coverage":null,"F1F_Max_Lot_Impervious_Coverage":20,"F1F_Min_Parking_Spaces":1.5,"F1F_Elderly_Housing_Only":null,"F1F_Affordable_Housing_Only":null,"F2F_Allowance":"Permitted","F2F_Front_Setback":100,"F2F_Side_Setback":25,"F2F_Rear_Setback":25,"F2F_Frontage":400,"F2F_Max_Density":0.10000000000000001,"F2F_Max_Height":35,"F2F_Max_Stories":null,"F2F_Min_Lot_Size":20,"F2F_Max_Lot_Building_Coverage":null,"F2F_Max_Lot_Impervious_Coverage":20,"F2F_Min_Parking_Spaces_per_1BR":1.5,"F2F_Min_Parking_Spaces_per_mult_BR":1.5,"F2F_Elderly_Housing_Only":"No","F2F_Affordable_Housing_Only":"No","F3F_Allowance":"Prohibited","F3F_Front_Setback":null,"F3F_Side_Setback":null,"F3F_Rear_Setback":null,"F3F_Frontage":null,"F3F_Max_Density":null,"F3F_Max_Height":null,"F3F_Max_Stories":null,"F3F_Min_Lot_Size":null,"F3F_Max_Lot_Building_Coverage":null,"F3F_Max_Lot_Impervious_Coverage":null,"F3F_Min_Parking_Spaces_per_1BR":null,"F3F_Min_Parking_Spaces_per_mult_BR":null,"F3F_Affordable_Housing_Only":"No","F3F_Proximity_to_Public_Transit_Required":"No","F3F_Connection_to_Sewage_Water_Required":"No","F4F_Allowance":"Prohibited","F4F_Front_Setback":null,"F4F_Side_Setback":null,"F4F_Rear_Setback":null,"F4F_Frontage":null,"F1F_Max_Density":null,"F4F_Max_Density":null,"F4F_Max_Height":null,"F4F_Max_Stories":null,"F4F_Min_Lot_Size":null,"F4F_Max_Lot_Building_Coverage":null,"F4F_Max_Lot_Impervious_Coverage":null,"F4F_Min_Parking_Spaces_per_1BR":null,"F4F_Min_Parking_Spaces_per_mult_BR":null,"F3F_Elderly_Housing_Only":"No","F4F_Elderly_Housing_Only":"No","F4F_Affordable_Housing_Only":"No","F4F_Proximity_to_Public_Transit_Required":"No","F4F_Connection_to_Sewage_Water_Required":"No","ADU_Allowance":"Permitted","ADU_Elderly_Housing_Only":"No","ADU_Max_Size_as_Percent_of_Primary_Strcture":30,"ADU_Max_Size_in_sq_ft":null,"ADU_Min_Lot_Size":10,"ADU_Max_Bedrooms":1,"ADU_Min_Parking_Spaces":1.5,"ADU_Owner_Occupancy_Required":"Yes","ADU_Renter_Occupancy_Prohibited":"No","ADU_Employee_or_Family_Occupancy_Required":"No","ADU_Restricted_to_Primary_Structure":"No","Affordable_Housing_Allowance":"Not Mentioned","Affordable_Housing_District":"No","Affordable_Housing_Elderly_Only":"No","Affordable_Housing_Min_Lot_Size":null,"Affordable_Housing_Max_Density":null,"Affordable_Housing_Min_Parking_Spaces_per_mult_BR":null,"Affordable_Housing_Max_Units_per_Building":null,"Affordable_Housing_Min_Parking_Spaces_per_1BR":null,"PRD_Allowance":"Not Mentioned","PRD_Max_Density":null,"PRD_Max_Units":null,"PRD_Min_Lot_Size":null,"PRD_Mobile_or_Manufactured_Home_Park":"No","PUD_Allowance":"Public Hearing","PUD_Required_with_Subdivision":"No","PUD_Requires_Land_Conservation":"Yes","PUD_Threshold_Number":null,"Notes":" Minimum Lot Depth 150ft. Minimum Pud Size 5 Acres. There's A 2:1 Density Bonus For Puds In This District Outside Of Section 3 (West Side Of Maple Street; Marked On Town Plan). ","Shape_Length":0.4572436965526247,"Shape_Area":0.0012845953857664172}},{"type":"Feature","id":2,"geometry":{"type":"MultiPolygon","coordinates":[[[[-73.249381599999936,44.153942000000029],[-73.249190831999954,44.154503964000071],[-73.249315733999936,44.154494154000076],[-73.249379700999953,44.154121700000076],[-73.249381599999936,44.153942000000029]]],[[[-73.250763976999963,44.151390030000073],[-73.250121898999964,44.152172700000051],[-73.249179399999946,44.152951200000075],[-73.249165019999964,44.153110605000052],[-73.249345299999959,44.153340100000037],[-73.249415899999974,44.153571500000055],[-73.249451199999953,44.153521200000057],[-73.249568899999986,44.153273400000046],[-73.250079099999937,44.152419800000075],[-73.250544699999978,44.151862600000072],[-73.250763976999963,44.151390030000073]]],[[[-73.251639500999943,44.149882901000069],[-73.251301499999954,44.150344800000028],[-73.251068113999963,44.150871257000063],[-73.25106999999997,44.150870000000054],[-73.251169999999945,44.15077000000008],[-73.251179999999977,44.150640000000067],[-73.251452698999969,44.15038670000007],[-73.251639500999943,44.149882901000069]]],[[[-73.223303200999965,44.144076200000029],[-73.223071600999958,44.144077700000025],[-73.222995200999947,44.144180000000063],[-73.223227598999983,44.144499400000029],[-73.223497699999939,44.145129600000075],[-73.223961600999985,44.145724100000052],[-73.224261899999988,44.146806800000036],[-73.224442799999963,44.14789630000007],[-73.224585199999979,44.148100800000066],[-73.225189799999953,44.148550000000057],[-73.225604499999974,44.149042500000064],[-73.226535999999953,44.149735500000077],[-73.227289299999939,44.149971700000037],[-73.228074899999967,44.149822900000061],[-73.228174399999943,44.149966900000038],[-73.228369200999964,44.150274800000034],[-73.228500399999973,44.150275900000054],[-73.228676800999949,44.150169600000027],[-73.228864399999964,44.149893100000043],[-73.228932699999973,44.149600600000042],[-73.229238499999951,44.149184700000035],[-73.229211499999963,44.148859200000061],[-73.228943400999981,44.148533800000052],[-73.228244399999937,44.148072700000057],[-73.227937398999984,44.147627800000066],[-73.227518399999951,44.147354200000052],[-73.227252098999941,44.146817300000066],[-73.226855834999981,44.146400884000059],[-73.226625794999961,44.146264587000076],[-73.226610484999981,44.146255518000032],[-73.226044999999942,44.145975900000053],[-73.225900900999989,44.145835099000067],[-73.224943500999984,44.145237100000031],[-73.224886958999946,44.14518669000006],[-73.224188499999968,44.144731000000036],[-73.223919998999975,44.144433800000058],[-73.223368799999946,44.144230700000037],[-73.223303200999965,44.144076200000029]]],[[[-73.259584699999948,44.120002400000033],[-73.257844699999964,44.120160500000054],[-73.256994800999962,44.120523902000059],[-73.257127298999933,44.121629900000073],[-73.257256799999936,44.124280300000066],[-73.256954699999937,44.125115600000072],[-73.256419799999946,44.126128700000038],[-73.256010599999968,44.127783500000078],[-73.255848599999979,44.128181300000051],[-73.255946899999969,44.128385800000046],[-73.256206199999951,44.128298000000029],[-73.25670329999997,44.127905600000076],[-73.25706299899997,44.127355900000055],[-73.257237699999962,44.12724970000005],[-73.25755259999994,44.127198700000065],[-73.257822099999942,44.127235300000052],[-73.258060300999944,44.127334100000041],[-73.258436100999972,44.127622400000064],[-73.258744899999954,44.127949200000046],[-73.259151999999972,44.128603300000066],[-73.259422799999982,44.129172600000061],[-73.259680799999956,44.130651500000056],[-73.259854899999937,44.131286600000067],[-73.260150998999961,44.131905200000062],[-73.260131199999989,44.131974500000069],[-73.260639499999968,44.132728400000076],[-73.260763899999972,44.133106200000043],[-73.260945299999946,44.13433770000006],[-73.260927299999935,44.136529600000074],[-73.26100219999995,44.136857100000043],[-73.261469299999987,44.137767200000042],[-73.261544299999969,44.13800770000006],[-73.261523599999975,44.138284100000078],[-73.260864199999958,44.140128700000048],[-73.260735399999987,44.140344300000038],[-73.260329199999944,44.140650700000037],[-73.260095399999955,44.140905000000032],[-73.259757499999978,44.141444500000034],[-73.259613799999954,44.141566600000033],[-73.259105199999965,44.141777900000079],[-73.258378299999947,44.141679400000044],[-73.258087898999975,44.14190380000008],[-73.257935799999984,44.141957800000057],[-73.257625699999949,44.141898300000037],[-73.257222599999977,44.141618300000061],[-73.256952599999977,44.141637100000025],[-73.256885799999964,44.142033500000025],[-73.256913699999984,44.142325400000061],[-73.25706220099994,44.142726500000038],[-73.257402999999954,44.143200300000046],[-73.257379498999967,44.143379400000072],[-73.257265899999936,44.143477100000041],[-73.256680599999981,44.143550100000027],[-73.256524499999955,44.143682000000069],[-73.256337598999949,44.144034300000044],[-73.256211699999938,44.144601500000078],[-73.255974399999957,44.144896200000062],[-73.255822599999988,44.144967500000064],[-73.255218699999944,44.145020600000066],[-73.255131700999982,44.145092500000032],[-73.255229999999983,44.145297000000028],[-73.255616299999986,44.145601900000031],[-73.255641699999956,44.145755800000074],[-73.255446499999948,44.14598060000003],[-73.254599799999937,44.146507000000042],[-73.253566899999953,44.147356900000034],[-73.25242019999996,44.14815770000007],[-73.251896200999965,44.14833340000007],[-73.251274999999964,44.148354700000027],[-73.251061900999957,44.148424800000043],[-73.251038799999947,44.148511000000042],[-73.251256598999987,44.148718700000074],[-73.251902998999981,44.148928200000057],[-73.251968213999987,44.149192336000056],[-73.252048098999978,44.149065700000051],[-73.252680999999939,44.148535500000037],[-73.253939999999943,44.14790000000005],[-73.257349999999974,44.146890000000042],[-73.257679999999937,44.146700000000067],[-73.257811200999981,44.146700000000067],[-73.258887698999956,44.146332900000061],[-73.260384399999964,44.14562920000003],[-73.262004399999967,44.145123800000079],[-73.262475299999949,44.144860200000039],[-73.262602799999968,44.144501200000036],[-73.262530399999946,44.144114200000047],[-73.261828299999934,44.143123800000069],[-73.261263299999939,44.142012600000044],[-73.261179999999968,44.141480000000058],[-73.261289399999953,44.140880400000071],[-73.261487399999965,44.140487800000074],[-73.261852299999987,44.140113300000053],[-73.26219679999997,44.139907900000026],[-73.263069999999971,44.139577400000064],[-73.263464299999953,44.139360000000067],[-73.264152099999933,44.138715300000058],[-73.264238299999988,44.138523500000076],[-73.264225299999964,44.138218100000074],[-73.264123299999937,44.138024800000039],[-73.263488199999983,44.13759170000003],[-73.262769999999989,44.136680000000069],[-73.262419999999963,44.136000000000081],[-73.262149999999963,44.135150000000067],[-73.262250000999984,44.134370000000047],[-73.262883299999942,44.133290500000044],[-73.263018899999963,44.132809200000054],[-73.263049999999964,44.132249500000057],[-73.262828699999943,44.131527100000028],[-73.262287299999969,44.130562600000076],[-73.261662699999988,44.129862800000069],[-73.261545000999945,44.129619200000036],[-73.260987000999933,44.128897000000052],[-73.260418899999934,44.127948900000035],[-73.259835399999986,44.127303200000028],[-73.259331398999961,44.12684610000008],[-73.259164699999985,44.126382300000046],[-73.259134199999949,44.125957200000073],[-73.259188599999959,44.125622800000031],[-73.259325499999989,44.12533250000007],[-73.259491800999967,44.125211800000045],[-73.259209999999939,44.125000000000057],[-73.259200000999954,44.124920000000031],[-73.259559999999965,44.125110000000063],[-73.259669999999971,44.125100000000032],[-73.261011999999937,44.124191200000041],[-73.261114299999974,44.124076900000034],[-73.261177300999975,44.123834200000033],[-73.261029399999984,44.123234700000069],[-73.26009879999998,44.121620200000052],[-73.259584699999948,44.120002400000033]]],[[[-73.207505498999978,44.117334800000037],[-73.207244900999967,44.117352800000049],[-73.206854398999951,44.117476600000032],[-73.206245999999965,44.117859100000032],[-73.206034993999936,44.117868501000032],[-73.20598935299995,44.117865792000032],[-73.206117007999978,44.118668050000053],[-73.206237247999979,44.119407477000038],[-73.206289561999938,44.119406814000058],[-73.206814599999973,44.119438000000059],[-73.207436099999939,44.119598800000063],[-73.207846099999983,44.119838600000037],[-73.208210899999983,44.120204800000067],[-73.208721799999978,44.120973500000048],[-73.209064599999977,44.121628500000043],[-73.209236699999963,44.122108700000069],[-73.209995099999958,44.123499200000026],[-73.21007149999997,44.123877600000071],[-73.210050999999964,44.124188200000049],[-73.209689199999957,44.125895000000071],[-73.209747599999957,44.126789100000053],[-73.209711299999981,44.127898200000061],[-73.209344099999953,44.128996000000029],[-73.209444499999961,44.129425200000071],[-73.209838899999966,44.130404000000055],[-73.209869100999981,44.130937500000073],[-73.209802200999945,44.131248400000061],[-73.209902599999964,44.131746500000077],[-73.210049899999945,44.132044400000041],[-73.210154699999975,44.132124300000044],[-73.210311299999944,44.132121900000072],[-73.210229999999967,44.13129680000003],[-73.210390799999971,44.130640800000037],[-73.21038649999997,44.130417800000032],[-73.210331698999937,44.129815600000029],[-73.210111599999948,44.129238500000042],[-73.210082399999976,44.128956300000027],[-73.210105999999939,44.128777200000059],[-73.210340699999961,44.128414200000066],[-73.21050269899996,44.128316100000063],[-73.210693799999945,44.128297700000076],[-73.210888199999943,44.128393500000072],[-73.211181599999975,44.128760100000079],[-73.211868199999969,44.130202000000054],[-73.211942398999952,44.130556200000058],[-73.211986799999977,44.132112300000074],[-73.212358199999983,44.133183600000052],[-73.212550599999986,44.133307100000025],[-73.212690499999951,44.133181500000035],[-73.212783799999954,44.132984700000065],[-73.212534299999959,44.132108900000048],[-73.212578399999984,44.131780900000081],[-73.212673699999982,44.13161910000008],[-73.213075198999945,44.131371400000035],[-73.213094399999989,44.130986300000075],[-73.21254689999995,44.129096700000048],[-73.212184699999966,44.128594100000043],[-73.211264399999948,44.127817100000073],[-73.21109249999995,44.127486700000077],[-73.211039300999971,44.12705660000006],[-73.211102300999983,44.126315200000079],[-73.211059699999964,44.124749500000064],[-73.210837699999956,44.124182800000028],[-73.210682299999974,44.123167900000055],[-73.210434199999952,44.122343800000067],[-73.20952129899996,44.120024500000056],[-73.209554899999944,44.119698300000039],[-73.209800600999984,44.119419600000072],[-73.209839799999941,44.118680400000073],[-73.209481998999934,44.118665500000077],[-73.209196299999974,44.118736100000035],[-73.208497199999954,44.118585200000041],[-73.20817169999998,44.118461800000034],[-73.207901199999981,44.11830260000005],[-73.207761399999981,44.118137300000058],[-73.207704599999943,44.118021500000054],[-73.207723399999963,44.11757300000005],[-73.207649499999945,44.117398800000046],[-73.207505498999978,44.117334800000037]]],[[[-73.251794400999984,44.09501096200006],[-73.251802399999974,44.095634300000029],[-73.252074799999946,44.096378400000049],[-73.252244899999937,44.096618300000046],[-73.252895299999977,44.097186400000055],[-73.253188399999942,44.097552900000039],[-73.253531299999963,44.098222000000078],[-73.253754399999934,44.098857500000065],[-73.253986099999963,44.100164500000062],[-73.254235198999936,44.10097200000007],[-73.254198798999937,44.101850900000045],[-73.254524999999944,44.105032400000027],[-73.254796298999963,44.105616700000041],[-73.255168999999967,44.106750700000077],[-73.255379599999969,44.108264200000065],[-73.255833199999984,44.110103400000071],[-73.255815999999982,44.110654500000066],[-73.255706698999973,44.110775000000046],[-73.255415999999968,44.110881400000039],[-73.255077699999958,44.11091840000006],[-73.254193198999985,44.110803700000076],[-73.254219299999988,44.111077400000056],[-73.254318399999988,44.11125590000006],[-73.254477099999974,44.111334000000056],[-73.254870499999981,44.111451900000077],[-73.255659199999968,44.111549900000057],[-73.256209099999978,44.111694100000079],[-73.25644479999994,44.111808200000041],[-73.256670300999986,44.112043300000039],[-73.256769199999951,44.112301000000059],[-73.25692289999995,44.113211600000056],[-73.257269599999972,44.114219000000048],[-73.256834099999935,44.115520600000025],[-73.256601499999988,44.11788080000008],[-73.256632799999977,44.118465900000047],[-73.256985499999985,44.120448200000055],[-73.257811998999955,44.120094900000026],[-73.25808399899995,44.120069700000045],[-73.258207900999935,44.119302700000048],[-73.259626199999957,44.119174300000054],[-73.259909999999934,44.118460000000027],[-73.260999999999967,44.116720000000043],[-73.261519999999962,44.114840000000072],[-73.261739999999975,44.113170000000025],[-73.261689999999987,44.112500000000068],[-73.26158000099997,44.112120000000061],[-73.261409999999955,44.111800000000073],[-73.261129399999959,44.111498300000051],[-73.260534800999949,44.111166300000036],[-73.260238199999947,44.111058900000046],[-73.258910199999946,44.110719900000049],[-73.257178298999975,44.110142300000064],[-73.256429999999966,44.109620000000064],[-73.256208899999933,44.109344400000055],[-73.255979299999979,44.108968700000048],[-73.255693199999939,44.108234200000027],[-73.255298099999948,44.10630720000006],[-73.254647299999988,44.104375300000072],[-73.254559999999969,44.103710000000035],[-73.254598499999986,44.103513200000066],[-73.254949999999951,44.10283000000004],[-73.256359299999986,44.100606500000026],[-73.256399999999985,44.100410000000068],[-73.256529999999941,44.100350000000049],[-73.256609999999966,44.100130000000036],[-73.256760399999962,44.100054300000068],[-73.256945198999972,44.099849800000072],[-73.257553499999972,44.099061300000074],[-73.25765309999997,44.098443900000063],[-73.257515798999975,44.098078600000065],[-73.257551799999987,44.097916700000042],[-73.257358002999979,44.097636694000073],[-73.25552799999997,44.097060000000056],[-73.254659901999958,44.096839697000064],[-73.253675200999965,44.096708700000079],[-73.252972599999964,44.096442400000058],[-73.252187098999968,44.095831100000055],[-73.251828399999965,44.095119500000067],[-73.251794400999984,44.09501096200006]]],[[[-73.250023098999975,44.088931700000046],[-73.249803399999962,44.09056860000004],[-73.251219399999968,44.090988300000049],[-73.251829899999962,44.091279400000076],[-73.252245499999958,44.091708900000071],[-73.252396898999962,44.092233700000065],[-73.252383400999975,44.092459101000031],[-73.252909099999954,44.091414600000064],[-73.25306749899994,44.090592800000081],[-73.253069399999958,44.09025360000004],[-73.252980899999955,44.090071100000046],[-73.252701699999989,44.089806900000042],[-73.251493399999958,44.089253800000051],[-73.250628399999982,44.089001000000053],[-73.250023098999975,44.088931700000046]]]]},"properties":{"District_Name":"Flood Hazard Overlay Area","OBJECTID":2,"OBJECT_ID":154,"County":"Addison","RPC":"ACRPC","Municipal_Name":"waltham","GEO_ID":"5000176075","Abbreviated_District_Name":"Fha","District_Type":"Nonresidential","Bylaw_Date":"2019-09-09","Elderly_Housing_District":"No","District_Mapped":"No","Overlay_District":"Yes","Base_Density":null,"FIPS6":1105,"GIS_ID":null,"Last_Update":"2026-07-16","F1F_Allowance":"Prohibited","F1F_Front_Setback":null,"F1F_Side_Setback":null,"F1F_Rear_Setback":null,"F1F_Frontage":null,"F1F_Max_Height":null,"F1F_Max_Stories":null,"F1F_Min_Lot_Size":null,"F1F_Max_Lot_Building_Coverage":null,"F1F_Max_Lot_Impervious_Coverage":null,"F1F_Min_Parking_Spaces":null,"F1F_Elderly_Housing_Only":null,"F1F_Affordable_Housing_Only":null,"F2F_Allowance":"Prohibited","F2F_Front_Setback":null,"F2F_Side_Setback":null,"F2F_Rear_Setback":null,"F2F_Frontage":null,"F2F_Max_Density":null,"F2F_Max_Height":null,"F2F_Max_Stories":null,"F2F_Min_Lot_Size":null,"F2F_Max_Lot_Building_Coverage":null,"F2F_Max_Lot_Impervious_Coverage":null,"F2F_Min_Parking_Spaces_per_1BR":null,"F2F_Min_Parking_Spaces_per_mult_BR":null,"F2F_Elderly_Housing_Only":"No","F2F_Affordable_Housing_Only":"No","F3F_Allowance":"Prohibited","F3F_Front_Setback":null,"F3F_Side_Setback":null,"F3F_Rear_Setback":null,"F3F_Frontage":null,"F3F_Max_Density":null,"F3F_Max_Height":null,"F3F_Max_Stories":null,"F3F_Min_Lot_Size":null,"F3F_Max_Lot_Building_Coverage":null,"F3F_Max_Lot_Impervious_Coverage":null,"F3F_Min_Parking_Spaces_per_1BR":null,"F3F_Min_Parking_Spaces_per_mult_BR":null,"F3F_Affordable_Housing_Only":"No","F3F_Proximity_to_Public_Transit_Required":"No","F3F_Connection_to_Sewage_Water_Required":"No","F4F_Allowance":"Prohibited","F4F_Front_Setback":null,"F4F_Side_Setback":null,"F4F_Rear_Setback":null,"F4F_Frontage":null,"F1F_Max_Density":null,"F4F_Max_Density":null,"F4F_Max_Height":null,"F4F_Max_Stories":null,"F4F_Min_Lot_Size":null,"F4F_Max_Lot_Building_Coverage":null,"F4F_Max_Lot_Impervious_Coverage":null,"F4F_Min_Parking_Spaces_per_1BR":null,"F4F_Min_Parking_Spaces_per_mult_BR":null,"F3F_Elderly_Housing_Only":"No","F4F_Elderly_Housing_Only":"No","F4F_Affordable_Housing_Only":"No","F4F_Proximity_to_Public_Transit_Required":"No","F4F_Connection_to_Sewage_Water_Required":"No","ADU_Allowance":"Prohibited","ADU_Elderly_Housing_Only":"No","ADU_Max_Size_as_Percent_of_Primary_Strcture":null,"ADU_Max_Size_in_sq_ft":null,"ADU_Min_Lot_Size":null,"ADU_Max_Bedrooms":null,"ADU_Min_Parking_Spaces":null,"ADU_Owner_Occupancy_Required":"No","ADU_Renter_Occupancy_Prohibited":"No","ADU_Employee_or_Family_Occupancy_Required":"No","ADU_Restricted_to_Primary_Structure":"No","Affordable_Housing_Allowance":"Not Mentioned","Affordable_Housing_District":"No","Affordable_Housing_Elderly_Only":"No","Affordable_Housing_Min_Lot_Size":null,"Affordable_Housing_Max_Density":null,"Affordable_Housing_Min_Parking_Spaces_per_mult_BR":null,"Affordable_Housing_Max_Units_per_Building":null,"Affordable_Housing_Min_Parking_Spaces_per_1BR":null,"PRD_Allowance":"Not Mentioned","PRD_Max_Density":null,"PRD_Max_Units":null,"PRD_Min_Lot_Size":null,"PRD_Mobile_or_Manufactured_Home_Park":"No","PUD_Allowance":"Prohibited","PUD_Required_with_Subdivision":null,"PUD_Requires_Land_Conservation":null,"PUD_Threshold_Number":null,"Notes":" This District Consists Of Fema Flood Map Zone A Areas. ","Shape_Length":0.24015003410087638,"Shape_Area":0.00018421913838555343}},{"type":"Feature","id":3,"geometry":{"type":"Polygon","coordinates":[[[-73.217529299999967,44.116547400000059],[-73.21747229999994,44.116807600000072],[-73.217175499999939,44.117112600000041],[-73.217121099999986,44.117589300000077],[-73.21714419999995,44.119494600000053],[-73.217068299999937,44.120058000000029],[-73.217262999999946,44.120507300000043],[-73.218278299999952,44.121460300000081],[-73.218748699999935,44.121997300000032],[-73.218987999999968,44.122535800000037],[-73.219005599999946,44.122805700000072],[-73.218778699999973,44.123347100000046],[-73.217484899999988,44.12443520000005],[-73.217017399999975,44.124978200000044],[-73.216836099999966,44.125519300000065],[-73.216870099999937,44.126329100000078],[-73.217069299999935,44.127407900000037],[-73.21735289999998,44.128486100000032],[-73.217564498999934,44.129024700000059],[-73.21849549999996,44.130638900000065],[-73.219451999999933,44.131982900000025],[-73.222840399999939,44.136011500000052],[-73.223361699999941,44.136720100000048],[-73.223766199999943,44.136899100000051],[-73.224319699999967,44.136844600000074],[-73.225354599999946,44.136870600000066],[-73.227447799999936,44.137217500000077],[-73.228542399999981,44.137591600000064],[-73.229249598999957,44.137906100000066],[-73.230143399999974,44.138497200000074],[-73.230421899999953,44.138501900000051],[-73.232248199999958,44.138367200000062],[-73.232806599999947,44.137028000000043],[-73.233104599999933,44.136486000000048],[-73.234506299999964,44.133777000000066],[-73.234916199999986,44.132694400000048],[-73.234923199999969,44.132154400000047],[-73.234667099999967,44.130806000000064],[-73.234738899999968,44.130265500000064],[-73.234922599999948,44.129994400000044],[-73.235221999999965,44.129722400000048],[-73.237022699999955,44.128683700000067],[-73.237545699999941,44.128251000000034],[-73.237839799999961,44.127923800000076],[-73.238198799999964,44.127375000000029],[-73.238604998999961,44.12646060000003],[-73.238877599999967,44.125378800000078],[-73.238746599999956,44.124029700000051],[-73.23858679999995,44.123490700000048],[-73.238264399999935,44.122762300000034],[-73.237837099999979,44.121985900000027],[-73.236557998999956,44.119993800000032],[-73.235846599999945,44.11854180000006],[-73.235024000999942,44.117238100000066],[-73.234554399999979,44.116765200000032],[-73.234188299999971,44.11648880000007],[-73.232818399999985,44.115697900000043],[-73.232301199999938,44.11517740000005],[-73.232299998999963,44.115510000000029],[-73.232019999999977,44.11558000000008],[-73.231699999999989,44.11552000000006],[-73.231579999999951,44.115150000000028],[-73.231739999999945,44.115170000000035],[-73.232019999999977,44.11498000000006],[-73.232245999999975,44.115094000000056],[-73.231902599999955,44.114356300000054],[-73.231753199999957,44.113544700000034],[-73.231770199999971,44.112734600000067],[-73.231975599999942,44.111923200000035],[-73.232324699999936,44.11057100000005],[-73.232215199999985,44.109761700000035],[-73.231493999999941,44.108385100000078],[-73.231069300999934,44.108017000000075],[-73.230888499999935,44.107974900000045],[-73.230713399999956,44.107765100000051],[-73.223765994999951,44.108328333000031],[-73.218696299999976,44.108741200000054],[-73.218285898999966,44.109788600000059],[-73.218237699999975,44.111530200000061],[-73.218167499999936,44.111834600000066],[-73.218012599999952,44.112123300000064],[-73.217599499999949,44.112593700000048],[-73.217362799999989,44.112721200000067],[-73.217364128999975,44.112832206000064],[-73.217367300999967,44.114339400000063],[-73.217450299999939,44.114988900000071],[-73.217511500999933,44.115075200000035],[-73.217515699999979,44.115421600000047],[-73.217529299999967,44.116547400000059]],[[-73.227479999999957,44.127350000000035],[-73.227729999999951,44.127420000000029],[-73.227739999999983,44.127510000000029],[-73.227420000999984,44.127560000000074],[-73.227199999999982,44.12785000000008],[-73.227069999999969,44.12785000000008],[-73.226869999999963,44.127940000000081],[-73.22682999999995,44.127900000000068],[-73.226949999999988,44.127600000000029],[-73.227229998999974,44.127370000000042],[-73.227479999999957,44.127350000000035]]]},"properties":{"District_Name":"Forest District","OBJECTID":3,"OBJECT_ID":155,"County":"Addison","RPC":"ACRPC","Municipal_Name":"waltham","GEO_ID":"5000176075","Abbreviated_District_Name":"F-25","District_Type":"Nonresidential","Bylaw_Date":"2019-09-09","Elderly_Housing_District":"No","District_Mapped":"Yes","Overlay_District":"No","Base_Density":0.040000000000000001,"FIPS6":1105,"GIS_ID":null,"Last_Update":"2026-07-16","F1F_Allowance":"Public Hearing","F1F_Front_Setback":100,"F1F_Side_Setback":25,"F1F_Rear_Setback":25,"F1F_Frontage":400,"F1F_Max_Height":35,"F1F_Max_Stories":null,"F1F_Min_Lot_Size":25,"F1F_Max_Lot_Building_Coverage":null,"F1F_Max_Lot_Impervious_Coverage":null,"F1F_Min_Parking_Spaces":1.5,"F1F_Elderly_Housing_Only":null,"F1F_Affordable_Housing_Only":null,"F2F_Allowance":"Prohibited","F2F_Front_Setback":null,"F2F_Side_Setback":null,"F2F_Rear_Setback":null,"F2F_Frontage":null,"F2F_Max_Density":null,"F2F_Max_Height":null,"F2F_Max_Stories":null,"F2F_Min_Lot_Size":null,"F2F_Max_Lot_Building_Coverage":null,"F2F_Max_Lot_Impervious_Coverage":null,"F2F_Min_Parking_Spaces_per_1BR":null,"F2F_Min_Parking_Spaces_per_mult_BR":null,"F2F_Elderly_Housing_Only":"No","F2F_Affordable_Housing_Only":"No","F3F_Allowance":"Prohibited","F3F_Front_Setback":null,"F3F_Side_Setback":null,"F3F_Rear_Setback":null,"F3F_Frontage":null,"F3F_Max_Density":null,"F3F_Max_Height":null,"F3F_Max_Stories":null,"F3F_Min_Lot_Size":null,"F3F_Max_Lot_Building_Coverage":null,"F3F_Max_Lot_Impervious_Coverage":null,"F3F_Min_Parking_Spaces_per_1BR":null,"F3F_Min_Parking_Spaces_per_mult_BR":null,"F3F_Affordable_Housing_Only":"No","F3F_Proximity_to_Public_Transit_Required":"No","F3F_Connection_to_Sewage_Water_Required":"No","F4F_Allowance":"Prohibited","F4F_Front_Setback":null,"F4F_Side_Setback":null,"F4F_Rear_Setback":null,"F4F_Frontage":null,"F1F_Max_Density":null,"F4F_Max_Density":null,"F4F_Max_Height":null,"F4F_Max_Stories":null,"F4F_Min_Lot_Size":null,"F4F_Max_Lot_Building_Coverage":null,"F4F_Max_Lot_Impervious_Coverage":null,"F4F_Min_Parking_Spaces_per_1BR":null,"F4F_Min_Parking_Spaces_per_mult_BR":null,"F3F_Elderly_Housing_Only":"No","F4F_Elderly_Housing_Only":"No","F4F_Affordable_Housing_Only":"No","F4F_Proximity_to_Public_Transit_Required":"No","F4F_Connection_to_Sewage_Water_Required":"No","ADU_Allowance":"Public Hearing","ADU_Elderly_Housing_Only":"No","ADU_Max_Size_as_Percent_of_Primary_Strcture":30,"ADU_Max_Size_in_sq_ft":null,"ADU_Min_Lot_Size":25,"ADU_Max_Bedrooms":1,"ADU_Min_Parking_Spaces":1.5,"ADU_Owner_Occupancy_Required":"Yes","ADU_Renter_Occupancy_Prohibited":"No","ADU_Employee_or_Family_Occupancy_Required":"No","ADU_Restricted_to_Primary_Structure":"No","Affordable_Housing_Allowance":"Not Mentioned","Affordable_Housing_District":"No","Affordable_Housing_Elderly_Only":"No","Affordable_Housing_Min_Lot_Size":null,"Affordable_Housing_Max_Density":null,"Affordable_Housing_Min_Parking_Spaces_per_mult_BR":null,"Affordable_Housing_Max_Units_per_Building":null,"Affordable_Housing_Min_Parking_Spaces_per_1BR":null,"PRD_Allowance":"Not Mentioned","PRD_Max_Density":null,"PRD_Max_Units":null,"PRD_Min_Lot_Size":null,"PRD_Mobile_or_Manufactured_Home_Park":"No","PUD_Allowance":"Public Hearing","PUD_Required_with_Subdivision":"No","PUD_Requires_Land_Conservation":"Yes","PUD_Threshold_Number":null,"Notes":" Single-Unit Homes Are Allowed By Right Below 500ft Of Elevation And By Conditional Use Review Above 500ft Of Elevation. Maximum Driveway Slope 15%. Development Must not Disrupt Viewshed, Must Have Minimal Impact On Deer Wintering, And Must Maximize Forest Block Preservation. Minimum Pud Lot Size 50 Acres. Lots Must Be Deep Enough to Be Usable; No 'Spaghetti Lots'. ","Shape_Length":0.094048369396038084,"Shape_Area":0.00048308177146651589}},{"type":"Feature","id":4,"geometry":{"type":"MultiPolygon","coordinates":[[[[-73.223293199999944,44.143904100000043],[-73.222689299999956,44.144026600000075],[-73.222428399999956,44.144175700000062],[-73.221216499999969,44.145336300000054],[-73.22107079999995,44.145624500000054],[-73.220770399999935,44.146904800000073],[-73.219932599999936,44.149714300000028],[-73.218990599999984,44.152554900000041],[-73.218685299999947,44.153202600000043],[-73.218208599999969,44.153836700000056],[-73.220660799999962,44.155907400000046],[-73.221738800999958,44.15658140000005],[-73.222130121999953,44.156437931000028],[-73.22290204899997,44.155790230000036],[-73.223157860999947,44.155232733000048],[-73.223299591999989,44.154696115000036],[-73.224512430999937,44.153932712000028],[-73.225263109999958,44.154388379000068],[-73.225139393999939,44.154937404000066],[-73.225772492999965,44.155196659000069],[-73.225989301999959,44.155225663000067],[-73.226699800999938,44.154927523000026],[-73.226912784999968,44.154601872000057],[-73.226066675999959,44.150378248000038],[-73.226078918999974,44.149996454000075],[-73.226422802999934,44.15011703700003],[-73.227391365999949,44.15072252300007],[-73.227620430999934,44.150645688000054],[-73.227704806999952,44.150418199000057],[-73.227987628999983,44.15040841800004],[-73.228174399999943,44.149966900000038],[-73.228369200999964,44.150274800000034],[-73.228500399999973,44.150275900000054],[-73.228676800999949,44.150169600000027],[-73.228864399999964,44.149893100000043],[-73.228932699999973,44.149600600000042],[-73.229238499999951,44.149184700000035],[-73.229211499999963,44.148859200000061],[-73.228943400999981,44.148533800000052],[-73.228244399999937,44.148072700000057],[-73.227937398999984,44.147627800000066],[-73.227518399999951,44.147354200000052],[-73.227252098999941,44.146817300000066],[-73.226855834999981,44.146400884000059],[-73.226625794999961,44.146264587000076],[-73.226610484999981,44.146255518000032],[-73.226044999999942,44.145975900000053],[-73.225900900999989,44.145835099000067],[-73.224943500999984,44.145237100000031],[-73.224886958999946,44.14518669000006],[-73.223449899999935,44.143922500000031],[-73.223293199999944,44.143904100000043]]],[[[-73.235511999999972,44.139901400000042],[-73.233547299999941,44.140143100000046],[-73.23044250099997,44.140348000000074],[-73.23043466699994,44.14066525800007],[-73.230272114999934,44.140971944000057],[-73.229999774999953,44.141213245000074],[-73.229819402999965,44.141470480000066],[-73.229586190999953,44.141628923000042],[-73.228979986999946,44.142239956000026],[-73.229039279999938,44.142863262000049],[-73.229284436999933,44.143208646000062],[-73.229486754999982,44.143335396000055],[-73.229312818999972,44.143650414000035],[-73.229725023999947,44.144052556000076],[-73.229446476999954,44.14425672200008],[-73.229558688999987,44.144735746000038],[-73.22975662999994,44.145221245000073],[-73.229919517999974,44.145406071000025],[-73.229911862999984,44.14571589600007],[-73.230069729999968,44.145958578000034],[-73.230526770999973,44.146273694000058],[-73.231151403999945,44.146224264000068],[-73.232028285999945,44.146627554000077],[-73.23251034499998,44.146645115000069],[-73.233098100999939,44.146860254000046],[-73.233775126999944,44.146872428000052],[-73.234147286999985,44.146816343000069],[-73.234677434999981,44.146548592000045],[-73.234951105999983,44.14595206100006],[-73.235167410999964,44.144893298000056],[-73.235350327999981,44.144379957000069],[-73.235181325999974,44.143703665000032],[-73.235123243999965,44.142721014000074],[-73.23545153699996,44.14236782100005],[-73.23576135899998,44.141426567000053],[-73.235547955999948,44.140690936000055],[-73.235586750999971,44.140267737000045],[-73.235511999999972,44.139901400000042]]],[[[-73.222194598999977,44.138269800000046],[-73.221030136999957,44.138352055000041],[-73.221299538999972,44.139776933000064],[-73.222756131999972,44.140903576000028],[-73.222625726999979,44.141233539000041],[-73.22289810999996,44.141522231000067],[-73.222776980999981,44.141877950000037],[-73.222770854999965,44.142110322000065],[-73.222511294999947,44.142225619000044],[-73.223130699999956,44.143136800000036],[-73.22349399999996,44.143561300000044],[-73.225196199999971,44.14503220000006],[-73.227803956999935,44.146667553000043],[-73.227824857999963,44.146434470000031],[-73.227618817999939,44.144983704000026],[-73.227283265999972,44.144663157000025],[-73.227340928999979,44.144249754000043],[-73.226823693999961,44.143730298000037],[-73.226918866999938,44.143452184000068],[-73.226942923999957,44.14302993900003],[-73.226679590999936,44.142510859000026],[-73.226278454999942,44.142428820000077],[-73.225885060999985,44.142079744000057],[-73.225615292999976,44.141933426000037],[-73.22551458099997,44.141503187000069],[-73.225635779999948,44.141137014000037],[-73.225717408999969,44.140484674000049],[-73.225885693999942,44.14032226300003],[-73.226524152999957,44.140498908000041],[-73.227118759999939,44.140753271000051],[-73.227441047999946,44.140725405000069],[-73.228674699999942,44.140222100000074],[-73.22817809999998,44.139635400000031],[-73.226699599999961,44.138913800000068],[-73.226379699999939,44.138839000000075],[-73.224903099999949,44.13866900000005],[-73.224343368999939,44.138711528000044],[-73.224355350999986,44.139764052000032],[-73.22398130199997,44.140689300000076],[-73.223802627999987,44.140735608000057],[-73.223502494999934,44.140376103000051],[-73.223552004999988,44.140027290000035],[-73.223298866999983,44.139112469000054],[-73.22313319999995,44.138750900000048],[-73.222194598999977,44.138269800000046]]],[[[-73.217529299999967,44.116547400000059],[-73.217253319999941,44.11668848100004],[-73.216660870999988,44.117283923000059],[-73.21642682099997,44.117332130000079],[-73.216466820999983,44.117640680000079],[-73.216016743999944,44.117930283000078],[-73.215823409999985,44.118220778000079],[-73.215301385999965,44.118677824000031],[-73.215203002999942,44.119007428000032],[-73.214897861999987,44.119168159000026],[-73.214849314999981,44.119712995000043],[-73.214982045999989,44.120267210000065],[-73.215270359999977,44.120674635000057],[-73.214982530999976,44.120965719000026],[-73.216881026999943,44.122337839000068],[-73.216799079999987,44.122724063000078],[-73.216134131999979,44.123085582000044],[-73.215616927999974,44.123293022000041],[-73.215220360999979,44.123709577000056],[-73.214996055999961,44.124045641000066],[-73.214979411999934,44.124624309000069],[-73.21518748799997,44.124900945000036],[-73.215336201999946,44.12547857800007],[-73.215473279999969,44.125744313000041],[-73.215389194999943,44.126607014000058],[-73.215614398999946,44.126996986000051],[-73.215373581999984,44.127270759000055],[-73.215620903999934,44.127535803000058],[-73.21602441899995,44.12834440000006],[-73.216636238999968,44.128794339000081],[-73.216410962999987,44.129051000000061],[-73.216563665999956,44.129305292000026],[-73.217031834999943,44.129597309000076],[-73.217183442999954,44.129760851000071],[-73.21697302299998,44.129943682000032],[-73.217142576999947,44.130288621000034],[-73.217146233999983,44.131241527000043],[-73.217354548999936,44.131535173000032],[-73.21863878399995,44.132462308000072],[-73.218671299999983,44.132926769000051],[-73.21938972099997,44.133793497000056],[-73.219538019999959,44.134199145000025],[-73.219874253999933,44.134584249000056],[-73.219922739999959,44.134887267000067],[-73.220250254999939,44.135291785000049],[-73.220738042999983,44.135611393000033],[-73.22132070899994,44.135627077000038],[-73.221386260999964,44.135858996000081],[-73.22203024199996,44.136493843000039],[-73.220382509999979,44.13658814300004],[-73.219541701999958,44.136716062000062],[-73.218961744999945,44.136879218000047],[-73.219940699999938,44.138345800000025],[-73.221870599999988,44.138129800000058],[-73.222231599999986,44.138134000000036],[-73.222451999999976,44.138199600000064],[-73.223082199999965,44.138569000000075],[-73.223363199999937,44.13866610000008],[-73.223670599999934,44.138682300000028],[-73.224453599999947,44.138548000000071],[-73.224918999999943,44.138531900000032],[-73.22664089999995,44.138746900000058],[-73.228304399999956,44.139531300000044],[-73.228747799999951,44.14006930000005],[-73.229040199999986,44.140214900000046],[-73.229934799999967,44.140235100000041],[-73.233519899999976,44.140007300000036],[-73.233307630999946,44.138442231000056],[-73.233249655999941,44.136740947000078],[-73.233104599999933,44.136486000000048],[-73.232806599999947,44.137028000000043],[-73.232248199999958,44.138367200000062],[-73.230421899999953,44.138501900000051],[-73.230143399999974,44.138497200000074],[-73.229249598999957,44.137906100000066],[-73.228542399999981,44.137591600000064],[-73.227447799999936,44.137217500000077],[-73.225354599999946,44.136870600000066],[-73.224319699999967,44.136844600000074],[-73.223766199999943,44.136899100000051],[-73.223361699999941,44.136720100000048],[-73.222840399999939,44.136011500000052],[-73.219451999999933,44.131982900000025],[-73.21849549999996,44.130638900000065],[-73.217564498999934,44.129024700000059],[-73.21735289999998,44.128486100000032],[-73.217069299999935,44.127407900000037],[-73.216870099999937,44.126329100000078],[-73.216836099999966,44.125519300000065],[-73.217017399999975,44.124978200000044],[-73.217484899999988,44.12443520000005],[-73.218778699999973,44.123347100000046],[-73.219005599999946,44.122805700000072],[-73.218987999999968,44.122535800000037],[-73.218748699999935,44.121997300000032],[-73.218278299999952,44.121460300000081],[-73.217262999999946,44.120507300000043],[-73.217068299999937,44.120058000000029],[-73.21714419999995,44.119494600000053],[-73.217121099999986,44.117589300000077],[-73.217175499999939,44.117112600000041],[-73.21747229999994,44.116807600000072],[-73.217529299999967,44.116547400000059]]],[[[-73.234702167999956,44.114850751000063],[-73.233900974999983,44.114923901000054],[-73.23325151399996,44.114964068000063],[-73.23280744799996,44.11507000000006],[-73.232301199999938,44.11517740000005],[-73.232818399999985,44.115697900000043],[-73.234188299999971,44.11648880000007],[-73.234554399999979,44.116765200000032],[-73.235024000999942,44.117238100000066],[-73.235342643999957,44.11702725400005],[-73.235863233999964,44.116341423000051],[-73.23592787299998,44.115865448000079],[-73.235789937999982,44.115586810000025],[-73.234702167999956,44.114850751000063]]],[[[-73.217545465999933,44.112827047000053],[-73.217364128999975,44.112832206000064],[-73.217367300999967,44.114339400000063],[-73.217450299999939,44.114988900000071],[-73.217511500999933,44.115075200000035],[-73.217515699999979,44.115421600000047],[-73.217899202999945,44.115382992000036],[-73.21803029199998,44.115155280000067],[-73.217934347999972,44.114820714000075],[-73.217732892999948,44.11465232200004],[-73.217738361999977,44.11445376000006],[-73.217877871999974,44.114271373000065],[-73.217558849999989,44.113933045000067],[-73.217862307999951,44.11363618300004],[-73.217781798999965,44.113489211000058],[-73.217752071999939,44.112984571000027],[-73.217545465999933,44.112827047000053]]],[[[-73.213174266999943,44.109161598000071],[-73.210058999999944,44.109405200000026],[-73.207677198999988,44.109592300000031],[-73.20844972499998,44.111350687000026],[-73.209004401999948,44.110946148000039],[-73.209420404999946,44.110841465000078],[-73.209821204999969,44.110782254000071],[-73.210192010999947,44.110848016000034],[-73.210524814999985,44.111027457000034],[-73.210879213999988,44.111694574000069],[-73.210889668999982,44.111910053000031],[-73.210567652999941,44.111974451000037],[-73.210675226999967,44.112410542000077],[-73.211503477999941,44.113199497000039],[-73.21170534099997,44.113490292000051],[-73.212278755999989,44.11416461400006],[-73.21251541099997,44.114202844000033],[-73.212798073999977,44.114138686000047],[-73.213375184999961,44.113681307000036],[-73.213604466999982,44.113106981000044],[-73.213860843999953,44.11282176900005],[-73.214076489999968,44.11242336600003],[-73.214104086999953,44.112099877000048],[-73.213613257999953,44.111588546000064],[-73.213635400999976,44.111254924000036],[-73.213561109999944,44.110943189000068],[-73.213090027999954,44.11073557800006],[-73.212951466999982,44.110525890000076],[-73.213034015999938,44.110267629000077],[-73.213038743999959,44.109403608000036],[-73.213174266999943,44.109161598000071]]],[[[-73.218446899999947,44.108759900000052],[-73.215310544999966,44.108998877000033],[-73.21522183899998,44.109472322000045],[-73.215067340999951,44.10971719500003],[-73.214954319999947,44.110137646000055],[-73.214858683999978,44.110694121000051],[-73.214942054999938,44.111079310000036],[-73.214919125999984,44.111748775000081],[-73.214970677999986,44.111943435000057],[-73.215503552999962,44.112268024000059],[-73.215665919999935,44.112271316000033],[-73.215877503999934,44.112167764000048],[-73.216026418999945,44.112215620000029],[-73.216956299999936,44.112691300000051],[-73.217528899999934,44.112329700000032],[-73.21795039999995,44.111696800000061],[-73.218018499999971,44.111416400000053],[-73.218020999999965,44.110070000000064],[-73.218199600999981,44.109323400000051],[-73.218446899999947,44.108759900000052]]],[[[-73.223765994999951,44.108328333000031],[-73.220683744999974,44.108579399000064],[-73.220865898999989,44.108778871000027],[-73.221699413999943,44.10934650300004],[-73.221843040999943,44.109504417000039],[-73.221624281999937,44.109641932000045],[-73.221554883999943,44.109761488000061],[-73.222047779999968,44.110155428000041],[-73.222236501999987,44.11013721900008],[-73.222412306999956,44.109929307000073],[-73.222680921999938,44.109782731000053],[-73.223537221999948,44.108988873000044],[-73.223707426999965,44.108743889000039],[-73.223765994999951,44.108328333000031]]],[[[-73.237368338999943,44.107230500000071],[-73.230713399999956,44.107765100000051],[-73.230888499999935,44.107974900000045],[-73.231069300999934,44.108017000000075],[-73.231493999999941,44.108385100000078],[-73.232215199999985,44.109761700000035],[-73.232324699999936,44.11057100000005],[-73.231975599999942,44.111923200000035],[-73.233410229999947,44.111891597000067],[-73.235427884999979,44.111946518000025],[-73.235906830999966,44.111881395000069],[-73.237046688999953,44.11154612100006],[-73.237927237999941,44.111132746000067],[-73.238259618999962,44.110164550000036],[-73.238299329999961,44.109402089000071],[-73.238213507999944,44.108436595000057],[-73.237985167999966,44.107879711000066],[-73.237368338999943,44.107230500000071]]]]},"properties":{"District_Name":"Habitat Overlay District","OBJECTID":4,"OBJECT_ID":156,"County":"Addison","RPC":"ACRPC","Municipal_Name":"waltham","GEO_ID":"5000176075","Abbreviated_District_Name":"Hoa","District_Type":"Primarily Residential","Bylaw_Date":"2019-09-09","Elderly_Housing_District":"No","District_Mapped":"No","Overlay_District":"Yes","Base_Density":null,"FIPS6":1105,"GIS_ID":null,"Last_Update":"2026-07-16","F1F_Allowance":null,"F1F_Front_Setback":null,"F1F_Side_Setback":null,"F1F_Rear_Setback":null,"F1F_Frontage":null,"F1F_Max_Height":null,"F1F_Max_Stories":null,"F1F_Min_Lot_Size":null,"F1F_Max_Lot_Building_Coverage":null,"F1F_Max_Lot_Impervious_Coverage":null,"F1F_Min_Parking_Spaces":null,"F1F_Elderly_Housing_Only":null,"F1F_Affordable_Housing_Only":null,"F2F_Allowance":null,"F2F_Front_Setback":null,"F2F_Side_Setback":null,"F2F_Rear_Setback":null,"F2F_Frontage":null,"F2F_Max_Density":null,"F2F_Max_Height":null,"F2F_Max_Stories":null,"F2F_Min_Lot_Size":null,"F2F_Max_Lot_Building_Coverage":null,"F2F_Max_Lot_Impervious_Coverage":null,"F2F_Min_Parking_Spaces_per_1BR":null,"F2F_Min_Parking_Spaces_per_mult_BR":null,"F2F_Elderly_Housing_Only":"No","F2F_Affordable_Housing_Only":"No","F3F_Allowance":null,"F3F_Front_Setback":null,"F3F_Side_Setback":null,"F3F_Rear_Setback":null,"F3F_Frontage":null,"F3F_Max_Density":null,"F3F_Max_Height":null,"F3F_Max_Stories":null,"F3F_Min_Lot_Size":null,"F3F_Max_Lot_Building_Coverage":null,"F3F_Max_Lot_Impervious_Coverage":null,"F3F_Min_Parking_Spaces_per_1BR":null,"F3F_Min_Parking_Spaces_per_mult_BR":null,"F3F_Affordable_Housing_Only":"No","F3F_Proximity_to_Public_Transit_Required":"No","F3F_Connection_to_Sewage_Water_Required":"No","F4F_Allowance":null,"F4F_Front_Setback":null,"F4F_Side_Setback":null,"F4F_Rear_Setback":null,"F4F_Frontage":null,"F1F_Max_Density":null,"F4F_Max_Density":null,"F4F_Max_Height":null,"F4F_Max_Stories":null,"F4F_Min_Lot_Size":null,"F4F_Max_Lot_Building_Coverage":null,"F4F_Max_Lot_Impervious_Coverage":null,"F4F_Min_Parking_Spaces_per_1BR":null,"F4F_Min_Parking_Spaces_per_mult_BR":null,"F3F_Elderly_Housing_Only":"No","F4F_Elderly_Housing_Only":"No","F4F_Affordable_Housing_Only":"No","F4F_Proximity_to_Public_Transit_Required":"No","F4F_Connection_to_Sewage_Water_Required":"No","ADU_Allowance":"Not Mentioned","ADU_Elderly_Housing_Only":"No","ADU_Max_Size_as_Percent_of_Primary_Strcture":null,"ADU_Max_Size_in_sq_ft":null,"ADU_Min_Lot_Size":null,"ADU_Max_Bedrooms":null,"ADU_Min_Parking_Spaces":null,"ADU_Owner_Occupancy_Required":"No","ADU_Renter_Occupancy_Prohibited":"No","ADU_Employee_or_Family_Occupancy_Required":"No","ADU_Restricted_to_Primary_Structure":"No","Affordable_Housing_Allowance":"Not Mentioned","Affordable_Housing_District":"No","Affordable_Housing_Elderly_Only":"No","Affordable_Housing_Min_Lot_Size":null,"Affordable_Housing_Max_Density":null,"Affordable_Housing_Min_Parking_Spaces_per_mult_BR":null,"Affordable_Housing_Max_Units_per_Building":null,"Affordable_Housing_Min_Parking_Spaces_per_1BR":null,"PRD_Allowance":"Not Mentioned","PRD_Max_Density":null,"PRD_Max_Units":null,"PRD_Min_Lot_Size":null,"PRD_Mobile_or_Manufactured_Home_Park":"No","PUD_Allowance":null,"PUD_Required_with_Subdivision":"No","PUD_Requires_Land_Conservation":"Yes","PUD_Threshold_Number":null,"Notes":" This Overlay Layer Does not Prohibit Any Activity Permitted In The Base Zoning District. It Requires That Developers Submit A Landscape Plan And Narrative Explaining Siting And Clearing (Both With Minimal Impacts On Surrounding Forest). ","Shape_Length":0.26296405457344918,"Shape_Area":0.00026186264007767854}},{"type":"Feature","id":5,"geometry":{"type":"MultiPolygon","coordinates":[[[[-73.247250636999979,44.152846214000078],[-73.247439700999962,44.154008500000032],[-73.247550009999941,44.154630062000081],[-73.24755963399997,44.154629333000059],[-73.249190831999954,44.154503964000071],[-73.249315733999936,44.154494154000076],[-73.249379700999953,44.154121700000076],[-73.249381599999936,44.153942000000029],[-73.249409998999965,44.153580000000034],[-73.249415899999974,44.153571500000055],[-73.249451199999953,44.153521200000057],[-73.249568899999986,44.153273400000046],[-73.249165019999964,44.153110605000052],[-73.24903825399997,44.153059509000059],[-73.247250636999979,44.152846214000078]]],[[[-73.244574991999968,44.152438837000034],[-73.243937424999956,44.154894838000075],[-73.247368877999975,44.15464378300004],[-73.247048799999959,44.152785900000026],[-73.244574991999968,44.152438837000034]]]]},"properties":{"District_Name":"High Density Residential District","OBJECTID":5,"OBJECT_ID":157,"County":"Addison","RPC":"ACRPC","Municipal_Name":"waltham","GEO_ID":"5000176075","Abbreviated_District_Name":"Hdr","District_Type":"Primarily Residential","Bylaw_Date":"2019-09-09","Elderly_Housing_District":"No","District_Mapped":"No","Overlay_District":"No","Base_Density":0.40000000000000002,"FIPS6":1105,"GIS_ID":null,"Last_Update":"2026-07-16","F1F_Allowance":"Permitted","F1F_Front_Setback":30,"F1F_Side_Setback":15,"F1F_Rear_Setback":30,"F1F_Frontage":100,"F1F_Max_Height":35,"F1F_Max_Stories":null,"F1F_Min_Lot_Size":2.5,"F1F_Max_Lot_Building_Coverage":null,"F1F_Max_Lot_Impervious_Coverage":30,"F1F_Min_Parking_Spaces":1.5,"F1F_Elderly_Housing_Only":null,"F1F_Affordable_Housing_Only":null,"F2F_Allowance":"Permitted","F2F_Front_Setback":30,"F2F_Side_Setback":15,"F2F_Rear_Setback":30,"F2F_Frontage":100,"F2F_Max_Density":0.40000000000000002,"F2F_Max_Height":35,"F2F_Max_Stories":null,"F2F_Min_Lot_Size":5,"F2F_Max_Lot_Building_Coverage":null,"F2F_Max_Lot_Impervious_Coverage":30,"F2F_Min_Parking_Spaces_per_1BR":1.5,"F2F_Min_Parking_Spaces_per_mult_BR":1.5,"F2F_Elderly_Housing_Only":"No","F2F_Affordable_Housing_Only":"No","F3F_Allowance":"Permitted","F3F_Front_Setback":30,"F3F_Side_Setback":15,"F3F_Rear_Setback":30,"F3F_Frontage":100,"F3F_Max_Density":0.40000000000000002,"F3F_Max_Height":35,"F3F_Max_Stories":null,"F3F_Min_Lot_Size":7.5,"F3F_Max_Lot_Building_Coverage":null,"F3F_Max_Lot_Impervious_Coverage":30,"F3F_Min_Parking_Spaces_per_1BR":1.3,"F3F_Min_Parking_Spaces_per_mult_BR":1.3,"F3F_Affordable_Housing_Only":"No","F3F_Proximity_to_Public_Transit_Required":"No","F3F_Connection_to_Sewage_Water_Required":"No","F4F_Allowance":"Permitted","F4F_Front_Setback":30,"F4F_Side_Setback":15,"F4F_Rear_Setback":30,"F4F_Frontage":100,"F1F_Max_Density":null,"F4F_Max_Density":0.40000000000000002,"F4F_Max_Height":35,"F4F_Max_Stories":null,"F4F_Min_Lot_Size":10,"F4F_Max_Lot_Building_Coverage":null,"F4F_Max_Lot_Impervious_Coverage":30,"F4F_Min_Parking_Spaces_per_1BR":1.5800000000000001,"F4F_Min_Parking_Spaces_per_mult_BR":1.5800000000000001,"F3F_Elderly_Housing_Only":"No","F4F_Elderly_Housing_Only":"No","F4F_Affordable_Housing_Only":"No","F4F_Proximity_to_Public_Transit_Required":"No","F4F_Connection_to_Sewage_Water_Required":"No","ADU_Allowance":"Permitted","ADU_Elderly_Housing_Only":"No","ADU_Max_Size_as_Percent_of_Primary_Strcture":30,"ADU_Max_Size_in_sq_ft":null,"ADU_Min_Lot_Size":2.5,"ADU_Max_Bedrooms":1,"ADU_Min_Parking_Spaces":1.5,"ADU_Owner_Occupancy_Required":"Yes","ADU_Renter_Occupancy_Prohibited":"No","ADU_Employee_or_Family_Occupancy_Required":"No","ADU_Restricted_to_Primary_Structure":"No","Affordable_Housing_Allowance":"Not Mentioned","Affordable_Housing_District":"No","Affordable_Housing_Elderly_Only":"No","Affordable_Housing_Min_Lot_Size":null,"Affordable_Housing_Max_Density":null,"Affordable_Housing_Min_Parking_Spaces_per_mult_BR":null,"Affordable_Housing_Max_Units_per_Building":null,"Affordable_Housing_Min_Parking_Spaces_per_1BR":null,"PRD_Allowance":"Not Mentioned","PRD_Max_Density":null,"PRD_Max_Units":null,"PRD_Min_Lot_Size":null,"PRD_Mobile_or_Manufactured_Home_Park":"No","PUD_Allowance":"Public Hearing","PUD_Required_with_Subdivision":"No","PUD_Requires_Land_Conservation":"Yes","PUD_Threshold_Number":null,"Notes":" Maximum Yard Setback 75ft. Minimum Lot Depth 100ft. This District Is Subject to A Variety Of Architectural Requirements. Density Bonus Of \u003c=1 Unit/0.25 Acres For Two+ Unit Housing In Puds. Puds Must Meet Affordability Requirements If \u003e 3 Units. Development Is Intended to Grow With Increased Sewer & Sidewalk Infrastructure. In 4+ Unit Dwellings, At Least 1 Parking Spot Must Be Accessible. ","Shape_Length":0.017580391693253844,"Shape_Area":9.5336515074235887e-06}},{"type":"Feature","id":6,"geometry":{"type":"MultiPolygon","coordinates":[[[[-73.218072799999959,44.154065700000046],[-73.215532799999949,44.157395500000064],[-73.217377299999953,44.158161000000064],[-73.217242899999974,44.158739700000069],[-73.224916399999984,44.159998900000062],[-73.225370999999939,44.158506600000067],[-73.223334500999954,44.157619000000068],[-73.220910299999957,44.156456400000025],[-73.218955999999935,44.154863500000033],[-73.218072799999959,44.154065700000046]]],[[[-73.211063899999942,44.148527300000069],[-73.212242498999956,44.156030000000044],[-73.215353000999983,44.157320900000059],[-73.217929399999946,44.153918600000054],[-73.215354499999989,44.151803000000029],[-73.214513699999941,44.151310600000045],[-73.213811498999974,44.150581800000054],[-73.211063899999942,44.148527300000069]]]]},"properties":{"District_Name":"Highway Commercial District","OBJECTID":6,"OBJECT_ID":158,"County":"Addison","RPC":"ACRPC","Municipal_Name":"waltham","GEO_ID":"5000176075","Abbreviated_District_Name":"Hc-2.5","District_Type":"Mixed with Residential","Bylaw_Date":"2019-09-09","Elderly_Housing_District":"No","District_Mapped":"Yes","Overlay_District":"No","Base_Density":0.40000000000000002,"FIPS6":1105,"GIS_ID":null,"Last_Update":"2026-07-16","F1F_Allowance":"Permitted","F1F_Front_Setback":140,"F1F_Side_Setback":75,"F1F_Rear_Setback":75,"F1F_Frontage":400,"F1F_Max_Height":35,"F1F_Max_Stories":null,"F1F_Min_Lot_Size":2.5,"F1F_Max_Lot_Building_Coverage":15,"F1F_Max_Lot_Impervious_Coverage":20,"F1F_Min_Parking_Spaces":1.5,"F1F_Elderly_Housing_Only":null,"F1F_Affordable_Housing_Only":null,"F2F_Allowance":"Permitted","F2F_Front_Setback":140,"F2F_Side_Setback":75,"F2F_Rear_Setback":75,"F2F_Frontage":400,"F2F_Max_Density":0.40000000000000002,"F2F_Max_Height":35,"F2F_Max_Stories":null,"F2F_Min_Lot_Size":5,"F2F_Max_Lot_Building_Coverage":15,"F2F_Max_Lot_Impervious_Coverage":20,"F2F_Min_Parking_Spaces_per_1BR":1.5,"F2F_Min_Parking_Spaces_per_mult_BR":1.5,"F2F_Elderly_Housing_Only":"No","F2F_Affordable_Housing_Only":"No","F3F_Allowance":"Public Hearing","F3F_Front_Setback":140,"F3F_Side_Setback":75,"F3F_Rear_Setback":75,"F3F_Frontage":400,"F3F_Max_Density":0.40000000000000002,"F3F_Max_Height":35,"F3F_Max_Stories":null,"F3F_Min_Lot_Size":7.5,"F3F_Max_Lot_Building_Coverage":15,"F3F_Max_Lot_Impervious_Coverage":20,"F3F_Min_Parking_Spaces_per_1BR":1.3,"F3F_Min_Parking_Spaces_per_mult_BR":1.3,"F3F_Affordable_Housing_Only":"No","F3F_Proximity_to_Public_Transit_Required":"No","F3F_Connection_to_Sewage_Water_Required":"No","F4F_Allowance":"Public Hearing","F4F_Front_Setback":140,"F4F_Side_Setback":75,"F4F_Rear_Setback":75,"F4F_Frontage":400,"F1F_Max_Density":null,"F4F_Max_Density":0.40000000000000002,"F4F_Max_Height":35,"F4F_Max_Stories":null,"F4F_Min_Lot_Size":10,"F4F_Max_Lot_Building_Coverage":15,"F4F_Max_Lot_Impervious_Coverage":20,"F4F_Min_Parking_Spaces_per_1BR":1.5800000000000001,"F4F_Min_Parking_Spaces_per_mult_BR":1.5800000000000001,"F3F_Elderly_Housing_Only":"No","F4F_Elderly_Housing_Only":"No","F4F_Affordable_Housing_Only":"No","F4F_Proximity_to_Public_Transit_Required":"No","F4F_Connection_to_Sewage_Water_Required":"No","ADU_Allowance":"Allowed/Conditional","ADU_Elderly_Housing_Only":"No","ADU_Max_Size_as_Percent_of_Primary_Strcture":30,"ADU_Max_Size_in_sq_ft":null,"ADU_Min_Lot_Size":2.5,"ADU_Max_Bedrooms":1,"ADU_Min_Parking_Spaces":1.5,"ADU_Owner_Occupancy_Required":"Yes","ADU_Renter_Occupancy_Prohibited":"No","ADU_Employee_or_Family_Occupancy_Required":"No","ADU_Restricted_to_Primary_Structure":"No","Affordable_Housing_Allowance":"Not Mentioned","Affordable_Housing_District":"No","Affordable_Housing_Elderly_Only":"No","Affordable_Housing_Min_Lot_Size":null,"Affordable_Housing_Max_Density":null,"Affordable_Housing_Min_Parking_Spaces_per_mult_BR":null,"Affordable_Housing_Max_Units_per_Building":null,"Affordable_Housing_Min_Parking_Spaces_per_1BR":null,"PRD_Allowance":"Not Mentioned","PRD_Max_Density":null,"PRD_Max_Units":null,"PRD_Min_Lot_Size":null,"PRD_Mobile_or_Manufactured_Home_Park":"No","PUD_Allowance":"Public Hearing","PUD_Required_with_Subdivision":"Yes","PUD_Requires_Land_Conservation":"Yes","PUD_Threshold_Number":2,"Notes":" Minimum Lot Frontage On Rt 7 400ft; On Plank Rd, South Middlebrook Rd 200ft. Minimum Lot Depth 275ft. Maximum Building Size 15,000 Sf. Total Building Footprint Maximum 50,000 Or 15% Lot Coverage, Whichever Is Less. Minimum Pud Lot Size 2.5 Acres With Architectural, Siting, And Landscaping Requirements. In 4+ Unit Residences, 1 Parking Spot Must Be Accessible. ","Shape_Length":0.048716677406042651,"Shape_Area":5.6084693761189515e-05}},{"type":"Feature","id":7,"geometry":{"type":"MultiPolygon","coordinates":[[[[-73.212207899999953,44.114805100000069],[-73.21170534099997,44.113490292000051],[-73.210977599999978,44.111560900000029],[-73.210058999999944,44.109405200000026],[-73.207677198999988,44.109592300000031],[-73.20844972499998,44.111350687000026],[-73.209047999999939,44.112712500000043],[-73.210019000999978,44.115344700000037],[-73.212207899999953,44.114805100000069]]],[[[-73.206597099999954,44.112630600000045],[-73.207671999999945,44.115849300000036],[-73.20979989999995,44.115343700000039],[-73.208852699999966,44.112751700000047],[-73.207504999999969,44.109606100000065],[-73.205338360999974,44.109774432000052],[-73.206597099999954,44.112630600000045]]],[[[-73.240828799999974,44.107505900000035],[-73.240932099999952,44.107296700000063],[-73.240919299999973,44.107052400000043],[-73.240763498999968,44.107056200000045],[-73.240742386999955,44.106962521000071],[-73.237368338999943,44.107230500000071],[-73.230713399999956,44.107765100000051],[-73.230888499999935,44.107974900000045],[-73.231069300999934,44.108017000000075],[-73.231493999999941,44.108385100000078],[-73.232215199999985,44.109761700000035],[-73.232324699999936,44.11057100000005],[-73.231975599999942,44.111923200000035],[-73.231770199999971,44.112734600000067],[-73.231753199999957,44.113544700000034],[-73.231902599999955,44.114356300000054],[-73.232245999999975,44.115094000000056],[-73.232301199999938,44.11517740000005],[-73.232818399999985,44.115697900000043],[-73.234188299999971,44.11648880000007],[-73.234554399999979,44.116765200000032],[-73.235024000999942,44.117238100000066],[-73.235846599999945,44.11854180000006],[-73.236557998999956,44.119993800000032],[-73.237837099999979,44.121985900000027],[-73.238264399999935,44.122762300000034],[-73.23858679999995,44.123490700000048],[-73.238746599999956,44.124029700000051],[-73.238877599999967,44.125378800000078],[-73.238604998999961,44.12646060000003],[-73.238198799999964,44.127375000000029],[-73.237839799999961,44.127923800000076],[-73.237545699999941,44.128251000000034],[-73.237022699999955,44.128683700000067],[-73.235221999999965,44.129722400000048],[-73.234922599999948,44.129994400000044],[-73.234738899999968,44.130265500000064],[-73.234667099999967,44.130806000000064],[-73.234923199999969,44.132154400000047],[-73.234916199999986,44.132694400000048],[-73.234506299999964,44.133777000000066],[-73.233104599999933,44.136486000000048],[-73.232806599999947,44.137028000000043],[-73.232248199999958,44.138367200000062],[-73.230421899999953,44.138501900000051],[-73.230143399999974,44.138497200000074],[-73.229249598999957,44.137906100000066],[-73.228542399999981,44.137591600000064],[-73.227447799999936,44.137217500000077],[-73.225354599999946,44.136870600000066],[-73.224319699999967,44.136844600000074],[-73.223766199999943,44.136899100000051],[-73.223361699999941,44.136720100000048],[-73.222840399999939,44.136011500000052],[-73.219451999999933,44.131982900000025],[-73.21849549999996,44.130638900000065],[-73.217564498999934,44.129024700000059],[-73.21735289999998,44.128486100000032],[-73.217069299999935,44.127407900000037],[-73.216870099999937,44.126329100000078],[-73.216836099999966,44.125519300000065],[-73.217017399999975,44.124978200000044],[-73.217484899999988,44.12443520000005],[-73.218778699999973,44.123347100000046],[-73.219005599999946,44.122805700000072],[-73.218987999999968,44.122535800000037],[-73.218748699999935,44.121997300000032],[-73.218278299999952,44.121460300000081],[-73.217262999999946,44.120507300000043],[-73.217068299999937,44.120058000000029],[-73.21714419999995,44.119494600000053],[-73.217121099999986,44.117589300000077],[-73.217175499999939,44.117112600000041],[-73.21747229999994,44.116807600000072],[-73.217529299999967,44.116547400000059],[-73.217515699999979,44.115421600000047],[-73.217511500999933,44.115075200000035],[-73.217450299999939,44.114988900000071],[-73.217367300999967,44.114339400000063],[-73.217364128999975,44.112832206000064],[-73.217362799999989,44.112721200000067],[-73.215225999999973,44.113678200000038],[-73.215664699999934,44.116578900000036],[-73.215465900999959,44.116581500000052],[-73.21503359899998,44.11376690000003],[-73.212540199999978,44.114888400000041],[-73.210155999999984,44.115491600000041],[-73.210695499999986,44.116810200000032],[-73.216079099999945,44.132551400000068],[-73.218961744999945,44.136879218000047],[-73.219940699999938,44.138345800000025],[-73.221870599999988,44.138129800000058],[-73.222231599999986,44.138134000000036],[-73.222451999999976,44.138199600000064],[-73.223082199999965,44.138569000000075],[-73.223363199999937,44.13866610000008],[-73.223670599999934,44.138682300000028],[-73.224453599999947,44.138548000000071],[-73.224918999999943,44.138531900000032],[-73.22664089999995,44.138746900000058],[-73.228304399999956,44.139531300000044],[-73.228747799999951,44.14006930000005],[-73.229040199999986,44.140214900000046],[-73.229934799999967,44.140235100000041],[-73.233519899999976,44.140007300000036],[-73.236689499999954,44.139630000000068],[-73.236319999999978,44.139480000000049],[-73.236249999999984,44.13940000000008],[-73.236049999999977,44.139360000000067],[-73.235999999999933,44.13904000000008],[-73.236079999999959,44.138940000000048],[-73.236239999999952,44.13898000000006],[-73.236610000999974,44.13922000000008],[-73.237129999999979,44.139240000000029],[-73.23748999999998,44.139440000000036],[-73.237349999999935,44.139550000000042],[-73.236960098999987,44.139599100000055],[-73.237293899999941,44.139561000000072],[-73.237928999999951,44.139609000000064],[-73.241438099999982,44.14015210000008],[-73.24183359999995,44.140170000000069],[-73.245510999999965,44.139806000000078],[-73.245326800999976,44.139321400000028],[-73.244931399999984,44.138582900000074],[-73.244884899999988,44.138351400000033],[-73.245767699999988,44.13493550000004],[-73.245844599999941,44.133897000000047],[-73.245726900999955,44.133201000000042],[-73.245145699999966,44.131182900000056],[-73.244431299999974,44.131277100000034],[-73.244317599999988,44.130800600000043],[-73.245007499999986,44.130714100000034],[-73.243900699999983,44.124341500000071],[-73.243760499999951,44.123063200000047],[-73.243166999999971,44.120687300000043],[-73.242324899999971,44.116849400000035],[-73.241868899999986,44.115531900000065],[-73.241044299999942,44.11127520000008],[-73.240930198999934,44.110496900000044],[-73.240811099999974,44.107725600000038],[-73.240828799999974,44.107505900000035]],[[-73.232749999999953,44.115030000000047],[-73.232779999999934,44.114900000000034],[-73.232969998999977,44.114890000000059],[-73.233109999999954,44.114810000000034],[-73.233439999999973,44.114750000000072],[-73.233769999999936,44.114760000000047],[-73.233889999999974,44.11483000000004],[-73.233900974999983,44.114923901000054],[-73.233829999999955,44.115230000000054],[-73.233339999999941,44.115350000000035],[-73.23280744799996,44.11507000000006],[-73.232749999999953,44.115030000000047]],[[-73.242839999999944,44.139880000000062],[-73.242869998999936,44.139790000000062],[-73.243049999999982,44.139700000000062],[-73.243200000999934,44.139480000000049],[-73.243309999999951,44.139460000000042],[-73.243519999999933,44.139620000000036],[-73.243429999999989,44.139970000000062],[-73.24309999999997,44.140000000000043],[-73.242899999999963,44.139960000000031],[-73.242839999999944,44.139880000000062]]],[[[-73.222699999999975,44.143500000000074],[-73.222319999999968,44.143030000000067],[-73.222539799999936,44.142890200000068],[-73.218601299999989,44.136987700000077],[-73.216495198999951,44.137249200000042],[-73.217234799999972,44.138567400000056],[-73.21938400099998,44.141845700000033],[-73.216676899999982,44.142125600000043],[-73.216916798999989,44.144429900000034],[-73.219026699999972,44.144298400000025],[-73.218772398999988,44.144806200000062],[-73.218342799999959,44.146453800000074],[-73.217813499999977,44.148028100000033],[-73.220244899999955,44.147887000000026],[-73.220925699999952,44.145418300000074],[-73.221094099999959,44.145103600000027],[-73.221902399999976,44.144444400000054],[-73.222313899999961,44.144016100000044],[-73.222599299999956,44.143905200000063],[-73.223049899999978,44.143829900000071],[-73.222939999999937,44.143680000000074],[-73.222649999999987,44.14363000000003],[-73.222699999999975,44.143500000000074]]],[[[-73.244021499999974,44.147176000000059],[-73.246189500999947,44.147234500000025],[-73.246201099999951,44.145997700000066],[-73.245740699999942,44.140959600000031],[-73.245539099999974,44.139941700000065],[-73.241848399999981,44.140307300000075],[-73.24081289999998,44.140197300000068],[-73.240454299999953,44.141695200000072],[-73.241487499999948,44.141828100000055],[-73.243606499999942,44.141660500000057],[-73.244003099999986,44.145990700000027],[-73.244021499999974,44.147176000000059]]],[[[-73.224903099999949,44.13866900000005],[-73.224343368999939,44.138711528000044],[-73.223548799999946,44.138824200000045],[-73.22313319999995,44.138750900000048],[-73.222194598999977,44.138269800000046],[-73.221030136999957,44.138352055000041],[-73.219996399999957,44.138477800000032],[-73.222511294999947,44.142225619000044],[-73.223130699999956,44.143136800000036],[-73.22349399999996,44.143561300000044],[-73.225196199999971,44.14503220000006],[-73.227803956999935,44.146667553000043],[-73.232380099999943,44.149975500000039],[-73.233198700999935,44.148341500000072],[-73.232639199999937,44.147918000000061],[-73.229201699999976,44.145372100000031],[-73.229558688999987,44.144735746000038],[-73.23038379999997,44.143265000000042],[-73.229826799999955,44.141862300000071],[-73.232040799999936,44.141788800000029],[-73.23576135899998,44.141426567000053],[-73.237655299999972,44.141269900000054],[-73.238159999999937,44.139787800000079],[-73.237305399999968,44.139698500000065],[-73.235511999999972,44.139901400000042],[-73.233547299999941,44.140143100000046],[-73.23044250099997,44.140348000000074],[-73.229346599999985,44.140384100000063],[-73.228992798999968,44.140348300000028],[-73.228674699999942,44.140222100000074],[-73.22817809999998,44.139635400000031],[-73.226699599999961,44.138913800000068],[-73.226379699999939,44.138839000000075],[-73.224903099999949,44.13866900000005]]]]},"properties":{"District_Name":"Low Density Residential District","OBJECTID":7,"OBJECT_ID":159,"County":"Addison","RPC":"ACRPC","Municipal_Name":"waltham","GEO_ID":"5000176075","Abbreviated_District_Name":"R-5","District_Type":"Primarily Residential","Bylaw_Date":"2019-09-09","Elderly_Housing_District":"No","District_Mapped":"Yes","Overlay_District":"No","Base_Density":0.20000000000000001,"FIPS6":1105,"GIS_ID":null,"Last_Update":"2026-07-16","F1F_Allowance":"Permitted","F1F_Front_Setback":100,"F1F_Side_Setback":25,"F1F_Rear_Setback":25,"F1F_Frontage":300,"F1F_Max_Height":35,"F1F_Max_Stories":null,"F1F_Min_Lot_Size":5,"F1F_Max_Lot_Building_Coverage":20,"F1F_Max_Lot_Impervious_Coverage":null,"F1F_Min_Parking_Spaces":1.5,"F1F_Elderly_Housing_Only":null,"F1F_Affordable_Housing_Only":null,"F2F_Allowance":"Permitted","F2F_Front_Setback":100,"F2F_Side_Setback":25,"F2F_Rear_Setback":25,"F2F_Frontage":300,"F2F_Max_Density":0.20000000000000001,"F2F_Max_Height":35,"F2F_Max_Stories":null,"F2F_Min_Lot_Size":10,"F2F_Max_Lot_Building_Coverage":20,"F2F_Max_Lot_Impervious_Coverage":null,"F2F_Min_Parking_Spaces_per_1BR":1.5,"F2F_Min_Parking_Spaces_per_mult_BR":1.5,"F2F_Elderly_Housing_Only":"No","F2F_Affordable_Housing_Only":"No","F3F_Allowance":"Prohibited","F3F_Front_Setback":null,"F3F_Side_Setback":null,"F3F_Rear_Setback":null,"F3F_Frontage":null,"F3F_Max_Density":null,"F3F_Max_Height":null,"F3F_Max_Stories":null,"F3F_Min_Lot_Size":null,"F3F_Max_Lot_Building_Coverage":null,"F3F_Max_Lot_Impervious_Coverage":null,"F3F_Min_Parking_Spaces_per_1BR":null,"F3F_Min_Parking_Spaces_per_mult_BR":null,"F3F_Affordable_Housing_Only":"No","F3F_Proximity_to_Public_Transit_Required":"No","F3F_Connection_to_Sewage_Water_Required":"No","F4F_Allowance":"Prohibited","F4F_Front_Setback":null,"F4F_Side_Setback":null,"F4F_Rear_Setback":null,"F4F_Frontage":null,"F1F_Max_Density":null,"F4F_Max_Density":null,"F4F_Max_Height":null,"F4F_Max_Stories":null,"F4F_Min_Lot_Size":null,"F4F_Max_Lot_Building_Coverage":null,"F4F_Max_Lot_Impervious_Coverage":null,"F4F_Min_Parking_Spaces_per_1BR":null,"F4F_Min_Parking_Spaces_per_mult_BR":null,"F3F_Elderly_Housing_Only":"No","F4F_Elderly_Housing_Only":"No","F4F_Affordable_Housing_Only":"No","F4F_Proximity_to_Public_Transit_Required":"No","F4F_Connection_to_Sewage_Water_Required":"No","ADU_Allowance":"Allowed/Conditional","ADU_Elderly_Housing_Only":"No","ADU_Max_Size_as_Percent_of_Primary_Strcture":30,"ADU_Max_Size_in_sq_ft":null,"ADU_Min_Lot_Size":5,"ADU_Max_Bedrooms":1,"ADU_Min_Parking_Spaces":1.5,"ADU_Owner_Occupancy_Required":"Yes","ADU_Renter_Occupancy_Prohibited":"No","ADU_Employee_or_Family_Occupancy_Required":"No","ADU_Restricted_to_Primary_Structure":"No","Affordable_Housing_Allowance":"Not Mentioned","Affordable_Housing_District":"No","Affordable_Housing_Elderly_Only":"No","Affordable_Housing_Min_Lot_Size":null,"Affordable_Housing_Max_Density":null,"Affordable_Housing_Min_Parking_Spaces_per_mult_BR":null,"Affordable_Housing_Max_Units_per_Building":null,"Affordable_Housing_Min_Parking_Spaces_per_1BR":null,"PRD_Allowance":"Not Mentioned","PRD_Max_Density":null,"PRD_Max_Units":null,"PRD_Min_Lot_Size":null,"PRD_Mobile_or_Manufactured_Home_Park":"No","PUD_Allowance":"Public Hearing","PUD_Required_with_Subdivision":"No","PUD_Requires_Land_Conservation":"No","PUD_Threshold_Number":null,"Notes":" Minimum Pud Size 10 Acres. Minimum Lot Depth 150ft. ","Shape_Length":0.34048693544367925,"Shape_Area":0.00056293592207073929}},{"type":"Feature","id":8,"geometry":{"type":"MultiPolygon","coordinates":[[[[-73.215532799999949,44.157395500000064],[-73.213653699999952,44.159857300000056],[-73.222409699999957,44.161204300000065],[-73.226900799999953,44.162020900000073],[-73.230922198999963,44.162675200000081],[-73.234573899999987,44.163219800000036],[-73.234837100999982,44.163214500000038],[-73.234956499999953,44.163149200000078],[-73.233507999999972,44.162469100000067],[-73.232867199999987,44.162252300000034],[-73.232283199999983,44.161908200000028],[-73.226078500999961,44.158933600000069],[-73.225370999999939,44.158506600000067],[-73.224916399999984,44.159998900000062],[-73.217242899999974,44.158739700000069],[-73.217377299999953,44.158161000000064],[-73.215532799999949,44.157395500000064]]],[[[-73.232289299999934,44.150299800000028],[-73.232633800999963,44.151997700000038],[-73.233908399999962,44.15218230000005],[-73.232265599999948,44.157443000000058],[-73.229803799999956,44.157101600000033],[-73.227808098999958,44.159355000000062],[-73.232216799999946,44.161483900000064],[-73.232745899999941,44.161215700000071],[-73.233281599999941,44.160185900000045],[-73.233620199999962,44.159755000000075],[-73.234957899999984,44.158881600000029],[-73.235391999999933,44.157375200000047],[-73.235300000999985,44.157280400000047],[-73.235303400999953,44.15716320000007],[-73.23544359999994,44.157053900000051],[-73.235650699999951,44.157052600000043],[-73.235776299999941,44.157133300000055],[-73.235806499999967,44.157255500000076],[-73.235725999999943,44.157363300000043],[-73.235610700999985,44.157407800000044],[-73.235160100999963,44.15896470000007],[-73.233818799999938,44.159866500000078],[-73.233507900999939,44.160262100000068],[-73.232952099999977,44.161331500000074],[-73.232470699999965,44.161557800000026],[-73.233437100999936,44.16192250000006],[-73.235290798999984,44.162884000000076],[-73.235692499999971,44.163209700000039],[-73.236143199999958,44.163438400000075],[-73.240211499999987,44.164064600000074],[-73.24009491299995,44.163447637000047],[-73.239914250999959,44.162763240000061],[-73.239912244999971,44.162753490000057],[-73.239240722999966,44.158983343000045],[-73.238493099999971,44.155267500000036],[-73.238624099999981,44.155268700000079],[-73.238832999999943,44.156595400000072],[-73.239202799999987,44.155338000000029],[-73.239085499999987,44.155247300000042],[-73.238972200999967,44.155255600000032],[-73.235667900999943,44.152759500000059],[-73.232289299999934,44.150299800000028]]],[[[-73.243583998999952,44.14671020000003],[-73.234740599999952,44.147433000000035],[-73.233469399999933,44.147241600000029],[-73.232639199999937,44.147918000000061],[-73.233198700999935,44.148341500000072],[-73.232380099999943,44.149975500000039],[-73.238287599999978,44.154327200000068],[-73.239773499999956,44.153345000000058],[-73.239640899999984,44.151505600000064],[-73.239565399999947,44.15137720000007],[-73.239675199999965,44.151259700000026],[-73.239860199999953,44.15127190000004],[-73.239937199999986,44.151373000000035],[-73.23983100099997,44.151506500000039],[-73.239972400999989,44.152906300000041],[-73.241103499999952,44.15289260000003],[-73.241241799999955,44.153099900000029],[-73.241372399999989,44.153169100000071],[-73.241385299999934,44.153282700000034],[-73.241242599999964,44.153372700000034],[-73.241065399999968,44.153334400000062],[-73.24098609899994,44.153033200000039],[-73.239975699999945,44.153045500000076],[-73.239979999999946,44.15341090000004],[-73.238422398999944,44.15444240000005],[-73.239422299999944,44.155196700000033],[-73.241634086999966,44.155061020000062],[-73.243937424999956,44.154894838000075],[-73.244574991999968,44.152438837000034],[-73.247048799999959,44.152785900000026],[-73.24645339999995,44.148795600000028],[-73.24617429999995,44.147546300000045],[-73.246189500999947,44.147234500000025],[-73.244021499999974,44.147176000000059],[-73.243583998999952,44.14671020000003]]]]},"properties":{"District_Name":"Medium Density Residential District","OBJECTID":8,"OBJECT_ID":160,"County":"Addison","RPC":"ACRPC","Municipal_Name":"waltham","GEO_ID":"5000176075","Abbreviated_District_Name":"R-2.5","District_Type":"Primarily Residential","Bylaw_Date":"2019-09-09","Elderly_Housing_District":"No","District_Mapped":"Yes","Overlay_District":"No","Base_Density":0.40000000000000002,"FIPS6":1105,"GIS_ID":null,"Last_Update":"2026-07-16","F1F_Allowance":"Permitted","F1F_Front_Setback":50,"F1F_Side_Setback":25,"F1F_Rear_Setback":25,"F1F_Frontage":200,"F1F_Max_Height":35,"F1F_Max_Stories":null,"F1F_Min_Lot_Size":2.5,"F1F_Max_Lot_Building_Coverage":20,"F1F_Max_Lot_Impervious_Coverage":null,"F1F_Min_Parking_Spaces":1.5,"F1F_Elderly_Housing_Only":null,"F1F_Affordable_Housing_Only":null,"F2F_Allowance":"Permitted","F2F_Front_Setback":50,"F2F_Side_Setback":25,"F2F_Rear_Setback":25,"F2F_Frontage":200,"F2F_Max_Density":0.40000000000000002,"F2F_Max_Height":35,"F2F_Max_Stories":null,"F2F_Min_Lot_Size":5,"F2F_Max_Lot_Building_Coverage":10,"F2F_Max_Lot_Impervious_Coverage":null,"F2F_Min_Parking_Spaces_per_1BR":1.5,"F2F_Min_Parking_Spaces_per_mult_BR":1.5,"F2F_Elderly_Housing_Only":"No","F2F_Affordable_Housing_Only":"No","F3F_Allowance":"Public Hearing","F3F_Front_Setback":50,"F3F_Side_Setback":40,"F3F_Rear_Setback":40,"F3F_Frontage":200,"F3F_Max_Density":0.40000000000000002,"F3F_Max_Height":35,"F3F_Max_Stories":null,"F3F_Min_Lot_Size":7.5,"F3F_Max_Lot_Building_Coverage":20,"F3F_Max_Lot_Impervious_Coverage":null,"F3F_Min_Parking_Spaces_per_1BR":1.3,"F3F_Min_Parking_Spaces_per_mult_BR":1.3,"F3F_Affordable_Housing_Only":"No","F3F_Proximity_to_Public_Transit_Required":"No","F3F_Connection_to_Sewage_Water_Required":"No","F4F_Allowance":"Public Hearing","F4F_Front_Setback":50,"F4F_Side_Setback":40,"F4F_Rear_Setback":40,"F4F_Frontage":200,"F1F_Max_Density":null,"F4F_Max_Density":0.40000000000000002,"F4F_Max_Height":35,"F4F_Max_Stories":null,"F4F_Min_Lot_Size":10,"F4F_Max_Lot_Building_Coverage":20,"F4F_Max_Lot_Impervious_Coverage":null,"F4F_Min_Parking_Spaces_per_1BR":1.5800000000000001,"F4F_Min_Parking_Spaces_per_mult_BR":1.5800000000000001,"F3F_Elderly_Housing_Only":"No","F4F_Elderly_Housing_Only":"No","F4F_Affordable_Housing_Only":"No","F4F_Proximity_to_Public_Transit_Required":"No","F4F_Connection_to_Sewage_Water_Required":"No","ADU_Allowance":"Permitted","ADU_Elderly_Housing_Only":"No","ADU_Max_Size_as_Percent_of_Primary_Strcture":30,"ADU_Max_Size_in_sq_ft":null,"ADU_Min_Lot_Size":2.5,"ADU_Max_Bedrooms":1,"ADU_Min_Parking_Spaces":1.5,"ADU_Owner_Occupancy_Required":"Yes","ADU_Renter_Occupancy_Prohibited":"No","ADU_Employee_or_Family_Occupancy_Required":"No","ADU_Restricted_to_Primary_Structure":"No","Affordable_Housing_Allowance":"Not Mentioned","Affordable_Housing_District":"No","Affordable_Housing_Elderly_Only":"No","Affordable_Housing_Min_Lot_Size":null,"Affordable_Housing_Max_Density":null,"Affordable_Housing_Min_Parking_Spaces_per_mult_BR":null,"Affordable_Housing_Max_Units_per_Building":null,"Affordable_Housing_Min_Parking_Spaces_per_1BR":null,"PRD_Allowance":"Not Mentioned","PRD_Max_Density":null,"PRD_Max_Units":null,"PRD_Min_Lot_Size":null,"PRD_Mobile_or_Manufactured_Home_Park":"No","PUD_Allowance":"Public Hearing","PUD_Required_with_Subdivision":"No","PUD_Requires_Land_Conservation":"Yes","PUD_Threshold_Number":null,"Notes":" Minimum Lot Depth 100 Ft. In 4+ Unit Dwellings, At Least 1 Parking Spot Must Be Accessible. ","Shape_Length":0.15861964218171484,"Shape_Area":0.0002013055689012257}},{"type":"Feature","id":9,"geometry":{"type":"Polygon","coordinates":[[[-73.245007499999986,44.130714100000034],[-73.244317599999988,44.130800600000043],[-73.244431299999974,44.131277100000034],[-73.245145699999966,44.131182900000056],[-73.245007499999986,44.130714100000034]]]},"properties":{"District_Name":"Municipal District","OBJECTID":9,"OBJECT_ID":161,"County":"Addison","RPC":"ACRPC","Municipal_Name":"waltham","GEO_ID":"5000176075","Abbreviated_District_Name":"Mun","District_Type":"Nonresidential","Bylaw_Date":"2019-09-09","Elderly_Housing_District":"No","District_Mapped":"Yes","Overlay_District":"No","Base_Density":null,"FIPS6":1105,"GIS_ID":null,"Last_Update":"2026-07-16","F1F_Allowance":"Prohibited","F1F_Front_Setback":null,"F1F_Side_Setback":null,"F1F_Rear_Setback":null,"F1F_Frontage":null,"F1F_Max_Height":null,"F1F_Max_Stories":null,"F1F_Min_Lot_Size":null,"F1F_Max_Lot_Building_Coverage":null,"F1F_Max_Lot_Impervious_Coverage":null,"F1F_Min_Parking_Spaces":null,"F1F_Elderly_Housing_Only":null,"F1F_Affordable_Housing_Only":null,"F2F_Allowance":"Prohibited","F2F_Front_Setback":null,"F2F_Side_Setback":null,"F2F_Rear_Setback":null,"F2F_Frontage":null,"F2F_Max_Density":null,"F2F_Max_Height":null,"F2F_Max_Stories":null,"F2F_Min_Lot_Size":null,"F2F_Max_Lot_Building_Coverage":null,"F2F_Max_Lot_Impervious_Coverage":null,"F2F_Min_Parking_Spaces_per_1BR":null,"F2F_Min_Parking_Spaces_per_mult_BR":null,"F2F_Elderly_Housing_Only":"No","F2F_Affordable_Housing_Only":"No","F3F_Allowance":"Prohibited","F3F_Front_Setback":null,"F3F_Side_Setback":null,"F3F_Rear_Setback":null,"F3F_Frontage":null,"F3F_Max_Density":null,"F3F_Max_Height":null,"F3F_Max_Stories":null,"F3F_Min_Lot_Size":null,"F3F_Max_Lot_Building_Coverage":null,"F3F_Max_Lot_Impervious_Coverage":null,"F3F_Min_Parking_Spaces_per_1BR":null,"F3F_Min_Parking_Spaces_per_mult_BR":null,"F3F_Affordable_Housing_Only":"No","F3F_Proximity_to_Public_Transit_Required":"No","F3F_Connection_to_Sewage_Water_Required":"No","F4F_Allowance":"Prohibited","F4F_Front_Setback":null,"F4F_Side_Setback":null,"F4F_Rear_Setback":null,"F4F_Frontage":null,"F1F_Max_Density":null,"F4F_Max_Density":null,"F4F_Max_Height":null,"F4F_Max_Stories":null,"F4F_Min_Lot_Size":null,"F4F_Max_Lot_Building_Coverage":null,"F4F_Max_Lot_Impervious_Coverage":null,"F4F_Min_Parking_Spaces_per_1BR":null,"F4F_Min_Parking_Spaces_per_mult_BR":null,"F3F_Elderly_Housing_Only":"No","F4F_Elderly_Housing_Only":"No","F4F_Affordable_Housing_Only":"No","F4F_Proximity_to_Public_Transit_Required":"No","F4F_Connection_to_Sewage_Water_Required":"No","ADU_Allowance":"Prohibited","ADU_Elderly_Housing_Only":"No","ADU_Max_Size_as_Percent_of_Primary_Strcture":null,"ADU_Max_Size_in_sq_ft":null,"ADU_Min_Lot_Size":null,"ADU_Max_Bedrooms":null,"ADU_Min_Parking_Spaces":null,"ADU_Owner_Occupancy_Required":"No","ADU_Renter_Occupancy_Prohibited":"No","ADU_Employee_or_Family_Occupancy_Required":"No","ADU_Restricted_to_Primary_Structure":"No","Affordable_Housing_Allowance":"Not Mentioned","Affordable_Housing_District":"No","Affordable_Housing_Elderly_Only":"No","Affordable_Housing_Min_Lot_Size":null,"Affordable_Housing_Max_Density":null,"Affordable_Housing_Min_Parking_Spaces_per_mult_BR":null,"Affordable_Housing_Max_Units_per_Building":null,"Affordable_Housing_Min_Parking_Spaces_per_1BR":null,"PRD_Allowance":"Not Mentioned","PRD_Max_Density":null,"PRD_Max_Units":null,"PRD_Min_Lot_Size":null,"PRD_Mobile_or_Manufactured_Home_Park":"No","PUD_Allowance":"Public Hearing","PUD_Required_with_Subdivision":"No","PUD_Requires_Land_Conservation":"Yes","PUD_Threshold_Number":null,"Notes":" This District Is Comprised Of Town Hall Property. ","Shape_Length":0.0023945088541636444,"Shape_Area":3.4325077999961272e-07}}]}