{"type":"FeatureCollection","features":[{"type":"Feature","id":1,"geometry":{"type":"Polygon","coordinates":[[[-72.902998584999978,43.227653808000071],[-72.902379371999984,43.227692195000031],[-72.901636384999961,43.227749115000051],[-72.900992747999965,43.227841886000078],[-72.900324685999976,43.227989046000062],[-72.899582522999935,43.228172666000034],[-72.898841300999948,43.22850109400008],[-72.898224200999948,43.228865289000055],[-72.897607563999941,43.229301888000066],[-72.897235639999963,43.229799687000025],[-72.896916572999942,43.230271451000078],[-72.896450352999977,43.230979053000056],[-72.896008548999987,43.231632262000062],[-72.895689109999978,43.232049717000052],[-72.895393626999976,43.232340374000046],[-72.894777285999965,43.232831263000037],[-72.895309606999945,43.232697624000025],[-72.895806934999939,43.232496781000066],[-72.896290774999954,43.232266844000037],[-72.896765641999934,43.232024245000048],[-72.898333306999973,43.23212780800003],[-72.898673134999967,43.232130840000025],[-72.898785461999978,43.232130769000037],[-72.898757257999989,43.23256968000004],[-72.898728409999933,43.232910239000034],[-72.898750407999955,43.233106871000075],[-72.898845152999968,43.23334107800008],[-72.898946358999979,43.233493830000043],[-72.90136922399995,43.233610596000062],[-72.90184908599997,43.233631363000029],[-72.902148525999962,43.232867113000054],[-72.902528823999944,43.23186004400003],[-72.903897658999938,43.230804535000061],[-72.904053380999983,43.230526702000077],[-72.903398307999964,43.22942837100004],[-72.903401255999938,43.228493637000042],[-72.902928219999978,43.228155523000055],[-72.902861104999943,43.228093619000049],[-72.904030266999939,43.227512706000027],[-72.902998584999978,43.227653808000071]]]},"properties":{"District_Name":"Peru","Abbreviated_District_Name":"PVHD","OBJECTID":1,"OBJECT_ID":250,"County":"Bennington","RPC":"BCRC","Municipal_Name":"Peru","GEO_ID":"5000355000","District_Type":"Mixed with Residential","Bylaw_Date":"2024-01-17","Elderly_Housing_District":"No","District_Mapped":"Yes","Overlay_District":"No","Base_Density":"4","FIPS6":3030,"GIS_ID":"gakerste","Last_Update":"2026-06-25","F1F_Allowance":"Permitted","F1F_Front_Setback":55,"F1F_Side_Setback":25,"F1F_Rear_Setback":25,"F1F_Frontage":75,"F1F_Max_Density":null,"F1F_Max_Height":35,"F1F_Max_Stories":null,"F1F_Min_Lot_Size":0.25,"F1F_Max_Lot_Building_Coverage":35,"F1F_Max_Lot_Impervious_Coverage":null,"F1F_Min_Parking_Spaces":1,"F1F_Elderly_Housing_Only":null,"F1F_Affordable_Housing_Only":null,"F2F_Allowance":"Permitted","F2F_Front_Setback":55,"F2F_Side_Setback":25,"F2F_Rear_Setback":25,"F2F_Frontage":75,"F2F_Max_Density":null,"F2F_Max_Height":35,"F2F_Max_Stories":null,"F2F_Min_Lot_Size":0.25,"F2F_Max_Lot_Building_Coverage":35,"F2F_Max_Lot_Impervious_Coverage":null,"F2F_Min_Parking_Spaces_per_1BR":1,"F2F_Min_Parking_Spaces_per_mult_BR":1,"F2F_Elderly_Housing_Only":"No","F2F_Affordable_Housing_Only":"No","F3F_Allowance":"Prohibited","F3F_Front_Setback":null,"F3F_Side_Setback":null,"F3F_Rear_Setback":null,"F3F_Frontage":null,"F3F_Max_Density":null,"F3F_Max_Height":null,"F3F_Max_Stories":null,"F3F_Min_Lot_Size":null,"F3F_Max_Lot_Building_Coverage":null,"F3F_Max_Lot_Impervious_Coverage":null,"F3F_Min_Parking_Spaces_per_1BR":null,"F3F_Min_Parking_Spaces_per_mult_BR":null,"F3F_Affordable_Housing_Only":null,"F3F_Proximity_to_Public_Transit_Required":null,"F3F_Connection_to_Sewage_Water_Required":null,"F4F_Allowance":"Prohibited","F4F_Front_Setback":null,"F4F_Side_Setback":null,"F4F_Rear_Setback":null,"F4F_Frontage":null,"F4F_Max_Density":null,"F4F_Max_Height":null,"F4F_Max_Stories":null,"F4F_Min_Lot_Size":null,"F4F_Max_Lot_Building_Coverage":null,"F4F_Max_Lot_Impervious_Coverage":null,"F4F_Min_Parking_Spaces_per_1BR":null,"F4F_Min_Parking_Spaces_per_mult_BR":null,"F3F_Elderly_Housing_Only":null,"F4F_Elderly_Housing_Only":null,"F4F_Affordable_Housing_Only":null,"F4F_Proximity_to_Public_Transit_Required":null,"F4F_Connection_to_Sewage_Water_Required":null,"ADU_Allowance":"Permitted","ADU_Elderly_Housing_Only":null,"ADU_Max_Size_as_Percent_of_Primary_Strcture":40,"ADU_Max_Size_in_sq_ft":1000,"ADU_Min_Lot_Size":null,"ADU_Max_Bedrooms":1,"ADU_Min_Parking_Spaces":1,"ADU_Owner_Occupancy_Required":null,"ADU_Renter_Occupancy_Prohibited":null,"ADU_Employee_or_Family_Occupancy_Required":null,"ADU_Restricted_to_Primary_Structure":null,"Affordable_Housing_Allowance":"Not Mentioned","Affordable_Housing_District":"No","Affordable_Housing_Elderly_Only":null,"Affordable_Housing_Min_Lot_Size":null,"Affordable_Housing_Max_Density":null,"Affordable_Housing_Min_Parking_Spaces_per_mult_BR":null,"Affordable_Housing_Max_Units_per_Building":null,"Affordable_Housing_Min_Parking_Spaces_per_1BR":null,"PRD_Allowance":"Not Mentioned","PRD_Max_Density":null,"PRD_Max_Units":null,"PRD_Min_Lot_Size":null,"PRD_Mobile_or_Manufactured_Home_Park":null,"PUD_Allowance":"Public Hearing","PUD_Required_with_Subdivision":null,"PUD_Requires_Land_Conservation":"Yes","PUD_Threshold_Number":null,"Notes":"None","Shape_Length":0.027978464494594946,"Shape_Area":3.1159927819492667e-05}},{"type":"Feature","id":2,"geometry":{"type":"MultiPolygon","coordinates":[[[[-72.896843419999982,43.207007282000063],[-72.896838490999983,43.206607233000057],[-72.895918408999989,43.206584210000074],[-72.895586787999946,43.206575912000062],[-72.89565225399997,43.208275300000025],[-72.897286815999962,43.208263791000036],[-72.897305877999941,43.207188674000065],[-72.896843419999982,43.207007282000063]]],[[[-72.871617511999943,43.210773025000037],[-72.866979307999941,43.210882628000036],[-72.866791318999958,43.21409691000008],[-72.871375372999978,43.214207142000078],[-72.871617511999943,43.210773025000037]]],[[[-72.891533903999971,43.21593619600003],[-72.89353818099994,43.215962029000025],[-72.893782487999943,43.213205621000043],[-72.894206329999975,43.206525449000026],[-72.887968911999963,43.206271151000067],[-72.887109211999984,43.220733262000067],[-72.88050994799994,43.220493743000077],[-72.880822585999965,43.216235451000045],[-72.870459877999963,43.215939699000046],[-72.870127504999971,43.219796391000045],[-72.866456968999955,43.219672922000029],[-72.865880259999983,43.228483924000045],[-72.869303809999963,43.228159394000045],[-72.872736621999934,43.228994231000058],[-72.872789476999969,43.227402029000075],[-72.878601547999949,43.227560613000037],[-72.878699333999975,43.226953341000069],[-72.878118520999976,43.226834740000072],[-72.877907052999944,43.226201709000065],[-72.878055984999946,43.226189552000051],[-72.877900502999978,43.22521471400006],[-72.877416313999959,43.225227978000078],[-72.876832860999968,43.224068279000051],[-72.876780193999934,43.22329475600003],[-72.879438114999971,43.223191583000073],[-72.880590724999934,43.222845612000071],[-72.881601294999939,43.222764483000049],[-72.881877461999977,43.222993591000034],[-72.883221667999976,43.222654728000066],[-72.883909244999984,43.222831264000035],[-72.884291007999934,43.223598011000036],[-72.884522690999972,43.227717366000036],[-72.892962292999982,43.227952298000048],[-72.893164982999963,43.224484441000072],[-72.89335114499994,43.220969464000063],[-72.894217905999938,43.220931862000043],[-72.894232682999984,43.220876886000042],[-72.893364923999968,43.220428368000057],[-72.893455166999956,43.219590277000066],[-72.891250549999938,43.219558191000033],[-72.891359633999969,43.217954538000072],[-72.890261451999947,43.21809281000003],[-72.890608845999964,43.213628013000061],[-72.891722912999967,43.213653283000042],[-72.891533903999971,43.21593619600003]]],[[[-72.873494212999958,43.240823384000066],[-72.871888573999968,43.240731129000039],[-72.871711934999951,43.24253357200007],[-72.873299409999959,43.242567856000051],[-72.873494212999958,43.240823384000066]]],[[[-72.867337549999945,43.24491533500003],[-72.866938726999933,43.244460864000075],[-72.866209572999935,43.243954808000069],[-72.865626254999938,43.243770035000068],[-72.864901776999943,43.243427703000066],[-72.864535570999976,43.249018746000047],[-72.866215878999981,43.24906121600003],[-72.867202451999958,43.248339950000059],[-72.867337549999945,43.24491533500003]]],[[[-72.923954210999966,43.226503816000047],[-72.922071470999981,43.22579083100004],[-72.921208589999935,43.225546128000076],[-72.919861010999966,43.225029488000075],[-72.919569305999971,43.229140691000055],[-72.91303907799994,43.229070610000065],[-72.912815619999947,43.228919092000069],[-72.912627825999948,43.231949281000027],[-72.913300780999975,43.231953372000078],[-72.913507188999972,43.234592404000068],[-72.912452961999975,43.234573695000051],[-72.912108522999972,43.239547965000042],[-72.918842237999968,43.239851500000043],[-72.919104398999934,43.236489348000077],[-72.921646027999941,43.236564431000033],[-72.921407100999943,43.240528028000028],[-72.917344127999968,43.240466498000046],[-72.917126769999982,43.244421610000074],[-72.918733208999981,43.244439444000079],[-72.918633798999963,43.247754215000043],[-72.919359257999986,43.247810721000064],[-72.919996922999985,43.248187295000037],[-72.920449628999961,43.248200768000061],[-72.921203779999985,43.248334243000045],[-72.921369444999982,43.248308401000031],[-72.921702741999979,43.248042238000039],[-72.922143822999942,43.247871536000048],[-72.923192468999957,43.247740772000043],[-72.923531404999949,43.247756437000078],[-72.923070802999973,43.252732567000066],[-72.918283065999958,43.252703896000071],[-72.91740114199996,43.260270228000081],[-72.90806301899994,43.260147922000044],[-72.906575345999954,43.262205898000047],[-72.905672330999948,43.261945096000034],[-72.905533592999973,43.262185958000032],[-72.90512814899995,43.262226034000037],[-72.905149981999955,43.262497106000069],[-72.907151535999958,43.262622243000067],[-72.907794296999953,43.263129223000078],[-72.909017301999938,43.263480682000079],[-72.910407259999943,43.264503062000074],[-72.910200160999977,43.26785465200004],[-72.916773430999967,43.267996888000027],[-72.916526336999937,43.273685142000033],[-72.917075465999972,43.274042981000036],[-72.917590838999956,43.274294198000064],[-72.917899981999938,43.27453530300005],[-72.918272264999985,43.27466283900003],[-72.918526098999962,43.274828591000073],[-72.919461783999964,43.274980717000062],[-72.920590936999986,43.274984086000075],[-72.920923304999974,43.275058427000033],[-72.921474574999934,43.275091949000057],[-72.922398647999955,43.275507769000058],[-72.922898903999965,43.275648151000041],[-72.916221499999949,43.275596503000031],[-72.91581100999997,43.284128944000031],[-72.915293782999981,43.284189483000034],[-72.914803530999961,43.28408138900005],[-72.914396843999953,43.284224333000054],[-72.914268620999962,43.28417375600003],[-72.913833418999957,43.284179441000049],[-72.913641236999979,43.284129080000071],[-72.913523787999964,43.28419513700004],[-72.913326043999973,43.284206066000081],[-72.912724047999973,43.284130940000068],[-72.912579016999985,43.283959376000041],[-72.912376715999983,43.283888629000046],[-72.911745998999947,43.283932735000064],[-72.911180105999961,43.283876436000071],[-72.910869408999986,43.283731704000047],[-72.910033227999975,43.283550363000074],[-72.909331136999981,43.28374102500004],[-72.908942210999953,43.283528693000051],[-72.909574606999968,43.275514053000052],[-72.903151152999953,43.275404354000045],[-72.896427554999946,43.275061242000049],[-72.889867497999944,43.274808385000028],[-72.89021794599995,43.259320452000054],[-72.900705411999979,43.259785629000078],[-72.900670464999962,43.25776896900004],[-72.900028143999975,43.257612625000036],[-72.899675842999955,43.257622557000047],[-72.899329845999944,43.257503807000035],[-72.899071012999968,43.257504575000041],[-72.898512591999975,43.257306610000057],[-72.897744560999968,43.257305982000048],[-72.897840494999969,43.253559329000041],[-72.900120823999941,43.253948798000067],[-72.901432067999963,43.254098749000036],[-72.902390825999987,43.254294100000038],[-72.904437361999953,43.25448511500008],[-72.90454183199995,43.25227887300008],[-72.897834749999959,43.252332412000044],[-72.89800577699998,43.247271432000048],[-72.897079810999969,43.247617589000072],[-72.896591623999939,43.247272359000078],[-72.896683137999958,43.246492153000077],[-72.896636469999976,43.24547040300007],[-72.895832203999987,43.24461520300008],[-72.895162598999946,43.244423699000038],[-72.893919110999946,43.244185039000058],[-72.89390352199996,43.244430398000077],[-72.894185023999967,43.246603166000057],[-72.893076771999972,43.246518049000031],[-72.893196410999963,43.245891458000074],[-72.893406973999959,43.245306707000054],[-72.89112903399996,43.244779058000063],[-72.891030600999954,43.243636010000046],[-72.890592458999947,43.24377060900008],[-72.890036454999972,43.243609165000066],[-72.889680563999946,43.243652725000061],[-72.88949086599996,43.243780423000032],[-72.889043743999935,43.243806140000061],[-72.889065329999937,43.24302934800005],[-72.888290744999949,43.243080144000032],[-72.887548605999939,43.243046547000063],[-72.887169083999936,43.24299966600006],[-72.886723142999983,43.242874728000061],[-72.88638416799995,43.242719335000061],[-72.885274927999944,43.243588199000044],[-72.884484683999972,43.243457363000061],[-72.884145654999941,43.244046196000056],[-72.883351440999945,43.24421075600003],[-72.883360294999989,43.245367347000069],[-72.882370623999975,43.245440517000077],[-72.882082969999942,43.245420482000043],[-72.881699873999935,43.245747807000043],[-72.881453152999939,43.245856718000027],[-72.880982562999975,43.24548885400003],[-72.88089434799997,43.245511731000079],[-72.880745201999957,43.245680001000039],[-72.880597484999953,43.245727283000065],[-72.880142787999944,43.245557542000029],[-72.880239858999971,43.246538800000053],[-72.878639180999983,43.24634891900007],[-72.878720843999986,43.242700246000027],[-72.873299409999959,43.242567856000051],[-72.873150836999969,43.246534147000034],[-72.873195120999981,43.248860605000061],[-72.873286280999935,43.249642671000061],[-72.872069875999955,43.249811997000052],[-72.871348204999947,43.250032541000053],[-72.871218017999979,43.251609189000078],[-72.870370507999951,43.264742209000076],[-72.872322516999986,43.266788819000055],[-72.877247770999986,43.266879265000057],[-72.877199729999973,43.270715490000043],[-72.869862677999947,43.270618417000037],[-72.869895385999939,43.269086955000034],[-72.863652096999942,43.269276153000078],[-72.864551319999975,43.27137071900006],[-72.864262039999971,43.272239561000049],[-72.864419378999969,43.272901004000062],[-72.865643929999976,43.273236964000034],[-72.865836409999986,43.27348805400004],[-72.866763036999942,43.273728474000052],[-72.866834069999982,43.274052784000048],[-72.870162182999934,43.273882295000078],[-72.870192460999988,43.275404602000037],[-72.871970459999943,43.275438663000045],[-72.871944136999957,43.278143542000066],[-72.876209982999967,43.278153044000078],[-72.876204184999949,43.281815130000041],[-72.876719394999952,43.282244724000066],[-72.876931754999987,43.282350994000069],[-72.877061977999972,43.282343132000051],[-72.877392559999976,43.282147420000058],[-72.877853972999958,43.282044861000031],[-72.878622162999989,43.28217157000006],[-72.879073542999947,43.282441119000055],[-72.879712220999977,43.282691568000075],[-72.879920934999973,43.282885279000027],[-72.87994520899997,43.283185324000044],[-72.880098627999985,43.283306636000077],[-72.880407956999989,43.283340276000047],[-72.880824058999963,43.283150202000058],[-72.880946378999965,43.283179504000032],[-72.881804209999984,43.284210359000042],[-72.882007629999976,43.284374322000076],[-72.882074191999948,43.28459992900008],[-72.882260833999965,43.284748524000065],[-72.882203711999978,43.286193949000051],[-72.881440417999954,43.285780919000047],[-72.880640398999958,43.286052881000046],[-72.876131481999948,43.284855246000063],[-72.876237526999944,43.287517559000037],[-72.873809482999945,43.286606181000025],[-72.873605567999959,43.281911208000054],[-72.869339551999985,43.281828232000066],[-72.868587071999968,43.291224033000049],[-72.860977565999974,43.290993477000029],[-72.860618484999975,43.296228826000061],[-72.868584967999936,43.296264406000034],[-72.868490743999985,43.30053485600007],[-72.868647993999957,43.300537764000069],[-72.883760927999958,43.301130843000067],[-72.898874139999975,43.301721923000059],[-72.920182927999974,43.302363936000063],[-72.941492130999961,43.303001976000076],[-72.962153797999974,43.303674039000043],[-72.975296155999956,43.304167461000077],[-72.97588639199995,43.290559419000033],[-72.977340800999968,43.255253169000071],[-72.979587371999969,43.209647596000025],[-72.970343543999945,43.209246041000029],[-72.94780831099996,43.20826713200006],[-72.947466593999934,43.215617943000041],[-72.943091557999935,43.215464676000067],[-72.93400632099997,43.215142474000061],[-72.932237027999975,43.215087881000045],[-72.931731549999938,43.215431210000077],[-72.931659256999978,43.216189578000069],[-72.931635816999972,43.216435455000067],[-72.931298810999976,43.21668438100005],[-72.931219512999974,43.21748365600007],[-72.931546302999948,43.217500105000056],[-72.931499427999938,43.218007585000066],[-72.931082419999939,43.222522171000037],[-72.926443694999989,43.22234867800006],[-72.926235534999989,43.22729991600005],[-72.925513914999954,43.226927051000075],[-72.923954210999966,43.226503816000047]],[[-72.919425892999982,43.231181611000068],[-72.919569305999971,43.229140691000055],[-72.926139042999978,43.229839755000057],[-72.926072270999953,43.231372394000061],[-72.919425892999982,43.231181611000068]],[[-72.877245187999961,43.260193536000031],[-72.875664193999967,43.260309985000049],[-72.875285390999977,43.259697667000069],[-72.879933678999976,43.258186884000054],[-72.880612011999972,43.257571093000081],[-72.882163482999943,43.258962971000074],[-72.881021844999964,43.259319118000064],[-72.882536996999988,43.260316535000072],[-72.883013072999972,43.260648681000077],[-72.883166757999959,43.260858284000051],[-72.88327796699997,43.261928333000071],[-72.883775972999956,43.263051445000031],[-72.883963742999981,43.263298028000065],[-72.884644028999958,43.263790154000048],[-72.885136746999933,43.264072775000045],[-72.885088240999949,43.264431388000048],[-72.884921988999963,43.264914001000079],[-72.884604147999937,43.265520735000052],[-72.884385483999949,43.265743943000075],[-72.883904866999956,43.265701749000073],[-72.883919181999943,43.26333952400006],[-72.878599425999937,43.26234547100006],[-72.87844383099997,43.261822516000052],[-72.877587140999935,43.261687945000062],[-72.877245187999961,43.260193536000031]]]]},"properties":{"District_Name":"Forest Recreation","Abbreviated_District_Name":"Fr","OBJECTID":2,"OBJECT_ID":1545,"County":"Bennington","RPC":"BCRC","Municipal_Name":"Peru","GEO_ID":"5000355000","District_Type":"Nonresidential","Bylaw_Date":"2024-01-17","Elderly_Housing_District":"No","District_Mapped":"Yes","Overlay_District":"No","Base_Density":"0.04","FIPS6":null,"GIS_ID":"gakerste","Last_Update":"2026-06-25","F1F_Allowance":"Prohibited","F1F_Front_Setback":null,"F1F_Side_Setback":null,"F1F_Rear_Setback":null,"F1F_Frontage":null,"F1F_Max_Density":null,"F1F_Max_Height":null,"F1F_Max_Stories":null,"F1F_Min_Lot_Size":null,"F1F_Max_Lot_Building_Coverage":null,"F1F_Max_Lot_Impervious_Coverage":null,"F1F_Min_Parking_Spaces":null,"F1F_Elderly_Housing_Only":null,"F1F_Affordable_Housing_Only":null,"F2F_Allowance":"Prohibited","F2F_Front_Setback":null,"F2F_Side_Setback":null,"F2F_Rear_Setback":null,"F2F_Frontage":null,"F2F_Max_Density":null,"F2F_Max_Height":null,"F2F_Max_Stories":null,"F2F_Min_Lot_Size":null,"F2F_Max_Lot_Building_Coverage":null,"F2F_Max_Lot_Impervious_Coverage":null,"F2F_Min_Parking_Spaces_per_1BR":null,"F2F_Min_Parking_Spaces_per_mult_BR":null,"F2F_Elderly_Housing_Only":null,"F2F_Affordable_Housing_Only":null,"F3F_Allowance":"Prohibited","F3F_Front_Setback":null,"F3F_Side_Setback":null,"F3F_Rear_Setback":null,"F3F_Frontage":null,"F3F_Max_Density":null,"F3F_Max_Height":null,"F3F_Max_Stories":null,"F3F_Min_Lot_Size":null,"F3F_Max_Lot_Building_Coverage":null,"F3F_Max_Lot_Impervious_Coverage":null,"F3F_Min_Parking_Spaces_per_1BR":null,"F3F_Min_Parking_Spaces_per_mult_BR":null,"F3F_Affordable_Housing_Only":null,"F3F_Proximity_to_Public_Transit_Required":null,"F3F_Connection_to_Sewage_Water_Required":null,"F4F_Allowance":"Prohibited","F4F_Front_Setback":null,"F4F_Side_Setback":null,"F4F_Rear_Setback":null,"F4F_Frontage":null,"F4F_Max_Density":null,"F4F_Max_Height":null,"F4F_Max_Stories":null,"F4F_Min_Lot_Size":null,"F4F_Max_Lot_Building_Coverage":null,"F4F_Max_Lot_Impervious_Coverage":null,"F4F_Min_Parking_Spaces_per_1BR":null,"F4F_Min_Parking_Spaces_per_mult_BR":null,"F3F_Elderly_Housing_Only":null,"F4F_Elderly_Housing_Only":null,"F4F_Affordable_Housing_Only":null,"F4F_Proximity_to_Public_Transit_Required":null,"F4F_Connection_to_Sewage_Water_Required":null,"ADU_Allowance":"Prohibited","ADU_Elderly_Housing_Only":null,"ADU_Max_Size_as_Percent_of_Primary_Strcture":null,"ADU_Max_Size_in_sq_ft":null,"ADU_Min_Lot_Size":null,"ADU_Max_Bedrooms":null,"ADU_Min_Parking_Spaces":null,"ADU_Owner_Occupancy_Required":null,"ADU_Renter_Occupancy_Prohibited":null,"ADU_Employee_or_Family_Occupancy_Required":null,"ADU_Restricted_to_Primary_Structure":null,"Affordable_Housing_Allowance":"Not Mentioned","Affordable_Housing_District":"No","Affordable_Housing_Elderly_Only":null,"Affordable_Housing_Min_Lot_Size":null,"Affordable_Housing_Max_Density":null,"Affordable_Housing_Min_Parking_Spaces_per_mult_BR":null,"Affordable_Housing_Max_Units_per_Building":null,"Affordable_Housing_Min_Parking_Spaces_per_1BR":null,"PRD_Allowance":"Not Mentioned","PRD_Max_Density":null,"PRD_Max_Units":null,"PRD_Min_Lot_Size":null,"PRD_Mobile_or_Manufactured_Home_Park":null,"PUD_Allowance":"Prohibited","PUD_Required_with_Subdivision":null,"PUD_Requires_Land_Conservation":null,"PUD_Threshold_Number":null,"Notes":"None","Shape_Length":0.90789783315800421,"Shape_Area":0.0075906405442689581}},{"type":"Feature","id":3,"geometry":{"type":"MultiPolygon","coordinates":[[[[-72.860618484999975,43.296228826000061],[-72.860581915999944,43.296787058000064],[-72.859912958999985,43.300376017000076],[-72.859923021999975,43.300376201000063],[-72.86848785899997,43.300534805000041],[-72.868490743999985,43.30053485600007],[-72.868584967999936,43.296264406000034],[-72.860618484999975,43.296228826000061]]],[[[-72.880612011999972,43.257571093000081],[-72.879933678999976,43.258186884000054],[-72.875285390999977,43.259697667000069],[-72.875664193999967,43.260309985000049],[-72.877245187999961,43.260193536000031],[-72.877587140999935,43.261687945000062],[-72.87844383099997,43.261822516000052],[-72.878599425999937,43.26234547100006],[-72.883919181999943,43.26333952400006],[-72.883904866999956,43.265701749000073],[-72.884385483999949,43.265743943000075],[-72.884604147999937,43.265520735000052],[-72.884921988999963,43.264914001000079],[-72.885088240999949,43.264431388000048],[-72.885136746999933,43.264072775000045],[-72.884644028999958,43.263790154000048],[-72.883963742999981,43.263298028000065],[-72.883775972999956,43.263051445000031],[-72.88327796699997,43.261928333000071],[-72.883166757999959,43.260858284000051],[-72.883013072999972,43.260648681000077],[-72.882536996999988,43.260316535000072],[-72.881021835999945,43.259319123000068],[-72.882163482999943,43.258962971000074],[-72.880612011999972,43.257571093000081]]],[[[-72.867202451999958,43.248339950000059],[-72.866215878999981,43.24906121600003],[-72.864535570999976,43.249018746000047],[-72.864098599999977,43.255688921000058],[-72.863506014999984,43.262392085000045],[-72.863388479999969,43.263721622000048],[-72.863362732999974,43.264012877000027],[-72.862782988999982,43.270570776000056],[-72.862709033999977,43.271407314000044],[-72.862617886999942,43.272438355000077],[-72.862485193999987,43.273939376000044],[-72.862250261999975,43.276596827000049],[-72.860977565999974,43.290993477000029],[-72.868587071999968,43.291224033000049],[-72.869339551999985,43.281828232000066],[-72.873605567999959,43.281911208000054],[-72.873809482999945,43.286606181000025],[-72.876237526999944,43.287517559000037],[-72.876131481999948,43.284855246000063],[-72.880640398999958,43.286052881000046],[-72.881440417999954,43.285780919000047],[-72.882203711999978,43.286193949000051],[-72.882260833999965,43.284748524000065],[-72.882074191999948,43.28459992900008],[-72.882007629999976,43.284374322000076],[-72.881804209999984,43.284210359000042],[-72.880946378999965,43.283179504000032],[-72.880824058999963,43.283150202000058],[-72.880407956999989,43.283340276000047],[-72.880098627999985,43.283306636000077],[-72.87994520899997,43.283185324000044],[-72.879920934999973,43.282885279000027],[-72.879712220999977,43.282691568000075],[-72.879073542999947,43.282441119000055],[-72.878622162999989,43.28217157000006],[-72.877853972999958,43.282044861000031],[-72.877392559999976,43.282147420000058],[-72.877061977999972,43.282343132000051],[-72.876931754999987,43.282350994000069],[-72.876719394999952,43.282244724000066],[-72.876204184999949,43.281815130000041],[-72.876209982999967,43.278153044000078],[-72.871944136999957,43.278143542000066],[-72.871970459999943,43.275438663000045],[-72.87019245099998,43.275404601000048],[-72.870162182999934,43.273882295000078],[-72.866834069999982,43.274052784000048],[-72.866763036999942,43.273728474000052],[-72.865836409999986,43.27348805400004],[-72.865643929999976,43.273236964000034],[-72.864419378999969,43.272901004000062],[-72.864262039999971,43.272239561000049],[-72.864551319999975,43.27137071900006],[-72.863652096999942,43.269276153000078],[-72.869895385999939,43.269086955000034],[-72.869862677999947,43.270618417000037],[-72.877199729999973,43.270715490000043],[-72.877247770999986,43.266879265000057],[-72.872322516999986,43.266788819000055],[-72.870370507999951,43.264742209000076],[-72.871218017999979,43.251609189000078],[-72.869497125999942,43.25150456800003],[-72.867202451999958,43.248339950000059]]],[[[-72.919569305999971,43.229140691000055],[-72.919425892999982,43.231181611000068],[-72.926072270999953,43.231372394000061],[-72.926139042999978,43.229839755000057],[-72.919569305999971,43.229140691000055]]],[[[-72.894206329999975,43.206525449000026],[-72.893782487999943,43.213205621000043],[-72.89353818099994,43.215962029000025],[-72.891533903999971,43.21593619600003],[-72.891722912999967,43.213653283000042],[-72.890608845999964,43.213628013000061],[-72.890261451999947,43.21809281000003],[-72.891359633999969,43.217954538000072],[-72.891250549999938,43.219558191000033],[-72.893455166999956,43.219590277000066],[-72.893364923999968,43.220428368000057],[-72.894232682999984,43.220876886000042],[-72.894217905999938,43.220931862000043],[-72.89335114499994,43.220969464000063],[-72.893164982999963,43.224484441000072],[-72.894669748999945,43.224588370000049],[-72.896022418999962,43.224555313000053],[-72.903076419999934,43.224739056000033],[-72.902998584999978,43.227653808000071],[-72.904030266999939,43.227512706000027],[-72.902861104999943,43.228093619000049],[-72.903401255999938,43.228493637000042],[-72.903398306999975,43.22942837100004],[-72.904053381999972,43.230526702000077],[-72.903897658999938,43.230804535000061],[-72.902528823999944,43.23186004400003],[-72.902487505999943,43.231969458000037],[-72.90184908599997,43.233631363000029],[-72.899883631999955,43.233539000000064],[-72.898946359999968,43.233493830000043],[-72.898750407999955,43.233106871000075],[-72.898785461999978,43.232130769000037],[-72.896765641999934,43.232024245000048],[-72.895806935999985,43.232496781000066],[-72.895309606999945,43.232697624000025],[-72.894777285999965,43.232831263000037],[-72.893788878999942,43.23326912400006],[-72.892611189999968,43.233619028000078],[-72.892802832999962,43.230525944000078],[-72.892962292999982,43.227952298000048],[-72.884522690999972,43.227717366000036],[-72.884291007999934,43.223598011000036],[-72.883909244999984,43.222831264000035],[-72.883221667999976,43.222654728000066],[-72.881877461999977,43.222993591000034],[-72.881601294999939,43.222764483000049],[-72.880590724999934,43.222845612000071],[-72.879438114999971,43.223191583000073],[-72.876780193999934,43.22329475600003],[-72.876832860999968,43.224068279000051],[-72.877416313999959,43.225227978000078],[-72.877900502999978,43.22521471400006],[-72.878055984999946,43.226189552000051],[-72.877907052999944,43.226201709000065],[-72.878118520999976,43.226834740000072],[-72.878699333999975,43.226953341000069],[-72.878601547999949,43.227560613000037],[-72.872789476999969,43.227402029000075],[-72.872736621999934,43.228994231000058],[-72.869303809999963,43.228159394000045],[-72.865880259999983,43.228483924000045],[-72.865353823999953,43.23652471500003],[-72.866399731999934,43.236387456000045],[-72.867423487999986,43.236161662000029],[-72.868759731999944,43.235761485000069],[-72.870308601999966,43.235222121000049],[-72.872622100999934,43.234591932000058],[-72.872805942999946,43.234711253000057],[-72.874288733999947,43.234798071000057],[-72.874491802999955,43.235329149000052],[-72.875004162999971,43.235677345000056],[-72.875226121999958,43.23599004700003],[-72.875438459999941,43.237213543000053],[-72.875399907999963,43.237718205000078],[-72.875290552999957,43.237997453000048],[-72.874978321999947,43.238038757000027],[-72.875123663999943,43.23817464900003],[-72.876194031999944,43.237936302000037],[-72.876324627999963,43.238429352000026],[-72.876607985999954,43.238961761000041],[-72.877129664999984,43.239083633000064],[-72.879162637999968,43.239142500000071],[-72.878720843999986,43.242700246000027],[-72.878639180999983,43.24634891900007],[-72.880239858999971,43.246538800000053],[-72.880142787999944,43.245557542000029],[-72.880597484999953,43.245727283000065],[-72.880745201999957,43.245680001000039],[-72.88089434799997,43.245511731000079],[-72.880982562999975,43.24548885400003],[-72.881453152999939,43.245856718000027],[-72.881699873999935,43.245747807000043],[-72.882082969999942,43.245420482000043],[-72.882370623999975,43.245440517000077],[-72.883360294999989,43.245367347000069],[-72.883351440999945,43.24421075600003],[-72.884145654999941,43.244046196000056],[-72.884484683999972,43.243457363000061],[-72.885274927999944,43.243588199000044],[-72.88638416799995,43.242719335000061],[-72.886723142999983,43.242874728000061],[-72.887169083999936,43.24299966600006],[-72.887548605999939,43.243046547000063],[-72.888290744999949,43.243080144000032],[-72.889065329999937,43.24302934800005],[-72.889043743999935,43.243806140000061],[-72.88949086599996,43.243780423000032],[-72.889680563999946,43.243652725000061],[-72.890036454999972,43.243609165000066],[-72.890592458999947,43.24377060900008],[-72.891030600999954,43.243636010000046],[-72.89112903399996,43.244779058000063],[-72.893406973999959,43.245306707000054],[-72.893196410999963,43.245891458000074],[-72.893076771999972,43.246518049000031],[-72.894185023999967,43.246603166000057],[-72.89390352199996,43.244430398000077],[-72.893919110999946,43.244185039000058],[-72.895162598999946,43.244423699000038],[-72.895832203999987,43.24461520300008],[-72.896636469999976,43.24547040300007],[-72.896683137999958,43.246492153000077],[-72.896591623999939,43.247272359000078],[-72.897079810999969,43.247617589000072],[-72.89800577699998,43.247271432000048],[-72.897834749999959,43.252332412000044],[-72.90454183199995,43.25227887300008],[-72.904437361999953,43.25448511500008],[-72.902390825999987,43.254294100000038],[-72.901432067999963,43.254098749000036],[-72.900120823999941,43.253948798000067],[-72.897840494999969,43.253559329000041],[-72.897744560999968,43.257305982000048],[-72.898512591999975,43.257306610000057],[-72.899071012999968,43.257504575000041],[-72.899329845999944,43.257503807000035],[-72.899675842999955,43.257622557000047],[-72.900028143999975,43.257612625000036],[-72.900670464999962,43.25776896900004],[-72.900705411999979,43.259785629000078],[-72.89021794599995,43.259320452000054],[-72.889867497999944,43.274808385000028],[-72.896427554999946,43.275061242000049],[-72.903151152999953,43.275404354000045],[-72.909574606999968,43.275514053000052],[-72.908942210999953,43.283528693000051],[-72.909331136999981,43.28374102500004],[-72.910033227999975,43.283550363000074],[-72.910869408999986,43.283731704000047],[-72.911180105999961,43.283876436000071],[-72.911745998999947,43.283932735000064],[-72.912376715999983,43.283888629000046],[-72.912579016999985,43.283959376000041],[-72.912724047999973,43.284130940000068],[-72.913326043999973,43.284206066000081],[-72.913523787999964,43.28419513700004],[-72.913641236999979,43.284129080000071],[-72.913833418999957,43.284179441000049],[-72.914268620999962,43.28417375600003],[-72.914396843999953,43.284224333000054],[-72.914803530999961,43.28408138900005],[-72.915293782999981,43.284189483000034],[-72.91581100999997,43.284128944000031],[-72.916221499999949,43.275596503000031],[-72.922898903999965,43.275648151000041],[-72.922398647999955,43.275507769000058],[-72.921474574999934,43.275091949000057],[-72.920923304999974,43.275058427000033],[-72.920590936999986,43.274984086000075],[-72.919461783999964,43.274980717000062],[-72.918526098999962,43.274828591000073],[-72.918272264999985,43.27466283900003],[-72.917899981999938,43.27453530300005],[-72.917590838999956,43.274294198000064],[-72.917075465999972,43.274042981000036],[-72.916526336999937,43.273685142000033],[-72.916773430999967,43.267996888000027],[-72.910200160999977,43.26785465200004],[-72.910407259999943,43.264503062000074],[-72.909017301999938,43.263480682000079],[-72.907794296999953,43.263129223000078],[-72.907151535999958,43.262622243000067],[-72.905149981999955,43.262497106000069],[-72.90512814899995,43.262226034000037],[-72.905533592999973,43.262185958000032],[-72.905672330999948,43.261945096000034],[-72.906575345999954,43.262205898000047],[-72.90806301899994,43.260147922000044],[-72.91740114199996,43.260270228000081],[-72.918283065999958,43.252703896000071],[-72.923070802999973,43.252732567000066],[-72.923531404999949,43.247756437000078],[-72.923192468999957,43.247740772000043],[-72.922143822999942,43.247871536000048],[-72.921702741999979,43.248042238000039],[-72.921369444999982,43.248308401000031],[-72.921203779999985,43.248334243000045],[-72.920449628999961,43.248200768000061],[-72.919996922999985,43.248187295000037],[-72.919359257999986,43.247810721000064],[-72.918633798999963,43.247754215000043],[-72.918733208999981,43.244439444000079],[-72.917126769999982,43.244421610000074],[-72.917344127999968,43.240466498000046],[-72.921407100999943,43.240528028000028],[-72.921646027999941,43.236564431000033],[-72.919104398999934,43.236489348000077],[-72.918842237999968,43.239851500000043],[-72.912108522999972,43.239547965000042],[-72.912452961999975,43.234573695000051],[-72.913507188999972,43.234592404000068],[-72.913300780999975,43.231953372000078],[-72.912627825999948,43.231949281000027],[-72.912815619999947,43.228919092000069],[-72.91303907799994,43.229070610000065],[-72.919569305999971,43.229140691000055],[-72.919861010999966,43.225029488000075],[-72.921208589999935,43.225546128000076],[-72.922071470999981,43.22579083100004],[-72.923954210999966,43.226503816000047],[-72.925513914999954,43.226927051000075],[-72.926235534999989,43.22729991600005],[-72.926443694999989,43.22234867800006],[-72.931082410999977,43.222522172000026],[-72.931499427999938,43.218007585000066],[-72.931546302999948,43.217500105000056],[-72.931219512999974,43.21748365600007],[-72.931298810999976,43.21668438100005],[-72.931635816999972,43.216435455000067],[-72.931659256999978,43.216189578000069],[-72.931731549999938,43.215431210000077],[-72.932237027999975,43.215087881000045],[-72.930397256999981,43.215031092000061],[-72.930646963999948,43.212153973000056],[-72.933252445999983,43.212046933000067],[-72.933634200999961,43.21199585100004],[-72.934082850999971,43.211854481000046],[-72.934769759999938,43.211308971000051],[-72.935187301999974,43.210853237000038],[-72.935330263999958,43.21058806800005],[-72.93585655399994,43.210062021000056],[-72.93654460099998,43.209516204000067],[-72.937186001999976,43.209155195000051],[-72.938916510999945,43.208459943000037],[-72.939510815999938,43.208271100000047],[-72.939971422999974,43.207964824000044],[-72.930335554999942,43.207662227000071],[-72.927971242999945,43.207584168000039],[-72.922889011999985,43.207416376000026],[-72.912984995999977,43.207097559000033],[-72.907785978999982,43.206939349000038],[-72.896838490999983,43.206607233000057],[-72.896843419999982,43.207007282000063],[-72.897305877999941,43.207188674000065],[-72.897286815999962,43.208263791000036],[-72.89565225399997,43.208275300000025],[-72.895586787999946,43.206575912000062],[-72.895219165999947,43.206566710000061],[-72.894206329999975,43.206525449000026]]],[[[-72.867303449999952,43.205426179000028],[-72.866979307999941,43.210882628000036],[-72.871617511999943,43.210773025000037],[-72.871375372999978,43.214207142000078],[-72.866791318999958,43.21409691000008],[-72.866456968999955,43.219672922000029],[-72.870127504999971,43.219796391000045],[-72.870459877999963,43.215939699000046],[-72.880822585999965,43.216235451000045],[-72.88050994799994,43.220493743000077],[-72.887109211999984,43.220733262000067],[-72.887968911999963,43.206271151000067],[-72.867303449999952,43.205426179000028]]]]},"properties":{"District_Name":"Rural Residential-5","Abbreviated_District_Name":"Rr5","OBJECTID":3,"OBJECT_ID":1548,"County":"Bennington","RPC":"BCRC","Municipal_Name":"Peru","GEO_ID":"5000355000","District_Type":"Mixed with Residential","Bylaw_Date":"2024-01-17","Elderly_Housing_District":"No","District_Mapped":"Yes","Overlay_District":"No","Base_Density":"0.2","FIPS6":null,"GIS_ID":"gakerste","Last_Update":"2026-06-25","F1F_Allowance":"Permitted","F1F_Front_Setback":75,"F1F_Side_Setback":50,"F1F_Rear_Setback":50,"F1F_Frontage":200,"F1F_Max_Density":null,"F1F_Max_Height":35,"F1F_Max_Stories":null,"F1F_Min_Lot_Size":5,"F1F_Max_Lot_Building_Coverage":15,"F1F_Max_Lot_Impervious_Coverage":null,"F1F_Min_Parking_Spaces":1,"F1F_Elderly_Housing_Only":null,"F1F_Affordable_Housing_Only":null,"F2F_Allowance":"Permitted","F2F_Front_Setback":75,"F2F_Side_Setback":50,"F2F_Rear_Setback":50,"F2F_Frontage":200,"F2F_Max_Density":null,"F2F_Max_Height":35,"F2F_Max_Stories":null,"F2F_Min_Lot_Size":5,"F2F_Max_Lot_Building_Coverage":15,"F2F_Max_Lot_Impervious_Coverage":null,"F2F_Min_Parking_Spaces_per_1BR":1,"F2F_Min_Parking_Spaces_per_mult_BR":1,"F2F_Elderly_Housing_Only":"No","F2F_Affordable_Housing_Only":"No","F3F_Allowance":"Prohibited","F3F_Front_Setback":null,"F3F_Side_Setback":null,"F3F_Rear_Setback":null,"F3F_Frontage":null,"F3F_Max_Density":null,"F3F_Max_Height":null,"F3F_Max_Stories":null,"F3F_Min_Lot_Size":null,"F3F_Max_Lot_Building_Coverage":null,"F3F_Max_Lot_Impervious_Coverage":null,"F3F_Min_Parking_Spaces_per_1BR":null,"F3F_Min_Parking_Spaces_per_mult_BR":null,"F3F_Affordable_Housing_Only":null,"F3F_Proximity_to_Public_Transit_Required":null,"F3F_Connection_to_Sewage_Water_Required":null,"F4F_Allowance":"Prohibited","F4F_Front_Setback":null,"F4F_Side_Setback":null,"F4F_Rear_Setback":null,"F4F_Frontage":null,"F4F_Max_Density":null,"F4F_Max_Height":null,"F4F_Max_Stories":null,"F4F_Min_Lot_Size":null,"F4F_Max_Lot_Building_Coverage":null,"F4F_Max_Lot_Impervious_Coverage":null,"F4F_Min_Parking_Spaces_per_1BR":null,"F4F_Min_Parking_Spaces_per_mult_BR":null,"F3F_Elderly_Housing_Only":null,"F4F_Elderly_Housing_Only":null,"F4F_Affordable_Housing_Only":null,"F4F_Proximity_to_Public_Transit_Required":null,"F4F_Connection_to_Sewage_Water_Required":null,"ADU_Allowance":"Permitted","ADU_Elderly_Housing_Only":null,"ADU_Max_Size_as_Percent_of_Primary_Strcture":40,"ADU_Max_Size_in_sq_ft":1000,"ADU_Min_Lot_Size":null,"ADU_Max_Bedrooms":1,"ADU_Min_Parking_Spaces":1,"ADU_Owner_Occupancy_Required":null,"ADU_Renter_Occupancy_Prohibited":null,"ADU_Employee_or_Family_Occupancy_Required":null,"ADU_Restricted_to_Primary_Structure":null,"Affordable_Housing_Allowance":"Not Mentioned","Affordable_Housing_District":"No","Affordable_Housing_Elderly_Only":null,"Affordable_Housing_Min_Lot_Size":null,"Affordable_Housing_Max_Density":null,"Affordable_Housing_Min_Parking_Spaces_per_mult_BR":null,"Affordable_Housing_Max_Units_per_Building":null,"Affordable_Housing_Min_Parking_Spaces_per_1BR":null,"PRD_Allowance":"Not Mentioned","PRD_Max_Density":null,"PRD_Max_Units":null,"PRD_Min_Lot_Size":null,"PRD_Mobile_or_Manufactured_Home_Park":null,"PUD_Allowance":"Public Hearing","PUD_Required_with_Subdivision":null,"PUD_Requires_Land_Conservation":"Yes","PUD_Threshold_Number":null,"Notes":"Intersects With Route 11 Overlay","Shape_Length":0.8094653595901985,"Shape_Area":0.0028525016204787928}},{"type":"Feature","id":4,"geometry":{"type":"MultiPolygon","coordinates":[[[[-72.896022418999962,43.224555313000053],[-72.894669748999945,43.224588370000049],[-72.893164982999963,43.224484441000072],[-72.892962292999982,43.227952298000048],[-72.892802832999962,43.230525944000078],[-72.892611189999968,43.233619028000078],[-72.893788878999942,43.23326912400006],[-72.894777285999965,43.232831263000037],[-72.895689109999978,43.232049717000052],[-72.897607562999951,43.229301888000066],[-72.898224200999948,43.228865289000055],[-72.898841300999948,43.22850109400008],[-72.899582522999935,43.228172666000034],[-72.900992747999965,43.227841886000078],[-72.901636383999971,43.227749115000051],[-72.902998584999978,43.227653808000071],[-72.903076419999934,43.224739056000033],[-72.896022418999962,43.224555313000053]]],[[[-72.873195120999981,43.248860605000061],[-72.873150836999969,43.246534147000034],[-72.873299409999959,43.242567856000051],[-72.878720843999986,43.242700246000027],[-72.879162637999968,43.239142500000071],[-72.877129664999984,43.239083633000064],[-72.876607985999954,43.238961761000041],[-72.876324627999963,43.238429352000026],[-72.876194031999944,43.237936302000037],[-72.875123663999943,43.23817464900003],[-72.874978321999947,43.238038757000027],[-72.875290552999957,43.237997453000048],[-72.875399907999963,43.237718205000078],[-72.875438459999941,43.237213543000053],[-72.875226121999958,43.23599004700003],[-72.875004162999971,43.235677345000056],[-72.874491802999955,43.235329149000052],[-72.874288733999947,43.234798071000057],[-72.872805942999946,43.234711253000057],[-72.872622100999934,43.234591932000058],[-72.870308601999966,43.235222121000049],[-72.868759731999944,43.235761485000069],[-72.867423487999986,43.236161662000029],[-72.866399731999934,43.236387456000045],[-72.865353823999953,43.23652471500003],[-72.864901776999943,43.243427703000066],[-72.865626254999938,43.243770035000068],[-72.866209572999935,43.243954808000069],[-72.866938726999933,43.244460864000075],[-72.867337549999945,43.24491533500003],[-72.867202451999958,43.248339950000059],[-72.869497125999942,43.25150456800003],[-72.871218017999979,43.251609189000078],[-72.871348204999947,43.250032541000053],[-72.872069875999955,43.249811997000052],[-72.873286280999935,43.249642671000061],[-72.873195120999981,43.248860605000061]],[[-72.873494212999958,43.240823384000066],[-72.873299409999959,43.242567856000051],[-72.871711934999951,43.24253357200007],[-72.871888573999968,43.240731129000039],[-72.873494212999958,43.240823384000066]]]]},"properties":{"District_Name":"Rural Residential-2","Abbreviated_District_Name":"Rr2","OBJECTID":4,"OBJECT_ID":1549,"County":"Bennington","RPC":"BCRC","Municipal_Name":"Peru","GEO_ID":"5000355000","District_Type":"Mixed with Residential","Bylaw_Date":"2024-01-17","Elderly_Housing_District":"No","District_Mapped":"Yes","Overlay_District":"No","Base_Density":"0.5","FIPS6":null,"GIS_ID":"gakerste","Last_Update":"2026-06-25","F1F_Allowance":"Permitted","F1F_Front_Setback":75,"F1F_Side_Setback":25,"F1F_Rear_Setback":25,"F1F_Frontage":75,"F1F_Max_Density":null,"F1F_Max_Height":35,"F1F_Max_Stories":null,"F1F_Min_Lot_Size":2,"F1F_Max_Lot_Building_Coverage":15,"F1F_Max_Lot_Impervious_Coverage":null,"F1F_Min_Parking_Spaces":1,"F1F_Elderly_Housing_Only":null,"F1F_Affordable_Housing_Only":null,"F2F_Allowance":"Permitted","F2F_Front_Setback":75,"F2F_Side_Setback":25,"F2F_Rear_Setback":25,"F2F_Frontage":75,"F2F_Max_Density":null,"F2F_Max_Height":35,"F2F_Max_Stories":null,"F2F_Min_Lot_Size":2,"F2F_Max_Lot_Building_Coverage":15,"F2F_Max_Lot_Impervious_Coverage":null,"F2F_Min_Parking_Spaces_per_1BR":1,"F2F_Min_Parking_Spaces_per_mult_BR":1,"F2F_Elderly_Housing_Only":"No","F2F_Affordable_Housing_Only":"No","F3F_Allowance":"Prohibited","F3F_Front_Setback":null,"F3F_Side_Setback":null,"F3F_Rear_Setback":null,"F3F_Frontage":null,"F3F_Max_Density":null,"F3F_Max_Height":null,"F3F_Max_Stories":null,"F3F_Min_Lot_Size":null,"F3F_Max_Lot_Building_Coverage":null,"F3F_Max_Lot_Impervious_Coverage":null,"F3F_Min_Parking_Spaces_per_1BR":null,"F3F_Min_Parking_Spaces_per_mult_BR":null,"F3F_Affordable_Housing_Only":null,"F3F_Proximity_to_Public_Transit_Required":null,"F3F_Connection_to_Sewage_Water_Required":null,"F4F_Allowance":"Prohibited","F4F_Front_Setback":null,"F4F_Side_Setback":null,"F4F_Rear_Setback":null,"F4F_Frontage":null,"F4F_Max_Density":null,"F4F_Max_Height":null,"F4F_Max_Stories":null,"F4F_Min_Lot_Size":null,"F4F_Max_Lot_Building_Coverage":null,"F4F_Max_Lot_Impervious_Coverage":null,"F4F_Min_Parking_Spaces_per_1BR":null,"F4F_Min_Parking_Spaces_per_mult_BR":null,"F3F_Elderly_Housing_Only":null,"F4F_Elderly_Housing_Only":null,"F4F_Affordable_Housing_Only":null,"F4F_Proximity_to_Public_Transit_Required":null,"F4F_Connection_to_Sewage_Water_Required":null,"ADU_Allowance":"Permitted","ADU_Elderly_Housing_Only":null,"ADU_Max_Size_as_Percent_of_Primary_Strcture":40,"ADU_Max_Size_in_sq_ft":1000,"ADU_Min_Lot_Size":null,"ADU_Max_Bedrooms":1,"ADU_Min_Parking_Spaces":1,"ADU_Owner_Occupancy_Required":null,"ADU_Renter_Occupancy_Prohibited":null,"ADU_Employee_or_Family_Occupancy_Required":null,"ADU_Restricted_to_Primary_Structure":null,"Affordable_Housing_Allowance":"Not Mentioned","Affordable_Housing_District":"No","Affordable_Housing_Elderly_Only":null,"Affordable_Housing_Min_Lot_Size":null,"Affordable_Housing_Max_Density":null,"Affordable_Housing_Min_Parking_Spaces_per_mult_BR":null,"Affordable_Housing_Max_Units_per_Building":null,"Affordable_Housing_Min_Parking_Spaces_per_1BR":null,"PRD_Allowance":"Not Mentioned","PRD_Max_Density":null,"PRD_Max_Units":null,"PRD_Min_Lot_Size":null,"PRD_Mobile_or_Manufactured_Home_Park":null,"PUD_Allowance":"Public Hearing","PUD_Required_with_Subdivision":null,"PUD_Requires_Land_Conservation":"Yes","PUD_Threshold_Number":null,"Notes":"Intersects With Route 11 Overlay","Shape_Length":0.098049264597321883,"Shape_Area":0.00018716873917521326}},{"type":"Feature","id":5,"geometry":{"type":"Polygon","coordinates":[[[-72.930646963999948,43.212153973000056],[-72.930565400999967,43.211577633000047],[-72.929578902999936,43.210829032000049],[-72.927122569999938,43.211210059000052],[-72.924257833999945,43.212370802000066],[-72.922774882999988,43.213336135000077],[-72.921189172999959,43.214837956000054],[-72.920427656999948,43.215852483000049],[-72.919803305999949,43.216183370000067],[-72.918765323999935,43.216541711000048],[-72.917738916999951,43.216865412000061],[-72.916098054999964,43.217243223000025],[-72.914517284999988,43.217767795000043],[-72.91366841599995,43.218125403000045],[-72.912655177999966,43.218656544000055],[-72.911572668999952,43.219438694000075],[-72.910703652999985,43.220323834000055],[-72.910080423999943,43.220836797000061],[-72.909363350999968,43.22135279400004],[-72.908700154999963,43.221638902000052],[-72.907910332999961,43.222330797000041],[-72.906732240999986,43.222983534000036],[-72.906126056999938,43.223512627000048],[-72.905408291999947,43.223934023000027],[-72.904044672999987,43.224479298000062],[-72.903076419999934,43.224739056000033],[-72.90168020599998,43.224804005000067],[-72.899586595999949,43.22521533500003],[-72.898294603999943,43.225540826000042],[-72.897154346999969,43.225926651000066],[-72.896370126999955,43.226366574000053],[-72.895690910999974,43.226940528000057],[-72.894807441999944,43.227470520000054],[-72.894201979999934,43.22813466000008],[-72.893487033999975,43.229015355000058],[-72.893158613999958,43.229665025000031],[-72.893015483999989,43.23039512500003],[-72.892802832999962,43.230525944000078],[-72.892463326999973,43.230734802000029],[-72.89146709299996,43.230981418000056],[-72.890416020999965,43.231322793000061],[-72.888443701999961,43.232086137000067],[-72.886246353999979,43.232336780000026],[-72.886101258999986,43.232769630000064],[-72.886014153999952,43.233607622000079],[-72.885313759999974,43.233893720000026],[-72.883966180999948,43.23411443100008],[-72.883542696999939,43.234359054000038],[-72.883823523999979,43.234939097000051],[-72.88268003099995,43.235294220000071],[-72.882758429999967,43.236010055000065],[-72.883093593999945,43.236414271000058],[-72.883619067999973,43.237696079000045],[-72.886742224999978,43.237699074000034],[-72.888848053999936,43.237556823000034],[-72.890361575999975,43.237267932000066],[-72.89587550899995,43.235479009000073],[-72.897317557999941,43.234742090000054],[-72.899883631999955,43.233539000000064],[-72.900607454999943,43.233181036000076],[-72.902487505999943,43.231969458000037],[-72.904051003999939,43.230844556000079],[-72.904212389999941,43.230288554000026],[-72.904617820999988,43.230124986000078],[-72.905522228999985,43.229973159000053],[-72.906369851999955,43.229618858000038],[-72.90758700799995,43.229263236000065],[-72.90915313499994,43.228595592000033],[-72.911213417999988,43.227559727000028],[-72.912261532999935,43.226916061000054],[-72.914745153999945,43.225220877000027],[-72.915615883999976,43.22458646900003],[-72.916179750999959,43.224039644000072],[-72.916744727999969,43.223657110000033],[-72.917191041999956,43.223214475000077],[-72.917932362999977,43.222684289000028],[-72.918793388999973,43.222369839000066],[-72.920941490999951,43.221799886000042],[-72.921861547999981,43.221476550000034],[-72.922746960999973,43.22127439500008],[-72.923844057999986,43.220907153000041],[-72.924845411999968,43.220375957000044],[-72.925868769999965,43.219611197000063],[-72.926903081999967,43.218725325000037],[-72.927641603999973,43.217814607000037],[-72.928217063999966,43.217259032000072],[-72.928887338999971,43.216737687000034],[-72.929641940999943,43.216440850000026],[-72.931659256999978,43.216189578000069],[-72.934072684999933,43.216026352000029],[-72.936208658999988,43.215464805000067],[-72.936605431999965,43.215235011000061],[-72.93400632099997,43.215142474000061],[-72.932237027999975,43.215087881000045],[-72.930397256999981,43.215031092000061],[-72.930646963999948,43.212153973000056]]]},"properties":{"District_Name":"Route 11 Corridor Overlay","Abbreviated_District_Name":"R11","OBJECTID":5,"OBJECT_ID":1547,"County":"Bennington","RPC":"BCRC","Municipal_Name":"Peru","GEO_ID":"5000355000","District_Type":"Overlay","Bylaw_Date":"2024-01-17","Elderly_Housing_District":"No","District_Mapped":"Yes","Overlay_District":"Yes","Base_Density":null,"FIPS6":null,"GIS_ID":"gakerste","Last_Update":"2026-06-25","F1F_Allowance":null,"F1F_Front_Setback":100,"F1F_Side_Setback":100,"F1F_Rear_Setback":100,"F1F_Frontage":null,"F1F_Max_Density":null,"F1F_Max_Height":null,"F1F_Max_Stories":null,"F1F_Min_Lot_Size":null,"F1F_Max_Lot_Building_Coverage":null,"F1F_Max_Lot_Impervious_Coverage":null,"F1F_Min_Parking_Spaces":null,"F1F_Elderly_Housing_Only":null,"F1F_Affordable_Housing_Only":null,"F2F_Allowance":null,"F2F_Front_Setback":100,"F2F_Side_Setback":100,"F2F_Rear_Setback":100,"F2F_Frontage":null,"F2F_Max_Density":null,"F2F_Max_Height":null,"F2F_Max_Stories":null,"F2F_Min_Lot_Size":null,"F2F_Max_Lot_Building_Coverage":null,"F2F_Max_Lot_Impervious_Coverage":null,"F2F_Min_Parking_Spaces_per_1BR":null,"F2F_Min_Parking_Spaces_per_mult_BR":null,"F2F_Elderly_Housing_Only":null,"F2F_Affordable_Housing_Only":null,"F3F_Allowance":null,"F3F_Front_Setback":null,"F3F_Side_Setback":null,"F3F_Rear_Setback":null,"F3F_Frontage":null,"F3F_Max_Density":null,"F3F_Max_Height":null,"F3F_Max_Stories":null,"F3F_Min_Lot_Size":null,"F3F_Max_Lot_Building_Coverage":null,"F3F_Max_Lot_Impervious_Coverage":null,"F3F_Min_Parking_Spaces_per_1BR":null,"F3F_Min_Parking_Spaces_per_mult_BR":null,"F3F_Affordable_Housing_Only":null,"F3F_Proximity_to_Public_Transit_Required":null,"F3F_Connection_to_Sewage_Water_Required":null,"F4F_Allowance":null,"F4F_Front_Setback":null,"F4F_Side_Setback":null,"F4F_Rear_Setback":null,"F4F_Frontage":null,"F4F_Max_Density":null,"F4F_Max_Height":null,"F4F_Max_Stories":null,"F4F_Min_Lot_Size":null,"F4F_Max_Lot_Building_Coverage":null,"F4F_Max_Lot_Impervious_Coverage":null,"F4F_Min_Parking_Spaces_per_1BR":null,"F4F_Min_Parking_Spaces_per_mult_BR":null,"F3F_Elderly_Housing_Only":null,"F4F_Elderly_Housing_Only":null,"F4F_Affordable_Housing_Only":null,"F4F_Proximity_to_Public_Transit_Required":null,"F4F_Connection_to_Sewage_Water_Required":null,"ADU_Allowance":null,"ADU_Elderly_Housing_Only":null,"ADU_Max_Size_as_Percent_of_Primary_Strcture":null,"ADU_Max_Size_in_sq_ft":null,"ADU_Min_Lot_Size":null,"ADU_Max_Bedrooms":null,"ADU_Min_Parking_Spaces":null,"ADU_Owner_Occupancy_Required":null,"ADU_Renter_Occupancy_Prohibited":null,"ADU_Employee_or_Family_Occupancy_Required":null,"ADU_Restricted_to_Primary_Structure":null,"Affordable_Housing_Allowance":null,"Affordable_Housing_District":"No","Affordable_Housing_Elderly_Only":null,"Affordable_Housing_Min_Lot_Size":null,"Affordable_Housing_Max_Density":null,"Affordable_Housing_Min_Parking_Spaces_per_mult_BR":null,"Affordable_Housing_Max_Units_per_Building":null,"Affordable_Housing_Min_Parking_Spaces_per_1BR":null,"PRD_Allowance":"Not Mentioned","PRD_Max_Density":null,"PRD_Max_Units":null,"PRD_Min_Lot_Size":null,"PRD_Mobile_or_Manufactured_Home_Park":null,"PUD_Allowance":null,"PUD_Required_with_Subdivision":null,"PUD_Requires_Land_Conservation":null,"PUD_Threshold_Number":null,"Notes":"Overlays Rr-2 And Rr-5","Shape_Length":0.12853717064959178,"Shape_Area":0.00032745797957351016}},{"type":"Feature","id":6,"geometry":{"type":"Polygon","coordinates":[[[-72.93400632099997,43.215142474000061],[-72.943091557999935,43.215464676000067],[-72.943096152999942,43.215191870000069],[-72.942126059999964,43.215174227000034],[-72.941200895999941,43.214386199000046],[-72.940436056999943,43.214017672000068],[-72.940152844999943,43.214169123000033],[-72.93989776899997,43.214028589000065],[-72.939264416999947,43.213936341000078],[-72.939214850999974,43.213772906000031],[-72.938978342999974,43.213689788000067],[-72.938736577999975,43.213717251000048],[-72.938656988999981,43.213584888000071],[-72.939007056999969,43.213477407000028],[-72.939793597999937,43.213500914000065],[-72.940486500999953,43.213122345000045],[-72.941251757999964,43.213095539000051],[-72.941195660999938,43.212757256000032],[-72.940084652999985,43.212724494000042],[-72.939362338999956,43.212377906000029],[-72.938393406999978,43.212222423000071],[-72.937630709999951,43.212358314000028],[-72.937695670999972,43.211595137000074],[-72.937788156999943,43.211301009000067],[-72.938329110999973,43.210889956000074],[-72.939123952999978,43.210708336000039],[-72.940305518999935,43.210594344000071],[-72.941140440999959,43.210174378000033],[-72.941728115999979,43.209688245000052],[-72.94239689799997,43.209518610000032],[-72.94214892399998,43.209018427000046],[-72.941752126999972,43.208596526000065],[-72.942221307999944,43.208035360000054],[-72.939971422999974,43.207964824000044],[-72.939510815999938,43.208271100000047],[-72.938916510999945,43.208459943000037],[-72.937186001999976,43.209155195000051],[-72.93654460099998,43.209516204000067],[-72.93585655399994,43.210062021000056],[-72.935330263999958,43.21058806800005],[-72.935187301999974,43.210853237000038],[-72.934769759999938,43.211308971000051],[-72.934082850999971,43.211854481000046],[-72.933634200999961,43.21199585100004],[-72.933252445999983,43.212046933000067],[-72.930646963999948,43.212153973000056],[-72.930397256999981,43.215031092000061],[-72.932237027999975,43.215087881000045],[-72.93400632099997,43.215142474000061]]]},"properties":{"District_Name":"Bromley Resort","Abbreviated_District_Name":"Br","OBJECTID":6,"OBJECT_ID":1543,"County":"Bennington","RPC":"BCRC","Municipal_Name":"Peru","GEO_ID":"5000355000","District_Type":"Mixed with Residential","Bylaw_Date":"2024-01-17","Elderly_Housing_District":"No","District_Mapped":"Yes","Overlay_District":"No","Base_Density":"0.5","FIPS6":null,"GIS_ID":"gakerste","Last_Update":"2026-06-25","F1F_Allowance":"Permitted","F1F_Front_Setback":100,"F1F_Side_Setback":75,"F1F_Rear_Setback":75,"F1F_Frontage":25,"F1F_Max_Density":null,"F1F_Max_Height":25,"F1F_Max_Stories":null,"F1F_Min_Lot_Size":2,"F1F_Max_Lot_Building_Coverage":15,"F1F_Max_Lot_Impervious_Coverage":null,"F1F_Min_Parking_Spaces":1,"F1F_Elderly_Housing_Only":null,"F1F_Affordable_Housing_Only":null,"F2F_Allowance":"Permitted","F2F_Front_Setback":100,"F2F_Side_Setback":75,"F2F_Rear_Setback":75,"F2F_Frontage":25,"F2F_Max_Density":null,"F2F_Max_Height":25,"F2F_Max_Stories":null,"F2F_Min_Lot_Size":2,"F2F_Max_Lot_Building_Coverage":15,"F2F_Max_Lot_Impervious_Coverage":null,"F2F_Min_Parking_Spaces_per_1BR":1,"F2F_Min_Parking_Spaces_per_mult_BR":1,"F2F_Elderly_Housing_Only":"No","F2F_Affordable_Housing_Only":"No","F3F_Allowance":"Public Hearing","F3F_Front_Setback":100,"F3F_Side_Setback":75,"F3F_Rear_Setback":75,"F3F_Frontage":25,"F3F_Max_Density":null,"F3F_Max_Height":25,"F3F_Max_Stories":null,"F3F_Min_Lot_Size":2,"F3F_Max_Lot_Building_Coverage":15,"F3F_Max_Lot_Impervious_Coverage":null,"F3F_Min_Parking_Spaces_per_1BR":1,"F3F_Min_Parking_Spaces_per_mult_BR":1,"F3F_Affordable_Housing_Only":"No","F3F_Proximity_to_Public_Transit_Required":null,"F3F_Connection_to_Sewage_Water_Required":null,"F4F_Allowance":"Public Hearing","F4F_Front_Setback":100,"F4F_Side_Setback":75,"F4F_Rear_Setback":75,"F4F_Frontage":25,"F4F_Max_Density":null,"F4F_Max_Height":25,"F4F_Max_Stories":null,"F4F_Min_Lot_Size":2,"F4F_Max_Lot_Building_Coverage":15,"F4F_Max_Lot_Impervious_Coverage":null,"F4F_Min_Parking_Spaces_per_1BR":1,"F4F_Min_Parking_Spaces_per_mult_BR":1,"F3F_Elderly_Housing_Only":"No","F4F_Elderly_Housing_Only":"No","F4F_Affordable_Housing_Only":"No","F4F_Proximity_to_Public_Transit_Required":null,"F4F_Connection_to_Sewage_Water_Required":null,"ADU_Allowance":"Permitted","ADU_Elderly_Housing_Only":null,"ADU_Max_Size_as_Percent_of_Primary_Strcture":40,"ADU_Max_Size_in_sq_ft":1000,"ADU_Min_Lot_Size":null,"ADU_Max_Bedrooms":1,"ADU_Min_Parking_Spaces":1,"ADU_Owner_Occupancy_Required":null,"ADU_Renter_Occupancy_Prohibited":null,"ADU_Employee_or_Family_Occupancy_Required":null,"ADU_Restricted_to_Primary_Structure":null,"Affordable_Housing_Allowance":"Not Mentioned","Affordable_Housing_District":"No","Affordable_Housing_Elderly_Only":null,"Affordable_Housing_Min_Lot_Size":null,"Affordable_Housing_Max_Density":null,"Affordable_Housing_Min_Parking_Spaces_per_mult_BR":null,"Affordable_Housing_Max_Units_per_Building":null,"Affordable_Housing_Min_Parking_Spaces_per_1BR":null,"PRD_Allowance":"Not Mentioned","PRD_Max_Density":null,"PRD_Max_Units":null,"PRD_Min_Lot_Size":null,"PRD_Mobile_or_Manufactured_Home_Park":null,"PUD_Allowance":"Public Hearing","PUD_Required_with_Subdivision":null,"PUD_Requires_Land_Conservation":"Yes","PUD_Threshold_Number":null,"Notes":"None","Shape_Length":0.048611696969804087,"Shape_Area":4.7837817302211426e-05}},{"type":"Feature","id":7,"geometry":{"type":"Polygon","coordinates":[[[-72.943091557999935,43.215464676000067],[-72.947466593999934,43.215617943000041],[-72.94780831099996,43.20826713200006],[-72.947472746999949,43.208252507000054],[-72.943711421999978,43.208083763000047],[-72.943543697999985,43.208076797000047],[-72.942221307999944,43.208035360000054],[-72.941752126999972,43.208596526000065],[-72.94214892399998,43.209018427000046],[-72.94239689799997,43.209518610000032],[-72.941728115999979,43.209688245000052],[-72.941140440999959,43.210174378000033],[-72.940305518999935,43.210594344000071],[-72.939123952999978,43.210708336000039],[-72.938329110999973,43.210889956000074],[-72.937788156999943,43.211301009000067],[-72.937695670999972,43.211595137000074],[-72.937630709999951,43.212358314000028],[-72.938393406999978,43.212222423000071],[-72.939362338999956,43.212377906000029],[-72.940084652999985,43.212724494000042],[-72.941195660999938,43.212757256000032],[-72.941251757999964,43.213095539000051],[-72.940486500999953,43.213122345000045],[-72.939793597999937,43.213500914000065],[-72.939007056999969,43.213477407000028],[-72.938656988999981,43.213584888000071],[-72.938736577999975,43.213717251000048],[-72.938978342999974,43.213689788000067],[-72.939214850999974,43.213772906000031],[-72.939264416999947,43.213936341000078],[-72.93989776899997,43.214028589000065],[-72.940152844999943,43.214169123000033],[-72.940436056999943,43.214017672000068],[-72.941200895999941,43.214386199000046],[-72.942126059999964,43.215174227000034],[-72.943096152999942,43.215191870000069],[-72.943091557999935,43.215464676000067]]]},"properties":{"District_Name":"Bromley Village","Abbreviated_District_Name":"Bv","OBJECTID":7,"OBJECT_ID":1544,"County":"Bennington","RPC":"BCRC","Municipal_Name":"Peru","GEO_ID":"5000355000","District_Type":"Mixed with Residential","Bylaw_Date":"2024-01-17","Elderly_Housing_District":"No","District_Mapped":"Yes","Overlay_District":"No","Base_Density":"2","FIPS6":null,"GIS_ID":"gakerste","Last_Update":"2026-06-25","F1F_Allowance":"Permitted","F1F_Front_Setback":55,"F1F_Side_Setback":25,"F1F_Rear_Setback":25,"F1F_Frontage":50,"F1F_Max_Density":null,"F1F_Max_Height":35,"F1F_Max_Stories":null,"F1F_Min_Lot_Size":0.5,"F1F_Max_Lot_Building_Coverage":15,"F1F_Max_Lot_Impervious_Coverage":null,"F1F_Min_Parking_Spaces":null,"F1F_Elderly_Housing_Only":null,"F1F_Affordable_Housing_Only":null,"F2F_Allowance":"Permitted","F2F_Front_Setback":55,"F2F_Side_Setback":25,"F2F_Rear_Setback":25,"F2F_Frontage":50,"F2F_Max_Density":null,"F2F_Max_Height":35,"F2F_Max_Stories":null,"F2F_Min_Lot_Size":0.5,"F2F_Max_Lot_Building_Coverage":15,"F2F_Max_Lot_Impervious_Coverage":null,"F2F_Min_Parking_Spaces_per_1BR":1,"F2F_Min_Parking_Spaces_per_mult_BR":1,"F2F_Elderly_Housing_Only":"No","F2F_Affordable_Housing_Only":"No","F3F_Allowance":"Public Hearing","F3F_Front_Setback":55,"F3F_Side_Setback":25,"F3F_Rear_Setback":25,"F3F_Frontage":50,"F3F_Max_Density":null,"F3F_Max_Height":35,"F3F_Max_Stories":null,"F3F_Min_Lot_Size":0.5,"F3F_Max_Lot_Building_Coverage":15,"F3F_Max_Lot_Impervious_Coverage":null,"F3F_Min_Parking_Spaces_per_1BR":1,"F3F_Min_Parking_Spaces_per_mult_BR":1,"F3F_Affordable_Housing_Only":"No","F3F_Proximity_to_Public_Transit_Required":null,"F3F_Connection_to_Sewage_Water_Required":null,"F4F_Allowance":"Public Hearing","F4F_Front_Setback":55,"F4F_Side_Setback":25,"F4F_Rear_Setback":25,"F4F_Frontage":50,"F4F_Max_Density":null,"F4F_Max_Height":35,"F4F_Max_Stories":null,"F4F_Min_Lot_Size":0.5,"F4F_Max_Lot_Building_Coverage":15,"F4F_Max_Lot_Impervious_Coverage":null,"F4F_Min_Parking_Spaces_per_1BR":1,"F4F_Min_Parking_Spaces_per_mult_BR":1,"F3F_Elderly_Housing_Only":"No","F4F_Elderly_Housing_Only":"No","F4F_Affordable_Housing_Only":"No","F4F_Proximity_to_Public_Transit_Required":null,"F4F_Connection_to_Sewage_Water_Required":null,"ADU_Allowance":"Permitted","ADU_Elderly_Housing_Only":null,"ADU_Max_Size_as_Percent_of_Primary_Strcture":40,"ADU_Max_Size_in_sq_ft":1000,"ADU_Min_Lot_Size":null,"ADU_Max_Bedrooms":1,"ADU_Min_Parking_Spaces":1,"ADU_Owner_Occupancy_Required":null,"ADU_Renter_Occupancy_Prohibited":null,"ADU_Employee_or_Family_Occupancy_Required":null,"ADU_Restricted_to_Primary_Structure":null,"Affordable_Housing_Allowance":"Not Mentioned","Affordable_Housing_District":"No","Affordable_Housing_Elderly_Only":null,"Affordable_Housing_Min_Lot_Size":null,"Affordable_Housing_Max_Density":null,"Affordable_Housing_Min_Parking_Spaces_per_mult_BR":null,"Affordable_Housing_Max_Units_per_Building":null,"Affordable_Housing_Min_Parking_Spaces_per_1BR":null,"PRD_Allowance":"Not Mentioned","PRD_Max_Density":null,"PRD_Max_Units":null,"PRD_Min_Lot_Size":null,"PRD_Mobile_or_Manufactured_Home_Park":null,"PUD_Allowance":"Public Hearing","PUD_Required_with_Subdivision":null,"PUD_Requires_Land_Conservation":"Yes","PUD_Threshold_Number":null,"Notes":"None","Shape_Length":0.037439605257363701,"Shape_Area":5.3134317216400157e-05}}]}