{"type":"FeatureCollection","features":[{"type":"Feature","id":1,"geometry":{"type":"MultiPolygon","coordinates":[[[[-73.099725863999936,42.742686186000071],[-73.099611275999962,42.745170816000041],[-73.10149224099996,42.745214614000076],[-73.101568604999954,42.750703477000059],[-73.095658527999944,42.75062562100004],[-73.095442717999958,42.751408208000043],[-73.095172415999969,42.751842314000044],[-73.09480362499994,42.752236597000035],[-73.094410582999956,42.752530223000065],[-73.094382348999943,42.753370331000042],[-73.094228840999961,42.754083950000052],[-73.09259990299995,42.758122294000032],[-73.093831500999954,42.761523929000077],[-73.09477531999994,42.762607183000057],[-73.095053579999956,42.763039264000042],[-73.095225979999952,42.763500132000047],[-73.095287043999974,42.76397615500008],[-73.095379363999939,42.771263058000045],[-73.098310707999985,42.771019739000053],[-73.102433276999989,42.770885460000045],[-73.103201480999985,42.77091907700003],[-73.105312867999942,42.771174607000034],[-73.107574883999973,42.770197292000034],[-73.111539773999937,42.774845740000046],[-73.10830008399995,42.783509136000077],[-73.105029978999937,42.782946193000043],[-73.104189577999989,42.782651380000061],[-73.102380723999943,42.782756925000058],[-73.101733012999944,42.782718678000037],[-73.096247786999982,42.781423478000079],[-73.095330753999974,42.776791510000066],[-73.092609434999986,42.777023820000068],[-73.090311679999957,42.777706855000076],[-73.089685833999965,42.777833577000081],[-73.089040498999964,42.777878603000033],[-73.088392081999984,42.777840249000064],[-73.087182156999972,42.777625098000044],[-73.084085920999939,42.777711770000053],[-73.083437889999971,42.77767336800008],[-73.08259374499994,42.777490257000068],[-73.081038545999945,42.776980536000053],[-73.07626146399997,42.774571903000037],[-73.07208114599996,42.773609450000038],[-73.070689691999974,42.773695794000048],[-73.070041710999988,42.773657333000074],[-73.069413977999943,42.773536431000025],[-73.068824477999954,42.773337147000063],[-73.06828930599994,42.773065432000067],[-73.067827248999947,42.772729406000053],[-73.066745885999978,42.771477225000069],[-73.064247995999949,42.772542685000076],[-73.06427333299996,42.77381908600006],[-73.06440033399997,42.774684686000057],[-73.064208580999946,42.775351278000073],[-73.063899700999968,42.77577748200008],[-73.061854989999972,42.777826652000044],[-73.056537602999981,42.777307918000076],[-73.05171534599998,42.782523643000047],[-73.04919208299998,42.785290927000062],[-73.047510503999945,42.788546225000061],[-73.046900509999944,42.789497859000051],[-73.045977208999943,42.79048384500004],[-73.03734338299995,42.797589973000072],[-73.036469920999934,42.798495015000071],[-73.033521857999972,42.801550755000051],[-73.032150712999965,42.802971587000059],[-73.030653871999959,42.805024958000047],[-73.029730084999983,42.806010814000047],[-73.027523691999988,42.807626392000032],[-73.024038189999942,42.812703880000072],[-73.023053429999948,42.813734970000041],[-73.022998098999949,42.81410648700006],[-73.023037319999958,42.814407666000079],[-73.023180828999955,42.814705626000034],[-73.024845175999985,42.814691434000054],[-73.025410842999975,42.814799116000074],[-73.028241399999956,42.816402034000077],[-73.028576422999947,42.816749564000077],[-73.028630476999979,42.81717388900006],[-73.028248333999954,42.818338676000053],[-73.028345320999961,42.819451635000064],[-73.028100414999983,42.820399739000038],[-73.028008123999939,42.821364826000035],[-73.02757180499998,42.822499548000053],[-73.027567495999961,42.82316125400007],[-73.027423935999934,42.823446500000045],[-73.026847576999955,42.824069626000039],[-73.026512495999953,42.824214040000072],[-73.026130763999959,42.824265376000028],[-73.022251971999935,42.823972596000033],[-73.01914525799998,42.823368605000041],[-73.018071841999983,42.82333204300005],[-73.016847148999943,42.823577819000036],[-73.016458884999963,42.823579571000039],[-73.015402215999984,42.823231578000048],[-73.015172103999987,42.83208916600006],[-73.025253155999962,42.832416410000064],[-73.041531753999948,42.832894113000066],[-73.066749732999938,42.833664530000078],[-73.087248667999972,42.834247321000078],[-73.10774794699995,42.834826439000039],[-73.124457448999976,42.835227319000069],[-73.137112545999969,42.835596000000066],[-73.139650095999968,42.792836239000053],[-73.142184507999957,42.750076127000057],[-73.142666112999962,42.743590761000064],[-73.142669684999987,42.743544623000048],[-73.121197649999942,42.743117418000054],[-73.099725863999936,42.742686186000071]]],[[[-73.018654955999978,42.741049364000048],[-73.018497775999947,42.743357564000064],[-73.018370092999987,42.746957396000028],[-73.018095954999978,42.750104448000059],[-73.017043519999959,42.779330066000057],[-73.016930098999978,42.78236675800008],[-73.016429237999944,42.795580951000034],[-73.022875325999962,42.788918335000062],[-73.030707141999983,42.782472509000058],[-73.032038191999959,42.779896703000077],[-73.032648697999946,42.778944546000048],[-73.033792791999986,42.777561367000033],[-73.042751158999977,42.767836242000044],[-73.043273604999968,42.767325320000054],[-73.044827698999939,42.766203817000076],[-73.044934858999966,42.764403389000051],[-73.045131630999947,42.760675583000079],[-73.044516818999966,42.760440285000072],[-73.04503965899994,42.760113404000037],[-73.047018708999985,42.759585800000025],[-73.047445907999986,42.759282116000065],[-73.047660837999956,42.759064844000079],[-73.047881687999961,42.758523043000025],[-73.048185027999978,42.757508779000034],[-73.048217490999946,42.756990754000071],[-73.048891266999988,42.756469657000025],[-73.050228422999965,42.755636519000063],[-73.050550029999954,42.755354852000039],[-73.050893825999935,42.754906449000032],[-73.051087351999968,42.754387666000071],[-73.050985798999989,42.753352449000033],[-73.051044185999956,42.752316445000076],[-73.05163046399997,42.750373939000042],[-73.051895291999983,42.749891645000048],[-73.051894668999978,42.749649310000052],[-73.051658557999986,42.749065641000072],[-73.051287119999984,42.748630560000038],[-73.051357609999968,42.74848718800007],[-73.051551510999957,42.74835771000005],[-73.051747619999958,42.748262014000034],[-73.052347869999949,42.748114576000035],[-73.052656715999944,42.74790549100004],[-73.053368598999953,42.746577099000035],[-73.053773271999944,42.745042593000051],[-73.053877943999964,42.743509536000033],[-73.054219133999936,42.741776517000062],[-73.036436954999942,42.741414322000026],[-73.018654955999978,42.741049364000048]]]]},"properties":{"District_Name":"Forest District","OBJECTID":1,"OBJECT_ID":285,"County":"Bennington","RPC":"BCRC","Municipal_Name":"Stamford","GEO_ID":"5000369775","Abbreviated_District_Name":"For","District_Type":"Primarily Residential","Bylaw_Date":"2020-10-23","Elderly_Housing_District":"No","District_Mapped":"Yes","Overlay_District":"No","Base_Density":"0.2","FIPS6":3065,"GIS_ID":"gakerste","Last_Update":"2026-07-09","F1F_Allowance":"Permitted","F1F_Front_Setback":50,"F1F_Side_Setback":25,"F1F_Rear_Setback":25,"F1F_Frontage":150,"F1F_Max_Height":35,"F1F_Max_Stories":null,"F1F_Min_Lot_Size":5,"F1F_Max_Lot_Building_Coverage":5,"F1F_Max_Lot_Impervious_Coverage":null,"F1F_Min_Parking_Spaces":"1","F1F_Elderly_Housing_Only":null,"F1F_Affordable_Housing_Only":null,"F2F_Allowance":"Permitted","F2F_Front_Setback":50,"F2F_Side_Setback":25,"F2F_Rear_Setback":25,"F2F_Frontage":150,"F2F_Max_Density":"0.4","F2F_Max_Height":35,"F2F_Max_Stories":null,"F2F_Min_Lot_Size":5,"F2F_Max_Lot_Building_Coverage":5,"F2F_Max_Lot_Impervious_Coverage":null,"F2F_Min_Parking_Spaces_per_1BR":"1","F2F_Min_Parking_Spaces_per_mult_BR":"1","F2F_Elderly_Housing_Only":"No","F2F_Affordable_Housing_Only":"No","F3F_Allowance":"Prohibited","F3F_Front_Setback":null,"F3F_Side_Setback":null,"F3F_Rear_Setback":null,"F3F_Frontage":null,"F3F_Max_Density":null,"F3F_Max_Height":null,"F3F_Max_Stories":null,"F3F_Min_Lot_Size":null,"F3F_Max_Lot_Building_Coverage":null,"F3F_Max_Lot_Impervious_Coverage":null,"F3F_Min_Parking_Spaces_per_1BR":null,"F3F_Min_Parking_Spaces_per_mult_BR":null,"F3F_Affordable_Housing_Only":"No","F3F_Proximity_to_Public_Transit_Required":"No","F3F_Connection_to_Sewage_Water_Required":"No","F4F_Allowance":"Prohibited","F4F_Front_Setback":null,"F4F_Side_Setback":null,"F4F_Rear_Setback":null,"F4F_Frontage":null,"F1F_Max_Density":null,"F4F_Max_Density":null,"F4F_Max_Height":null,"F4F_Max_Stories":null,"F4F_Min_Lot_Size":null,"F4F_Max_Lot_Building_Coverage":null,"F4F_Max_Lot_Impervious_Coverage":null,"F4F_Min_Parking_Spaces_per_1BR":null,"F4F_Min_Parking_Spaces_per_mult_BR":null,"F3F_Elderly_Housing_Only":"No","F4F_Elderly_Housing_Only":"No","F4F_Affordable_Housing_Only":"No","F4F_Proximity_to_Public_Transit_Required":"No","F4F_Connection_to_Sewage_Water_Required":"No","ADU_Allowance":"Permitted","ADU_Elderly_Housing_Only":"No","ADU_Max_Size_as_Percent_of_Primary_Strcture":30,"ADU_Max_Size_in_sq_ft":null,"ADU_Min_Lot_Size":null,"ADU_Max_Bedrooms":1,"ADU_Min_Parking_Spaces":null,"ADU_Owner_Occupancy_Required":"Yes","ADU_Renter_Occupancy_Prohibited":"No","ADU_Employee_or_Family_Occupancy_Required":"No","ADU_Restricted_to_Primary_Structure":"No","Affordable_Housing_Allowance":"Not Mentioned","Affordable_Housing_District":"No","Affordable_Housing_Elderly_Only":"No","Affordable_Housing_Min_Lot_Size":null,"Affordable_Housing_Max_Density":null,"Affordable_Housing_Min_Parking_Spaces_per_mult_BR":null,"Affordable_Housing_Max_Units_per_Building":null,"Affordable_Housing_Min_Parking_Spaces_per_1BR":null,"PRD_Allowance":"Not Mentioned","PRD_Max_Density":null,"PRD_Max_Units":null,"PRD_Min_Lot_Size":null,"PRD_Mobile_or_Manufactured_Home_Park":"No","PUD_Allowance":"Permitted","PUD_Required_with_Subdivision":"No","PUD_Requires_Land_Conservation":"No","PUD_Threshold_Number":null,"Notes":" Mobile Homes Are Permitted As One-Family Dwellings, But Mobile Home Parks Are not Permitted In The Forest District.\r\nSpecial Limitation - Elevation And Slope: All Buildings And Structures Must Be Located Below 2,500 Feet In Elevation And On Slopes Less Than 25 Percent.  ","Shape_Length":0.63077891091155314,"Shape_Area":0.0086185788198315898}},{"type":"Feature","id":2,"geometry":{"type":"Polygon","coordinates":[[[-73.015402215999984,42.823231578000048],[-73.016458884999963,42.823579571000039],[-73.016847148999943,42.823577819000036],[-73.018071841999983,42.82333204300005],[-73.01914525799998,42.823368605000041],[-73.022251971999935,42.823972596000033],[-73.026130763999959,42.824265376000028],[-73.026512495999953,42.824214040000072],[-73.026847576999955,42.824069626000039],[-73.027423935999934,42.823446500000045],[-73.027567495999961,42.82316125400007],[-73.02757180499998,42.822499548000053],[-73.028008123999939,42.821364826000035],[-73.028100414999983,42.820399739000038],[-73.028345320999961,42.819451635000064],[-73.028248333999954,42.818338676000053],[-73.028630476999979,42.81717388900006],[-73.028576422999947,42.816749564000077],[-73.028241399999956,42.816402034000077],[-73.025410842999975,42.814799116000074],[-73.024845175999985,42.814691434000054],[-73.023180828999955,42.814705626000034],[-73.023037319999958,42.814407666000079],[-73.022998098999949,42.81410648700006],[-73.023053429999948,42.813734970000041],[-73.023096744999975,42.812844587000029],[-73.023379072999944,42.812386618000062],[-73.023393079999948,42.812235347000069],[-73.023299971999961,42.812068602000068],[-73.023377448999952,42.81174100800007],[-73.023313262999977,42.811288490000038],[-73.023049727999933,42.810485064000034],[-73.02341041699998,42.810304183000028],[-73.023906079999961,42.809863699000061],[-73.024167462999969,42.809325614000045],[-73.024199047999957,42.809039161000044],[-73.023808656999961,42.806650334000039],[-73.022790684999961,42.804498460000048],[-73.024848204999955,42.803031169000064],[-73.02514390999994,42.802715936000027],[-73.026859982999952,42.800371802000029],[-73.029916972999956,42.797604007000075],[-73.031884596999987,42.798888232000081],[-73.032220678999977,42.799591014000043],[-73.033521857999972,42.801550755000051],[-73.036469920999934,42.798495015000071],[-73.035885594999968,42.797361378000062],[-73.035491286999957,42.796864626000058],[-73.033584542999961,42.795598218000066],[-73.033422387999963,42.795042356000067],[-73.032929966999973,42.794147569000074],[-73.034899461999942,42.792284429000063],[-73.037589028999946,42.790796897000064],[-73.041096552999988,42.787505336000038],[-73.04158192899996,42.786883813000031],[-73.043042955999965,42.784013643000037],[-73.045065015999967,42.784643152000058],[-73.046105719999957,42.782770590000041],[-73.048307620999935,42.781276109000032],[-73.048521498999946,42.780974675000039],[-73.05171534599998,42.782523643000047],[-73.056537602999981,42.777307918000076],[-73.061854989999972,42.777826652000044],[-73.063899700999968,42.77577748200008],[-73.064208580999946,42.775351278000073],[-73.06440033399997,42.774684686000057],[-73.06427333299996,42.77381908600006],[-73.064247995999949,42.772542685000076],[-73.064172658999951,42.768744474000073],[-73.064542849999953,42.767967939000073],[-73.065903310999943,42.76641978400005],[-73.066863897999951,42.765953463000073],[-73.067228712999963,42.765681224000048],[-73.068695391999938,42.764154259000065],[-73.068916660999946,42.76380154900005],[-73.070734834999939,42.756987848000051],[-73.071746098999938,42.757112333000066],[-73.072833865999939,42.757086854000079],[-73.074237221999965,42.757420466000042],[-73.075365362999946,42.757384720000061],[-73.075706790999959,42.757523259000038],[-73.075981094999975,42.757792401000074],[-73.076160625999989,42.758092085000044],[-73.07615412499996,42.758873635000043],[-73.076319647999981,42.759103253000035],[-73.076962414999969,42.759500771000035],[-73.077032039999949,42.759680779000064],[-73.076980703999936,42.760031717000061],[-73.077166767999984,42.760211315000049],[-73.078947262999975,42.759585980000054],[-73.079506271999946,42.752141398000049],[-73.075375208999958,42.750898584000026],[-73.074578751999979,42.750794644000052],[-73.073702245999982,42.75078525400005],[-73.074216932999946,42.75042772200004],[-73.074611989999937,42.749971430000073],[-73.075643235999962,42.748348130000068],[-73.07577454799997,42.747977818000038],[-73.075822162999941,42.747596129000044],[-73.075978445999965,42.745594505000042],[-73.075934300999961,42.745072601000061],[-73.074659556999961,42.74218511600003],[-73.054219133999936,42.741776517000062],[-73.053877943999964,42.743509536000033],[-73.053773271999944,42.745042593000051],[-73.053368598999953,42.746577099000035],[-73.052656715999944,42.74790549100004],[-73.052347869999949,42.748114576000035],[-73.051747619999958,42.748262014000034],[-73.051551510999957,42.74835771000005],[-73.051357609999968,42.74848718800007],[-73.051287119999984,42.748630560000038],[-73.051658557999986,42.749065641000072],[-73.051894668999978,42.749649310000052],[-73.051895291999983,42.749891645000048],[-73.05163046399997,42.750373939000042],[-73.051044185999956,42.752316445000076],[-73.050985798999989,42.753352449000033],[-73.051087351999968,42.754387666000071],[-73.050893825999935,42.754906449000032],[-73.050550029999954,42.755354852000039],[-73.050228422999965,42.755636519000063],[-73.048891266999988,42.756469657000025],[-73.048217490999946,42.756990754000071],[-73.048185027999978,42.757508779000034],[-73.047881687999961,42.758523043000025],[-73.047660837999956,42.759064844000079],[-73.047445907999986,42.759282116000065],[-73.047018708999985,42.759585800000025],[-73.04503965899994,42.760113404000037],[-73.044516818999966,42.760440285000072],[-73.045131630999947,42.760675583000079],[-73.044934858999966,42.764403389000051],[-73.049034750999965,42.765152999000065],[-73.049810543999968,42.765149259000054],[-73.050186330999964,42.765073380000047],[-73.050734902999977,42.764848925000081],[-73.052199568999981,42.764986030000046],[-73.052528520999942,42.765225690000079],[-73.052956549999976,42.765443122000079],[-73.053443653999977,42.76560558500006],[-73.053892529999985,42.766148238000028],[-73.054200741999978,42.766372574000059],[-73.050634674999969,42.76805930200004],[-73.049954383999989,42.768504062000034],[-73.047990037999966,42.770468946000051],[-73.042327222999972,42.776574395000068],[-73.037850785999979,42.776473819000046],[-73.037386653999988,42.776500068000075],[-73.03665861099995,42.77669889100008],[-73.035559255999942,42.777326678000065],[-73.035605002999944,42.779975619000027],[-73.036151848999964,42.780193524000026],[-73.036917615999982,42.780289382000035],[-73.03768052199996,42.780186674000049],[-73.038032711999961,42.780063685000073],[-73.038546975999964,42.779782061000049],[-73.039395688999946,42.779799007000065],[-73.038157202999969,42.781253243000037],[-73.037939849999987,42.78160045900006],[-73.036177008999971,42.785011524000026],[-73.033383955999966,42.787632699000028],[-73.030684538999935,42.789125435000074],[-73.02752239299997,42.792141877000063],[-73.025097083999981,42.795011523000028],[-73.021955286999969,42.79788049800004],[-73.021706913999935,42.798145117000047],[-73.02015020999994,42.800285096000039],[-73.017626272999962,42.802080527000044],[-73.016120858999955,42.803586897000059],[-73.015910846999986,42.809691496000028],[-73.015402215999984,42.823231578000048]]]},"properties":{"District_Name":"Residential District","OBJECTID":2,"OBJECT_ID":286,"County":"Bennington","RPC":"BCRC","Municipal_Name":"Stamford","GEO_ID":"5000369775","Abbreviated_District_Name":"Res","District_Type":"Mixed with Residential","Bylaw_Date":"2020-10-23","Elderly_Housing_District":"No","District_Mapped":"Yes","Overlay_District":"No","Base_Density":"0.5","FIPS6":3065,"GIS_ID":"gakerste","Last_Update":"2026-07-09","F1F_Allowance":"Permitted","F1F_Front_Setback":50,"F1F_Side_Setback":25,"F1F_Rear_Setback":25,"F1F_Frontage":150,"F1F_Max_Height":35,"F1F_Max_Stories":null,"F1F_Min_Lot_Size":2,"F1F_Max_Lot_Building_Coverage":30,"F1F_Max_Lot_Impervious_Coverage":null,"F1F_Min_Parking_Spaces":"1","F1F_Elderly_Housing_Only":null,"F1F_Affordable_Housing_Only":null,"F2F_Allowance":"Permitted","F2F_Front_Setback":50,"F2F_Side_Setback":25,"F2F_Rear_Setback":25,"F2F_Frontage":150,"F2F_Max_Density":"1","F2F_Max_Height":35,"F2F_Max_Stories":null,"F2F_Min_Lot_Size":2,"F2F_Max_Lot_Building_Coverage":30,"F2F_Max_Lot_Impervious_Coverage":null,"F2F_Min_Parking_Spaces_per_1BR":"1","F2F_Min_Parking_Spaces_per_mult_BR":"1","F2F_Elderly_Housing_Only":"No","F2F_Affordable_Housing_Only":"No","F3F_Allowance":"Public Hearing","F3F_Front_Setback":50,"F3F_Side_Setback":25,"F3F_Rear_Setback":25,"F3F_Frontage":150,"F3F_Max_Density":"1.5","F3F_Max_Height":35,"F3F_Max_Stories":null,"F3F_Min_Lot_Size":2,"F3F_Max_Lot_Building_Coverage":30,"F3F_Max_Lot_Impervious_Coverage":null,"F3F_Min_Parking_Spaces_per_1BR":"1","F3F_Min_Parking_Spaces_per_mult_BR":"1","F3F_Affordable_Housing_Only":"No","F3F_Proximity_to_Public_Transit_Required":"No","F3F_Connection_to_Sewage_Water_Required":"No","F4F_Allowance":"Prohibited","F4F_Front_Setback":null,"F4F_Side_Setback":null,"F4F_Rear_Setback":null,"F4F_Frontage":null,"F1F_Max_Density":null,"F4F_Max_Density":null,"F4F_Max_Height":null,"F4F_Max_Stories":null,"F4F_Min_Lot_Size":null,"F4F_Max_Lot_Building_Coverage":null,"F4F_Max_Lot_Impervious_Coverage":null,"F4F_Min_Parking_Spaces_per_1BR":null,"F4F_Min_Parking_Spaces_per_mult_BR":null,"F3F_Elderly_Housing_Only":"No","F4F_Elderly_Housing_Only":"No","F4F_Affordable_Housing_Only":"No","F4F_Proximity_to_Public_Transit_Required":"No","F4F_Connection_to_Sewage_Water_Required":"No","ADU_Allowance":"Permitted","ADU_Elderly_Housing_Only":"No","ADU_Max_Size_as_Percent_of_Primary_Strcture":30,"ADU_Max_Size_in_sq_ft":null,"ADU_Min_Lot_Size":null,"ADU_Max_Bedrooms":1,"ADU_Min_Parking_Spaces":null,"ADU_Owner_Occupancy_Required":"Yes","ADU_Renter_Occupancy_Prohibited":"No","ADU_Employee_or_Family_Occupancy_Required":"No","ADU_Restricted_to_Primary_Structure":"No","Affordable_Housing_Allowance":"Not Mentioned","Affordable_Housing_District":"No","Affordable_Housing_Elderly_Only":"No","Affordable_Housing_Min_Lot_Size":null,"Affordable_Housing_Max_Density":null,"Affordable_Housing_Min_Parking_Spaces_per_mult_BR":null,"Affordable_Housing_Max_Units_per_Building":null,"Affordable_Housing_Min_Parking_Spaces_per_1BR":null,"PRD_Allowance":"Not Mentioned","PRD_Max_Density":null,"PRD_Max_Units":null,"PRD_Min_Lot_Size":null,"PRD_Mobile_or_Manufactured_Home_Park":"No","PUD_Allowance":"Permitted","PUD_Required_with_Subdivision":"No","PUD_Requires_Land_Conservation":"No","PUD_Threshold_Number":null,"Notes":" Mobile Homes Are Permitted As One-Family Dwellings, But Mobile Home Parks Are not Permitted In The Residential District. In a multi-unit dwelling, one of the units must be owner-occupied.","Shape_Length":0.29862595213207549,"Shape_Area":0.0012490406228471307}},{"type":"Feature","id":3,"geometry":{"type":"MultiPolygon","coordinates":[[[[-73.029916972999956,42.797604007000075],[-73.026859982999952,42.800371802000029],[-73.02514390999994,42.802715936000027],[-73.024848204999955,42.803031169000064],[-73.022790684999961,42.804498460000048],[-73.023808656999961,42.806650334000039],[-73.024199047999957,42.809039161000044],[-73.024167462999969,42.809325614000045],[-73.023906079999961,42.809863699000061],[-73.02341041699998,42.810304183000028],[-73.023049727999933,42.810485064000034],[-73.023313262999977,42.811288490000038],[-73.023377448999952,42.81174100800007],[-73.023299971999961,42.812068602000068],[-73.023393079999948,42.812235347000069],[-73.023379072999944,42.812386618000062],[-73.023096744999975,42.812844587000029],[-73.023053429999948,42.813734970000041],[-73.024038189999942,42.812703880000072],[-73.027523691999988,42.807626392000032],[-73.029730084999983,42.806010814000047],[-73.030653871999959,42.805024958000047],[-73.032150712999965,42.802971587000059],[-73.033521857999972,42.801550755000051],[-73.032220678999977,42.799591014000043],[-73.031884596999987,42.798888232000081],[-73.029916972999956,42.797604007000075]]],[[[-73.048521498999946,42.780974675000039],[-73.048307620999935,42.781276109000032],[-73.046105719999957,42.782770590000041],[-73.045065015999967,42.784643152000058],[-73.043042955999965,42.784013643000037],[-73.04158192899996,42.786883813000031],[-73.041096552999988,42.787505336000038],[-73.037589028999946,42.790796897000064],[-73.034899461999942,42.792284429000063],[-73.032929966999973,42.794147569000074],[-73.033422387999963,42.795042356000067],[-73.033584542999961,42.795598218000066],[-73.035491286999957,42.796864626000058],[-73.035885594999968,42.797361378000062],[-73.036469920999934,42.798495015000071],[-73.03734338299995,42.797589973000072],[-73.045977208999943,42.79048384500004],[-73.046900509999944,42.789497859000051],[-73.047510503999945,42.788546225000061],[-73.04919208299998,42.785290927000062],[-73.05171534599998,42.782523643000047],[-73.048521498999946,42.780974675000039]]],[[[-73.044934858999966,42.764403389000051],[-73.044827698999939,42.766203817000076],[-73.043273604999968,42.767325320000054],[-73.042751158999977,42.767836242000044],[-73.033792791999986,42.777561367000033],[-73.032648697999946,42.778944546000048],[-73.032038191999959,42.779896703000077],[-73.030707141999983,42.782472509000058],[-73.022875325999962,42.788918335000062],[-73.016429237999944,42.795580951000034],[-73.016120858999955,42.803586897000059],[-73.017626272999962,42.802080527000044],[-73.02015020999994,42.800285096000039],[-73.021706913999935,42.798145117000047],[-73.021955286999969,42.79788049800004],[-73.025097083999981,42.795011523000028],[-73.02752239299997,42.792141877000063],[-73.030684538999935,42.789125435000074],[-73.033383955999966,42.787632699000028],[-73.036177008999971,42.785011524000026],[-73.037939849999987,42.78160045900006],[-73.038157202999969,42.781253243000037],[-73.039395688999946,42.779799007000065],[-73.038546975999964,42.779782061000049],[-73.038032711999961,42.780063685000073],[-73.03768052199996,42.780186674000049],[-73.036917615999982,42.780289382000035],[-73.036151848999964,42.780193524000026],[-73.035605002999944,42.779975619000027],[-73.035559255999942,42.777326678000065],[-73.03665861099995,42.77669889100008],[-73.037386653999988,42.776500068000075],[-73.037850785999979,42.776473819000046],[-73.042327222999972,42.776574395000068],[-73.047990037999966,42.770468946000051],[-73.049954383999989,42.768504062000034],[-73.050634674999969,42.76805930200004],[-73.054200741999978,42.766372574000059],[-73.053892529999985,42.766148238000028],[-73.053443653999977,42.76560558500006],[-73.052956549999976,42.765443122000079],[-73.052528520999942,42.765225690000079],[-73.052199568999981,42.764986030000046],[-73.050734902999977,42.764848925000081],[-73.050186330999964,42.765073380000047],[-73.049810543999968,42.765149259000054],[-73.049034750999965,42.765152999000065],[-73.044934858999966,42.764403389000051]]],[[[-73.074659556999961,42.74218511600003],[-73.075934300999961,42.745072601000061],[-73.075978445999965,42.745594505000042],[-73.075822162999941,42.747596129000044],[-73.07577454799997,42.747977818000038],[-73.075643235999962,42.748348130000068],[-73.074611989999937,42.749971430000073],[-73.074216932999946,42.75042772200004],[-73.073702245999982,42.75078525400005],[-73.074578751999979,42.750794644000052],[-73.075375208999958,42.750898584000026],[-73.079506271999946,42.752141398000049],[-73.078947262999975,42.759585980000054],[-73.077166767999984,42.760211315000049],[-73.076980703999936,42.760031717000061],[-73.077032039999949,42.759680779000064],[-73.076962414999969,42.759500771000035],[-73.076319647999981,42.759103253000035],[-73.07615412499996,42.758873635000043],[-73.076160625999989,42.758092085000044],[-73.075981094999975,42.757792401000074],[-73.075706790999959,42.757523259000038],[-73.075365362999946,42.757384720000061],[-73.074237221999965,42.757420466000042],[-73.072833865999939,42.757086854000079],[-73.071746098999938,42.757112333000066],[-73.070734834999939,42.756987848000051],[-73.068916660999946,42.76380154900005],[-73.068695391999938,42.764154259000065],[-73.067228712999963,42.765681224000048],[-73.066863897999951,42.765953463000073],[-73.065903310999943,42.76641978400005],[-73.064542849999953,42.767967939000073],[-73.064172658999951,42.768744474000073],[-73.064247995999949,42.772542685000076],[-73.066745885999978,42.771477225000069],[-73.067827248999947,42.772729406000053],[-73.06828930599994,42.773065432000067],[-73.068824477999954,42.773337147000063],[-73.069413977999943,42.773536431000025],[-73.070041710999988,42.773657333000074],[-73.070689691999974,42.773695794000048],[-73.07208114599996,42.773609450000038],[-73.07626146399997,42.774571903000037],[-73.081038545999945,42.776980536000053],[-73.08259374499994,42.777490257000068],[-73.083437889999971,42.77767336800008],[-73.084085920999939,42.777711770000053],[-73.087182156999972,42.777625098000044],[-73.088392081999984,42.777840249000064],[-73.089040498999964,42.777878603000033],[-73.089685833999965,42.777833577000081],[-73.090311679999957,42.777706855000076],[-73.092609434999986,42.777023820000068],[-73.095330753999974,42.776791510000066],[-73.096247786999982,42.781423478000079],[-73.101733012999944,42.782718678000037],[-73.102380723999943,42.782756925000058],[-73.104189577999989,42.782651380000061],[-73.105029978999937,42.782946193000043],[-73.10830008399995,42.783509136000077],[-73.111539773999937,42.774845740000046],[-73.107574883999973,42.770197292000034],[-73.105312867999942,42.771174607000034],[-73.103201480999985,42.77091907700003],[-73.102433276999989,42.770885460000045],[-73.098310707999985,42.771019739000053],[-73.095379363999939,42.771263058000045],[-73.095287043999974,42.76397615500008],[-73.095225979999952,42.763500132000047],[-73.095053579999956,42.763039264000042],[-73.09477531999994,42.762607183000057],[-73.093831500999954,42.761523929000077],[-73.09259990299995,42.758122294000032],[-73.094228840999961,42.754083950000052],[-73.094382348999943,42.753370331000042],[-73.094410582999956,42.752530223000065],[-73.09480362499994,42.752236597000035],[-73.095172415999969,42.751842314000044],[-73.095442717999958,42.751408208000043],[-73.095658527999944,42.75062562100004],[-73.101568604999954,42.750703477000059],[-73.10149224099996,42.745214614000076],[-73.099611275999962,42.745170816000041],[-73.099725863999936,42.742686186000071],[-73.074659556999961,42.74218511600003]]]]},"properties":{"District_Name":"Rural District","OBJECTID":3,"OBJECT_ID":287,"County":"Bennington","RPC":"BCRC","Municipal_Name":"Stamford","GEO_ID":"5000369775","Abbreviated_District_Name":"Rur","District_Type":"Mixed with Residential","Bylaw_Date":"2020-10-23","Elderly_Housing_District":"No","District_Mapped":"Yes","Overlay_District":"No","Base_Density":"0.5","FIPS6":3065,"GIS_ID":"gakerste","Last_Update":"2026-07-09","F1F_Allowance":"Permitted","F1F_Front_Setback":50,"F1F_Side_Setback":25,"F1F_Rear_Setback":25,"F1F_Frontage":150,"F1F_Max_Height":35,"F1F_Max_Stories":null,"F1F_Min_Lot_Size":2,"F1F_Max_Lot_Building_Coverage":20,"F1F_Max_Lot_Impervious_Coverage":null,"F1F_Min_Parking_Spaces":"1","F1F_Elderly_Housing_Only":null,"F1F_Affordable_Housing_Only":null,"F2F_Allowance":"Permitted","F2F_Front_Setback":50,"F2F_Side_Setback":25,"F2F_Rear_Setback":25,"F2F_Frontage":150,"F2F_Max_Density":"1","F2F_Max_Height":35,"F2F_Max_Stories":null,"F2F_Min_Lot_Size":2,"F2F_Max_Lot_Building_Coverage":20,"F2F_Max_Lot_Impervious_Coverage":null,"F2F_Min_Parking_Spaces_per_1BR":"1","F2F_Min_Parking_Spaces_per_mult_BR":"1","F2F_Elderly_Housing_Only":"No","F2F_Affordable_Housing_Only":"No","F3F_Allowance":"Public Hearing","F3F_Front_Setback":50,"F3F_Side_Setback":25,"F3F_Rear_Setback":25,"F3F_Frontage":150,"F3F_Max_Density":"1.5","F3F_Max_Height":35,"F3F_Max_Stories":null,"F3F_Min_Lot_Size":2,"F3F_Max_Lot_Building_Coverage":20,"F3F_Max_Lot_Impervious_Coverage":null,"F3F_Min_Parking_Spaces_per_1BR":"1","F3F_Min_Parking_Spaces_per_mult_BR":"1","F3F_Affordable_Housing_Only":"No","F3F_Proximity_to_Public_Transit_Required":"No","F3F_Connection_to_Sewage_Water_Required":"No","F4F_Allowance":"Prohibited","F4F_Front_Setback":null,"F4F_Side_Setback":null,"F4F_Rear_Setback":null,"F4F_Frontage":null,"F1F_Max_Density":null,"F4F_Max_Density":null,"F4F_Max_Height":null,"F4F_Max_Stories":null,"F4F_Min_Lot_Size":null,"F4F_Max_Lot_Building_Coverage":null,"F4F_Max_Lot_Impervious_Coverage":null,"F4F_Min_Parking_Spaces_per_1BR":null,"F4F_Min_Parking_Spaces_per_mult_BR":null,"F3F_Elderly_Housing_Only":"No","F4F_Elderly_Housing_Only":"No","F4F_Affordable_Housing_Only":"No","F4F_Proximity_to_Public_Transit_Required":"No","F4F_Connection_to_Sewage_Water_Required":"No","ADU_Allowance":"Permitted","ADU_Elderly_Housing_Only":"No","ADU_Max_Size_as_Percent_of_Primary_Strcture":30,"ADU_Max_Size_in_sq_ft":null,"ADU_Min_Lot_Size":null,"ADU_Max_Bedrooms":1,"ADU_Min_Parking_Spaces":null,"ADU_Owner_Occupancy_Required":"Yes","ADU_Renter_Occupancy_Prohibited":"No","ADU_Employee_or_Family_Occupancy_Required":"No","ADU_Restricted_to_Primary_Structure":"No","Affordable_Housing_Allowance":"Not Mentioned","Affordable_Housing_District":"No","Affordable_Housing_Elderly_Only":"No","Affordable_Housing_Min_Lot_Size":null,"Affordable_Housing_Max_Density":null,"Affordable_Housing_Min_Parking_Spaces_per_mult_BR":null,"Affordable_Housing_Max_Units_per_Building":null,"Affordable_Housing_Min_Parking_Spaces_per_1BR":null,"PRD_Allowance":"Not Mentioned","PRD_Max_Density":null,"PRD_Max_Units":null,"PRD_Min_Lot_Size":null,"PRD_Mobile_or_Manufactured_Home_Park":"Yes","PUD_Allowance":"Permitted","PUD_Required_with_Subdivision":"No","PUD_Requires_Land_Conservation":"No","PUD_Threshold_Number":null,"Notes":"There is a drafted pdf available online with conflicting effective dates. This file is based off of the one from 2020","Shape_Length":0.41128778507960662,"Shape_Area":0.0014179854776529719}}]}