{"type":"FeatureCollection","features":[{"type":"Feature","id":2,"geometry":{"type":"Polygon","coordinates":[[[-73.086722047999956,43.024182082000038],[-73.100078529999962,43.024620708000043],[-73.124542603999942,43.025303309000037],[-73.140593819999935,43.025826258000052],[-73.141452662999939,43.010904069000048],[-73.141824106999934,43.005529695000064],[-73.141629009999974,43.005566199000043],[-73.140498370999978,43.005572531000041],[-73.138747205999948,43.005321829000025],[-73.138114052999981,43.00510341100005],[-73.137664671999971,43.004864697000073],[-73.137174237999943,43.004510417000063],[-73.136815650999949,43.004155436000076],[-73.136508378999963,43.003684342000042],[-73.136346379999964,43.003251048000038],[-73.136263420999967,43.002603101000034],[-73.13312984199996,43.00051740400005],[-73.132418442999949,42.999875214000042],[-73.130124815999977,42.996401927000079],[-73.129178526999965,42.992674488000034],[-73.129116958999987,42.992198681000048],[-73.129168812999978,42.991722251000056],[-73.129332702999989,42.991259692000028],[-73.129603403999965,42.990825027000028],[-73.129972619999933,42.99043148800007],[-73.130429740999944,42.990091018000044],[-73.130960311999957,42.989813926000068],[-73.133435042999963,42.988926099000025],[-73.134854705999942,42.991453678000028],[-73.135681262999981,42.991155337000066],[-73.138065361999963,42.989508774000058],[-73.138224244999947,42.989458167000066],[-73.140812602999972,42.989339165000047],[-73.142808695999975,42.988750651000032],[-73.146005224999953,42.930982985000071],[-73.124438658999964,42.932498222000049],[-73.108069414999989,42.932670153000061],[-73.090436431999933,42.932242376000033],[-73.072803663999935,42.931811882000034],[-73.064691426999957,42.931558005000056],[-73.056380794999939,42.931399218000081],[-73.046547008999937,42.931105779000063],[-73.029353496999988,42.930712178000078],[-73.020142853999971,42.930445095000039],[-73.010424444999956,42.930258662000028],[-73.008134929999983,42.93056555000004],[-73.007657820999952,42.940056647000063],[-73.005102604999934,42.985093290000066],[-73.003231793999987,43.021473230000026],[-73.026246877999938,43.022272684000029],[-73.049153869999941,43.022998580000035],[-73.07206135399997,43.023719888000073],[-73.086722047999956,43.024182082000038]]]},"properties":{"Abbreviated_District_Name":"F2","OBJECTID":2,"OBJECT_ID":144,"County":"Bennington","RPC":"BCRC","Municipal_Name":"Glastenbury","GEO_ID":"5000327962","District_Name":"Forest #2","District_Type":"Nonresidential","Bylaw_Date":"2021-07-15","Elderly_Housing_District":"No","District_Mapped":"Yes","Overlay_District":"No","Base_Density":null,"FIPS6":null,"GIS_ID":"gakerste","Last_Update":"2026-06-18","F1F_Allowance":"Prohibited","F1F_Front_Setback":null,"F1F_Side_Setback":null,"F1F_Rear_Setback":null,"F1F_Frontage":null,"F1F_Max_Density":null,"F1F_Max_Height":null,"F1F_Max_Stories":null,"F1F_Min_Lot_Size":null,"F1F_Max_Lot_Building_Coverage":null,"F1F_Max_Lot_Impervious_Coverage":null,"F1F_Min_Parking_Spaces":null,"F1F_Elderly_Housing_Only":null,"F1F_Affordable_Housing_Only":null,"F2F_Allowance":"Prohibited","F2F_Front_Setback":null,"F2F_Side_Setback":null,"F2F_Rear_Setback":null,"F2F_Frontage":null,"F2F_Max_Density":null,"F2F_Max_Height":null,"F2F_Max_Stories":null,"F2F_Min_Lot_Size":null,"F2F_Max_Lot_Building_Coverage":null,"F2F_Max_Lot_Impervious_Coverage":null,"F2F_Min_Parking_Spaces_per_1BR":null,"F2F_Min_Parking_Spaces_per_mult_BR":null,"F2F_Elderly_Housing_Only":"No","F2F_Affordable_Housing_Only":"No","F3F_Allowance":"Prohibited","F3F_Front_Setback":null,"F3F_Side_Setback":null,"F3F_Rear_Setback":null,"F3F_Frontage":null,"F3F_Max_Density":null,"F3F_Max_Height":null,"F3F_Max_Stories":null,"F3F_Min_Lot_Size":null,"F3F_Max_Lot_Building_Coverage":null,"F3F_Max_Lot_Impervious_Coverage":null,"F3F_Min_Parking_Spaces_per_1BR":null,"F3F_Min_Parking_Spaces_per_mult_BR":null,"F3F_Elderly_Housing_Only":"No","F3F_Affordable_Housing_Only":"No","F3F_Proximity_to_Public_Transit_Required":"No","F3F_Connection_to_Sewage_Water_Required":"No","F4F_Allowance":"Prohibited","F4F_Front_Setback":null,"F4F_Side_Setback":null,"F4F_Rear_Setback":null,"F4F_Frontage":null,"F4F_Max_Density":null,"F4F_Max_Height":null,"F4F_Max_Stories":null,"F4F_Min_Lot_Size":null,"F4F_Max_Lot_Building_Coverage":null,"F4F_Max_Lot_Impervious_Coverage":null,"F4F_Min_Parking_Spaces_per_1BR":null,"F4F_Min_Parking_Spaces_per_mult_BR":null,"F4F_Elderly_Housing_Only":"No","F4F_Affordable_Housing_Only":"No","F4F_Proximity_to_Public_Transit_Required":"No","F4F_Connection_to_Sewage_Water_Required":"No","ADU_Allowance":"Prohibited","ADU_Elderly_Housing_Only":"No","ADU_Max_Size_as_Percent_of_Primary_Strcture":null,"ADU_Max_Size_in_sq_ft":null,"ADU_Min_Lot_Size":null,"ADU_Max_Bedrooms":null,"ADU_Min_Parking_Spaces":null,"ADU_Owner_Occupancy_Required":"No","ADU_Renter_Occupancy_Prohibited":"No","ADU_Employee_or_Family_Occupancy_Required":"No","ADU_Restricted_to_Primary_Structure":"No","Affordable_Housing_Allowance":"Not Mentioned","Affordable_Housing_District":"No","Affordable_Housing_Elderly_Only":"No","Affordable_Housing_Min_Lot_Size":null,"Affordable_Housing_Max_Density":null,"Affordable_Housing_Min_Parking_Spaces_per_mult_BR":null,"Affordable_Housing_Max_Units_per_Building":null,"Affordable_Housing_Min_Parking_Spaces_per_1BR":null,"PRD_Allowance":"Not Mentioned","PRD_Max_Density":null,"PRD_Max_Units":null,"PRD_Min_Lot_Size":null,"PRD_Mobile_or_Manufactured_Home_Park":"No","PUD_Allowance":"Yes","PUD_Required_with_Subdivision":null,"PUD_Requires_Land_Conservation":null,"PUD_Threshold_Number":null,"Notes":"None","Shape_Length":0.4822452735822737,"Shape_Area":0.012532042407502709}}]}