{"type":"FeatureCollection","features":[{"type":"Feature","id":4,"geometry":{"type":"MultiPolygon","coordinates":[[[[-73.002972976999956,43.281195464000064],[-73.002540007999983,43.281861675000073],[-73.002013916999942,43.282758323000053],[-72.998472986999957,43.290965775000075],[-72.994522694999944,43.300127607000036],[-72.994321195999987,43.30110875500003],[-72.993988011999988,43.30512322900006],[-72.995439310999984,43.305153539000059],[-72.997657322999942,43.305212845000028],[-72.998300094999934,43.303094453000028],[-72.999558179999951,43.303132708000078],[-72.999863380999955,43.302370256000074],[-73.00065409299998,43.296059123000077],[-73.003205066999953,43.296033347000048],[-73.00702469099997,43.288204053000072],[-73.006828458999962,43.287647932000027],[-73.006070726999951,43.287254688000075],[-73.005263592999938,43.286196768000025],[-73.00505140599995,43.286121885000057],[-73.005061740999963,43.285923539000066],[-73.005582069999946,43.285128040000075],[-73.005140894999954,43.284876282000027],[-73.005123721999951,43.284730549000074],[-73.004514831999984,43.284470780000049],[-73.004338536999967,43.28487399100004],[-73.003772570999956,43.28449446500008],[-73.002647626999988,43.284096982000051],[-73.002135918999954,43.284002995000037],[-73.002625208999973,43.282828543000051],[-73.002949993999948,43.281552745000056],[-73.002972976999956,43.281195464000064]]],[[[-73.10749412499996,43.252810189000058],[-73.10744430699998,43.252817466000067],[-73.106966150999938,43.252887315000066],[-73.10660867699994,43.253015952000055],[-73.105750671999942,43.253324704000079],[-73.105720503999976,43.253749880000044],[-73.106858323999973,43.255194012000061],[-73.106455844999971,43.255916014000036],[-73.106913193999958,43.256915883000033],[-73.105641813999966,43.256922620000068],[-73.105411200999981,43.256923842000049],[-73.10536289199996,43.25646606600003],[-73.105340142999978,43.256334886000047],[-73.105261180999946,43.256243870000048],[-73.105167395999956,43.256135768000036],[-73.104402633999939,43.255289793000031],[-73.104298698999969,43.255183093000028],[-73.103661080999984,43.25475437700004],[-73.103175258999954,43.254112243000066],[-73.102267816999984,43.254481247000058],[-73.103303854999979,43.255461094000054],[-73.102774908999947,43.255560375000073],[-73.100801462999982,43.255684916000064],[-73.100014185999953,43.256111012000076],[-73.100471785999957,43.256597375000069],[-73.101022757999942,43.257223402000079],[-73.101371335999943,43.25759092900006],[-73.102044396999986,43.258284402000072],[-73.102233785999942,43.258480890000044],[-73.102952994999953,43.25928340400003],[-73.103808758999946,43.260291294000069],[-73.104007176999971,43.260615408000035],[-73.10441474199996,43.261429476000046],[-73.105299901999956,43.263618448000045],[-73.10535062799994,43.263724331000049],[-73.106052906999935,43.265014170000029],[-73.106402951999939,43.265516646000037],[-73.108369705999962,43.267878550000034],[-73.108815165999943,43.268383829000072],[-73.10918673599997,43.268687216000046],[-73.109295539999948,43.268776054000057],[-73.109879830999944,43.269058341000061],[-73.11066274999996,43.269253242000048],[-73.111325533999945,43.269239747000029],[-73.111870528999987,43.269147151000027],[-73.114058629999988,43.268757275000041],[-73.114848265999967,43.268716536000056],[-73.115620878999948,43.268788694000079],[-73.116864155999963,43.269156926000051],[-73.117466424999975,43.269445657000063],[-73.117987410999945,43.269777958000077],[-73.119331562999946,43.270313332000057],[-73.120266672999946,43.270661472000029],[-73.120274861999974,43.270336082000028],[-73.120741322999947,43.269751882000037],[-73.120633579999947,43.26958122800005],[-73.120466066999938,43.269568546000073],[-73.120299227999965,43.269438984000033],[-73.120222976999969,43.269255927000074],[-73.120261361999951,43.268823544000043],[-73.120403343999953,43.268703179000056],[-73.119781295999985,43.268433384000048],[-73.119570048999947,43.26814233500005],[-73.119493935999969,43.267422456000077],[-73.119426740999984,43.267398358000037],[-73.119044589999987,43.267492841000035],[-73.118751730999975,43.26740608800003],[-73.118979655999965,43.266957732000037],[-73.118924417999949,43.266828921000069],[-73.117716706999943,43.266755266000075],[-73.117414348999944,43.266648176000047],[-73.117392930999983,43.266553159000068],[-73.11729941599998,43.266500661000066],[-73.117072376999943,43.266485577000026],[-73.116238174999978,43.26656618100003],[-73.115961231999961,43.266766092000069],[-73.115731514999936,43.266854307000074],[-73.115532027999961,43.266805096000041],[-73.115387795999936,43.266702585000075],[-73.115365477999944,43.26651787600008],[-73.115128783999978,43.26628267600006],[-73.114798763999943,43.26615176200005],[-73.114761085999987,43.26614737400007],[-73.114517367999952,43.266140546000031],[-73.114373521999937,43.266076084000076],[-73.113453726999978,43.265411014000051],[-73.113070777999951,43.265240469000048],[-73.112821552999947,43.265237727000056],[-73.112699474999943,43.26530361500005],[-73.112404910999942,43.265230445000043],[-73.112228435999953,43.265064228000028],[-73.112035612999989,43.264751321000062],[-73.111885703999974,43.26463796400003],[-73.111236470999984,43.264616972000056],[-73.110887414999979,43.264487010000039],[-73.110803136999948,43.264427663000049],[-73.110656784999946,43.264111788000037],[-73.110428820999971,43.264002922000032],[-73.110268382999948,43.263765946000035],[-73.110254931999975,43.263722529000063],[-73.110354872999949,43.263674429000048],[-73.110298813999975,43.263647547000062],[-73.110405756999967,43.263593986000046],[-73.113084954999977,43.262205656000049],[-73.112012788999948,43.261198720000039],[-73.111630067999954,43.260836736000044],[-73.111746378999953,43.260567024000068],[-73.111727358999985,43.260338807000039],[-73.111548058999972,43.260074753000026],[-73.11166370799998,43.25987536100007],[-73.111696368999958,43.259658093000041],[-73.111299606999978,43.259476891000077],[-73.111120396999979,43.259395045000076],[-73.111025740999935,43.259351816000049],[-73.111009464999938,43.25809614800005],[-73.110941876999959,43.258031276000054],[-73.110731618999978,43.258017449000079],[-73.110452997999971,43.257861287000026],[-73.109549052999967,43.257650020000028],[-73.109744248999959,43.257086336000043],[-73.111831173999974,43.257707148000065],[-73.111540235999939,43.257249347000027],[-73.111245235999945,43.256199025000058],[-73.110529835999955,43.256246336000061],[-73.110498232999987,43.255444330000046],[-73.11076228099995,43.255411067000068],[-73.110715139999968,43.255054571000073],[-73.111202815999945,43.255013742000074],[-73.111141767999982,43.253557345000047],[-73.111032940999962,43.253133225000056],[-73.11078635299998,43.253203832000054],[-73.110686131999955,43.253232529000059],[-73.110273436999989,43.252902665000079],[-73.109666477999951,43.253030094000053],[-73.108497369999952,43.253176112000062],[-73.108484229999988,43.253039556000033],[-73.108060339999952,43.252940771000056],[-73.10749412499996,43.252810189000058]]],[[[-73.092036339999936,43.246873220000055],[-73.089678367999966,43.24695547500005],[-73.089867046999984,43.24784425200005],[-73.091022370999951,43.247757595000053],[-73.091694656999948,43.248486729000035],[-73.092109983999933,43.24847821000003],[-73.092296895999937,43.248880709000048],[-73.091749130999972,43.249312492000058],[-73.091904047999947,43.249710910000033],[-73.091506676999984,43.249774547000072],[-73.091911688999971,43.250691929000027],[-73.092839351999942,43.250597939000045],[-73.093866845999969,43.250505545000067],[-73.09365527999995,43.250258193000036],[-73.093037071999959,43.249212520000071],[-73.092036339999936,43.246873220000055]]],[[[-73.009432573999959,43.240438605000065],[-73.00914463099997,43.240441087000079],[-73.009134552999967,43.240479049000044],[-73.008889238999984,43.241132777000075],[-73.008953147999989,43.241174454000031],[-73.008830178999972,43.241515426000035],[-73.005487150999954,43.250513340000055],[-73.003404178999972,43.25067998600008],[-72.999275739999973,43.251029446000075],[-72.999213234999957,43.25187223100005],[-72.999208536999959,43.251935596000067],[-72.999107786999957,43.254889578000075],[-72.99631422799996,43.254801489000045],[-72.996198466999942,43.255173762000027],[-72.996077286999935,43.255563461000065],[-72.994224903999964,43.255457564000039],[-72.994162580999955,43.255633489000047],[-72.993440625999938,43.257646453000064],[-72.993235861999949,43.258971287000065],[-72.994185529999982,43.25897593600007],[-72.994185233999985,43.260419452000065],[-72.997278644999938,43.260548940000035],[-72.998752646999947,43.260749571000076],[-72.998742899999968,43.261510740000062],[-72.999520699999948,43.261475268000027],[-72.998924369999941,43.25838525100005],[-72.999490597999966,43.258250640000028],[-73.003482629999951,43.257741032000069],[-73.005751180999937,43.25750452300008],[-73.005984952999938,43.257480151000038],[-73.006243332999986,43.257923009000081],[-73.005967928999951,43.257944187000078],[-73.005704871999967,43.25796441600005],[-73.005609621999952,43.259746904000053],[-73.005592921999948,43.260127944000033],[-73.005561516999933,43.260950061000074],[-73.004412437999974,43.260960966000027],[-73.004265692999979,43.263002945000039],[-73.004687935999982,43.26339768400004],[-73.005439402999968,43.263070669000058],[-73.005653713999948,43.262929745000065],[-73.006107455999938,43.262790678000044],[-73.00603085299997,43.262976900000069],[-73.005631729999948,43.26395328600006],[-73.005458288999989,43.264388702000076],[-73.005572893999954,43.26559280500004],[-73.007317995999983,43.265490010000065],[-73.007448661999945,43.265120696000054],[-73.007725859999937,43.264337223000041],[-73.007878863999963,43.263640241000076],[-73.00790294799998,43.262440155000036],[-73.007900130999985,43.261802266000075],[-73.008660458999941,43.261728917000028],[-73.009035965999942,43.261657503000038],[-73.009442156999967,43.26158025400008],[-73.009163153999964,43.261291587000073],[-73.009443239999939,43.260987722000039],[-73.009409447999985,43.260350611000035],[-73.009572004999939,43.259614956000064],[-73.010412087999953,43.259585405000053],[-73.010527611999976,43.258511760000033],[-73.010408134999977,43.258389266000052],[-73.010418927999979,43.258188730000029],[-73.010216583999977,43.257847892000029],[-73.010091067999952,43.25786095400008],[-73.009898668999938,43.257755429000042],[-73.009836232999987,43.257617597000035],[-73.009826111999985,43.257016673000066],[-73.009926286999985,43.256474982000043],[-73.00983565699994,43.255769434000058],[-73.009971839999935,43.255354728000043],[-73.009765885999968,43.255058195000061],[-73.009731950999935,43.254816302000052],[-73.010252221999963,43.253574601000025],[-73.010150195999984,43.253300934000038],[-73.010242121999966,43.252842681000061],[-73.01003400899998,43.252286617000038],[-73.010020870999938,43.251190187000077],[-73.010104258999945,43.251143156000069],[-73.010075261999987,43.251014973000053],[-73.010201898999981,43.250891928000044],[-73.010188299999982,43.250696603000051],[-73.010402532999933,43.250552754000068],[-73.010416858999974,43.25035730500008],[-73.010484067999982,43.250284100000044],[-73.010651107999934,43.250222115000042],[-73.010668154999962,43.249875012000075],[-73.010791019999942,43.249778229000071],[-73.010946788999945,43.249322607000067],[-73.011093463999941,43.249211136000042],[-73.011112435999962,43.249094404000061],[-73.01088611299997,43.248745471000063],[-73.011083721999967,43.248522958000081],[-73.010954579999975,43.248345646000075],[-73.01105204299995,43.248074005000035],[-73.01096371999995,43.248007328000028],[-73.010965466999949,43.247739030000048],[-73.010860431999959,43.247582024000053],[-73.010960469999986,43.247141232000047],[-73.010926557999937,43.246902255000066],[-73.010789368999951,43.24671623100005],[-73.011146475999965,43.24600891700004],[-73.011191441999983,43.24566168900003],[-73.011356956999975,43.245418905000065],[-73.011250803999985,43.24512775900007],[-73.011328680999952,43.244899947000079],[-73.011288449999938,43.24485930000003],[-73.01120451099996,43.244839262000028],[-73.010909960999982,43.244916400000079],[-73.010478883999951,43.244886246000078],[-73.010420164999971,43.244542397000032],[-73.010702740999989,43.243987058000073],[-73.010979088999989,43.243641713000045],[-73.011008391999951,43.243329549000066],[-73.010935958999937,43.243254051000065],[-73.011143979999986,43.242847770000026],[-73.011211755999966,43.242366295000068],[-73.01115542499997,43.242308223000066],[-73.012051448999955,43.241653903000042],[-73.012098630999958,43.241572039000062],[-73.01200044999996,43.241577581000058],[-73.00969410099998,43.243041423000079],[-73.009683081999981,43.24246734500008],[-73.009483622999937,43.240882242000055],[-73.009432573999959,43.240438605000065]]],[[[-73.010714149999956,43.235789920000059],[-73.010636244999944,43.237505339000052],[-73.010609441999975,43.238095525000062],[-73.010472420999974,43.239168578000033],[-73.010161034999953,43.239934210000058],[-73.010418283999968,43.240124561000073],[-73.011143207999964,43.239695484000038],[-73.010829038999987,43.239638359000026],[-73.011110329999951,43.239280476000033],[-73.011280923999948,43.239227456000037],[-73.011288796999963,43.239131041000064],[-73.011617071999979,43.238921735000076],[-73.011630586999956,43.238779532000081],[-73.011853319999943,43.238453638000067],[-73.011872478999976,43.238205102000052],[-73.011758793999945,43.238090941000053],[-73.012327638999977,43.235883840000042],[-73.012266612999952,43.235880288000033],[-73.010791842999936,43.235794442000042],[-73.010714149999956,43.235789920000059]]],[[[-73.00849722199996,43.23232794300003],[-73.008468216999972,43.232537259000026],[-73.008352866999985,43.233369698000047],[-73.008343398999955,43.23343802200003],[-73.008206874999985,43.234423267000068],[-73.00815720099996,43.234781749000035],[-73.008073628999966,43.235384859000078],[-73.008972073999985,43.235450250000042],[-73.010090295999987,43.235550395000075],[-73.01017636499995,43.235249620000047],[-73.010458515999971,43.234324287000049],[-73.010783258999936,43.234268085000053],[-73.010794840999949,43.234075681000036],[-73.010846318999938,43.233220477000032],[-73.010820950999971,43.232743682000034],[-73.010376316999952,43.232664132000025],[-73.00849722199996,43.23232794300003]]],[[[-73.083739204999972,43.230885655000066],[-73.083443599999953,43.230947179000054],[-73.083342764999941,43.231100776000062],[-73.082844179999938,43.231207692000055],[-73.082427769999981,43.231449875000067],[-73.082247519999953,43.23138381900003],[-73.082171652999989,43.231161539000027],[-73.082068612999933,43.231083782000042],[-73.081653028999938,43.230912807000038],[-73.08135439299997,43.231097426000076],[-73.080280154999969,43.23177391400003],[-73.07943439099995,43.232211840000048],[-73.079388366999979,43.232235889000037],[-73.079417699999965,43.232264716000032],[-73.079429446999939,43.232274633000031],[-73.079931344999977,43.23269829700007],[-73.081178187999967,43.233459477000054],[-73.079841091999981,43.234564119000026],[-73.078020169999945,43.234879119000027],[-73.079003812999986,43.23738944400003],[-73.079918693999957,43.238251499000057],[-73.080828538999981,43.238929125000027],[-73.081600605999938,43.237566326000035],[-73.082202968999979,43.237686425000049],[-73.083553442999971,43.23706797300008],[-73.084066233999977,43.237541022000073],[-73.08413276899995,43.237513077000074],[-73.084484227999951,43.237819191000028],[-73.084824864999973,43.237600852000071],[-73.084344709999982,43.236592514000051],[-73.086322206999967,43.236183532000041],[-73.087744723999947,43.235880709000071],[-73.087554814999976,43.235425564000025],[-73.086392885999942,43.233758289000036],[-73.08636667899998,43.233719042000075],[-73.086443871999961,43.233706347000066],[-73.086650542999962,43.233672358000035],[-73.086740325999983,43.23323526300004],[-73.086727654999947,43.233154437000053],[-73.086597229999938,43.233075085000053],[-73.086642833999974,43.232868711000037],[-73.08646362099995,43.23266349000005],[-73.086245409999947,43.232733322000058],[-73.086013975999947,43.232540544000074],[-73.085699291999958,43.232597822000059],[-73.085372474999986,43.232382047000044],[-73.085045820999937,43.232307177000052],[-73.084987526999953,43.232057845000043],[-73.084913294999978,43.232007776000046],[-73.085060650999935,43.231743477000066],[-73.085060250999959,43.231577349000077],[-73.084477687999936,43.231361139000057],[-73.08436233499998,43.231239957000071],[-73.084230792999961,43.231291947000045],[-73.084103294999977,43.231269114000042],[-73.084138189999976,43.231186305000051],[-73.084084264999944,43.231144831000051],[-73.083828111999935,43.231102649000036],[-73.08385710999994,43.23102509000006],[-73.083739204999972,43.230885655000066]]],[[[-73.011792369999966,43.218060679000075],[-73.011616292999975,43.219912817000079],[-73.011308090999989,43.219874165000078],[-73.011129332999985,43.21976988800003],[-73.010994670999935,43.219620380000038],[-73.01099715099997,43.219507786000065],[-73.010835059999977,43.219350896000037],[-73.007735906999983,43.218609337000032],[-73.006934398999988,43.218417553000052],[-73.006011489999935,43.220807373000071],[-73.005729412999983,43.221779282000057],[-73.006571673999986,43.221389155000054],[-73.006650221999962,43.221352773000035],[-73.006693394999957,43.221448030000033],[-73.006798698999944,43.221680373000027],[-73.007011297999952,43.222149454000032],[-73.007215990999953,43.222308938000026],[-73.00956625699996,43.222493879000069],[-73.009812029999978,43.221361295000065],[-73.011436985999978,43.221880982000073],[-73.01149576499995,43.221878282000034],[-73.011495344999958,43.22221871000005],[-73.011719182999968,43.222227265000072],[-73.011917001999961,43.221496582000043],[-73.012311280999938,43.220191731000057],[-73.012364789999936,43.220019009000055],[-73.012422803999982,43.219831744000032],[-73.012559943999975,43.219928540000069],[-73.01296808099994,43.22021661000008],[-73.014124107999976,43.220357275000026],[-73.015207120999946,43.220489056000076],[-73.015480726999954,43.219685866000077],[-73.015639930999953,43.218498637000039],[-73.015365070999962,43.218587595000031],[-73.014139217999968,43.218781615000069],[-73.012741176999953,43.218832682000027],[-73.012960636999935,43.218273105000037],[-73.012824168999941,43.218248291000066],[-73.011792369999966,43.218060679000075]]],[[[-73.065053883999951,43.212610282000071],[-73.06505389199998,43.21261032600006],[-73.065089734999958,43.21281362600007],[-73.06531662499998,43.213036749000025],[-73.065378842999962,43.213335433000054],[-73.065537163999977,43.213577921000081],[-73.065838452999969,43.213763629000027],[-73.06584298599995,43.213764709000031],[-73.066276184999936,43.21372376100004],[-73.066492442999959,43.213772964000043],[-73.066521636999937,43.213775161000058],[-73.066891823999981,43.213788665000038],[-73.06710800999997,43.213858264000066],[-73.067204993999951,43.213897196000062],[-73.067319882999982,43.214063790000068],[-73.067486090999978,43.215155644000049],[-73.067295671999943,43.215461015000074],[-73.067245238999988,43.21652312100008],[-73.067178220999949,43.216606084000034],[-73.067692126999987,43.21675052900008],[-73.067813495999985,43.216885615000081],[-73.067808213999967,43.217213553000079],[-73.068062065999982,43.217143580000027],[-73.068406349999975,43.217462823000062],[-73.068893205999984,43.217638711000063],[-73.069023744999981,43.217736348000074],[-73.069170317999976,43.218023520000031],[-73.069582244999935,43.218198038000025],[-73.069675085999961,43.218334134000031],[-73.06965902099995,43.218524697000078],[-73.070037534999983,43.218942052000045],[-73.070295031999933,43.218842450000068],[-73.070961144999956,43.218572677000054],[-73.068439119999937,43.214132982000081],[-73.069740938999985,43.214032374000055],[-73.070056362999935,43.21400533800005],[-73.069984816999977,43.213705344000061],[-73.070643480999934,43.21360149000003],[-73.070871953999983,43.213593555000045],[-73.071205288999977,43.21367207600008],[-73.071552631999964,43.21364686000004],[-73.068943498999943,43.212692126000036],[-73.068035582999983,43.212672203000068],[-73.06542258099995,43.212617729000044],[-73.065053883999951,43.212610282000071]]],[[[-73.019613432999961,43.211845951000043],[-73.018427137999936,43.213007606000076],[-73.017424165999955,43.213852604000067],[-73.017075403999968,43.214074474000029],[-73.017471912999952,43.214340987000071],[-73.017616081999961,43.214387420000037],[-73.017763952999985,43.214371821000043],[-73.018232337999962,43.214237187000037],[-73.018592800999954,43.214315808000038],[-73.018811037999967,43.214473460000079],[-73.018952527999943,43.21521003600003],[-73.018816459999982,43.215414089000035],[-73.018044428999985,43.216154805000031],[-73.018017433999944,43.216281842000058],[-73.01807722999996,43.216412217000027],[-73.018226100999982,43.21651419300008],[-73.018175602999975,43.216577879000056],[-73.018436673999986,43.216670015000034],[-73.020701695999946,43.216249125000047],[-73.020997978999958,43.215980884000032],[-73.020626549999974,43.214861714000051],[-73.020437742999945,43.214783069000077],[-73.020956392999949,43.21406182000004],[-73.021556057999987,43.213195576000032],[-73.021629631999986,43.212846228000046],[-73.021752910999965,43.212640364000038],[-73.019613432999961,43.211845951000043]]]]},"properties":{"District_Name":"Rural Mixed Use District","Abbreviated_District_Name":"Rmu","OBJECTID":4,"OBJECT_ID":205,"County":"Bennington","RPC":"BCRC","Municipal_Name":"Dorset","GEO_ID":"5000317725","District_Type":"Mixed with Residential","Bylaw_Date":"2023-09-12","Elderly_Housing_District":"No","District_Mapped":"Yes","Overlay_District":"No","Base_Density":1,"FIPS6":3015,"GIS_ID":"gakerste","Last_Update":"2026-06-12","F1F_Allowance":"Permitted","F1F_Front_Setback":40,"F1F_Side_Setback":30,"F1F_Rear_Setback":30,"F1F_Frontage":180,"F1F_Max_Height":35,"F1F_Max_Stories":null,"F1F_Max_Lot_Building_Coverage":50,"F1F_Max_Density":null,"F1F_Min_Lot_Size":2,"F1F_Max_Lot_Impervious_Coverage":50,"F1F_Min_Parking_Spaces":1,"F1F_Elderly_Housing_Only":null,"F1F_Affordable_Housing_Only":null,"F2F_Allowance":"Permitted","F2F_Front_Setback":40,"F2F_Side_Setback":30,"F2F_Rear_Setback":30,"F2F_Frontage":180,"F2F_Max_Density":1,"F2F_Max_Height":35,"F2F_Max_Stories":null,"F2F_Max_Lot_Building_Coverage":50,"F2F_Min_Lot_Size":2,"F2F_Max_Lot_Impervious_Coverage":50,"F2F_Min_Parking_Spaces_per_1BR":1,"F2F_Min_Parking_Spaces_per_mult_BR":1,"F2F_Elderly_Housing_Only":"No","F2F_Affordable_Housing_Only":"No","F3F_Allowance":"Permitted","F3F_Front_Setback":40,"F3F_Side_Setback":30,"F3F_Rear_Setback":30,"F3F_Frontage":180,"F3F_Max_Density":1,"F3F_Max_Height":35,"F3F_Max_Stories":null,"F3F_Max_Lot_Building_Coverage":50,"F3F_Min_Lot_Size":3,"F3F_Max_Lot_Impervious_Coverage":50,"F3F_Min_Parking_Spaces_per_1BR":1,"F3F_Min_Parking_Spaces_per_mult_BR":1,"F3F_Affordable_Housing_Only":"No","F3F_Proximity_to_Public_Transit_Required":"No","F3F_Connection_to_Sewage_Water_Required":"No","F4F_Allowance":"Permitted","F4F_Front_Setback":40,"F4F_Side_Setback":30,"F4F_Rear_Setback":30,"F4F_Frontage":180,"F4F_Max_Density":1,"F4F_Max_Height":35,"F4F_Max_Stories":null,"F4F_Min_Lot_Size":4,"F4F_Max_Lot_Building_Coverage":50,"F4F_Max_Lot_Impervious_Coverage":50,"F4F_Min_Parking_Spaces_per_1BR":1,"F4F_Min_Parking_Spaces_per_mult_BR":1,"F3F_Elderly_Housing_Only":"No","F4F_Elderly_Housing_Only":"No","F4F_Affordable_Housing_Only":"No","F4F_Proximity_to_Public_Transit_Required":"No","F4F_Connection_to_Sewage_Water_Required":"No","ADU_Allowance":"Permitted","ADU_Elderly_Housing_Only":"No","ADU_Max_Size_as_Percent_of_Primary_Strcture":30,"ADU_Max_Size_in_sq_ft":900,"ADU_Min_Lot_Size":null,"ADU_Max_Bedrooms":null,"ADU_Min_Parking_Spaces":1,"ADU_Owner_Occupancy_Required":"Yes","ADU_Renter_Occupancy_Prohibited":"No","ADU_Employee_or_Family_Occupancy_Required":"No","ADU_Restricted_to_Primary_Structure":"No","Affordable_Housing_Allowance":"Not Mentioned","Affordable_Housing_District":"No","Affordable_Housing_Elderly_Only":"No","Affordable_Housing_Min_Lot_Size":null,"Affordable_Housing_Max_Density":null,"Affordable_Housing_Min_Parking_Spaces_per_mult_BR":null,"Affordable_Housing_Max_Units_per_Building":null,"Affordable_Housing_Min_Parking_Spaces_per_1BR":null,"PRD_Allowance":"Public Hearing","PRD_Max_Density":1,"PRD_Max_Units":null,"PRD_Min_Lot_Size":3,"PRD_Mobile_or_Manufactured_Home_Park":"Yes","PUD_Allowance":"Yes","PUD_Required_with_Subdivision":"Yes","PUD_Requires_Land_Conservation":"Yes","PUD_Threshold_Number":null,"Notes":"Multi-unit dwelling requires site plan for approval","Shape_Length":0.38904549185211684,"Shape_Area":0.00052986029076575766}}]}