{
  "type": "FeatureCollection",
  "crs": {
    "type": "name",
    "properties": {
      "name": "urn:ogc:def:crs:OGC:1.3:CRS84"
    }
  },
  "features": [
    {
      "type": "Feature",
      "properties": {
        "ABB_DIST_NAME": "CF",
        "Jurisdiction_County": "Essex",
        "Jurisdiction_District_Name": "Canaan"
      },
      "geometry": {
        "type": "Polygon",
        "coordinates": [
          [
            [
              -71.51497250455158,
              45.0043497942558
            ],
            [
              -71.51453199658658,
              45.00443759894327
            ],
            [
              -71.5142847650705,
              45.004527253089066
            ],
            [
              -71.51391969509861,
              45.00468355629781
            ],
            [
              -71.51361457960711,
              45.004864314399015
            ],
            [
              -71.51327528362431,
              45.005077978622815
            ],
            [
              -71.51289165760096,
              45.005331846111595
            ],
            [
              -71.51267713099081,
              45.00551095326949
            ],
            [
              -71.51250639646288,
              45.00568090015691
            ],
            [
              -71.51229488340252,
              45.00588379174938
            ],
            [
              -71.51205387407421,
              45.00603882317067
            ],
            [
              -71.51184672097895,
              45.00617992829978
            ],
            [
              -71.5116161014569,
              45.006320740859614
            ],
            [
              -71.51138230352778,
              45.00644730758725
            ],
            [
              -71.5111387287356,
              45.00655948223939
            ],
            [
              -71.51103974824302,
              45.00660387923541
            ],
            [
              -71.51159055724189,
              45.007214995960226
            ],
            [
              -71.51128126629243,
              45.00732137477607
            ],
            [
              -71.51003908216228,
              45.00803765510731
            ],
            [
              -71.5070836137619,
              45.01151997322064
            ],
            [
              -71.50952839374423,
              45.012395477196975
            ],
            [
              -71.50958871263424,
              45.013366101877374
            ],
            [
              -71.51587894642124,
              45.01329937617402
            ],
            [
              -71.51878035487948,
              45.01325029164069
            ],
            [
              -71.52698817712316,
              45.01311603681699
            ],
            [
              -71.538839134867,
              45.0129604762871
            ],
            [
              -71.53952848669257,
              45.01295135926796
            ],
            [
              -71.53595083728406,
              45.00967253095311
            ],
            [
              -71.53627584037636,
              45.00939127373151
            ],
            [
              -71.52974667917871,
              45.00484877306226
            ],
            [
              -71.52473117155107,
              45.00227681093214
            ],
            [
              -71.52463198077082,
              45.002320903895985
            ],
            [
              -71.52439932276215,
              45.00239036571678
            ],
            [
              -71.52412686249218,
              45.00242844431515
            ],
            [
              -71.5237878336211,
              45.00242797444166
            ],
            [
              -71.52325853512107,
              45.00237584564714
            ],
            [
              -71.52268614081528,
              45.00229230026267
            ],
            [
              -71.52229755577007,
              45.002244790666
            ],
            [
              -71.52197908089855,
              45.00222910641402
            ],
            [
              -71.52160232402528,
              45.0022692516555
            ],
            [
              -71.52121278707129,
              45.00238347273206
            ],
            [
              -71.52101224402213,
              45.002442277653614
            ],
            [
              -71.52048870781631,
              45.00262540905502
            ],
            [
              -71.51972304911912,
              45.00286693256613
            ],
            [
              -71.51929354543614,
              45.0029875160822
            ],
            [
              -71.51921248674226,
              45.00301030728408
            ],
            [
              -71.51856878761902,
              45.00324747125478
            ],
            [
              -71.51815204553162,
              45.00338525666464
            ],
            [
              -71.51774926274707,
              45.0034856362849
            ],
            [
              -71.51747561196889,
              45.00359279563222
            ],
            [
              -71.51720876050203,
              45.00369533264459
            ],
            [
              -71.51691555517817,
              45.0037665986475
            ],
            [
              -71.51678767670015,
              45.003856682733485
            ],
            [
              -71.51678254500678,
              45.00386029829752
            ],
            [
              -71.51672194592095,
              45.00390297090578
            ],
            [
              -71.51651919945331,
              45.00398818875461
            ],
            [
              -71.51648865577309,
              45.004001026822905
            ],
            [
              -71.51619595174526,
              45.00414653227889
            ],
            [
              -71.51593062780398,
              45.004248542234976
            ],
            [
              -71.51532184345027,
              45.00432662099612
            ],
            [
              -71.51524147391596,
              45.004316390305114
            ],
            [
              -71.51497250455158,
              45.0043497942558
            ]
          ]
        ]
      }
    }
  ]
}