{
  "type": "FeatureCollection",
  "crs": {
    "type": "name",
    "properties": {
      "name": "urn:ogc:def:crs:OGC:1.3:CRS84"
    }
  },
  "features": [
    {
      "type": "Feature",
      "properties": {
        "ABB_DIST_NAME": "HPO",
        "Jurisdiction_County": "Orange",
        "Jurisdiction_District_Name": "Thetford"
      },
      "geometry": {
        "type": "Polygon",
        "coordinates": [
          [
            [
              -72.23095271888485,
              43.82053379695275
            ],
            [
              -72.23152181799244,
              43.820071034689825
            ],
            [
              -72.22975067987134,
              43.81921005835239
            ],
            [
              -72.23067942830131,
              43.81551729228809
            ],
            [
              -72.23179855894806,
              43.81553012251508
            ],
            [
              -72.23216821785402,
              43.81334308432643
            ],
            [
              -72.22842311084274,
              43.8129593954103
            ],
            [
              -72.22829565356116,
              43.81388729562003
            ],
            [
              -72.22888685498909,
              43.81397794964832
            ],
            [
              -72.22863453291455,
              43.815262554009536
            ],
            [
              -72.22722976083367,
              43.81518781059343
            ],
            [
              -72.22667189303756,
              43.818595835678934
            ],
            [
              -72.2237665552617,
              43.817803448454605
            ],
            [
              -72.22464067120258,
              43.8173376282358
            ],
            [
              -72.22298371950873,
              43.816498500354776
            ],
            [
              -72.22147658839874,
              43.81722668918713
            ],
            [
              -72.22361279887691,
              43.81907042921231
            ],
            [
              -72.22752692669211,
              43.82031148044298
            ],
            [
              -72.22785057749454,
              43.81961610071014
            ],
            [
              -72.23095271888485,
              43.82053379695275
            ]
          ]
        ]
      }
    }
  ]
}