{
  "type": "FeatureCollection",
  "crs": {
    "type": "name",
    "properties": {
      "name": "urn:ogc:def:crs:OGC:1.3:CRS84"
    }
  },
  "features": [
    {
      "type": "Feature",
      "properties": {
        "ABB_DIST_NAME": "RCO",
        "Jurisdiction_County": "Orleans",
        "Jurisdiction_District_Name": "Troy"
      },
      "geometry": {
        "type": "MultiPolygon",
        "coordinates": [
          [
            [
              [
                -72.40407130021673,
                44.84841655370856
              ],
              [
                -72.40568151509216,
                44.84992937900156
              ],
              [
                -72.40547671986864,
                44.84823706448014
              ],
              [
                -72.40421225486796,
                44.84756943879319
              ],
              [
                -72.40324098470468,
                44.847423120837895
              ],
              [
                -72.40133209077706,
                44.84739723745566
              ],
              [
                -72.40027498299511,
                44.8476145689772
              ],
              [
                -72.39935007578195,
                44.8478797103232
              ],
              [
                -72.39845130505199,
                44.84758871179355
              ],
              [
                -72.3986562808369,
                44.84733426958339
              ],
              [
                -72.39843764886305,
                44.84566082827123
              ],
              [
                -72.39607269463872,
                44.84337920319932
              ],
              [
                -72.39593838213071,
                44.84225145759135
              ],
              [
                -72.39539478729777,
                44.84128134459053
              ],
              [
                -72.3945775243068,
                44.841293586362085
              ],
              [
                -72.39537308130556,
                44.843851439167594
              ],
              [
                -72.39736310927302,
                44.846108492076475
              ],
              [
                -72.39734272021101,
                44.847614947927944
              ],
              [
                -72.39500951873703,
                44.84696722577484
              ],
              [
                -72.39397000625655,
                44.84613206724499
              ],
              [
                -72.39198803977047,
                44.84580949899739
              ],
              [
                -72.3908842860691,
                44.84547732170907
              ],
              [
                -72.39021964504825,
                44.845088685314586
              ],
              [
                -72.38884535741084,
                44.84504079592308
              ],
              [
                -72.38569035465707,
                44.845006156994245
              ],
              [
                -72.38497516184194,
                44.844690189258266
              ],
              [
                -72.38344327466939,
                44.843694387689084
              ],
              [
                -72.38184183184272,
                44.843401741911926
              ],
              [
                -72.37978030067362,
                44.84308434117353
              ],
              [
                -72.37822272437889,
                44.842826676508125
              ],
              [
                -72.37725841885401,
                44.84257708973531
              ],
              [
                -72.37564088989554,
                44.842158409761616
              ],
              [
                -72.37377830861239,
                44.84218032983437
              ],
              [
                -72.37132558988314,
                44.84158412750839
              ],
              [
                -72.37108635055667,
                44.84253862763653
              ],
              [
                -72.37334713254738,
                44.84279893946078
              ],
              [
                -72.37551056321243,
                44.84289012446807
              ],
              [
                -72.37717407333703,
                44.843276751499516
              ],
              [
                -72.37879643074015,
                44.843456096949765
              ],
              [
                -72.38317357526827,
                44.84432385342636
              ],
              [
                -72.3860733594633,
                44.845785569573664
              ],
              [
                -72.38948243632213,
                44.8455994667094
              ],
              [
                -72.39360800136673,
                44.846777991900375
              ],
              [
                -72.39483140976564,
                44.84766955311011
              ],
              [
                -72.39677459238766,
                44.84818284833623
              ],
              [
                -72.39805207846837,
                44.84865762747687
              ],
              [
                -72.40007584176799,
                44.848810978533194
              ],
              [
                -72.40138158525427,
                44.84835742672301
              ],
              [
                -72.40407130021673,
                44.84841655370856
              ]
            ]
          ],
          [
            [
              [
                -72.35148417950424,
                44.99560578500393
              ],
              [
                -72.35336098381326,
                44.99581541892503
              ],
              [
                -72.35665255115146,
                44.997506867218775
              ],
              [
                -72.3580669359899,
                44.99916630162136
              ],
              [
                -72.36022995612487,
                45.00183307721751
              ],
              [
                -72.36397900669117,
                45.00438330594033
              ],
              [
                -72.36450127641757,
                45.00608861660651
              ],
              [
                -72.36810282451256,
                45.00620788129889
              ],
              [
                -72.36660688073117,
                45.00504511458631
              ],
              [
                -72.36502546494543,
                45.002963690671805
              ],
              [
                -72.36367485779722,
                45.00219157931281
              ],
              [
                -72.36221235290397,
                45.00086488079538
              ],
              [
                -72.35982037645759,
                44.99869484760907
              ],
              [
                -72.35846043850853,
                44.99659503647987
              ],
              [
                -72.35616776632523,
                44.995171313130584
              ],
              [
                -72.35282712761632,
                44.99450720320546
              ],
              [
                -72.35235234463248,
                44.994143426029126
              ],
              [
                -72.35112854816136,
                44.9924557505384
              ],
              [
                -72.34986666402048,
                44.99196271819496
              ],
              [
                -72.34677866570546,
                44.99234343333408
              ],
              [
                -72.34560997908038,
                44.992578669194685
              ],
              [
                -72.34273762584088,
                44.9903546567998
              ],
              [
                -72.34136210301996,
                44.989967938054974
              ],
              [
                -72.34083545490486,
                44.98901337474628
              ],
              [
                -72.33848730366793,
                44.987531869222295
              ],
              [
                -72.33859568271203,
                44.98696367785406
              ],
              [
                -72.33734746194665,
                44.98466958435201
              ],
              [
                -72.33764372453071,
                44.98374170920998
              ],
              [
                -72.33623086772657,
                44.983057678177076
              ],
              [
                -72.33644619659512,
                44.982432807419706
              ],
              [
                -72.33618125557005,
                44.98173146943242
              ],
              [
                -72.33762580044584,
                44.98063473191331
              ],
              [
                -72.33754984070205,
                44.97917587155167
              ],
              [
                -72.33597763085136,
                44.97874818808474
              ],
              [
                -72.33512533625924,
                44.982107103223534
              ],
              [
                -72.33486102405487,
                44.983808383301394
              ],
              [
                -72.33598694817748,
                44.98434557661609
              ],
              [
                -72.33694344285097,
                44.98593831078853
              ],
              [
                -72.3368566934423,
                44.98828734366488
              ],
              [
                -72.33920227100593,
                44.98961680669913
              ],
              [
                -72.33997337586267,
                44.990735633567446
              ],
              [
                -72.34216023638697,
                44.99159119265493
              ],
              [
                -72.34535689491877,
                44.99361437030057
              ],
              [
                -72.34961242103215,
                44.99347204678583
              ],
              [
                -72.35148417950424,
                44.99560578500393
              ]
            ]
          ],
          [
            [
              [
                -72.39337004483448,
                45.006469181370434
              ],
              [
                -72.39652642829884,
                45.006586372200275
              ],
              [
                -72.39967377560976,
                45.006703139793466
              ],
              [
                -72.40488492592914,
                45.00689628392647
              ],
              [
                -72.40823725261819,
                45.00702010587903
              ],
              [
                -72.40674606182299,
                45.006079162586666
              ],
              [
                -72.40546454500159,
                45.00588866168988
              ],
              [
                -72.40471716015993,
                45.00567964831798
              ],
              [
                -72.40314165349214,
                45.00564043401102
              ],
              [
                -72.40057867195164,
                45.00525933656969
              ],
              [
                -72.39985732388018,
                45.00544815388603
              ],
              [
                -72.39852270315077,
                45.00510597007498
              ],
              [
                -72.39721561488652,
                45.00430912154985
              ],
              [
                -72.39526605602262,
                45.004402074168745
              ],
              [
                -72.39548068600187,
                45.00385287308249
              ],
              [
                -72.39791254135866,
                45.00283205557571
              ],
              [
                -72.39964942407903,
                45.00155065570466
              ],
              [
                -72.40038617196942,
                45.00046008150728
              ],
              [
                -72.40081438898389,
                44.99989059607742
              ],
              [
                -72.4001836467886,
                44.99899282185494
              ],
              [
                -72.40079291835026,
                44.99716892318435
              ],
              [
                -72.40004546254171,
                44.995155388471794
              ],
              [
                -72.40021706142221,
                44.99243222516655
              ],
              [
                -72.3997173430027,
                44.99192856605384
              ],
              [
                -72.39967697001892,
                44.99115889802229
              ],
              [
                -72.3977609587393,
                44.98952912994034
              ],
              [
                -72.39262967403857,
                44.989761231255834
              ],
              [
                -72.3909631213201,
                44.98869400723604
              ],
              [
                -72.39037901875606,
                44.98875265072107
              ],
              [
                -72.38851513581409,
                44.98795161214818
              ],
              [
                -72.3879561743999,
                44.98709854838234
              ],
              [
                -72.38907919337088,
                44.98617134918444
              ],
              [
                -72.3908476994842,
                44.983572876352135
              ],
              [
                -72.38968095950834,
                44.98297972942689
              ],
              [
                -72.38960089176875,
                44.98123317575614
              ],
              [
                -72.38784961174932,
                44.98099465906703
              ],
              [
                -72.38810446559206,
                44.97862680422633
              ],
              [
                -72.38910684171867,
                44.97788774895123
              ],
              [
                -72.38898395218781,
                44.97673317818733
              ],
              [
                -72.38931952774367,
                44.97572705839008
              ],
              [
                -72.3902814320718,
                44.97430712273977
              ],
              [
                -72.39099246029728,
                44.97321255389172
              ],
              [
                -72.38849227099514,
                44.97220369427324
              ],
              [
                -72.38698892060425,
                44.973267865394156
              ],
              [
                -72.38586407266335,
                44.97270432120063
              ],
              [
                -72.38607656734719,
                44.97069164167594
              ],
              [
                -72.38520363216477,
                44.96929950339292
              ],
              [
                -72.38553911160089,
                44.96835259630227
              ],
              [
                -72.38772903538032,
                44.966694725591594
              ],
              [
                -72.38837171438908,
                44.96555866212004
              ],
              [
                -72.38906679033174,
                44.96491521357407
              ],
              [
                -72.39064576449653,
                44.96422259533874
              ],
              [
                -72.3910571659472,
                44.96342275665343
              ],
              [
                -72.39156908258994,
                44.96365361363088
              ],
              [
                -72.39271354165182,
                44.96354557166918
              ],
              [
                -72.39377669150235,
                44.963310220484125
              ],
              [
                -72.39377891842594,
                44.96210341426844
              ],
              [
                -72.39410300632595,
                44.96084724313773
              ],
              [
                -72.39436743890455,
                44.96037807435528
              ],
              [
                -72.39515196459163,
                44.959778074188094
              ],
              [
                -72.39556987253991,
                44.95891074655806
              ],
              [
                -72.39597815414159,
                44.95840892750551
              ],
              [
                -72.39620274104746,
                44.95798957917986
              ],
              [
                -72.39668710007226,
                44.95749418384
              ],
              [
                -72.3965223939649,
                44.956979128951545
              ],
              [
                -72.39661643499875,
                44.9569601436818
              ],
              [
                -72.39740331696682,
                44.9575107215816
              ],
              [
                -72.39816595879525,
                44.95753842050822
              ],
              [
                -72.3989838721665,
                44.957797394082306
              ],
              [
                -72.39986451219909,
                44.95819050725013
              ],
              [
                -72.4010455434728,
                44.95881232339121
              ],
              [
                -72.40129210406882,
                44.95932468571469
              ],
              [
                -72.40199088466372,
                44.95973655856173
              ],
              [
                -72.40228526887053,
                44.96015584136107
              ],
              [
                -72.4022192040696,
                44.960442899194796
              ],
              [
                -72.40130021316091,
                44.96096977699457
              ],
              [
                -72.40092696136372,
                44.96192391290073
              ],
              [
                -72.40080971684608,
                44.964206109744204
              ],
              [
                -72.40213824969283,
                44.96757944534501
              ],
              [
                -72.40371147643643,
                44.96835752249343
              ],
              [
                -72.40397901269432,
                44.967959905497786
              ],
              [
                -72.40261999192518,
                44.96676522722513
              ],
              [
                -72.4015364862503,
                44.96341432719019
              ],
              [
                -72.4016261417089,
                44.96211851289859
              ],
              [
                -72.4019223468008,
                44.96147470159432
              ],
              [
                -72.4026991748242,
                44.96099425665638
              ],
              [
                -72.40308231527604,
                44.96063763070864
              ],
              [
                -72.40317033939411,
                44.960288512689544
              ],
              [
                -72.4038477912892,
                44.96039772274182
              ],
              [
                -72.40421879011166,
                44.960762746345935
              ],
              [
                -72.40453373226374,
                44.96239208954937
              ],
              [
                -72.40569456401997,
                44.962684047618154
              ],
              [
                -72.40702738452555,
                44.96223652539411
              ],
              [
                -72.40786457664112,
                44.96200683353712
              ],
              [
                -72.40909474486256,
                44.96165620215188
              ],
              [
                -72.41116079096427,
                44.96190032287785
              ],
              [
                -72.4118013804917,
                44.96246049701517
              ],
              [
                -72.41300271728409,
                44.963097724375146
              ],
              [
                -72.41388770695929,
                44.96333118993785
              ],
              [
                -72.41481711383369,
                44.963099091580425
              ],
              [
                -72.41575714777794,
                44.963068749912246
              ],
              [
                -72.4160962860522,
                44.962859483747366
              ],
              [
                -72.41620643387908,
                44.96227757774927
              ],
              [
                -72.41621780475394,
                44.96197495244009
              ],
              [
                -72.41681893757914,
                44.96198315201818
              ],
              [
                -72.41844683129935,
                44.962449915833545
              ],
              [
                -72.42035881543154,
                44.96300221315066
              ],
              [
                -72.4218469052424,
                44.96309756038675
              ],
              [
                -72.4216580632,
                44.962364427289415
              ],
              [
                -72.41946039414623,
                44.96210047259664
              ],
              [
                -72.41814642299025,
                44.96137205459552
              ],
              [
                -72.4157730740096,
                44.96105508582482
              ],
              [
                -72.41479644719227,
                44.96177350941514
              ],
              [
                -72.41447513867978,
                44.96251212021227
              ],
              [
                -72.41223537008018,
                44.96137372758137
              ],
              [
                -72.4117834833563,
                44.96023668535641
              ],
              [
                -72.41095661737491,
                44.960027649771874
              ],
              [
                -72.40956792076035,
                44.96076540967613
              ],
              [
                -72.40831381513155,
                44.96074546520734
              ],
              [
                -72.40737903184015,
                44.96127516816434
              ],
              [
                -72.4060711153292,
                44.96152038316179
              ],
              [
                -72.40602025271781,
                44.95998580442469
              ],
              [
                -72.40308683559856,
                44.95894138346447
              ],
              [
                -72.40156830817092,
                44.95753816115267
              ],
              [
                -72.40082058556271,
                44.95789746792181
              ],
              [
                -72.39770187564474,
                44.95613283980058
              ],
              [
                -72.39829014190012,
                44.95541345878098
              ],
              [
                -72.39885141378122,
                44.954864554276256
              ],
              [
                -72.39850656401838,
                44.95372755279522
              ],
              [
                -72.39845504024694,
                44.952685536045685
              ],
              [
                -72.39925577154175,
                44.952496796012156
              ],
              [
                -72.39955119959092,
                44.95137930564006
              ],
              [
                -72.40139652064418,
                44.94878545752267
              ],
              [
                -72.40209105490274,
                44.94825559666953
              ],
              [
                -72.40233334131463,
                44.946967547657884
              ],
              [
                -72.40233446510706,
                44.94630447519765
              ],
              [
                -72.4017484437416,
                44.945792458851685
              ],
              [
                -72.40156361627018,
                44.94467454801159
              ],
              [
                -72.40175261192451,
                44.94334856372821
              ],
              [
                -72.40204665656813,
                44.94298886193759
              ],
              [
                -72.40210113400023,
                44.942325835081405
              ],
              [
                -72.40231575589465,
                44.941606109950094
              ],
              [
                -72.40253043707787,
                44.94084849506905
              ],
              [
                -72.40280924898924,
                44.93962559812062
              ],
              [
                -72.40180973309846,
                44.93918072000205
              ],
              [
                -72.4031036835017,
                44.938027366187136
              ],
              [
                -72.40335443923013,
                44.93761315704437
              ],
              [
                -72.40231382990669,
                44.93684263212041
              ],
              [
                -72.40327729820173,
                44.933912899597395
              ],
              [
                -72.40240344943268,
                44.93314251580552
              ],
              [
                -72.4020732323275,
                44.93127733527619
              ],
              [
                -72.40140556847574,
                44.93180958887204
              ],
              [
                -72.40082465133769,
                44.930358609161125
              ],
              [
                -72.40015847509603,
                44.93003241147051
              ],
              [
                -72.39874025355302,
                44.93083040506825
              ],
              [
                -72.39874113749526,
                44.93032717919719
              ],
              [
                -72.40041049655068,
                44.9288781705008
              ],
              [
                -72.39982875925078,
                44.92793041126089
              ],
              [
                -72.40058141540653,
                44.92642138833889
              ],
              [
                -72.40020727068396,
                44.925917835083084
              ],
              [
                -72.39991934536403,
                44.92375666656553
              ],
              [
                -72.39942099957028,
                44.92280897738525
              ],
              [
                -72.40017313829641,
                44.9215663698054
              ],
              [
                -72.40092651579934,
                44.91958371779077
              ],
              [
                -72.39805644338233,
                44.91691704528237
              ],
              [
                -72.39669786099103,
                44.91627746994335
              ],
              [
                -72.39672666547062,
                44.915021345492285
              ],
              [
                -72.39510315463066,
                44.91433902816191
              ],
              [
                -72.39478720456883,
                44.91323210481425
              ],
              [
                -72.39552329219748,
                44.91238570383263
              ],
              [
                -72.39534393187292,
                44.91064135944374
              ],
              [
                -72.39622563012091,
                44.90917829654158
              ],
              [
                -72.39584719504452,
                44.90836806032188
              ],
              [
                -72.39579763139704,
                44.90776509566781
              ],
              [
                -72.3979218658713,
                44.90727388785485
              ],
              [
                -72.39768496755447,
                44.90496313332513
              ],
              [
                -72.39811312078855,
                44.904042027310034
              ],
              [
                -72.39865917251379,
                44.90398188852173
              ],
              [
                -72.39941160139577,
                44.90297619065803
              ],
              [
                -72.40011534787756,
                44.90297529286758
              ],
              [
                -72.40168843268734,
                44.90278720704528
              ],
              [
                -72.40323472344716,
                44.902674856774695
              ],
              [
                -72.40432837649148,
                44.90224004103078
              ],
              [
                -72.4052081083273,
                44.90220288436155
              ],
              [
                -72.40718033348244,
                44.90243184518743
              ],
              [
                -72.40864711345816,
                44.90201623593697
              ],
              [
                -72.4104465413802,
                44.90268211167188
              ],
              [
                -72.41050811640135,
                44.90179872354235
              ],
              [
                -72.4083818723958,
                44.90118243904574
              ],
              [
                -72.4067550503657,
                44.90167369509282
              ],
              [
                -72.40475654140367,
                44.901236308765384
              ],
              [
                -72.40545450722661,
                44.89824356226993
              ],
              [
                -72.40620235110737,
                44.89731586808507
              ],
              [
                -72.40716416380735,
                44.89591471583451
              ],
              [
                -72.40887086942237,
                44.89536668196065
              ],
              [
                -72.40997177097275,
                44.89546192135744
              ],
              [
                -72.40982681522524,
                44.893749063850436
              ],
              [
                -72.40898053215902,
                44.89343436715847
              ],
              [
                -72.40732743350854,
                44.89383088529374
              ],
              [
                -72.40580751459053,
                44.894265379625175
              ],
              [
                -72.40476642287179,
                44.895249662179225
              ],
              [
                -72.40409829279439,
                44.89632897494087
              ],
              [
                -72.40289669908383,
                44.897616227185864
              ],
              [
                -72.40254839799367,
                44.89867685687317
              ],
              [
                -72.40217314025844,
                44.8999079680934
              ],
              [
                -72.40038780600491,
                44.89956541277937
              ],
              [
                -72.39950794660831,
                44.89969725757527
              ],
              [
                -72.39894589229459,
                44.90100397396254
              ],
              [
                -72.39806848529872,
                44.899733872450454
              ],
              [
                -72.39452697790239,
                44.89772247531839
              ],
              [
                -72.39354047949838,
                44.8978731210736
              ],
              [
                -72.3916752966942,
                44.89753035509845
              ],
              [
                -72.39109111597674,
                44.896355202229095
              ],
              [
                -72.38682879410821,
                44.895176461058334
              ],
              [
                -72.38504067867055,
                44.89634927269304
              ],
              [
                -72.38090932308563,
                44.89634503903698
              ],
              [
                -72.3796061281198,
                44.8949796244812
              ],
              [
                -72.37734350009119,
                44.89361316820077
              ],
              [
                -72.37742711976941,
                44.89188925159796
              ],
              [
                -72.375854580237,
                44.89192544314657
              ],
              [
                -72.37535142755814,
                44.890428229739285
              ],
              [
                -72.37514022644835,
                44.88949968712566
              ],
              [
                -72.37526791837271,
                44.88862077237661
              ],
              [
                -72.37593425720944,
                44.888088002849045
              ],
              [
                -72.37714846326661,
                44.886573703676014
              ],
              [
                -72.37785030891322,
                44.88536196704252
              ],
              [
                -72.37851781106825,
                44.88424718837138
              ],
              [
                -72.37865636542105,
                44.88324096902149
              ],
              [
                -72.37841892901336,
                44.88261022155689
              ],
              [
                -72.37713982057524,
                44.88262097721615
              ],
              [
                -72.37618422601366,
                44.88287456844725
              ],
              [
                -72.37625161223637,
                44.88326263795356
              ],
              [
                -72.37647039782215,
                44.883354539238326
              ],
              [
                -72.3776493629707,
                44.883285968772334
              ],
              [
                -72.37764875481126,
                44.883573086327345
              ],
              [
                -72.37750541064138,
                44.88425580703869
              ],
              [
                -72.37715468859152,
                44.88493054456336
              ],
              [
                -72.37602613060851,
                44.886507319474724
              ],
              [
                -72.37511779821065,
                44.887548312718245
              ],
              [
                -72.37404841495034,
                44.88910064049189
              ],
              [
                -72.37441966799602,
                44.88995358055524
              ],
              [
                -72.37465561679359,
                44.89175362711639
              ],
              [
                -72.37009686794931,
                44.892712075011225
              ],
              [
                -72.36913315890577,
                44.894191354416215
              ],
              [
                -72.36809213725562,
                44.89487218063379
              ],
              [
                -72.3648386261461,
                44.89564512671198
              ],
              [
                -72.35914930260101,
                44.90060187080033
              ],
              [
                -72.35662525045167,
                44.9003877814835
              ],
              [
                -72.3565029951314,
                44.900841324916
              ],
              [
                -72.35968099026485,
                44.90118982329997
              ],
              [
                -72.36552822416218,
                44.896187771189986
              ],
              [
                -72.36858325879787,
                44.895500209380685
              ],
              [
                -72.37001811803825,
                44.89462886051811
              ],
              [
                -72.37073762186843,
                44.89325956588968
              ],
              [
                -72.37328018649914,
                44.8928137947301
              ],
              [
                -72.37440661098336,
                44.89252404152802
              ],
              [
                -72.37634144825638,
                44.89258683397505
              ],
              [
                -72.37635625698384,
                44.894123621613325
              ],
              [
                -72.37994848236279,
                44.896969222168146
              ],
              [
                -72.38549210276209,
                44.897202256071495
              ],
              [
                -72.38743938170178,
                44.89642744223061
              ],
              [
                -72.39015703876115,
                44.89697949661046
              ],
              [
                -72.39092732435434,
                44.89840111847895
              ],
              [
                -72.39265911452539,
                44.89881955114954
              ],
              [
                -72.39396524788049,
                44.898801826298175
              ],
              [
                -72.39732054709485,
                44.900623622275084
              ],
              [
                -72.39777218588371,
                44.90147655688151
              ],
              [
                -72.39542337708001,
                44.90316054409451
              ],
              [
                -72.39512708395321,
                44.90484638503199
              ],
              [
                -72.3950449042744,
                44.90605879532704
              ],
              [
                -72.39397672206162,
                44.907061897507475
              ],
              [
                -72.39417652983869,
                44.90824465516298
              ],
              [
                -72.39453199858652,
                44.90873982403051
              ],
              [
                -72.39399573041302,
                44.90939115959632
              ],
              [
                -72.39473643089066,
                44.909839238267246
              ],
              [
                -72.39365014133672,
                44.911584729865815
              ],
              [
                -72.39158256450573,
                44.91278417283069
              ],
              [
                -72.3923122291801,
                44.91418842237124
              ],
              [
                -72.39272557638168,
                44.91593530860973
              ],
              [
                -72.39417068989103,
                44.91622770083642
              ],
              [
                -72.39493052897579,
                44.91762465138998
              ],
              [
                -72.39659174749809,
                44.91799247747713
              ],
              [
                -72.39706107950481,
                44.91879330234259
              ],
              [
                -72.39800860270356,
                44.92040999447973
              ],
              [
                -72.39611019391194,
                44.92209289972781
              ],
              [
                -72.3971271056782,
                44.92407980298873
              ],
              [
                -72.3972444445189,
                44.928378059181114
              ],
              [
                -72.39577557416357,
                44.92953237379933
              ],
              [
                -72.39566635968627,
                44.93093420437934
              ],
              [
                -72.39558470192863,
                44.93184348936532
              ],
              [
                -72.3953428799457,
                44.932828408056736
              ],
              [
                -72.39592898754947,
                44.93318889847958
              ],
              [
                -72.39878228033528,
                44.93347563777467
              ],
              [
                -72.40011652377227,
                44.93307896763373
              ],
              [
                -72.40075703065467,
                44.93205935158743
              ],
              [
                -72.40206082749175,
                44.93465308551899
              ],
              [
                -72.40117806384183,
                44.936167923803595
              ],
              [
                -72.4004560779665,
                44.93722821605063
              ],
              [
                -72.39864769833265,
                44.9384350945615
              ],
              [
                -72.39906814491994,
                44.939469806281835
              ],
              [
                -72.39963568524507,
                44.94086644858092
              ],
              [
                -72.40101113889573,
                44.94118334828378
              ],
              [
                -72.40111994374125,
                44.941437607683426
              ],
              [
                -72.40009514836007,
                44.941715585735224
              ],
              [
                -72.40005915376496,
                44.94278253450945
              ],
              [
                -72.40080816096402,
                44.94404416353551
              ],
              [
                -72.40055129758998,
                44.944492556931536
              ],
              [
                -72.40034556452531,
                44.94498949318312
              ],
              [
                -72.40000398013852,
                44.945061943553114
              ],
              [
                -72.39921773417765,
                44.945570492360254
              ],
              [
                -72.39967784138473,
                44.94606801312021
              ],
              [
                -72.40064116954258,
                44.94708120880577
              ],
              [
                -72.4008423194027,
                44.94760693517905
              ],
              [
                -72.40031620488688,
                44.94853765898815
              ],
              [
                -72.39975666585597,
                44.949826759282224
              ],
              [
                -72.3988339271759,
                44.950238187247905
              ],
              [
                -72.39849288716819,
                44.949983264947356
              ],
              [
                -72.39734903267251,
                44.94990949395783
              ],
              [
                -72.39683615034082,
                44.950272774285835
              ],
              [
                -72.39629011568358,
                44.950724356272985
              ],
              [
                -72.39637700163618,
                44.951016516119786
              ],
              [
                -72.39501460140491,
                44.95198146295346
              ],
              [
                -72.39567960175187,
                44.95308087811976
              ],
              [
                -72.39535127110878,
                44.953527874815634
              ],
              [
                -72.39554410526429,
                44.95423639481325
              ],
              [
                -72.394423723747,
                44.95412169509307
              ],
              [
                -72.39239286195999,
                44.95502259795564
              ],
              [
                -72.39292354890061,
                44.95737882444165
              ],
              [
                -72.3942563343719,
                44.95809997277423
              ],
              [
                -72.39310743942917,
                44.9589324791405
              ],
              [
                -72.3927048666211,
                44.96018246540455
              ],
              [
                -72.39200946189506,
                44.961053275532244
              ],
              [
                -72.39115572191365,
                44.96097668573693
              ],
              [
                -72.39040839456418,
                44.96107069514681
              ],
              [
                -72.38963518046315,
                44.96074788763082
              ],
              [
                -72.3890731063865,
                44.961637752994505
              ],
              [
                -72.38824431711213,
                44.962451575439935
              ],
              [
                -72.38769333453428,
                44.963560670555424
              ],
              [
                -72.3877987527312,
                44.964299449659904
              ],
              [
                -72.38692250007045,
                44.96462420118736
              ],
              [
                -72.38600237189459,
                44.966044152848234
              ],
              [
                -72.38341253342206,
                44.96832084393628
              ],
              [
                -72.38444662816306,
                44.97063904585182
              ],
              [
                -72.38465441926806,
                44.97285111241116
              ],
              [
                -72.38676586802089,
                44.97445207710047
              ],
              [
                -72.3873098446378,
                44.97579845701252
              ],
              [
                -72.38589309543354,
                44.977415698581495
              ],
              [
                -72.38478415665634,
                44.97893930027669
              ],
              [
                -72.38484765586884,
                44.97965014033325
              ],
              [
                -72.38388686634997,
                44.97997664959366
              ],
              [
                -72.38404226141938,
                44.98194165035437
              ],
              [
                -72.38573046173957,
                44.98207431259837
              ],
              [
                -72.3857761374785,
                44.982549632498525
              ],
              [
                -72.38419254687147,
                44.98336952549058
              ],
              [
                -72.38448577494651,
                44.98705947511194
              ],
              [
                -72.3849792383967,
                44.988066321744085
              ],
              [
                -72.38634357719235,
                44.98934077858407
              ],
              [
                -72.38776018266614,
                44.99013028330909
              ],
              [
                -72.38888663679478,
                44.99077399278793
              ],
              [
                -72.39045801570383,
                44.991078627452566
              ],
              [
                -72.39141342251752,
                44.99184339398884
              ],
              [
                -72.39274576332275,
                44.992075021533665
              ],
              [
                -72.39392489196467,
                44.99200337508602
              ],
              [
                -72.39457470359679,
                44.991725108879436
              ],
              [
                -72.39657396534705,
                44.991666313423124
              ],
              [
                -72.39715344068905,
                44.99249131461077
              ],
              [
                -72.39683116289437,
                44.9936400582997
              ],
              [
                -72.39701929167443,
                44.994647110780875
              ],
              [
                -72.39760583585941,
                44.99512125792627
              ],
              [
                -72.39805919312542,
                44.99542478002023
              ],
              [
                -72.3990464200631,
                44.99580455295193
              ],
              [
                -72.399659296564,
                44.99650604972491
              ],
              [
                -72.39933783174465,
                44.99711199963885
              ],
              [
                -72.39733670868512,
                44.99631453808118
              ],
              [
                -72.396588932178,
                44.99640858739833
              ],
              [
                -72.39642705845876,
                44.99733673455994
              ],
              [
                -72.39707637601748,
                44.99871437488216
              ],
              [
                -72.39730347730782,
                44.99997084985817
              ],
              [
                -72.39567252931563,
                45.001143947427884
              ],
              [
                -72.39217191323104,
                45.00252366343599
              ],
              [
                -72.39211306729173,
                45.00542215614847
              ],
              [
                -72.39337004483448,
                45.006469181370434
              ]
            ]
          ]
        ]
      }
    }
  ]
}