{
  "type": "FeatureCollection",
  "features": [
    {
      "type": "Feature",
      "id": 1,
      "geometry": {
        "type": "Polygon",
        "coordinates": [
          [
            [
              -72.53890872555677,
              43.37788041669037
            ],
            [
              -72.53868188443622,
              43.38149791961735
            ],
            [
              -72.54285901564617,
              43.38045634061665
            ],
            [
              -72.56161771805104,
              43.37420398879651
            ],
            [
              -72.56801055466234,
              43.37216113980243
            ],
            [
              -72.57998311121452,
              43.36818349228914
            ],
            [
              -72.59528516634717,
              43.35686405113811
            ],
            [
              -72.60305720341292,
              43.35122864915529
            ],
            [
              -72.60708018584116,
              43.34815246377432
            ],
            [
              -72.58428413586839,
              43.347024864000915
            ],
            [
              -72.57034005708276,
              43.34645937918209
            ],
            [
              -72.54859817783307,
              43.34538225408766
            ],
            [
              -72.54611813138305,
              43.34530068541749
            ],
            [
              -72.54548164407791,
              43.34527974682384
            ],
            [
              -72.54331506563216,
              43.35914283440641
            ],
            [
              -72.54267458062257,
              43.36143973864307
            ],
            [
              -72.53914350609733,
              43.37413620171769
            ],
            [
              -72.53890872555677,
              43.37788041669037
            ]
          ]
        ]
      },
      "properties": {
        "OBJECTID": 1,
        "OBJECTID_1": 835,
        "Jurisdiction_District_Name": "Baltimore Rural Residential",
        "County": "Windsor",
        "Jurisdiction": "Baltimore ",
        "Abbreviated_District_Name": "Rr",
        "District_Name": "Rural Residential",
        "District_Mapped": "No",
        "Overlay_District": "No",
        "Extinct_District": null,
        "District_Type": "Primarily Residential",
        "Affordable_Housing_District": "No",
        "Elderly_Housing_District": "No",
        "F1F_Allowance": "Permitted",
        "F2F_Allowance": "Permitted",
        "F3F_Allowance": "Public Hearing",
        "F4F_Allowance": "Public Hearing",
        "F5F_Allowance": null,
        "ADU_Allowance": "Allowed/Conditional",
        "Affordable_Housing_Allowance": "Allowed/Conditional",
        "PRD_Allowance": "Not Mentioned",
        "NOTES": "Baltimore Has Just One Zoning District And Therefore No Zoning Map.  ",
        "F1F_Min_Lot": 3,
        "F1F_Front_Setback": 100,
        "F1F_Side_Setback": 50,
        "F1F_Rear_Setback": 50,
        "F1F_Frontage": null,
        "F1F_Max_Lot_Building_Coverage": null,
        "F1F_Max_Lot_Impervious_Coverage": null,
        "F1F_Min_Parking_Spaces": null,
        "F1F_Max_Stories": null,
        "F1F_Max_Height": 35,
        "F1F_Floor_to_Area_Ratio": null,
        "F1F_Min_Unit_Size": null,
        "F2F_Affordable_Housing_Only": "No",
        "F2F_Elderly_Housing_Only": "No",
        "F2F_Min_Lot_Size": 3,
        "F2F_Max_Density": null,
        "F2F_Front_Setback": 100,
        "F2F_Side_Setback": 50,
        "F2F_Rear_Setback": 50,
        "F2F_Frontage": null,
        "F2F_Max_Lot_Building_Coverage": null,
        "F2F_Max_Lot_Impervious_Coverage": null,
        "F2F_Min_Parking_Spaces_per_1BR": null,
        "F2F_Min_Parking_Spaces_per_mult_BR": null,
        "F2F_Max_Stories": null,
        "F2F_Max_Height": 35,
        "F2F_Floor_to_Area_Ratio": null,
        "F2F_Min_Unit_Size": null,
        "F3F_Affordable_Housing_Only": "No",
        "F3F_Elderly_Housing_Only": "No",
        "F3F_Min_Lot_Size": 3,
        "F3F_Max_Density": null,
        "F3F_Front_Setback": 100,
        "F3F_Side_Setback": 50,
        "F3F_Rear_Setback": 50,
        "F3F_Frontage": null,
        "F3F_Max_Lot_Building_Coverage": null,
        "F3F_Max_Lot_Impervious_Coverage": null,
        "F3F_Min_Parking_Spaces_per_1BR": null,
        "F3F_Min_Parking_Spaces_per_mult_BR": null,
        "F3F_Connection_to_Sewage_Water_Required": "No",
        "F3F_Proximity_to_Public_Transit_Required": "No",
        "F3F_Max_Stories": null,
        "F3F_Max_Height": 35,
        "F3F_Floor_to_Area_Ratio": null,
        "F3F_Min_Unit_Size": null,
        "F3F_Max_Bedrooms": null,
        "F4F_Affordable_Housing_Only": "No",
        "F4F_Elderly_Housing_Only": "No",
        "F4F_Min_Lot_Size": 3,
        "F4F_Max_Density": null,
        "F4F_Front_Setback": 100,
        "F4F_Side_Setback": 50,
        "F4F_Rear_Setback": 50,
        "F4F_Frontage": null,
        "F4F_Max_Lot_Building_Coverage": null,
        "F4F_Max_Lot_Impervious_Coverage": null,
        "F4F_Min_Parking_Spaces_per_1BR": null,
        "F4F_Min_Parking_Spaces_per__mult_BR": null,
        "F4F_Connection_to_Sewage_Water_Required": "No",
        "F4F_Proximity_to_Public_Transit_Required": "No",
        "F4F_Max_Stories": null,
        "F4F_Max_Height": 35,
        "F4F_Floor_to_Area_Ratio": null,
        "F4F_Min_Unit_Size": null,
        "F4F_Max_Bedrooms": null,
        "F4F_Max_Units_per_Building": null,
        "F5F_Affordable_Housing_Only": null,
        "F5F_Elderly_Housing_Only": null,
        "F5F_Min_Lot_Size": null,
        "F5F_Max_Density": null,
        "F5F_Front_Setback": null,
        "F5F_Side_Setback": null,
        "F5F_Rear_Setback": null,
        "F5F_Frontage": null,
        "F5F_Max_Lot_Building_Coverage": null,
        "F5F_Max__Lot_Impervious_Coverage": null,
        "F5F_Min_Parking_Spaces_per_1BR": null,
        "F5F_Min_Parking_Spaces_per_mult_BR": null,
        "F5F_Connection_to_Sewage_Water_Required": null,
        "F5F_Proximity_to_Public_Transit_Required": null,
        "F5F_Max_Stories": null,
        "F5F_Max_Height": null,
        "F5F_Floor_to_Area_Ratio": null,
        "F5F_Min_Unit_Size": null,
        "F5F_Max_Bedrooms": null,
        "F5F_Max_Units_per_Building": null,
        "Affordable_Housing_Definition": "Affordable Housing Means Either of The Following:\r\n\r\nA. Housing That is Owned By Its Inhabitants Whose Gross Annual Household Income Does Not\r\nExceed 80 Percent of The County Median Income, Or 80 Percent of The Standard\r\nMetropolitan Statistical Area Income if The Municipality is Located In Such An Area, As\r\nDefined By The United States Department of Housing And Urban Development, And The\r\nTotal Annual Cost of The Housing, Including Principal, Interest, Taxes, Insurance, And\r\nCondominium Association Fees is not More Than 30 Percent of The Household’s Gross\r\nAnnual Income.\r\n\r\nB. Housing That is Rented By Its Inhabitants Whose Gross Annual Household Income Does Not\r\nExceed 80 Percent of The County Median Income, Or 80 Percent of The Standard\r\nMetropolitan Statistical Area Income if The Municipality is Located In Such An Area, As\r\nDefined By The United States Department of Housing And Urban Development, And The\r\nTotal Annual Cost of The Housing, Including Rent, Utilities, And Condominium Association\r\nFees, is not More Than 30 Percent of The Household’s Gross Annual Income.\r\n\r\nAffordable Housing Development Means: a Housing Development of Which At Least 20 Percent of The Units Or A\r\nMinimum of Five Units, Whichever is Greater, Are Affordable Housing Units. Affordable Units Shall Be Subject To\r\nCovenants Or Restrictions That Preserve Their Affordability For a Minimum of 15 Years Or Longer As Provided In\r\nMunicipal Bylaws.",
        "Affordable_Housing_Elderly_Only": "No",
        "Affordable_Housing_Min_Lot_Size": null,
        "Affordable_Housing_Max_Density": null,
        "Affordable_Housing_Min_Parking_Spaces_per_1BR": null,
        "Affordable_Housing_Min_Parking_Spaces_per_mult_BR": null,
        "Affordable_Housing_Min_Unit_Size": null,
        "Affordable_Housing_Max_Bedrooms": null,
        "Affordable_Housing_Max_Units_per_Building": null,
        "ADU_Employee_or_Family_Occupancy_Required": "No",
        "ADU_Renter_Occupancy_Prohibited": "No",
        "ADU_Owner_Occupancy_Required": "Yes",
        "ADU_Elderly_Housing_Only": "No",
        "ADU_Min_Lot_Size": null,
        "ADU_Min_Parking_Spaces": null,
        "ADU_Restricted_to_Primary_Structure": "No",
        "ADU_Max_Size_as_Percent_of_Primary_Strcture": 30,
        "ADU_Max_Size_in_sq_ft": null,
        "ADU_Max_Bedrooms": null,
        "PRD_Mobile_or_Manufactured_Home_Park": "No",
        "PRD_Min_Lot_Size": null,
        "PRD_Max_Density": null,
        "PRD_Max_Units": null,
        "PUD_Required_with_Subdivision": null,
        "PUD_Threshold_Number": null,
        "PUD_Allowance": null,
        "PUD_Requires_Land_Conservation": null,
        "Base_Density": null,
        "CONDITIONAL_1F_Min_Lot": null,
        "CONDITIONAL_1F_Front_Setback": null,
        "CONDITIONAL_1F_Side_Setback": null,
        "CONDITIONAL_1F_Rear_Setback": null,
        "CONDITIONAL_1F_Frontage": null,
        "CONDITIONAL_1F_Max_Lot_Building_Coverage": null,
        "CONDITIONAL_1F_Max_Lot_Impervious_Coverage": null,
        "CONDITIONAL_1F_Min_Parking_Spaces": null,
        "CONDITIONAL_1F_Max_Stories": null,
        "CONDITIONAL_1F_Max_Height": null,
        "CONDITIONAL_1F_Floor_to_Area_Ratio": null,
        "CONDITIONAL_1F_Min_Unit_Size": null,
        "CONDITIONAL_2F_Affordable_Housing_Only": null,
        "CONDITIONAL_2F_Elderly_Housing_Only": null,
        "CONDITIONAL_2F_Min_Lot_Size": null,
        "CONDITIONAL_2F_Max_Density": null,
        "CONDITIONAL_2F_Front_Setback": null,
        "CONDITIONAL_2F_Side_Setback": null,
        "CONDITIONAL_2F_Rear_Setback": null,
        "CONDITIONAL_2F_Frontage": null,
        "CONDITIONAL_2F_Max_Lot_Building_Coverage": null,
        "CONDITIONAL_2F_Max_Lot_Impervious_Coverage": null,
        "CONDITIONAL_2F_Min_Parking_Spaces_per_1BR": null,
        "CONDITIONAL_2F_Min_Parking_Spaces_per_mult_BR": null,
        "CONDITIONAL_2F_Max_Stories": null,
        "CONDITIONAL_2F_Max_Height": null,
        "CONDITIONAL_2F_Floor_to_Area_Ratio": null,
        "CONDITIONAL_2F_Min_Unit_Size": null,
        "CONDITIONAL_3F_Affordable_Housing_Only": null,
        "CONDITIONAL_3F_Elderly_Housing_Only": null,
        "CONDITIONAL_3F_Min_Lot_Size": null,
        "CONDITIONAL_3F_Max_Density": null,
        "CONDITIONAL_3F_Front_Setback": null,
        "CONDITIONAL_3F_Side_Setback": null,
        "CONDITIONAL_3F_Rear_Setback": null,
        "CONDITIONAL_3F_Frontage": null,
        "CONDITIONAL_3F_Max_Lot_Building_Coverage": null,
        "CONDITIONAL_3F_Max_Lot_Impervious_Coverage": null,
        "CONDITIONAL_3F_Min_Parking_Spaces_per_1BR": null,
        "CONDITIONAL_3F_Min_Parking_Spaces_per_mult_BR": null,
        "CONDITIONAL_3F_Connection_to_Sewage_Water_Required": null,
        "CONDITIONAL_3F_Proximity_to_Public_Transit_Required": null,
        "CONDITIONAL_3F_Max_Stories": null,
        "CONDITIONAL_3F_Max_Height": null,
        "CONDITIONAL_3F_Floor_to_Area_Ratio": null,
        "CONDITIONAL_3F_Min_Unit_Size": null,
        "CONDITIONAL_3F_Max_Bedrooms": null,
        "CONDITIONAL_4F_Affordable_Housing_Only": null,
        "CONDITIONAL_4F_Elderly_Housing_Only": null,
        "CONDITIONAL_4F_Min_Lot_Size": null,
        "CONDITIONAL_4F_Max_Density": null,
        "CONDITIONAL_4F_Front_Setback": null,
        "CONDITIONAL_4F_Side_Setback": null,
        "CONDITIONAL_4F_Rear_Setback": null,
        "CONDITIONAL_4F_Frontage": null,
        "CONDITIONAL_4F_Max_Lot_Building_Coverage": null,
        "CONDITIONAL_4F_Max_Lot_Impervious_Coverage": null,
        "CONDITIONAL_4F_Min_Parking_Spaces_per_1BR": null,
        "CONDITIONAL_4F_Min_Parking_Spaces_per__mult_BR": null,
        "CONDITIONAL_4F_Connection_to_Sewage_Water_Required": null,
        "CONDITIONAL_4F_Proximity_to_Public_Transit_Required": null,
        "CONDITIONAL_4F_Max_Stories": null,
        "CONDITIONAL_4F_Max_Height": null,
        "CONDITIONAL_4F_Floor_to_Area_Ratio": null,
        "CONDITIONAL_4F_Min_Unit_Size": null,
        "CONDITIONAL_4F_Max_Bedrooms": null,
        "CONDITIONAL_4F_Max_Units_per_Building": null,
        "CONDITIONAL_5F_Affordable_Housing_Only": null,
        "CONDITIONAL_5F_Elderly_Housing_Only": null,
        "CONDITIONAL_5F_Min_Lot_Size": null,
        "CONDITIONAL_5F_Max_Density": null,
        "CONDITIONAL_5F_Front_Setback": null,
        "CONDITIONAL_5F_Side_Setback": null,
        "CONDITIONAL_5F_Rear_Setback": null,
        "CONDITIONAL_5F_Frontage": null,
        "CONDITIONAL_5F_Max_Lot_Building_Coverage": null,
        "CONDITIONAL_5F_Max__Lot_Impervious_Coverage": null,
        "CONDITIONAL_5F_Min_Parking_Spaces_per_1BR": null,
        "CONDITIONAL_5F_Min_Parking_Spaces_per_mult_BR": null,
        "CONDITIONAL_5F_Connection_to_Sewage_Water_Required": null,
        "CONDITIONAL_5F_Proximity_to_Public_Transit_Required": null,
        "CONDITIONAL_5F_Max_Stories": null,
        "CONDITIONAL_5F_Max_Height": null,
        "CONDITIONAL_5F_Floor_to_Area_Ratio": null,
        "CONDITIONAL_5F_Min_Unit_Size": null,
        "CONDITIONAL_5F_Max_Bedrooms": null,
        "CONDITIONAL_5F_Max_Units_per_Building": null,
        "CONDITIONAL_Affordable_Housing_Definition": null,
        "CONDITIONAL_Affordable_Housing_Elderly_Only": null,
        "CONDITIONAL_Affordable_Housing_Min_Lot_Size": null,
        "CONDITIONAL_Affordable_Housing_Max_Density": null,
        "CONDITIONAL_Affordable_Housing_Min_Parking_Spaces_per_1BR": null,
        "CONDITIONAL_Affordable_Housing_Min_Parking_Spaces_per_mult_BR": null,
        "CONDITIONAL_Affordable_Housing_Min_Unit_Size": null,
        "CONDITIONAL_Affordable_Housing_Max_Bedrooms": null,
        "CONDITIONAL_Affordable_Housing_Max_Units_per_Building": null,
        "CONDITIONAL_ADU_Employee_or_Family_Occupancy_Required": null,
        "CONDITIONAL_ADU_Renter_Occupancy_Prohibited": null,
        "CONDITIONAL_ADU_Owner_Occupancy_Required": null,
        "CONDITIONAL_ADU_Elderly_Housing_Only": null,
        "CONDITIONAL_ADU_Min_Lot_Size": null,
        "CONDITIONAL_ADU_Min_Parking_Spaces": "Zoning Administrator's Discretion",
        "CONDITIONAL_ADU_Restricted_to_Primary_Structure": null,
        "CONDITIONAL_ADU_Max_Size_as_Percent_of_Primary_Strcture": null,
        "CONDITIONAL_ADU_Max_Size_in_sq_ft": null,
        "CONDITIONAL_ADU_Max_Bedrooms": null,
        "CONDITIONAL_PRD_Mobile_or_Manufactured_Home_Park": null,
        "CONDITIONAL_PRD_Min_Lot_Size": null,
        "CONDITIONAL_PRD_Max_Density": null,
        "CONDITIONAL_PRD_Max_Units": null,
        "CONDITIONAL_PUD_Required_with_Subdivision": null,
        "CONDITIONAL_PUD_Threshold_Number": null,
        "CONDITIONAL_PUD_Allowance": null,
        "CONDITIONAL_PUD_Requires_Land_Conservation": null,
        "Bylaw_Date": "2024-06-01",
        "RPC": "MARC",
        "Version": 1,
        "Acres": 3049.1892503878385,
        "Shape_Length": 15860.938471016623,
        "Shape_Area": 12339650.150291732
      }
    }
  ]
}