{"type": "FeatureCollection", "features": [{"type": "Feature", "id": 1, "geometry": {"type": "MultiPolygon", "coordinates": [[[[-73.25306940017433, 44.09025360006596], [-73.25306749948524, 44.09059279974696], [-73.25290909983936, 44.09141459986808], [-73.25238340088296, 44.09245910102632], [-73.25180690033777, 44.0933936003963], [-73.25170720039904, 44.09425860033996], [-73.25179440085527, 44.09501096222634], [-73.25182840031397, 44.095119499653606], [-73.252187099419, 44.095831100272754], [-73.25297260049261, 44.09644239979182], [-73.25367520058833, 44.09670869995998], [-73.25465990156393, 44.096839697001414], [-73.25655000047982, 44.097179999840684], [-73.25681730027479, 44.09729080025668], [-73.25735800288558, 44.097636694450586], [-73.257551799572, 44.09791669983568], [-73.25751579944942, 44.09807860015052], [-73.2576530998868, 44.09844389990465], [-73.25755349961489, 44.099061299566735], [-73.2569451994909, 44.09984980008449], [-73.25676039950496, 44.10005430033193], [-73.256609999798, 44.10012999958297], [-73.25652999994952, 44.10035000001865], [-73.25640000024293, 44.100410000117336], [-73.25635929979579, 44.100606500298625], [-73.25494999959218, 44.10283000037263], [-73.2545985000851, 44.10351320014067], [-73.25455999998817, 44.10371000004698], [-73.25464729988157, 44.10437529955572], [-73.25529810039043, 44.10630719967836], [-73.25569319954522, 44.108234199999785], [-73.25597930007007, 44.10896869982693], [-73.25620890016178, 44.10934440045154], [-73.25643000021519, 44.10962000001105], [-73.25717829943687, 44.11014229985728], [-73.25891019970446, 44.110719899668275], [-73.26023820044121, 44.111058899653585], [-73.26053480055387, 44.111166300177764], [-73.26112939953158, 44.111498299669414], [-73.26141000044083, 44.11179999992389], [-73.26158000057032, 44.11212000038328], [-73.26169000016291, 44.11249999971152], [-73.2617399998358, 44.11317000004736], [-73.2615200000821, 44.11484000030786], [-73.26099999954364, 44.116719999745285], [-73.25990999963781, 44.11846000035262], [-73.25962619950977, 44.119174300383364], [-73.25820790054118, 44.11930269978042], [-73.25808399939505, 44.12006969974102], [-73.25781199944439, 44.12009489989316], [-73.24689870029579, 44.12475560038366], [-73.24691309989838, 44.1238822001565], [-73.24416569982782, 44.12471970031209], [-73.24383880048715, 44.12252909977727], [-73.24335459978715, 44.12066410039898], [-73.24257670029603, 44.11692680032119], [-73.24215570017941, 44.11572779989792], [-73.2417669995354, 44.11398280027005], [-73.24290489303908, 44.1135049641623], [-73.24533431295076, 44.112500869579506], [-73.24685559618337, 44.111856959760274], [-73.24825996461705, 44.099726686120405], [-73.24873299851866, 44.09564084410185], [-73.24954378793551, 44.08863763434784], [-73.24956085836406, 44.08849018677743], [-73.25149339987537, 44.0892537997797], [-73.25270170013553, 44.089806900295706], [-73.25298090034123, 44.090071099617845], [-73.25306940017433, 44.09025360006596]]], [[[-73.2179503999569, 44.111696799759585], [-73.21752890030032, 44.11232970023795], [-73.21695629995658, 44.11269130015216], [-73.21337840038485, 44.11433660029863], [-73.21220790028421, 44.114805099872626], [-73.21170534073902, 44.1134902919611], [-73.2109776003148, 44.111560900254524], [-73.21005899955426, 44.10940520026312], [-73.21317426656637, 44.10916159826893], [-73.21844689990155, 44.10875989962093], [-73.2181996005499, 44.109323399685145], [-73.21802099986687, 44.110069999710355], [-73.21801850018004, 44.11141639967879], [-73.2179503999569, 44.111696799759585]]], [[[-73.20981649996881, 44.11538919977997], [-73.20578020039413, 44.11635649968055], [-73.20478692104133, 44.10981822907466], [-73.2048148840041, 44.109816008155384], [-73.20533836146386, 44.10977443186471], [-73.2065970996325, 44.112630599959], [-73.20767200005304, 44.11584930029008], [-73.2097998999189, 44.11534369978432], [-73.20981649996881, 44.11538919977997]]], [[[-73.21039000046086, 44.11849999975466], [-73.21067000024455, 44.118460000110026], [-73.2107899998337, 44.11841000004659], [-73.21079999980924, 44.11834470027136], [-73.21569969976193, 44.13262649980237], [-73.21860130032678, 44.13698769992846], [-73.21649519944013, 44.13724920039193], [-73.21723480048622, 44.138567399621486], [-73.21938400051502, 44.1418456998093], [-73.21667689965913, 44.142125599740865], [-73.21691679944078, 44.144429899924646], [-73.21902669990915, 44.144298399718636], [-73.21877239938595, 44.144806200307194], [-73.21834280031977, 44.14645379977206], [-73.21781350044192, 44.148028099671514], [-73.22024490037222, 44.14788700004854], [-73.22092569953112, 44.14541829966918], [-73.22109410004582, 44.14510360015378], [-73.22190240037207, 44.144444400066725], [-73.22231389992164, 44.14401609989287], [-73.22259930014148, 44.14390519993932], [-73.2222844997685, 44.14408509963491], [-73.2211021999114, 44.14519780041022], [-73.22091990047363, 44.145455200178574], [-73.22058889973377, 44.14687969990563], [-73.21975240040153, 44.14968479962624], [-73.21878530057614, 44.15255379987435], [-73.2184879999908, 44.15316880007556], [-73.21805459951827, 44.153712600355746], [-73.21400860053862, 44.15045040008599], [-73.21101819976887, 44.148230600404965], [-73.20983080003563, 44.14101119966548], [-73.20983409976027, 44.14056739971022], [-73.20966000037518, 44.14004180027084], [-73.20966269960705, 44.13956560041629], [-73.20924229956799, 44.137453199915925], [-73.20922230037928, 44.13690540003045], [-73.2076452002134, 44.12788799993419], [-73.2062895620415, 44.11940681379297], [-73.20603499447085, 44.117868500741444], [-73.20581599940225, 44.11652009966868], [-73.20978389987881, 44.11557509986907], [-73.21066209948712, 44.11792759985595], [-73.21015999953461, 44.11828000039259], [-73.21016000034628, 44.118469999846866], [-73.21039000046086, 44.11849999975466]]], [[[-73.26111429955972, 44.12407690019111], [-73.26101200019755, 44.124191199618444], [-73.25966999986503, 44.12509999997784], [-73.25955999969867, 44.12510999960195], [-73.25920000050138, 44.12492000030081], [-73.25920999997723, 44.12499999972196], [-73.25949180058748, 44.125211800309835], [-73.2593254995551, 44.125332499686344], [-73.2591885996987, 44.12562280027696], [-73.25913420002045, 44.12595719973772], [-73.25916470044099, 44.126382299562], [-73.25933139947087, 44.126846099573335], [-73.25983539973005, 44.12730320045177], [-73.26041889993965, 44.127948899599296], [-73.26098700055958, 44.128897000247925], [-73.26154500057467, 44.12961920042185], [-73.26166270014345, 44.12986279997799], [-73.26228730035285, 44.13056260044393], [-73.26282870016487, 44.13152710023934], [-73.26305000012724, 44.13224950019914], [-73.26301890011146, 44.13280919989237], [-73.26288329961835, 44.13329050005703], [-73.26225000058265, 44.13436999992346], [-73.26215000010697, 44.13514999990221], [-73.26241999964624, 44.13599999979223], [-73.26277000034183, 44.136680000376046], [-73.26348820023, 44.13759170044831], [-73.26412329958755, 44.13802479959814], [-73.26422530009252, 44.138218100325574], [-73.26423830007164, 44.138523499922776], [-73.2641520999034, 44.13871530016936], [-73.26346429960425, 44.13936000033034], [-73.26306999950127, 44.139577399616456], [-73.26219680032476, 44.13990789973064], [-73.26185229981836, 44.140113300346535], [-73.26148739950797, 44.140487799800965], [-73.26128940025971, 44.14088040002851], [-73.26118000044802, 44.1414799995817], [-73.26126329998361, 44.14201259986344], [-73.26182830037673, 44.14312379965813], [-73.26253040037483, 44.144114199886346], [-73.26260280001233, 44.14450119985939], [-73.26247530041195, 44.14486019961479], [-73.26200439976569, 44.14512380005214], [-73.26038439974599, 44.14562919980603], [-73.2588876993913, 44.14633289999339], [-73.25781120056469, 44.146700000087044], [-73.2576799998351, 44.14670000004301], [-73.25735000029977, 44.14688999972927], [-73.25394000026454, 44.147900000252775], [-73.25268100031255, 44.14853549960582], [-73.25204809942704, 44.14906569997226], [-73.25196821356369, 44.14919233614001], [-73.25163950122582, 44.14988290084476], [-73.25145269948976, 44.15038669977215], [-73.25117999970612, 44.15064000008211], [-73.25116999994106, 44.150770000185446], [-73.25106999963141, 44.15087000024282], [-73.25106811432482, 44.150871257333534], [-73.25076397732644, 44.15139003016893], [-73.25054469971646, 44.15186260042423], [-73.25007909953418, 44.152419799908046], [-73.2495688995746, 44.15327339974582], [-73.24916502001224, 44.15311060540876], [-73.24903825392973, 44.15305950865971], [-73.24725063667876, 44.15284621388515], [-73.24640429972106, 44.147500399731776], [-73.246428999551, 44.14614399968933], [-73.2458988000041, 44.140708200334714], [-73.24564299954127, 44.139640799747326], [-73.2450643999088, 44.13840430003868], [-73.2459752005085, 44.13489110023207], [-73.2460290004019, 44.133749899692546], [-73.24591939978798, 44.13317850002515], [-73.24515660047652, 44.1304995003157], [-73.24417980032692, 44.124789900336225], [-73.24682949973273, 44.12398220042407], [-73.24681610061329, 44.12486439969492], [-73.25699480120174, 44.12052390171812], [-73.25784470020855, 44.12016050008736], [-73.25958469966203, 44.120002399650524], [-73.26009879974492, 44.12162019972898], [-73.26102940046229, 44.1232347003295], [-73.26117730059156, 44.12383420017693], [-73.26111429955972, 44.12407690019111]], [[-73.24746999951117, 44.147340000227686], [-73.24758999966673, 44.14741999966769], [-73.24762999965779, 44.14754999992177], [-73.24796999977957, 44.1476600003792], [-73.24807000001519, 44.14777000026848], [-73.24833999969076, 44.14778000027764], [-73.24841000060277, 44.147849999796705], [-73.24880999987147, 44.14796999962944], [-73.24909999950862, 44.14786999957054], [-73.24902000032897, 44.147779999689185], [-73.24816000023253, 44.147599999879894], [-73.24777999980795, 44.14741000005691], [-73.2476999995217, 44.147300000407085], [-73.24748000059337, 44.1472300001027], [-73.24736999961299, 44.14706000018161], [-73.24698999983663, 44.14690000002275], [-73.24676000038495, 44.146740000065265], [-73.24650999972373, 44.14670999998752], [-73.24643999961019, 44.146770000327486], [-73.24644000020226, 44.1470899998348], [-73.24687999994565, 44.14714999964347], [-73.24746999951117, 44.147340000227686]]], [[[-73.24360650037313, 44.14166049986051], [-73.24400310026114, 44.14599069969746], [-73.24402150034209, 44.147175999961], [-73.24358399948143, 44.146710199992846], [-73.23474059991152, 44.14743300007067], [-73.23346939964237, 44.14724159979801], [-73.23263920049892, 44.14791800027521], [-73.22920169997262, 44.1453720999467], [-73.22955868949232, 44.14473574606985], [-73.23038379976664, 44.143264999716386], [-73.22982679987186, 44.14186229957928], [-73.23204079959646, 44.14178879968496], [-73.2357613591636, 44.14142656700891], [-73.23765529961818, 44.141269900037784], [-73.23816000008131, 44.13978780021586], [-73.24081289987862, 44.14019729997221], [-73.24045429979057, 44.14169519998502], [-73.24148749956638, 44.14182809998172], [-73.24360650037313, 44.14166049986051]], [[-73.24305000023122, 44.14541999992255], [-73.24325999962637, 44.145420000020366], [-73.24337000038655, 44.145339999880946], [-73.24339000012209, 44.14524999956054], [-73.24329000015923, 44.14511000039226], [-73.24355000003051, 44.144859999926204], [-73.24335999938603, 44.14463999985277], [-73.24319000037923, 44.1446000003136], [-73.24310000030441, 44.14442000030016], [-73.2429999995993, 44.14443999979239], [-73.24299999976905, 44.14488999962856], [-73.2428600005027, 44.14525000020987], [-73.24305000023122, 44.14541999992255]]], [[[-73.22590090117383, 44.14583509881112], [-73.22661048494315, 44.146255518112355], [-73.22662579501572, 44.146264587209764], [-73.22685583483138, 44.1464008837487], [-73.22803170051627, 44.14712749995137], [-73.23228930007596, 44.15029979955489], [-73.23263380062335, 44.15199770023751], [-73.23390840005115, 44.1521822999978], [-73.23226560049378, 44.15744299967466], [-73.2298037996476, 44.15710159975581], [-73.22780809945895, 44.15935500011704], [-73.22657439964496, 44.158665200027336], [-73.22567749975617, 44.158437600428094], [-73.22173880052593, 44.15658139964656], [-73.22066080009374, 44.155907400346365], [-73.21820859952686, 44.15383670030519], [-73.21868530036198, 44.15320260038575], [-73.21899059977908, 44.152554900149305], [-73.2199326004191, 44.149714300058115], [-73.22077040047073, 44.14690479974029], [-73.22107080036206, 44.14562450040931], [-73.2212165004973, 44.14533630044415], [-73.22242839961254, 44.1441756997384], [-73.22268929959716, 44.14402660017557], [-73.22329320010081, 44.143904100007845], [-73.22344990016606, 44.14392250003483], [-73.2248869589137, 44.14518668966479], [-73.22494350050864, 44.14523709975791], [-73.22590090117383, 44.14583509881112]]], [[[-73.2494158996485, 44.15357149957973], [-73.24945119967485, 44.15352120029957], [-73.2494099994548, 44.15358000005214], [-73.2494158996485, 44.15357149957973]]], [[[-73.21535300052277, 44.15732090033229], [-73.21344649989908, 44.15982340032895], [-73.21284969993027, 44.15973049969645], [-73.21224249937882, 44.156029999754026], [-73.21535300052277, 44.15732090033229]]]]}, "properties": {"OBJECT_ID": 153, "County": "Addison", "RPC": "ACRPC", "Municipal_Name": "waltham", "GEO_ID": "5000176075", "District_Name": "Agricultural District", "Abbreviated_District_Name": "A-10", "District_Type": "Primarily Residential", "Bylaw_Date": "2023-08-22", "Elderly_Housing_District": "No", "District_Mapped": "Yes", "Overlay_District": "No", "Base_Density": 0.1, "GIS_ID": null, "Last_Update": "20190601", "Shape_Length": 45115.32129069997, "Shape_Area": 11441206.086137338, "F1F_Allowance": "Permitted", "F1F_Front_Setback": 100, "F1F_Side_Setback": 25, "F1F_Rear_Setback": 25, "F1F_Frontage": 400, "F1F_Max_Height": 35, "F1F_Max_Stories": null, "F1F_Min_Lot_Size": 10, "F1F_Max_Lot_Building_Coverage": null, "F1F_Max_Lot_Impervious_Coverage": 20, "F1F_Min_Parking_Spaces": 1.5, "F1F_Elderly_Housing_Only": null, "F1F_Affordable_Housing_Only": null, "F2F_Allowance": "Permitted", "F2F_Front_Setback": 100, "F2F_Side_Setback": 25, "F2F_Rear_Setback": 25, "F2F_Frontage": 400, "F2F_Max_Density": 0.1, "F2F_Max_Height": 35, "F2F_Max_Stories": null, "F2F_Min_Lot_Size": 20, "F2F_Max_Lot_Building_Coverage": null, "F2F_Max_Lot_Impervious_Coverage": 20, "F2F_Min_Parking_Spaces_per_1BR": 1.5, "F2F_Min_Parking_Spaces_per_mult_BR": 1.5, "F2F_Elderly_Housing_Only": "No", "F2F_Affordable_Housing_Only": "No", "F3F_Allowance": "Prohibited", "F3F_Front_Setback": null, "F3F_Side_Setback": null, "F3F_Rear_Setback": null, "F3F_Frontage": null, "F3F_Max_Density": null, "F3F_Max_Height": null, "F3F_Max_Stories": null, "F3F_Min_Lot_Size": null, "F3F_Max_Lot_Building_Coverage": null, "F3F_Max_Lot_Impervious_Coverage": null, "F3F_Min_Parking_Spaces_per_1BR": null, "F3F_Min_Parking_Spaces_per_mult_BR": null, "F3F_Affordable_Housing_Only": "No", "F3F_Proximity_to_Public_Transit_Required": "No", "F3F_Connection_to_Sewage/Water_Required": "No", "F4F_Allowance": "Prohibited", "F4F_Front_Setback": null, "F4F_Side_Setback": null, "F4F_Rear_Setback": null, "F4F_Frontage": null, "F1F_Max_Density": null, "F4F_Max_Density": null, "F4F_Max_Height": null, "F4F_Max_Stories": null, "F4F_Min_Lot_Size": null, "F4F_Max_Lot_Building_Coverage": null, "F4F_Max_Lot_Impervious_Coverage": null, "F4F_Min_Parking_Spaces_per_1BR": null, "F4F_Min_Parking_Spaces_per_mult_BR": null, "F3F_Elderly_Housing_Only": "No", "F4F_Elderly_Housing_Only": "No", "F4F_Affordable_Housing_Only": "No", "F4F_Proximity_to_Public_Transit_Required": "No", "F4F_Connection_to_Sewage/Water_Required": "No", "ADU_Allowance": "Allowed/Conditional", "ADU_Elderly_Housing_Only": "No", "ADU_Max_Size_as_Percent_of_Primary_Strcture": 30, "ADU_Max_Size_in_sq_ft": null, "ADU_Min_Lot_Size": 10, "ADU_Max_Bedrooms": 1, "ADU_Min_Parking_Spaces": 1.5, "ADU_Owner_Occupancy_Required": "Yes", "ADU_Renter_Occupancy_Prohibited": "No", "ADU_Employee_or_Family_Occupancy_Required": "No", "ADU_Restricted_to_Primary_Structure": "No", "Affordable_Housing_Allowance": "Not Mentioned", "Affordable_Housing_District": "No", "Affordable_Housing_Elderly_Only": "No", "Affordable_Housing_Min_Lot_Size": null, "Affordable_Housing_Max_Density": null, "Affordable_Housing_Min_Parking_Spaces_per_mult_BR": null, "Affordable_Housing_Max_Units_per_Building": null, "Affordable_Housing_Min_Parking_Spaces_per_1BR": null, "PRD_Allowance": "Not Mentioned", "PRD_Max_Density": null, "PRD_Max_Units": null, "PRD_Min_Lot_Size": null, "PRD_Mobile_or_Manufactured_Home_Park": "No", "PUD_Allowance": "Yes", "PUD_Required_with_Subdivision": "F", "PUD_Requires_Land_Conservation": "T", "PUD_Threshold_Number": null, "Notes": " Minimum Lot Depth 150ft. Minimum Pud Size 5 Acres. There's A 2:1 Density Bonus For Puds In This District Outside Of Section 3 (West Side Of Maple Street; Marked On Town Plan). ", "FIPS6": 1105}}, {"type": "Feature", "id": 2, "geometry": {"type": "MultiPolygon", "coordinates": [[[[-73.24938160040458, 44.15394200020846], [-73.24919083150486, 44.15450396358249], [-73.249315733774, 44.15449415432371], [-73.24937970059979, 44.15412169964745], [-73.24938160040458, 44.15394200020846]]], [[[-73.25076397732644, 44.15139003016893], [-73.25012189942365, 44.15217270020068], [-73.24917940015145, 44.15295120001774], [-73.24916502001224, 44.15311060540876], [-73.24934529956457, 44.153340100212645], [-73.2494158996485, 44.15357149957973], [-73.24945119967485, 44.15352120029957], [-73.2495688995746, 44.15327339974582], [-73.25007909953418, 44.152419799908046], [-73.25054469971646, 44.15186260042423], [-73.25076397732644, 44.15139003016893]]], [[[-73.25163950122582, 44.14988290084476], [-73.2513015004547, 44.150344800393896], [-73.25106811432482, 44.150871257333534], [-73.25106999963141, 44.15087000024282], [-73.25116999994106, 44.150770000185446], [-73.25117999970612, 44.15064000008211], [-73.25145269948976, 44.15038669977215], [-73.25163950122582, 44.14988290084476]]], [[[-73.2233032006235, 44.14407620002789], [-73.22307160050958, 44.14407770035782], [-73.22299520053217, 44.14417999978344], [-73.22322759943175, 44.14449939965627], [-73.22349769986101, 44.14512959956563], [-73.22396160052571, 44.14572409995721], [-73.2242618995211, 44.1468067999821], [-73.22444280019259, 44.14789629971429], [-73.22458520002719, 44.14810080032727], [-73.22518979965396, 44.148550000134826], [-73.22560450001771, 44.1490425004047], [-73.22653600038063, 44.14973549992398], [-73.22728930037809, 44.14997169975504], [-73.22807490035241, 44.14982290037865], [-73.22817440041163, 44.14996690023853], [-73.22836920054287, 44.15027480020127], [-73.22850040025357, 44.15027590041162], [-73.22867680053406, 44.15016959991207], [-73.22886440033574, 44.14989310032518], [-73.22893270024062, 44.14960060015705], [-73.22923849998573, 44.14918470018651], [-73.22921150038664, 44.148859200416396], [-73.22894340060517, 44.14853380020521], [-73.22824439955444, 44.148072700434234], [-73.22793739946276, 44.14762780021895], [-73.22751840024856, 44.14735419978829], [-73.22725209948214, 44.14681729991783], [-73.22685583483138, 44.1464008837487], [-73.22662579501572, 44.146264587209764], [-73.22661048494315, 44.146255518112355], [-73.22604499997756, 44.14597590033909], [-73.22590090117383, 44.14583509881112], [-73.22494350050864, 44.14523709975791], [-73.2248869589137, 44.14518668966479], [-73.22418850037413, 44.14473100002327], [-73.22391999939373, 44.144433799852], [-73.22336880004568, 44.1442307004388], [-73.2233032006235, 44.14407620002789]]], [[[-73.25958469966203, 44.120002399650524], [-73.25784470020855, 44.12016050008736], [-73.25699480120174, 44.12052390171812], [-73.25712729938077, 44.12162990035654], [-73.2572568001666, 44.12428029963298], [-73.25695470001874, 44.125115599948344], [-73.25641979950275, 44.12612869985004], [-73.25601060022677, 44.127783499927304], [-73.25584859976622, 44.128181300150096], [-73.25594690018673, 44.128385800302375], [-73.2562061997519, 44.12829800005719], [-73.25670329954623, 44.12790559961625], [-73.25706299949356, 44.127355900124634], [-73.25723770022077, 44.1272496996112], [-73.25755259994634, 44.12719869956093], [-73.2578221003253, 44.12723529985776], [-73.25806030062107, 44.12733410015108], [-73.25843610060089, 44.12762239960807], [-73.25874489957386, 44.12794920024374], [-73.25915199964238, 44.12860329974351], [-73.25942280032571, 44.129172600439226], [-73.25968079976742, 44.130651500376246], [-73.25985489998406, 44.131286600130515], [-73.26015099949473, 44.1319051999394], [-73.26013120004214, 44.13197450026253], [-73.2606395001705, 44.13272840013643], [-73.26076390000247, 44.13310619980984], [-73.26094529953438, 44.134337700224236], [-73.26092730037726, 44.13652959984727], [-73.26100219960153, 44.13685710016934], [-73.26146929952355, 44.137767200336185], [-73.26154429986867, 44.13800770027454], [-73.26152360029207, 44.13828410008163], [-73.26086419988117, 44.14012870020207], [-73.26073539978827, 44.140344300300356], [-73.26032920018534, 44.14065069997655], [-73.26009540016689, 44.14090499965209], [-73.25975749976894, 44.14144449957217], [-73.25961379982492, 44.141566600334336], [-73.25910520039578, 44.14177790043288], [-73.25837829975437, 44.141679400380006], [-73.2580878994734, 44.14190380019416], [-73.257935799798, 44.141957800414446], [-73.25762570046554, 44.1418983002103], [-73.25722259951658, 44.141618299584486], [-73.25695259952418, 44.14163709979578], [-73.25688580041503, 44.142033500207184], [-73.25691370023829, 44.14232539986154], [-73.25706220055027, 44.142726499907255], [-73.2574029998922, 44.143200300292776], [-73.25737949939668, 44.14337939999931], [-73.25726590042957, 44.143477099959334], [-73.25668060000477, 44.143550099927445], [-73.25652450033796, 44.1436819997722], [-73.25633759939718, 44.1440343004165], [-73.25621169961997, 44.14460149982793], [-73.25597440007289, 44.14489619967405], [-73.25582260031683, 44.14496750022863], [-73.2552187002324, 44.14502059980106], [-73.25513170055339, 44.14509249973116], [-73.25522999986748, 44.14529699989934], [-73.25561629960396, 44.14560189993786], [-73.25564169962466, 44.1457557998257], [-73.25544650016329, 44.145980599824725], [-73.25459979966266, 44.146507000083545], [-73.25356689992792, 44.14735689979696], [-73.25242019954517, 44.148157699600546], [-73.25189620057384, 44.14833340013068], [-73.25127500000971, 44.14835470040293], [-73.25106190059606, 44.148424800211274], [-73.25103879969132, 44.148510999920894], [-73.25125659943262, 44.1487187001859], [-73.25190299941119, 44.14892820043156], [-73.25196821356369, 44.14919233614001], [-73.25204809942704, 44.14906569997226], [-73.25268100031255, 44.14853549960582], [-73.25394000026454, 44.147900000252775], [-73.25735000029977, 44.14688999972927], [-73.2576799998351, 44.14670000004301], [-73.25781120056469, 44.146700000087044], [-73.2588876993913, 44.14633289999339], [-73.26038439974599, 44.14562919980603], [-73.26200439976569, 44.14512380005214], [-73.26247530041195, 44.14486019961479], [-73.26260280001233, 44.14450119985939], [-73.26253040037483, 44.144114199886346], [-73.26182830037673, 44.14312379965813], [-73.26126329998361, 44.14201259986344], [-73.26118000044802, 44.1414799995817], [-73.26128940025971, 44.14088040002851], [-73.26148739950797, 44.140487799800965], [-73.26185229981836, 44.140113300346535], [-73.26219680032476, 44.13990789973064], [-73.26306999950127, 44.139577399616456], [-73.26346429960425, 44.13936000033034], [-73.2641520999034, 44.13871530016936], [-73.26423830007164, 44.138523499922776], [-73.26422530009252, 44.138218100325574], [-73.26412329958755, 44.13802479959814], [-73.26348820023, 44.13759170044831], [-73.26277000034183, 44.136680000376046], [-73.26241999964624, 44.13599999979223], [-73.26215000010697, 44.13514999990221], [-73.26225000058265, 44.13436999992346], [-73.26288329961835, 44.13329050005703], [-73.26301890011146, 44.13280919989237], [-73.26305000012724, 44.13224950019914], [-73.26282870016487, 44.13152710023934], [-73.26228730035285, 44.13056260044393], [-73.26166270014345, 44.12986279997799], [-73.26154500057467, 44.12961920042185], [-73.26098700055958, 44.128897000247925], [-73.26041889993965, 44.127948899599296], [-73.25983539973005, 44.12730320045177], [-73.25933139947087, 44.126846099573335], [-73.25916470044099, 44.126382299562], [-73.25913420002045, 44.12595719973772], [-73.2591885996987, 44.12562280027696], [-73.2593254995551, 44.125332499686344], [-73.25949180058748, 44.125211800309835], [-73.25920999997723, 44.12499999972196], [-73.25920000050138, 44.12492000030081], [-73.25955999969867, 44.12510999960195], [-73.25966999986503, 44.12509999997784], [-73.26101200019755, 44.124191199618444], [-73.26111429955972, 44.12407690019111], [-73.26117730059156, 44.12383420017693], [-73.26102940046229, 44.1232347003295], [-73.26009879974492, 44.12162019972898], [-73.25958469966203, 44.120002399650524]]], [[[-73.20750549942645, 44.11733480012207], [-73.2072449005192, 44.11735280005565], [-73.20685439945001, 44.117476600185256], [-73.2062459998938, 44.11785910008598], [-73.20603499447085, 44.117868500741444], [-73.20598935262369, 44.11786579209711], [-73.2061170077152, 44.11866804993152], [-73.20623724773326, 44.11940747740785], [-73.2062895620415, 44.11940681379297], [-73.20681460020688, 44.119437999787365], [-73.20743610024309, 44.11959880016946], [-73.20784609967873, 44.11983859958602], [-73.20821090044325, 44.12020480039168], [-73.20872180023802, 44.12097349976362], [-73.20906460044965, 44.12162849989265], [-73.20923669963122, 44.122108700275895], [-73.20999509969843, 44.123499199680595], [-73.21007150049057, 44.12387760020519], [-73.21005099955036, 44.124188200173734], [-73.20968920043056, 44.125895000057724], [-73.20974760028757, 44.12678909958515], [-73.20971129965078, 44.12789819986675], [-73.20934409973816, 44.12899599990255], [-73.20944449977077, 44.12942519959384], [-73.20983889966479, 44.13040400028831], [-73.20986910055784, 44.13093750018675], [-73.20980220054795, 44.13124839973628], [-73.20990259982409, 44.131746500167054], [-73.21004990030136, 44.13204440006074], [-73.2101546998022, 44.13212430045004], [-73.21031130022264, 44.13212190037142], [-73.21023000035272, 44.131296799745954], [-73.21039079973954, 44.13064079959944], [-73.21038649970988, 44.13041779996866], [-73.21033169948947, 44.129815600387815], [-73.21011160047827, 44.12923849972755], [-73.21008240005561, 44.12895629977132], [-73.21010599964215, 44.12877719967494], [-73.21034069981015, 44.12841420044366], [-73.21050269943102, 44.12831610006775], [-73.21069379970118, 44.12829769978627], [-73.21088820014468, 44.12839350042789], [-73.2111815995054, 44.12876010036021], [-73.21186820010948, 44.130201999640086], [-73.21194239949986, 44.13055620037629], [-73.21198679959535, 44.13211230022246], [-73.21235820040238, 44.13318360026003], [-73.2125505996841, 44.133307099857156], [-73.21269049967219, 44.13318149980107], [-73.212783800151, 44.13298469973845], [-73.2125343003396, 44.132108900214256], [-73.21257839982106, 44.13178090003542], [-73.2126737001748, 44.13161910024549], [-73.21307519946615, 44.13137139972622], [-73.21309440024397, 44.13098630030665], [-73.21254689952333, 44.12909669987309], [-73.21218469963651, 44.12859410041302], [-73.21126440002722, 44.127817099722336], [-73.21109250009809, 44.12748669956873], [-73.21103930056962, 44.12705659991927], [-73.21110230050176, 44.12631520017021], [-73.21105970019963, 44.12474950039305], [-73.21083770044153, 44.12418280026619], [-73.21068229967838, 44.12316789957586], [-73.21043419961578, 44.122343800228975], [-73.20952129946075, 44.1200245000005], [-73.20955489957264, 44.11969829981108], [-73.20980060056135, 44.1194195998961], [-73.20983979964032, 44.11868039973973], [-73.20948199940182, 44.11866549980857], [-73.2091962996733, 44.118736099597086], [-73.20849719962229, 44.118585199565686], [-73.20817169974613, 44.11846179974782], [-73.20790119959487, 44.118302599921954], [-73.20776139958872, 44.11813729959336], [-73.20770460046674, 44.11802149987473], [-73.20772339970976, 44.117572999580176], [-73.20764949970336, 44.117398800207575], [-73.20750549942645, 44.11733480012207]]], [[[-73.25179440085527, 44.09501096222634], [-73.2518023997886, 44.0956343001902], [-73.25207479979164, 44.09637840025766], [-73.25224490008524, 44.096618299975496], [-73.25289529972622, 44.09718639998291], [-73.25318839955294, 44.09755290042739], [-73.25353130011754, 44.09822199983014], [-73.25375440017703, 44.0988575003114], [-73.25398610035506, 44.10016450008797], [-73.25423519949544, 44.10097199960134], [-73.25419879947549, 44.1018508999258], [-73.2545249996651, 44.10503240018224], [-73.25479629943133, 44.10561669959922], [-73.25516899964114, 44.10675070016217], [-73.25537960019534, 44.10826420016852], [-73.25583319971498, 44.1101033997184], [-73.25581599989762, 44.110654499921964], [-73.25570669943608, 44.110774999896314], [-73.25541600001677, 44.11088140023388], [-73.25507769988747, 44.110918400217685], [-73.2541931994615, 44.11080370001267], [-73.2542193000435, 44.111077400428655], [-73.25431840042539, 44.11125589983378], [-73.25447709979419, 44.111333999931105], [-73.25487050014442, 44.11145189987324], [-73.25565919971393, 44.11154989987514], [-73.25620909959198, 44.11169410021503], [-73.25644480004885, 44.11180820006759], [-73.25667030056859, 44.112043300374516], [-73.25676920024158, 44.11230100009731], [-73.25692289953669, 44.11321160003362], [-73.25726959969576, 44.11421900002591], [-73.25683410017321, 44.1155206002435], [-73.25660150035372, 44.11788079992746], [-73.25663280023718, 44.11846589986846], [-73.25698550010561, 44.1204482003194], [-73.25781199944439, 44.12009489989316], [-73.25808399939505, 44.12006969974102], [-73.25820790054118, 44.11930269978042], [-73.25962619950977, 44.119174300383364], [-73.25990999963781, 44.11846000035262], [-73.26099999954364, 44.116719999745285], [-73.2615200000821, 44.11484000030786], [-73.2617399998358, 44.11317000004736], [-73.26169000016291, 44.11249999971152], [-73.26158000057032, 44.11212000038328], [-73.26141000044083, 44.11179999992389], [-73.26112939953158, 44.111498299669414], [-73.26053480055387, 44.111166300177764], [-73.26023820044121, 44.111058899653585], [-73.25891019970446, 44.110719899668275], [-73.25717829943687, 44.11014229985728], [-73.25643000021519, 44.10962000001105], [-73.25620890016178, 44.10934440045154], [-73.25597930007007, 44.10896869982693], [-73.25569319954522, 44.108234199999785], [-73.25529810039043, 44.10630719967836], [-73.25464729988157, 44.10437529955572], [-73.25455999998817, 44.10371000004698], [-73.2545985000851, 44.10351320014067], [-73.25494999959218, 44.10283000037263], [-73.25635929979579, 44.100606500298625], [-73.25640000024293, 44.100410000117336], [-73.25652999994952, 44.10035000001865], [-73.256609999798, 44.10012999958297], [-73.25676039950496, 44.10005430033193], [-73.2569451994909, 44.09984980008449], [-73.25755349961489, 44.099061299566735], [-73.2576530998868, 44.09844389990465], [-73.25751579944942, 44.09807860015052], [-73.257551799572, 44.09791669983568], [-73.25735800288558, 44.097636694450586], [-73.25552799998663, 44.09706000014421], [-73.25465990156393, 44.096839697001414], [-73.25367520058833, 44.09670869995998], [-73.25297260049261, 44.09644239979182], [-73.252187099419, 44.095831100272754], [-73.25182840031397, 44.095119499653606], [-73.25179440085527, 44.09501096222634]]], [[[-73.2500230994791, 44.0889316996156], [-73.24980339996027, 44.09056860000921], [-73.25121940033283, 44.09098830022234], [-73.2518298997686, 44.09127939986013], [-73.2522455002082, 44.09170890011847], [-73.25239689941208, 44.09223370013928], [-73.25238340088296, 44.09245910102632], [-73.25290909983936, 44.09141459986808], [-73.25306749948524, 44.09059279974696], [-73.25306940017433, 44.09025360006596], [-73.25298090034123, 44.090071099617845], [-73.25270170013553, 44.089806900295706], [-73.25149339987537, 44.0892537997797], [-73.25062840022093, 44.08900100002699], [-73.2500230994791, 44.0889316996156]]]]}, "properties": {"OBJECT_ID": 154, "County": "Addison", "RPC": "ACRPC", "Municipal_Name": "waltham", "GEO_ID": "5000176075", "District_Name": "Flood Hazard Overlay Area", "Abbreviated_District_Name": "Fha", "District_Type": "Nonresidential", "Bylaw_Date": "2023-08-22", "Elderly_Housing_District": "No", "District_Mapped": "No", "Overlay_District": "Yes", "Base_Density": null, "GIS_ID": null, "Last_Update": "20190601", "Shape_Length": 24132.4757744586, "Shape_Area": 1638346.7882870254, "F1F_Allowance": "Prohibited", "F1F_Front_Setback": null, "F1F_Side_Setback": null, "F1F_Rear_Setback": null, "F1F_Frontage": null, "F1F_Max_Height": null, "F1F_Max_Stories": null, "F1F_Min_Lot_Size": null, "F1F_Max_Lot_Building_Coverage": null, "F1F_Max_Lot_Impervious_Coverage": null, "F1F_Min_Parking_Spaces": null, "F1F_Elderly_Housing_Only": null, "F1F_Affordable_Housing_Only": null, "F2F_Allowance": "Prohibited", "F2F_Front_Setback": null, "F2F_Side_Setback": null, "F2F_Rear_Setback": null, "F2F_Frontage": null, "F2F_Max_Density": null, "F2F_Max_Height": null, "F2F_Max_Stories": null, "F2F_Min_Lot_Size": null, "F2F_Max_Lot_Building_Coverage": null, "F2F_Max_Lot_Impervious_Coverage": null, "F2F_Min_Parking_Spaces_per_1BR": null, "F2F_Min_Parking_Spaces_per_mult_BR": null, "F2F_Elderly_Housing_Only": "No", "F2F_Affordable_Housing_Only": "No", "F3F_Allowance": "Prohibited", "F3F_Front_Setback": null, "F3F_Side_Setback": null, "F3F_Rear_Setback": null, "F3F_Frontage": null, "F3F_Max_Density": null, "F3F_Max_Height": null, "F3F_Max_Stories": null, "F3F_Min_Lot_Size": null, "F3F_Max_Lot_Building_Coverage": null, "F3F_Max_Lot_Impervious_Coverage": null, "F3F_Min_Parking_Spaces_per_1BR": null, "F3F_Min_Parking_Spaces_per_mult_BR": null, "F3F_Affordable_Housing_Only": "No", "F3F_Proximity_to_Public_Transit_Required": "No", "F3F_Connection_to_Sewage/Water_Required": "No", "F4F_Allowance": "Prohibited", "F4F_Front_Setback": null, "F4F_Side_Setback": null, "F4F_Rear_Setback": null, "F4F_Frontage": null, "F1F_Max_Density": null, "F4F_Max_Density": null, "F4F_Max_Height": null, "F4F_Max_Stories": null, "F4F_Min_Lot_Size": null, "F4F_Max_Lot_Building_Coverage": null, "F4F_Max_Lot_Impervious_Coverage": null, "F4F_Min_Parking_Spaces_per_1BR": null, "F4F_Min_Parking_Spaces_per_mult_BR": null, "F3F_Elderly_Housing_Only": "No", "F4F_Elderly_Housing_Only": "No", "F4F_Affordable_Housing_Only": "No", "F4F_Proximity_to_Public_Transit_Required": "No", "F4F_Connection_to_Sewage/Water_Required": "No", "ADU_Allowance": "Prohibited", "ADU_Elderly_Housing_Only": "No", "ADU_Max_Size_as_Percent_of_Primary_Strcture": null, "ADU_Max_Size_in_sq_ft": null, "ADU_Min_Lot_Size": null, "ADU_Max_Bedrooms": null, "ADU_Min_Parking_Spaces": null, "ADU_Owner_Occupancy_Required": "No", "ADU_Renter_Occupancy_Prohibited": "No", "ADU_Employee_or_Family_Occupancy_Required": "No", "ADU_Restricted_to_Primary_Structure": "No", "Affordable_Housing_Allowance": "Not Mentioned", "Affordable_Housing_District": "No", "Affordable_Housing_Elderly_Only": "No", "Affordable_Housing_Min_Lot_Size": null, "Affordable_Housing_Max_Density": null, "Affordable_Housing_Min_Parking_Spaces_per_mult_BR": null, "Affordable_Housing_Max_Units_per_Building": null, "Affordable_Housing_Min_Parking_Spaces_per_1BR": null, "PRD_Allowance": "Not Mentioned", "PRD_Max_Density": null, "PRD_Max_Units": null, "PRD_Min_Lot_Size": null, "PRD_Mobile_or_Manufactured_Home_Park": "No", "PUD_Allowance": "No", "PUD_Required_with_Subdivision": null, "PUD_Requires_Land_Conservation": null, "PUD_Threshold_Number": null, "Notes": " This District Consists Of Fema Flood Map Zone A Areas. ", "FIPS6": 1105}}, {"type": "Feature", "id": 3, "geometry": {"type": "Polygon", "coordinates": [[[-73.21752929955018, 44.11654740037993], [-73.21747230047029, 44.11680759985325], [-73.21717549995479, 44.11711260043921], [-73.21712109988994, 44.117589299643285], [-73.21714419953673, 44.11949460039808], [-73.21706830020587, 44.12005800011934], [-73.21726300014893, 44.12050729989308], [-73.2182782996593, 44.12146030022242], [-73.21874870006384, 44.121997300352], [-73.21898800030463, 44.1225357999645], [-73.21900559957761, 44.122805700436565], [-73.2187786998403, 44.12334710028393], [-73.21748489974084, 44.124435199607795], [-73.21701739960392, 44.12497820022659], [-73.21683610048547, 44.12551929991], [-73.21687010034657, 44.1263291000271], [-73.21706929959466, 44.12740790034388], [-73.21735289968655, 44.128486099964505], [-73.21756449940804, 44.12902470028466], [-73.2184955002058, 44.13063889977056], [-73.21945200038036, 44.13198290001984], [-73.2228403995404, 44.13601150025312], [-73.22336170048021, 44.136720100048436], [-73.22376619966327, 44.13689910031837], [-73.22431970017696, 44.136844600140805], [-73.22535459970129, 44.13687060034288], [-73.22744779995826, 44.13721750003101], [-73.22854239991365, 44.1375915996265], [-73.22924959941774, 44.13790610018816], [-73.23014339978904, 44.13849720025398], [-73.23042189954222, 44.13850189993114], [-73.23224820038565, 44.138367200190636], [-73.23280660003758, 44.13702800038562], [-73.23310460009104, 44.136485999843025], [-73.23450629995811, 44.133776999799814], [-73.23491619990992, 44.13269439998083], [-73.23492319994246, 44.13215440005066], [-73.23466710042936, 44.13080599961034], [-73.23473890024361, 44.13026549997807], [-73.23492259953507, 44.129994400215494], [-73.23522199966465, 44.12972239988735], [-73.23702269969583, 44.128683700351864], [-73.23754569951001, 44.12825099963471], [-73.237839799735, 44.12792379985717], [-73.23819880012199, 44.127375000312846], [-73.23860499948967, 44.126460600358364], [-73.23887759976098, 44.12537879970912], [-73.23874659993321, 44.12402970028922], [-73.23858679967456, 44.123490700437436], [-73.23826440038303, 44.122762300115575], [-73.23783709999898, 44.12198589976871], [-73.2365579994465, 44.11999380029399], [-73.23584660022013, 44.118541800085524], [-73.23502400051876, 44.11723810013508], [-73.23455440013286, 44.116765200250086], [-73.2341883001851, 44.11648880039664], [-73.23281839976858, 44.11569789973407], [-73.2323011997827, 44.115177400334254], [-73.23229999938202, 44.11551000035472], [-73.2320199999911, 44.11557999970653], [-73.23169999981243, 44.11551999991735], [-73.23157999988074, 44.11514999979382], [-73.2317400003502, 44.11517000004046], [-73.23201999955602, 44.11498000043126], [-73.23224600000192, 44.11509399991799], [-73.23190260005822, 44.11435630020534], [-73.23175320049958, 44.11354469968321], [-73.23177020032136, 44.11273459992744], [-73.23197559989352, 44.111923200400135], [-73.23232469986766, 44.11057099980689], [-73.23221520048821, 44.10976169958989], [-73.23149400026048, 44.10838509962494], [-73.23106930054252, 44.108016999568996], [-73.23088849967446, 44.10797490043467], [-73.23071339982563, 44.10776510016367], [-73.22376599475098, 44.108328333047446], [-73.21869629961135, 44.10874120027317], [-73.21828589939895, 44.10978859993903], [-73.21823769962879, 44.111530199711], [-73.2181675000446, 44.11183459999762], [-73.2180125999188, 44.112123300139146], [-73.21759949985028, 44.112593700196655], [-73.21736279990644, 44.11272119976515], [-73.21736412902177, 44.11283220588954], [-73.21736730056305, 44.114339400090465], [-73.21745030024947, 44.114988900434966], [-73.21751150058543, 44.115075199833214], [-73.21751569976911, 44.11542159976676], [-73.21752929955018, 44.11654740037993]], [[-73.22747999967613, 44.127350000281844], [-73.22773000020997, 44.12742000037824], [-73.22774000049031, 44.127509999739864], [-73.22742000060731, 44.127559999687044], [-73.2272000004831, 44.12784999989949], [-73.22706999976852, 44.12785000024048], [-73.22687000044448, 44.12794000038509], [-73.22683000020076, 44.12789999965676], [-73.22695000015509, 44.12760000032382], [-73.22722999944803, 44.1273699997026], [-73.22747999967613, 44.127350000281844]]]}, "properties": {"OBJECT_ID": 155, "County": "Addison", "RPC": "ACRPC", "Municipal_Name": "waltham", "GEO_ID": "5000176075", "District_Name": "Forest District", "Abbreviated_District_Name": "F-25", "District_Type": "Nonresidential", "Bylaw_Date": "2023-08-22", "Elderly_Housing_District": "No", "District_Mapped": "Yes", "Overlay_District": "No", "Base_Density": 0.04, "GIS_ID": null, "Last_Update": "20190601", "Shape_Length": 9257.151868254012, "Shape_Area": 4296422.949142576, "F1F_Allowance": "Public Hearing", "F1F_Front_Setback": 100, "F1F_Side_Setback": 25, "F1F_Rear_Setback": 25, "F1F_Frontage": 400, "F1F_Max_Height": 35, "F1F_Max_Stories": null, "F1F_Min_Lot_Size": 25, "F1F_Max_Lot_Building_Coverage": null, "F1F_Max_Lot_Impervious_Coverage": null, "F1F_Min_Parking_Spaces": 1.5, "F1F_Elderly_Housing_Only": null, "F1F_Affordable_Housing_Only": null, "F2F_Allowance": "Prohibited", "F2F_Front_Setback": null, "F2F_Side_Setback": null, "F2F_Rear_Setback": null, "F2F_Frontage": null, "F2F_Max_Density": null, "F2F_Max_Height": null, "F2F_Max_Stories": null, "F2F_Min_Lot_Size": null, "F2F_Max_Lot_Building_Coverage": null, "F2F_Max_Lot_Impervious_Coverage": null, "F2F_Min_Parking_Spaces_per_1BR": null, "F2F_Min_Parking_Spaces_per_mult_BR": null, "F2F_Elderly_Housing_Only": "No", "F2F_Affordable_Housing_Only": "No", "F3F_Allowance": "Prohibited", "F3F_Front_Setback": null, "F3F_Side_Setback": null, "F3F_Rear_Setback": null, "F3F_Frontage": null, "F3F_Max_Density": null, "F3F_Max_Height": null, "F3F_Max_Stories": null, "F3F_Min_Lot_Size": null, "F3F_Max_Lot_Building_Coverage": null, "F3F_Max_Lot_Impervious_Coverage": null, "F3F_Min_Parking_Spaces_per_1BR": null, "F3F_Min_Parking_Spaces_per_mult_BR": null, "F3F_Affordable_Housing_Only": "No", "F3F_Proximity_to_Public_Transit_Required": "No", "F3F_Connection_to_Sewage/Water_Required": "No", "F4F_Allowance": "Prohibited", "F4F_Front_Setback": null, "F4F_Side_Setback": null, "F4F_Rear_Setback": null, "F4F_Frontage": null, "F1F_Max_Density": null, "F4F_Max_Density": null, "F4F_Max_Height": null, "F4F_Max_Stories": null, "F4F_Min_Lot_Size": null, "F4F_Max_Lot_Building_Coverage": null, "F4F_Max_Lot_Impervious_Coverage": null, "F4F_Min_Parking_Spaces_per_1BR": null, "F4F_Min_Parking_Spaces_per_mult_BR": null, "F3F_Elderly_Housing_Only": "No", "F4F_Elderly_Housing_Only": "No", "F4F_Affordable_Housing_Only": "No", "F4F_Proximity_to_Public_Transit_Required": "No", "F4F_Connection_to_Sewage/Water_Required": "No", "ADU_Allowance": "Public Hearing", "ADU_Elderly_Housing_Only": "No", "ADU_Max_Size_as_Percent_of_Primary_Strcture": 30, "ADU_Max_Size_in_sq_ft": null, "ADU_Min_Lot_Size": 25, "ADU_Max_Bedrooms": 1, "ADU_Min_Parking_Spaces": 1.5, "ADU_Owner_Occupancy_Required": "Yes", "ADU_Renter_Occupancy_Prohibited": "No", "ADU_Employee_or_Family_Occupancy_Required": "No", "ADU_Restricted_to_Primary_Structure": "No", "Affordable_Housing_Allowance": "Not Mentioned", "Affordable_Housing_District": "No", "Affordable_Housing_Elderly_Only": "No", "Affordable_Housing_Min_Lot_Size": null, "Affordable_Housing_Max_Density": null, "Affordable_Housing_Min_Parking_Spaces_per_mult_BR": null, "Affordable_Housing_Max_Units_per_Building": null, "Affordable_Housing_Min_Parking_Spaces_per_1BR": null, "PRD_Allowance": "Not Mentioned", "PRD_Max_Density": null, "PRD_Max_Units": null, "PRD_Min_Lot_Size": null, "PRD_Mobile_or_Manufactured_Home_Park": "No", "PUD_Allowance": "Yes", "PUD_Required_with_Subdivision": "F", "PUD_Requires_Land_Conservation": "T", "PUD_Threshold_Number": null, "Notes": " Single-Unit Homes Are Allowed By Right Below 500ft Of Elevation And By Conditional Use Review Above 500ft Of Elevation. Maximum Driveway Slope 15%. Development Must not Disrupt Viewshed, Must Have Minimal Impact On Deer Wintering, And Must Maximize Forest Block Preservation. Minimum Pud Lot Size 50 Acres. Lots Must Be Deep Enough to Be Usable; No 'Spaghetti Lots'. ", "FIPS6": 1105}}, {"type": "Feature", "id": 4, "geometry": {"type": "MultiPolygon", "coordinates": [[[[-73.22329320010081, 44.143904100007845], [-73.22268929959716, 44.14402660017557], [-73.22242839961254, 44.1441756997384], [-73.2212165004973, 44.14533630044415], [-73.22107080036206, 44.14562450040931], [-73.22077040047073, 44.14690479974029], [-73.2199326004191, 44.149714300058115], [-73.21899059977908, 44.152554900149305], [-73.21868530036198, 44.15320260038575], [-73.21820859952686, 44.15383670030519], [-73.22066080009374, 44.155907400346365], [-73.22173880052593, 44.15658139964656], [-73.22213012241455, 44.156437930572864], [-73.22290204913047, 44.15579022972013], [-73.22315786089244, 44.15523273333282], [-73.22329959183689, 44.15469611499861], [-73.22451243138116, 44.15393271233572], [-73.22526310970044, 44.154388379110365], [-73.22513939415632, 44.154937403598744], [-73.22577249263388, 44.15519665913183], [-73.22598930155418, 44.15522566268661], [-73.22669980131607, 44.15492752321674], [-73.22691278464194, 44.15460187157343], [-73.22606667577776, 44.150378247632545], [-73.2260789185112, 44.149996454041435], [-73.22642280251964, 44.150117037380724], [-73.22739136583655, 44.15072252319156], [-73.22762043122492, 44.15064568788676], [-73.22770480680182, 44.15041819908523], [-73.22798762939752, 44.15040841777488], [-73.22817440041163, 44.14996690023853], [-73.22836920054287, 44.15027480020127], [-73.22850040025357, 44.15027590041162], [-73.22867680053406, 44.15016959991207], [-73.22886440033574, 44.14989310032518], [-73.22893270024062, 44.14960060015705], [-73.22923849998573, 44.14918470018651], [-73.22921150038664, 44.148859200416396], [-73.22894340060517, 44.14853380020521], [-73.22824439955444, 44.148072700434234], [-73.22793739946276, 44.14762780021895], [-73.22751840024856, 44.14735419978829], [-73.22725209948214, 44.14681729991783], [-73.22685583483138, 44.1464008837487], [-73.22662579501572, 44.146264587209764], [-73.22661048494315, 44.146255518112355], [-73.22604499997756, 44.14597590033909], [-73.22590090117383, 44.14583509881112], [-73.22494350050864, 44.14523709975791], [-73.2248869589137, 44.14518668966479], [-73.22344990016606, 44.14392250003483], [-73.22329320010081, 44.143904100007845]]], [[[-73.23551200021296, 44.13990139990161], [-73.23354730001378, 44.14014310000736], [-73.23044250061669, 44.1403479995883], [-73.23043466684763, 44.14066525778377], [-73.23027211476038, 44.14097194371282], [-73.22999977546134, 44.14121324500552], [-73.22981940316129, 44.14147048031896], [-73.22958619057992, 44.141628923383884], [-73.22897998671495, 44.14223995557317], [-73.22903928010578, 44.14286326161515], [-73.22928443712183, 44.1432086461554], [-73.22948675453526, 44.143335396261364], [-73.22931281937068, 44.14365041355856], [-73.2297250236933, 44.14405255631707], [-73.22944647650004, 44.144256722304384], [-73.22955868949232, 44.14473574606985], [-73.2297566296904, 44.145221244778774], [-73.22991951820883, 44.14540607079571], [-73.22991186346118, 44.14571589625366], [-73.23006972994192, 44.1459585780832], [-73.23052677131966, 44.146273693952054], [-73.23115140383963, 44.14622426422106], [-73.23202828588458, 44.14662755360261], [-73.23251034477063, 44.14664511497036], [-73.23309810080733, 44.14686025384498], [-73.23377512699378, 44.14687242757076], [-73.23414728662411, 44.146816342673404], [-73.23467743515957, 44.14654859169666], [-73.23495110640212, 44.1459520607114], [-73.23516741128299, 44.14489329840024], [-73.23535032808546, 44.14437995660468], [-73.23518132579733, 44.14370366532286], [-73.23512324416494, 44.14272101430839], [-73.23545153715098, 44.142367820978734], [-73.2357613591636, 44.14142656700891], [-73.23554795551587, 44.14069093607781], [-73.23558675076501, 44.140267737353625], [-73.23551200021296, 44.13990139990161]]], [[[-73.22219459939843, 44.13826979997223], [-73.22103013713529, 44.138352055148765], [-73.22129953865402, 44.13977693282958], [-73.22275613191538, 44.14090357641044], [-73.22262572690144, 44.141233538936646], [-73.22289810971547, 44.14152223077387], [-73.22277698081867, 44.14187795029428], [-73.22277085479703, 44.142110321844186], [-73.22251129462066, 44.14222561912629], [-73.22313069995556, 44.14313680029448], [-73.22349400034379, 44.14356129989672], [-73.2251962001132, 44.14503219986379], [-73.2278039565039, 44.14666755292432], [-73.22782485816066, 44.146434469761864], [-73.2276188179599, 44.14498370420212], [-73.22728326641777, 44.14466315655178], [-73.2273409286424, 44.14424975425714], [-73.22682369445423, 44.14373029762674], [-73.22691886717628, 44.14345218394494], [-73.22694292429227, 44.14302993890956], [-73.22667959066457, 44.142510859078435], [-73.22627845508484, 44.1424288200553], [-73.22588506064041, 44.14207974411968], [-73.22561529319358, 44.141933426178234], [-73.22551458093118, 44.141503187070676], [-73.22563577957361, 44.14113701430535], [-73.22571740858865, 44.14048467360594], [-73.22588569374523, 44.14032226258219], [-73.22652415294671, 44.14049890843166], [-73.22711876004523, 44.140753271104074], [-73.22744104774563, 44.14072540468214], [-73.22867469972131, 44.14022209960976], [-73.22817810018955, 44.139635399715196], [-73.22669960035542, 44.138913800116676], [-73.2263797001804, 44.13883899989857], [-73.2249030997366, 44.13866900031942], [-73.22434336885532, 44.13871152783197], [-73.22435535123975, 44.13976405179734], [-73.2239813016701, 44.140689300449885], [-73.22380262825587, 44.14073560805954], [-73.22350249462937, 44.140376103100024], [-73.22355200495349, 44.14002729023798], [-73.22329886663951, 44.13911246856523], [-73.22313320046558, 44.138750899687295], [-73.22219459939843, 44.13826979997223]]], [[[-73.21752929955018, 44.11654740037993], [-73.21725331957809, 44.116688480777526], [-73.21666087145772, 44.11728392336895], [-73.21642682073397, 44.1173321302824], [-73.21646682120821, 44.11764068010895], [-73.2160167442836, 44.11793028306626], [-73.21582340974162, 44.11822077783125], [-73.2153013858767, 44.11867782411931], [-73.21520300258749, 44.119007427736356], [-73.21489786213876, 44.119168159186366], [-73.21484931473843, 44.11971299477016], [-73.21498204600684, 44.12026720972176], [-73.21527036020565, 44.12067463488009], [-73.21498253053555, 44.120965718783424], [-73.21688102679182, 44.12233783931749], [-73.21679907986447, 44.12272406265038], [-73.21613413153023, 44.12308558202591], [-73.21561692826934, 44.1232930215938], [-73.21522036116646, 44.123709576736616], [-73.2149960556818, 44.12404564087581], [-73.21497941238357, 44.12462430902094], [-73.21518748816648, 44.12490094495092], [-73.21533620197948, 44.12547857775795], [-73.21547327969837, 44.12574431315124], [-73.21538919457495, 44.12660701361724], [-73.21561439884974, 44.12699698561172], [-73.2153735815807, 44.12727075938247], [-73.21562090443875, 44.127535803213284], [-73.21602441915746, 44.12834440042921], [-73.21663623900531, 44.128794339001885], [-73.2164109628591, 44.129051000176126], [-73.21656366602178, 44.12930529159713], [-73.21703183486869, 44.12959730944601], [-73.21718344268774, 44.12976085085223], [-73.21697302281191, 44.12994368190033], [-73.21714257714953, 44.13028862097634], [-73.21714623350725, 44.13124152723785], [-73.2173545489396, 44.13153517278701], [-73.21863878400622, 44.13246230767128], [-73.21867129970185, 44.1329267685694], [-73.21938972106388, 44.13379349703046], [-73.21953802043022, 44.13419914513099], [-73.2198742543488, 44.134584249026695], [-73.21992273982795, 44.13488726674503], [-73.2202502548119, 44.13529178521893], [-73.22073804263997, 44.13561139283765], [-73.22132070851038, 44.13562707703227], [-73.22138626092415, 44.135858996157744], [-73.22203024200763, 44.13649384276975], [-73.22038251001098, 44.136588142917475], [-73.21954170158547, 44.13671606222548], [-73.218961745425, 44.13687921776176], [-73.21994070012157, 44.138345800369684], [-73.22187059970595, 44.138129800000925], [-73.22223159950912, 44.13813400011096], [-73.22245199969277, 44.138199599747466], [-73.22308220041906, 44.13856899971821], [-73.2233632003323, 44.13866610007173], [-73.22367059990044, 44.138682299899536], [-73.22445359997863, 44.1385480001488], [-73.2249189998517, 44.13853189978769], [-73.22664089979236, 44.13874689971182], [-73.228304400012, 44.13953129993988], [-73.22874780041309, 44.1400693004424], [-73.22904020037161, 44.14021489960363], [-73.22993479955706, 44.1402350998406], [-73.23351989951614, 44.140007299649724], [-73.23330763050933, 44.13844223072234], [-73.23324965567801, 44.136740946768164], [-73.23310460009104, 44.136485999843025], [-73.23280660003758, 44.13702800038562], [-73.23224820038565, 44.138367200190636], [-73.23042189954222, 44.13850189993114], [-73.23014339978904, 44.13849720025398], [-73.22924959941774, 44.13790610018816], [-73.22854239991365, 44.1375915996265], [-73.22744779995826, 44.13721750003101], [-73.22535459970129, 44.13687060034288], [-73.22431970017696, 44.136844600140805], [-73.22376619966327, 44.13689910031837], [-73.22336170048021, 44.136720100048436], [-73.2228403995404, 44.13601150025312], [-73.21945200038036, 44.13198290001984], [-73.2184955002058, 44.13063889977056], [-73.21756449940804, 44.12902470028466], [-73.21735289968655, 44.128486099964505], [-73.21706929959466, 44.12740790034388], [-73.21687010034657, 44.1263291000271], [-73.21683610048547, 44.12551929991], [-73.21701739960392, 44.12497820022659], [-73.21748489974084, 44.124435199607795], [-73.2187786998403, 44.12334710028393], [-73.21900559957761, 44.122805700436565], [-73.21898800030463, 44.1225357999645], [-73.21874870006384, 44.121997300352], [-73.2182782996593, 44.12146030022242], [-73.21726300014893, 44.12050729989308], [-73.21706830020587, 44.12005800011934], [-73.21714419953673, 44.11949460039808], [-73.21712109988994, 44.117589299643285], [-73.21717549995479, 44.11711260043921], [-73.21747230047029, 44.11680759985325], [-73.21752929955018, 44.11654740037993]]], [[[-73.23470216805121, 44.114850751299095], [-73.23390097497354, 44.114923900708256], [-73.23325151366248, 44.11496406843767], [-73.23280744783388, 44.11507000044421], [-73.2323011997827, 44.115177400334254], [-73.23281839976858, 44.11569789973407], [-73.2341883001851, 44.11648880039664], [-73.23455440013286, 44.116765200250086], [-73.23502400051876, 44.11723810013508], [-73.23534264435628, 44.11702725355683], [-73.23586323397066, 44.1163414225747], [-73.23592787267073, 44.115865447654315], [-73.23578993822552, 44.11558680976489], [-73.23470216805121, 44.114850751299095]]], [[[-73.21754546636735, 44.11282704676563], [-73.21736412902177, 44.11283220588954], [-73.21736730056305, 44.114339400090465], [-73.21745030024947, 44.114988900434966], [-73.21751150058543, 44.115075199833214], [-73.21751569976911, 44.11542159976676], [-73.21789920256748, 44.11538299238535], [-73.21803029240564, 44.115155279687414], [-73.21793434821939, 44.11482071357942], [-73.21773289257281, 44.11465232169687], [-73.21773836182491, 44.114453760235506], [-73.21787787163179, 44.11427137291687], [-73.2175588495802, 44.113933044678845], [-73.21786230806399, 44.113636183026586], [-73.21778179851798, 44.11348921081974], [-73.21775207153789, 44.112984570646354], [-73.21754546636735, 44.11282704676563]]], [[[-73.21317426656637, 44.10916159826893], [-73.21005899955426, 44.10940520026312], [-73.20767719938077, 44.10959230002389], [-73.20844972464234, 44.11135068713694], [-73.20900440244368, 44.11094614793318], [-73.20942040526191, 44.11084146544967], [-73.20982120527653, 44.11078225407903], [-73.21019201117669, 44.110848015928966], [-73.21052481519823, 44.111027457448266], [-73.21087921404857, 44.111694574381346], [-73.21088966939737, 44.111910052887644], [-73.21056765329492, 44.11197445072771], [-73.21067522724461, 44.112410542313455], [-73.21150347802326, 44.113199496577245], [-73.21170534073902, 44.1134902919611], [-73.21227875634018, 44.11416461395492], [-73.21251541061434, 44.11420284365071], [-73.21279807396154, 44.11413868588137], [-73.21337518527112, 44.11368130671048], [-73.21360446677551, 44.11310698059965], [-73.21386084398462, 44.112821769043336], [-73.2140764899629, 44.1124233661092], [-73.214104086579, 44.112099877398805], [-73.21361325813449, 44.11158854576784], [-73.21363540107502, 44.111254923852066], [-73.21356110985077, 44.11094318935674], [-73.21309002802673, 44.11073557766872], [-73.21295146685817, 44.110525890274836], [-73.21303401592013, 44.1102676294131], [-73.2130387436402, 44.1094036082577], [-73.21317426656637, 44.10916159826893]]], [[[-73.21844689990155, 44.10875989962093], [-73.21531054486242, 44.10899887692672], [-73.21522183859378, 44.10947232208049], [-73.21506734105785, 44.10971719465933], [-73.21495432048583, 44.1101376456299], [-73.2148586835235, 44.11069412129232], [-73.21494205501615, 44.11107931039846], [-73.21491912640973, 44.11174877458656], [-73.21497067831388, 44.11194343495527], [-73.21550355330493, 44.11226802394922], [-73.21566591976193, 44.11227131615052], [-73.21587750351762, 44.11216776365681], [-73.21602641943574, 44.11221561958283], [-73.21695629995658, 44.11269130015216], [-73.21752890030032, 44.11232970023795], [-73.2179503999569, 44.111696799759585], [-73.21801850018004, 44.11141639967879], [-73.21802099986687, 44.110069999710355], [-73.2181996005499, 44.109323399685145], [-73.21844689990155, 44.10875989962093]]], [[[-73.22376599475098, 44.108328333047446], [-73.22068374496467, 44.10857939924397], [-73.22086589862101, 44.10877887072383], [-73.22169941358877, 44.109346502845646], [-73.22184304127315, 44.1095044172468], [-73.22162428217656, 44.10964193198354], [-73.2215548835621, 44.10976148757914], [-73.22204777977485, 44.11015542791727], [-73.2222365019051, 44.11013721862499], [-73.22241230667635, 44.10992930698741], [-73.22268092242845, 44.10978273094312], [-73.22353722179157, 44.10898887279934], [-73.22370742743357, 44.10874388924359], [-73.22376599475098, 44.108328333047446]]], [[[-73.23736833941336, 44.1072305003125], [-73.23071339982563, 44.10776510016367], [-73.23088849967446, 44.10797490043467], [-73.23106930054252, 44.108016999568996], [-73.23149400026048, 44.10838509962494], [-73.23221520048821, 44.10976169958989], [-73.23232469986766, 44.11057099980689], [-73.23197559989352, 44.111923200400135], [-73.23341023042957, 44.11189159658221], [-73.23542788540445, 44.11194651767657], [-73.23590683073269, 44.1118813954018], [-73.2370466893702, 44.111546121202075], [-73.23792723753556, 44.11113274629021], [-73.23825961862822, 44.11016454983441], [-73.23829933044249, 44.10940208938173], [-73.2382135081641, 44.10843659465769], [-73.23798516750712, 44.107879711288476], [-73.23736833941336, 44.1072305003125]]]]}, "properties": {"OBJECT_ID": 156, "County": "Addison", "RPC": "ACRPC", "Municipal_Name": "waltham", "GEO_ID": "5000176075", "District_Name": "Habitat Overlay District", "Abbreviated_District_Name": "Hoa", "District_Type": "Primarily Residential", "Bylaw_Date": "2023-08-22", "Elderly_Housing_District": "No", "District_Mapped": "No", "Overlay_District": "Yes", "Base_Density": null, "GIS_ID": null, "Last_Update": "20190601", "Shape_Length": 25171.28955460089, "Shape_Area": 2328479.647184944, "F1F_Allowance": "Overlay", "F1F_Front_Setback": null, "F1F_Side_Setback": null, "F1F_Rear_Setback": null, "F1F_Frontage": null, "F1F_Max_Height": null, "F1F_Max_Stories": null, "F1F_Min_Lot_Size": null, "F1F_Max_Lot_Building_Coverage": null, "F1F_Max_Lot_Impervious_Coverage": null, "F1F_Min_Parking_Spaces": null, "F1F_Elderly_Housing_Only": null, "F1F_Affordable_Housing_Only": null, "F2F_Allowance": "Overlay", "F2F_Front_Setback": null, "F2F_Side_Setback": null, "F2F_Rear_Setback": null, "F2F_Frontage": null, "F2F_Max_Density": null, "F2F_Max_Height": null, "F2F_Max_Stories": null, "F2F_Min_Lot_Size": null, "F2F_Max_Lot_Building_Coverage": null, "F2F_Max_Lot_Impervious_Coverage": null, "F2F_Min_Parking_Spaces_per_1BR": null, "F2F_Min_Parking_Spaces_per_mult_BR": null, "F2F_Elderly_Housing_Only": "No", "F2F_Affordable_Housing_Only": "No", "F3F_Allowance": "Overlay", "F3F_Front_Setback": null, "F3F_Side_Setback": null, "F3F_Rear_Setback": null, "F3F_Frontage": null, "F3F_Max_Density": null, "F3F_Max_Height": null, "F3F_Max_Stories": null, "F3F_Min_Lot_Size": null, "F3F_Max_Lot_Building_Coverage": null, "F3F_Max_Lot_Impervious_Coverage": null, "F3F_Min_Parking_Spaces_per_1BR": null, "F3F_Min_Parking_Spaces_per_mult_BR": null, "F3F_Affordable_Housing_Only": "No", "F3F_Proximity_to_Public_Transit_Required": "No", "F3F_Connection_to_Sewage/Water_Required": "No", "F4F_Allowance": "Overlay", "F4F_Front_Setback": null, "F4F_Side_Setback": null, "F4F_Rear_Setback": null, "F4F_Frontage": null, "F1F_Max_Density": null, "F4F_Max_Density": null, "F4F_Max_Height": null, "F4F_Max_Stories": null, "F4F_Min_Lot_Size": null, "F4F_Max_Lot_Building_Coverage": null, "F4F_Max_Lot_Impervious_Coverage": null, "F4F_Min_Parking_Spaces_per_1BR": null, "F4F_Min_Parking_Spaces_per_mult_BR": null, "F3F_Elderly_Housing_Only": "No", "F4F_Elderly_Housing_Only": "No", "F4F_Affordable_Housing_Only": "No", "F4F_Proximity_to_Public_Transit_Required": "No", "F4F_Connection_to_Sewage/Water_Required": "No", "ADU_Allowance": "Not Mentioned", "ADU_Elderly_Housing_Only": "No", "ADU_Max_Size_as_Percent_of_Primary_Strcture": null, "ADU_Max_Size_in_sq_ft": null, "ADU_Min_Lot_Size": null, "ADU_Max_Bedrooms": null, "ADU_Min_Parking_Spaces": null, "ADU_Owner_Occupancy_Required": "No", "ADU_Renter_Occupancy_Prohibited": "No", "ADU_Employee_or_Family_Occupancy_Required": "No", "ADU_Restricted_to_Primary_Structure": "No", "Affordable_Housing_Allowance": "Not Mentioned", "Affordable_Housing_District": "No", "Affordable_Housing_Elderly_Only": "No", "Affordable_Housing_Min_Lot_Size": null, "Affordable_Housing_Max_Density": null, "Affordable_Housing_Min_Parking_Spaces_per_mult_BR": null, "Affordable_Housing_Max_Units_per_Building": null, "Affordable_Housing_Min_Parking_Spaces_per_1BR": null, "PRD_Allowance": "Not Mentioned", "PRD_Max_Density": null, "PRD_Max_Units": null, "PRD_Min_Lot_Size": null, "PRD_Mobile_or_Manufactured_Home_Park": "No", "PUD_Allowance": "Yes", "PUD_Required_with_Subdivision": "F", "PUD_Requires_Land_Conservation": "T", "PUD_Threshold_Number": null, "Notes": " This Overlay Layer Does not Prohibit Any Activity Permitted In The Base Zoning District. It Requires That Developers Submit A Landscape Plan And Narrative Explaining Siting And Clearing (Both With Minimal Impacts On Surrounding Forest). ", "FIPS6": 1105}}, {"type": "Feature", "id": 5, "geometry": {"type": "MultiPolygon", "coordinates": [[[[-73.24725063667876, 44.15284621388515], [-73.24743970059866, 44.1540084996868], [-73.24755001045325, 44.154630062368945], [-73.24755963436009, 44.15462933339451], [-73.24919083150486, 44.15450396358249], [-73.249315733774, 44.15449415432371], [-73.24937970059979, 44.15412169964745], [-73.24938160040458, 44.15394200020846], [-73.2494099994548, 44.15358000005214], [-73.2494158996485, 44.15357149957973], [-73.24945119967485, 44.15352120029957], [-73.2495688995746, 44.15327339974582], [-73.24916502001224, 44.15311060540876], [-73.24903825392973, 44.15305950865971], [-73.24725063667876, 44.15284621388515]]], [[[-73.2445749920073, 44.152438837338316], [-73.24393742547674, 44.15489483792026], [-73.24736887839379, 44.15464378266255], [-73.24704880036761, 44.15278590038278], [-73.2445749920073, 44.152438837338316]]]]}, "properties": {"OBJECT_ID": 157, "County": "Addison", "RPC": "ACRPC", "Municipal_Name": "waltham", "GEO_ID": "5000176075", "District_Name": "High Density Residential District", "Abbreviated_District_Name": "Hdr", "District_Type": "Primarily Residential", "Bylaw_Date": "2023-08-22", "Elderly_Housing_District": "No", "District_Mapped": "No", "Overlay_District": "No", "Base_Density": 0.4, "GIS_ID": null, "Last_Update": "20190601", "Shape_Length": 1636.908437090977, "Shape_Area": 84746.81149128004, "F1F_Allowance": "Permitted", "F1F_Front_Setback": 30, "F1F_Side_Setback": 15, "F1F_Rear_Setback": 30, "F1F_Frontage": 100, "F1F_Max_Height": 35, "F1F_Max_Stories": null, "F1F_Min_Lot_Size": 2.5, "F1F_Max_Lot_Building_Coverage": null, "F1F_Max_Lot_Impervious_Coverage": 30, "F1F_Min_Parking_Spaces": 1.5, "F1F_Elderly_Housing_Only": null, "F1F_Affordable_Housing_Only": null, "F2F_Allowance": "Permitted", "F2F_Front_Setback": 30, "F2F_Side_Setback": 15, "F2F_Rear_Setback": 30, "F2F_Frontage": 100, "F2F_Max_Density": 0.4, "F2F_Max_Height": 35, "F2F_Max_Stories": null, "F2F_Min_Lot_Size": 5, "F2F_Max_Lot_Building_Coverage": null, "F2F_Max_Lot_Impervious_Coverage": 30, "F2F_Min_Parking_Spaces_per_1BR": 1.5, "F2F_Min_Parking_Spaces_per_mult_BR": 1.5, "F2F_Elderly_Housing_Only": "No", "F2F_Affordable_Housing_Only": "No", "F3F_Allowance": "Permitted", "F3F_Front_Setback": 30, "F3F_Side_Setback": 15, "F3F_Rear_Setback": 30, "F3F_Frontage": 100, "F3F_Max_Density": 0.4, "F3F_Max_Height": 35, "F3F_Max_Stories": null, "F3F_Min_Lot_Size": 7.5, "F3F_Max_Lot_Building_Coverage": null, "F3F_Max_Lot_Impervious_Coverage": 30, "F3F_Min_Parking_Spaces_per_1BR": 1.3, "F3F_Min_Parking_Spaces_per_mult_BR": 1.3, "F3F_Affordable_Housing_Only": "No", "F3F_Proximity_to_Public_Transit_Required": "No", "F3F_Connection_to_Sewage/Water_Required": "No", "F4F_Allowance": "Permitted", "F4F_Front_Setback": 30, "F4F_Side_Setback": 15, "F4F_Rear_Setback": 30, "F4F_Frontage": 100, "F1F_Max_Density": null, "F4F_Max_Density": 0.4, "F4F_Max_Height": 35, "F4F_Max_Stories": null, "F4F_Min_Lot_Size": 10, "F4F_Max_Lot_Building_Coverage": null, "F4F_Max_Lot_Impervious_Coverage": 30, "F4F_Min_Parking_Spaces_per_1BR": 1.58, "F4F_Min_Parking_Spaces_per_mult_BR": 1.58, "F3F_Elderly_Housing_Only": "No", "F4F_Elderly_Housing_Only": "No", "F4F_Affordable_Housing_Only": "No", "F4F_Proximity_to_Public_Transit_Required": "No", "F4F_Connection_to_Sewage/Water_Required": "No", "ADU_Allowance": "Allowed/Conditional", "ADU_Elderly_Housing_Only": "No", "ADU_Max_Size_as_Percent_of_Primary_Strcture": 30, "ADU_Max_Size_in_sq_ft": null, "ADU_Min_Lot_Size": 2.5, "ADU_Max_Bedrooms": 1, "ADU_Min_Parking_Spaces": 1.5, "ADU_Owner_Occupancy_Required": "Yes", "ADU_Renter_Occupancy_Prohibited": "No", "ADU_Employee_or_Family_Occupancy_Required": "No", "ADU_Restricted_to_Primary_Structure": "No", "Affordable_Housing_Allowance": "Not Mentioned", "Affordable_Housing_District": "No", "Affordable_Housing_Elderly_Only": "No", "Affordable_Housing_Min_Lot_Size": null, "Affordable_Housing_Max_Density": null, "Affordable_Housing_Min_Parking_Spaces_per_mult_BR": null, "Affordable_Housing_Max_Units_per_Building": null, "Affordable_Housing_Min_Parking_Spaces_per_1BR": null, "PRD_Allowance": "Not Mentioned", "PRD_Max_Density": null, "PRD_Max_Units": null, "PRD_Min_Lot_Size": null, "PRD_Mobile_or_Manufactured_Home_Park": "No", "PUD_Allowance": "Yes", "PUD_Required_with_Subdivision": "F", "PUD_Requires_Land_Conservation": "T", "PUD_Threshold_Number": null, "Notes": " Maximum Yard Setback 75ft. Minimum Lot Depth 100ft. This District Is Subject to A Variety Of Architectural Requirements. Density Bonus Of <=1 Unit/0.25 Acres For Two+ Unit Housing In Puds. Puds Must Meet Affordability Requirements If > 3 Units. Development Is Intended to Grow With Increased Sewer & Sidewalk Infrastructure. In 4+ Unit Dwellings, At Least 1 Parking Spot Must Be Accessible. ", "FIPS6": 1105}}, {"type": "Feature", "id": 6, "geometry": {"type": "MultiPolygon", "coordinates": [[[[-73.21807279956272, 44.15406570042085], [-73.2155328003186, 44.15739549996685], [-73.21737730025762, 44.158161000287244], [-73.21724289970011, 44.158739700058746], [-73.22491639951265, 44.159998899649516], [-73.22537099960047, 44.15850660029396], [-73.22333450052207, 44.15761899976081], [-73.22091030004444, 44.15645639972015], [-73.21895599958339, 44.15486350033548], [-73.21807279956272, 44.15406570042085]]], [[[-73.21106390001852, 44.148527299834846], [-73.21224249937882, 44.156029999754026], [-73.21535300052277, 44.15732090033229], [-73.2179293996898, 44.153918599964555], [-73.21535449971, 44.15180299975554], [-73.21451370045477, 44.151310600239654], [-73.21381149946883, 44.150581800208506], [-73.21106390001852, 44.148527299834846]]]]}, "properties": {"OBJECT_ID": 158, "County": "Addison", "RPC": "ACRPC", "Municipal_Name": "waltham", "GEO_ID": "5000176075", "District_Name": "Highway Commercial District", "Abbreviated_District_Name": "Hc-2.5", "District_Type": "Mixed with Residential", "Bylaw_Date": "2023-08-22", "Elderly_Housing_District": "No", "District_Mapped": "Yes", "Overlay_District": "No", "Base_Density": 0.4, "GIS_ID": null, "Last_Update": "20190601", "Shape_Length": 4601.418966511954, "Shape_Area": 498536.510271188, "F1F_Allowance": "Permitted", "F1F_Front_Setback": 140, "F1F_Side_Setback": 75, "F1F_Rear_Setback": 75, "F1F_Frontage": 400, "F1F_Max_Height": 35, "F1F_Max_Stories": null, "F1F_Min_Lot_Size": 2.5, "F1F_Max_Lot_Building_Coverage": 15, "F1F_Max_Lot_Impervious_Coverage": 20, "F1F_Min_Parking_Spaces": 1.5, "F1F_Elderly_Housing_Only": null, "F1F_Affordable_Housing_Only": null, "F2F_Allowance": "Permitted", "F2F_Front_Setback": 140, "F2F_Side_Setback": 75, "F2F_Rear_Setback": 75, "F2F_Frontage": 400, "F2F_Max_Density": 0.4, "F2F_Max_Height": 35, "F2F_Max_Stories": null, "F2F_Min_Lot_Size": 5, "F2F_Max_Lot_Building_Coverage": 15, "F2F_Max_Lot_Impervious_Coverage": 20, "F2F_Min_Parking_Spaces_per_1BR": 1.5, "F2F_Min_Parking_Spaces_per_mult_BR": 1.5, "F2F_Elderly_Housing_Only": "No", "F2F_Affordable_Housing_Only": "No", "F3F_Allowance": "Public Hearing", "F3F_Front_Setback": 140, "F3F_Side_Setback": 75, "F3F_Rear_Setback": 75, "F3F_Frontage": 400, "F3F_Max_Density": 0.4, "F3F_Max_Height": 35, "F3F_Max_Stories": null, "F3F_Min_Lot_Size": 7.5, "F3F_Max_Lot_Building_Coverage": 15, "F3F_Max_Lot_Impervious_Coverage": 20, "F3F_Min_Parking_Spaces_per_1BR": 1.3, "F3F_Min_Parking_Spaces_per_mult_BR": 1.3, "F3F_Affordable_Housing_Only": "No", "F3F_Proximity_to_Public_Transit_Required": "No", "F3F_Connection_to_Sewage/Water_Required": "No", "F4F_Allowance": "Public Hearing", "F4F_Front_Setback": 140, "F4F_Side_Setback": 75, "F4F_Rear_Setback": 75, "F4F_Frontage": 400, "F1F_Max_Density": null, "F4F_Max_Density": 0.4, "F4F_Max_Height": 35, "F4F_Max_Stories": null, "F4F_Min_Lot_Size": 10, "F4F_Max_Lot_Building_Coverage": 15, "F4F_Max_Lot_Impervious_Coverage": 20, "F4F_Min_Parking_Spaces_per_1BR": 1.58, "F4F_Min_Parking_Spaces_per_mult_BR": 1.58, "F3F_Elderly_Housing_Only": "No", "F4F_Elderly_Housing_Only": "No", "F4F_Affordable_Housing_Only": "No", "F4F_Proximity_to_Public_Transit_Required": "No", "F4F_Connection_to_Sewage/Water_Required": "No", "ADU_Allowance": "Allowed/Conditional", "ADU_Elderly_Housing_Only": "No", "ADU_Max_Size_as_Percent_of_Primary_Strcture": 30, "ADU_Max_Size_in_sq_ft": null, "ADU_Min_Lot_Size": 2.5, "ADU_Max_Bedrooms": 1, "ADU_Min_Parking_Spaces": 1.5, "ADU_Owner_Occupancy_Required": "Yes", "ADU_Renter_Occupancy_Prohibited": "No", "ADU_Employee_or_Family_Occupancy_Required": "No", "ADU_Restricted_to_Primary_Structure": "No", "Affordable_Housing_Allowance": "Not Mentioned", "Affordable_Housing_District": "No", "Affordable_Housing_Elderly_Only": "No", "Affordable_Housing_Min_Lot_Size": null, "Affordable_Housing_Max_Density": null, "Affordable_Housing_Min_Parking_Spaces_per_mult_BR": null, "Affordable_Housing_Max_Units_per_Building": null, "Affordable_Housing_Min_Parking_Spaces_per_1BR": null, "PRD_Allowance": "Not Mentioned", "PRD_Max_Density": null, "PRD_Max_Units": null, "PRD_Min_Lot_Size": null, "PRD_Mobile_or_Manufactured_Home_Park": "No", "PUD_Allowance": "Yes", "PUD_Required_with_Subdivision": "T", "PUD_Requires_Land_Conservation": "T", "PUD_Threshold_Number": 2, "Notes": " Minimum Lot Frontage On Rt 7 400ft; On Plank Rd, South Middlebrook Rd 200ft. Minimum Lot Depth 275ft. Maximum Building Size 15,000 Sf. Total Building Footprint Maximum 50,000 Or 15% Lot Coverage, Whichever Is Less. Minimum Pud Lot Size 2.5 Acres With Architectural, Siting, And Landscaping Requirements. In 4+ Unit Residences, 1 Parking Spot Must Be Accessible. ", "FIPS6": 1105}}, {"type": "Feature", "id": 7, "geometry": {"type": "MultiPolygon", "coordinates": [[[[-73.21220790028421, 44.114805099872626], [-73.21001900051432, 44.115344699893946], [-73.20904800012184, 44.11271249994037], [-73.20844972464234, 44.11135068713694], [-73.20767719938077, 44.10959230002389], [-73.21005899955426, 44.10940520026312], [-73.2109776003148, 44.111560900254524], [-73.21170534073902, 44.1134902919611], [-73.21220790028421, 44.114805099872626]]], [[[-73.2065970996325, 44.112630599959], [-73.20533836146386, 44.10977443186471], [-73.20750500034367, 44.10960609982327], [-73.20885269979249, 44.11275170012862], [-73.2097998999189, 44.11534369978432], [-73.20767200005304, 44.11584930029008], [-73.2065970996325, 44.112630599959]]], [[[-73.2408287996782, 44.10750589976968], [-73.24081110002065, 44.10772560013531], [-73.24093019949984, 44.11049690040035], [-73.24104429993082, 44.11127520035721], [-73.24186890037325, 44.11553189975461], [-73.24232490002638, 44.11684940035578], [-73.24316700020573, 44.12068729986591], [-73.2437604998499, 44.12306319962687], [-73.24390069964296, 44.124341499786624], [-73.24500750048804, 44.130714100361715], [-73.2443175996557, 44.130800599985925], [-73.24443130000836, 44.13127710032467], [-73.24514569996101, 44.131182900023774], [-73.24572690056202, 44.13320100035462], [-73.24584459953562, 44.13389699996993], [-73.24576770049227, 44.13493550016311], [-73.24488489999582, 44.138351400452216], [-73.24493140025375, 44.138582900042294], [-73.24532680055943, 44.13932139981621], [-73.24551100006873, 44.13980600008051], [-73.24183360014001, 44.14016999989354], [-73.24143810008549, 44.14015209968045], [-73.23792899958117, 44.139609000353886], [-73.23729390043533, 44.13956100006436], [-73.23696009948684, 44.139599099844474], [-73.23735000028512, 44.1395500000028], [-73.2374900001959, 44.13944000025798], [-73.23712999956473, 44.139240000401514], [-73.23661000051936, 44.13922000042736], [-73.23624000026958, 44.13897999968619], [-73.23608000034116, 44.13893999977611], [-73.2360000002536, 44.13904000017822], [-73.23605000040695, 44.13936000019953], [-73.23624999994848, 44.13939999976675], [-73.23631999961029, 44.1394800004004], [-73.23668950031839, 44.13962999971248], [-73.23351989951614, 44.140007299649724], [-73.22993479955706, 44.1402350998406], [-73.22904020037161, 44.14021489960363], [-73.22874780041309, 44.1400693004424], [-73.228304400012, 44.13953129993988], [-73.22664089979236, 44.13874689971182], [-73.2249189998517, 44.13853189978769], [-73.22445359997863, 44.1385480001488], [-73.22367059990044, 44.138682299899536], [-73.2233632003323, 44.13866610007173], [-73.22308220041906, 44.13856899971821], [-73.22245199969277, 44.138199599747466], [-73.22223159950912, 44.13813400011096], [-73.22187059970595, 44.138129800000925], [-73.21994070012157, 44.138345800369684], [-73.218961745425, 44.13687921776176], [-73.21607910013107, 44.13255139960331], [-73.21069549950528, 44.116810200290566], [-73.2101560000426, 44.115491599994265], [-73.2125401995903, 44.11488840024397], [-73.21503359944808, 44.113766899946334], [-73.21546590053624, 44.11658149957581], [-73.21566470032079, 44.116578899880174], [-73.21522599967047, 44.11367819999624], [-73.21736279990644, 44.11272119976515], [-73.21736412902177, 44.11283220588954], [-73.21736730056305, 44.114339400090465], [-73.21745030024947, 44.114988900434966], [-73.21751150058543, 44.115075199833214], [-73.21751569976911, 44.11542159976676], [-73.21752929955018, 44.11654740037993], [-73.21747230047029, 44.11680759985325], [-73.21717549995479, 44.11711260043921], [-73.21712109988994, 44.117589299643285], [-73.21714419953673, 44.11949460039808], [-73.21706830020587, 44.12005800011934], [-73.21726300014893, 44.12050729989308], [-73.2182782996593, 44.12146030022242], [-73.21874870006384, 44.121997300352], [-73.21898800030463, 44.1225357999645], [-73.21900559957761, 44.122805700436565], [-73.2187786998403, 44.12334710028393], [-73.21748489974084, 44.124435199607795], [-73.21701739960392, 44.12497820022659], [-73.21683610048547, 44.12551929991], [-73.21687010034657, 44.1263291000271], [-73.21706929959466, 44.12740790034388], [-73.21735289968655, 44.128486099964505], [-73.21756449940804, 44.12902470028466], [-73.2184955002058, 44.13063889977056], [-73.21945200038036, 44.13198290001984], [-73.2228403995404, 44.13601150025312], [-73.22336170048021, 44.136720100048436], [-73.22376619966327, 44.13689910031837], [-73.22431970017696, 44.136844600140805], [-73.22535459970129, 44.13687060034288], [-73.22744779995826, 44.13721750003101], [-73.22854239991365, 44.1375915996265], [-73.22924959941774, 44.13790610018816], [-73.23014339978904, 44.13849720025398], [-73.23042189954222, 44.13850189993114], [-73.23224820038565, 44.138367200190636], [-73.23280660003758, 44.13702800038562], [-73.23310460009104, 44.136485999843025], [-73.23450629995811, 44.133776999799814], [-73.23491619990992, 44.13269439998083], [-73.23492319994246, 44.13215440005066], [-73.23466710042936, 44.13080599961034], [-73.23473890024361, 44.13026549997807], [-73.23492259953507, 44.129994400215494], [-73.23522199966465, 44.12972239988735], [-73.23702269969583, 44.128683700351864], [-73.23754569951001, 44.12825099963471], [-73.237839799735, 44.12792379985717], [-73.23819880012199, 44.127375000312846], [-73.23860499948967, 44.126460600358364], [-73.23887759976098, 44.12537879970912], [-73.23874659993321, 44.12402970028922], [-73.23858679967456, 44.123490700437436], [-73.23826440038303, 44.122762300115575], [-73.23783709999898, 44.12198589976871], [-73.2365579994465, 44.11999380029399], [-73.23584660022013, 44.118541800085524], [-73.23502400051876, 44.11723810013508], [-73.23455440013286, 44.116765200250086], [-73.2341883001851, 44.11648880039664], [-73.23281839976858, 44.11569789973407], [-73.2323011997827, 44.115177400334254], [-73.23224600000192, 44.11509399991799], [-73.23190260005822, 44.11435630020534], [-73.23175320049958, 44.11354469968321], [-73.23177020032136, 44.11273459992744], [-73.23197559989352, 44.111923200400135], [-73.23232469986766, 44.11057099980689], [-73.23221520048821, 44.10976169958989], [-73.23149400026048, 44.10838509962494], [-73.23106930054252, 44.108016999568996], [-73.23088849967446, 44.10797490043467], [-73.23071339982563, 44.10776510016367], [-73.23736833941336, 44.1072305003125], [-73.24074238669137, 44.10696252125238], [-73.24076349938261, 44.10705619984848], [-73.24091930038185, 44.107052400404655], [-73.24093209999593, 44.10729669990265], [-73.2408287996782, 44.10750589976968]], [[-73.23275000045139, 44.11503000021057], [-73.23280744783388, 44.11507000044421], [-73.23333999970318, 44.11535000025299], [-73.23382999982957, 44.11523000019572], [-73.23390097497354, 44.114923900708256], [-73.23388999999241, 44.11483000014352], [-73.2337700000061, 44.114760000152074], [-73.23343999993214, 44.11474999979946], [-73.23310999970066, 44.11480999979579], [-73.2329699994447, 44.11489000023596], [-73.23277999977532, 44.11490000042225], [-73.23275000045139, 44.11503000021057]], [[-73.24284000001373, 44.13988000029203], [-73.2428999997294, 44.139959999806656], [-73.24309999967637, 44.13999999997065], [-73.24343000002503, 44.13996999977188], [-73.24352000008076, 44.13962000038217], [-73.24330999967466, 44.13945999989674], [-73.24320000057307, 44.13947999983257], [-73.24305000049084, 44.139700000150725], [-73.24286999944783, 44.13978999975504], [-73.24284000001373, 44.13988000029203]]], [[[-73.22270000037098, 44.14350000026722], [-73.22265000021436, 44.14363000000261], [-73.22294000005019, 44.143679999667754], [-73.22304990040189, 44.14382989992512], [-73.22259930014148, 44.14390519993932], [-73.22231389992164, 44.14401609989287], [-73.22190240037207, 44.144444400066725], [-73.22109410004582, 44.14510360015378], [-73.22092569953112, 44.14541829966918], [-73.22024490037222, 44.14788700004854], [-73.21781350044192, 44.148028099671514], [-73.21834280031977, 44.14645379977206], [-73.21877239938595, 44.144806200307194], [-73.21902669990915, 44.144298399718636], [-73.21691679944078, 44.144429899924646], [-73.21667689965913, 44.142125599740865], [-73.21938400051502, 44.1418456998093], [-73.21723480048622, 44.138567399621486], [-73.21649519944013, 44.13724920039193], [-73.21860130032678, 44.13698769992846], [-73.22253980009779, 44.1428902001078], [-73.22231999960793, 44.143029999915996], [-73.22270000037098, 44.14350000026722]]], [[[-73.24402150034209, 44.147175999961], [-73.24400310026114, 44.14599069969746], [-73.24360650037313, 44.14166049986051], [-73.24148749956638, 44.14182809998172], [-73.24045429979057, 44.14169519998502], [-73.24081289987862, 44.14019729997221], [-73.24184839956538, 44.14030730027204], [-73.24553910031958, 44.13994170028836], [-73.24574069984237, 44.14095960036923], [-73.2462010995158, 44.14599769993039], [-73.24618950057886, 44.147234500127276], [-73.24402150034209, 44.147175999961]]], [[[-73.2249030997366, 44.13866900031942], [-73.2263797001804, 44.13883899989857], [-73.22669960035542, 44.138913800116676], [-73.22817810018955, 44.139635399715196], [-73.22867469972131, 44.14022209960976], [-73.22899279945602, 44.14034830018972], [-73.22934659989885, 44.14038410019898], [-73.23044250061669, 44.1403479995883], [-73.23354730001378, 44.14014310000736], [-73.23551200021296, 44.13990139990161], [-73.23730539976839, 44.13969849964861], [-73.23816000008131, 44.13978780021586], [-73.23765529961818, 44.141269900037784], [-73.2357613591636, 44.14142656700891], [-73.23204079959646, 44.14178879968496], [-73.22982679987186, 44.14186229957928], [-73.23038379976664, 44.143264999716386], [-73.22955868949232, 44.14473574606985], [-73.22920169997262, 44.1453720999467], [-73.23263920049892, 44.14791800027521], [-73.23319870053953, 44.148341499981676], [-73.23238009992434, 44.14997550022398], [-73.2278039565039, 44.14666755292432], [-73.2251962001132, 44.14503219986379], [-73.22349400034379, 44.14356129989672], [-73.22313069995556, 44.14313680029448], [-73.22251129462066, 44.14222561912629], [-73.21999640029532, 44.13847779958671], [-73.22103013713529, 44.138352055148765], [-73.22219459939843, 44.13826979997223], [-73.22313320046558, 44.138750899687295], [-73.22354879953868, 44.138824200225876], [-73.22434336885532, 44.13871152783197], [-73.2249030997366, 44.13866900031942]]]]}, "properties": {"OBJECT_ID": 159, "County": "Addison", "RPC": "ACRPC", "Municipal_Name": "waltham", "GEO_ID": "5000176075", "District_Name": "Low Density Residential District", "Abbreviated_District_Name": "R-5", "District_Type": "Primarily Residential", "Bylaw_Date": "2023-08-22", "Elderly_Housing_District": "No", "District_Mapped": "Yes", "Overlay_District": "No", "Base_Density": 0.2, "GIS_ID": null, "Last_Update": "20190601", "Shape_Length": 33116.01683129188, "Shape_Area": 5018972.141003564, "F1F_Allowance": "Permitted", "F1F_Front_Setback": 100, "F1F_Side_Setback": 25, "F1F_Rear_Setback": 25, "F1F_Frontage": 300, "F1F_Max_Height": 35, "F1F_Max_Stories": null, "F1F_Min_Lot_Size": 5, "F1F_Max_Lot_Building_Coverage": 20, "F1F_Max_Lot_Impervious_Coverage": null, "F1F_Min_Parking_Spaces": 1.5, "F1F_Elderly_Housing_Only": null, "F1F_Affordable_Housing_Only": null, "F2F_Allowance": "Permitted", "F2F_Front_Setback": 100, "F2F_Side_Setback": 25, "F2F_Rear_Setback": 25, "F2F_Frontage": 300, "F2F_Max_Density": 0.2, "F2F_Max_Height": 35, "F2F_Max_Stories": null, "F2F_Min_Lot_Size": 10, "F2F_Max_Lot_Building_Coverage": 20, "F2F_Max_Lot_Impervious_Coverage": null, "F2F_Min_Parking_Spaces_per_1BR": 1.5, "F2F_Min_Parking_Spaces_per_mult_BR": 1.5, "F2F_Elderly_Housing_Only": "No", "F2F_Affordable_Housing_Only": "No", "F3F_Allowance": "Prohibited", "F3F_Front_Setback": null, "F3F_Side_Setback": null, "F3F_Rear_Setback": null, "F3F_Frontage": null, "F3F_Max_Density": null, "F3F_Max_Height": null, "F3F_Max_Stories": null, "F3F_Min_Lot_Size": null, "F3F_Max_Lot_Building_Coverage": null, "F3F_Max_Lot_Impervious_Coverage": null, "F3F_Min_Parking_Spaces_per_1BR": null, "F3F_Min_Parking_Spaces_per_mult_BR": null, "F3F_Affordable_Housing_Only": "No", "F3F_Proximity_to_Public_Transit_Required": "No", "F3F_Connection_to_Sewage/Water_Required": "No", "F4F_Allowance": "Prohibited", "F4F_Front_Setback": null, "F4F_Side_Setback": null, "F4F_Rear_Setback": null, "F4F_Frontage": null, "F1F_Max_Density": null, "F4F_Max_Density": null, "F4F_Max_Height": null, "F4F_Max_Stories": null, "F4F_Min_Lot_Size": null, "F4F_Max_Lot_Building_Coverage": null, "F4F_Max_Lot_Impervious_Coverage": null, "F4F_Min_Parking_Spaces_per_1BR": null, "F4F_Min_Parking_Spaces_per_mult_BR": null, "F3F_Elderly_Housing_Only": "No", "F4F_Elderly_Housing_Only": "No", "F4F_Affordable_Housing_Only": "No", "F4F_Proximity_to_Public_Transit_Required": "No", "F4F_Connection_to_Sewage/Water_Required": "No", "ADU_Allowance": "Allowed/Conditional", "ADU_Elderly_Housing_Only": "No", "ADU_Max_Size_as_Percent_of_Primary_Strcture": 30, "ADU_Max_Size_in_sq_ft": null, "ADU_Min_Lot_Size": 5, "ADU_Max_Bedrooms": 1, "ADU_Min_Parking_Spaces": 1.5, "ADU_Owner_Occupancy_Required": "Yes", "ADU_Renter_Occupancy_Prohibited": "No", "ADU_Employee_or_Family_Occupancy_Required": "No", "ADU_Restricted_to_Primary_Structure": "No", "Affordable_Housing_Allowance": "Not Mentioned", "Affordable_Housing_District": "No", "Affordable_Housing_Elderly_Only": "No", "Affordable_Housing_Min_Lot_Size": null, "Affordable_Housing_Max_Density": null, "Affordable_Housing_Min_Parking_Spaces_per_mult_BR": null, "Affordable_Housing_Max_Units_per_Building": null, "Affordable_Housing_Min_Parking_Spaces_per_1BR": null, "PRD_Allowance": "Not Mentioned", "PRD_Max_Density": null, "PRD_Max_Units": null, "PRD_Min_Lot_Size": null, "PRD_Mobile_or_Manufactured_Home_Park": "No", "PUD_Allowance": "Yes", "PUD_Required_with_Subdivision": "F", "PUD_Requires_Land_Conservation": "F", "PUD_Threshold_Number": null, "Notes": " Minimum Pud Size 10 Acres. Minimum Lot Depth 150ft. ", "FIPS6": 1105}}, {"type": "Feature", "id": 8, "geometry": {"type": "MultiPolygon", "coordinates": [[[[-73.2155328003186, 44.15739549996685], [-73.2136536998188, 44.15985729955709], [-73.22240969973015, 44.16120430020784], [-73.22690080000716, 44.16202089984651], [-73.23092219944428, 44.1626751996657], [-73.23457390021936, 44.163219799662194], [-73.23483710056996, 44.16321449973941], [-73.23495649987981, 44.16314920019187], [-73.23350800032969, 44.16246910029243], [-73.23286720010141, 44.16225230018877], [-73.23228319961373, 44.161908199768156], [-73.2260785005491, 44.15893359971212], [-73.22537099960047, 44.15850660029396], [-73.22491639951265, 44.159998899649516], [-73.21724289970011, 44.158739700058746], [-73.21737730025762, 44.158161000287244], [-73.2155328003186, 44.15739549996685]]], [[[-73.23228930007596, 44.15029979955489], [-73.23263380062335, 44.15199770023751], [-73.23390840005115, 44.1521822999978], [-73.23226560049378, 44.15744299967466], [-73.2298037996476, 44.15710159975581], [-73.22780809945895, 44.15935500011704], [-73.23221680010369, 44.16148389960232], [-73.23274589957998, 44.16121569963779], [-73.23328159977731, 44.160185900282464], [-73.23362020047469, 44.15975499995455], [-73.2349579001852, 44.15888160028043], [-73.23539200030784, 44.15737519981145], [-73.23530000051171, 44.15728039963915], [-73.2353034005315, 44.157163200079374], [-73.2354436004135, 44.15705390026841], [-73.23565069962268, 44.157052600115094], [-73.23577630047853, 44.1571333002604], [-73.2358064996443, 44.15725549980406], [-73.23572600036596, 44.157363299588305], [-73.23561070055527, 44.157407799896404], [-73.23516010051479, 44.158964699929065], [-73.23381879960652, 44.159866500151196], [-73.2335079005823, 44.160262099968755], [-73.23295210033164, 44.16133150043068], [-73.2324706998161, 44.16155780043503], [-73.23343710054601, 44.161922499723524], [-73.23529079947194, 44.16288400020029], [-73.23569250045304, 44.163209699741586], [-73.23614320033595, 44.1634384001511], [-73.24021149981782, 44.16406459991402], [-73.24009491299508, 44.16344763657396], [-73.23991425055203, 44.16276324015417], [-73.23991224455371, 44.16275349000033], [-73.23924072324706, 44.158983343231796], [-73.23849309983238, 44.15526749998661], [-73.23862409951144, 44.15526869965596], [-73.23883299951932, 44.15659540020876], [-73.2392028000262, 44.15533800021385], [-73.23908550039319, 44.15524729974704], [-73.23897220060873, 44.15525559987304], [-73.23566790057959, 44.152759499661116], [-73.23228930007596, 44.15029979955489]]], [[[-73.24358399948143, 44.146710199992846], [-73.23474059991152, 44.14743300007067], [-73.23346939964237, 44.14724159979801], [-73.23263920049892, 44.14791800027521], [-73.23319870053953, 44.148341499981676], [-73.23238009992434, 44.14997550022398], [-73.23828760010738, 44.15432719989554], [-73.2397735003933, 44.1533449998301], [-73.23964089976329, 44.15150560010479], [-73.23956540045832, 44.151377200354034], [-73.23967520002918, 44.151259699581395], [-73.23986019989722, 44.151271899843756], [-73.23993719986854, 44.15137299997736], [-73.2398310005286, 44.15150650032729], [-73.23997240060474, 44.152906299803014], [-73.24110350042031, 44.15289260010289], [-73.24124179990551, 44.153099899935135], [-73.2413723998927, 44.15316910008907], [-73.2413853001109, 44.15328270033456], [-73.24124259959949, 44.15337269990131], [-73.24106540034164, 44.153334399983116], [-73.24098609946492, 44.15303320043319], [-73.23997570011137, 44.15304549980484], [-73.23997999997997, 44.153410900256524], [-73.23842239948145, 44.154442400283784], [-73.23942229966967, 44.15519669956742], [-73.24163408675547, 44.15506102007636], [-73.24393742547674, 44.15489483792026], [-73.2445749920073, 44.152438837338316], [-73.24704880036761, 44.15278590038278], [-73.24645340029, 44.14879559984115], [-73.24617429989723, 44.14754630002448], [-73.24618950057886, 44.147234500127276], [-73.24402150034209, 44.147175999961], [-73.24358399948143, 44.146710199992846]]]]}, "properties": {"OBJECT_ID": 160, "County": "Addison", "RPC": "ACRPC", "Municipal_Name": "waltham", "GEO_ID": "5000176075", "District_Name": "Medium Density Residential District", "Abbreviated_District_Name": "R-2.5", "District_Type": "Primarily Residential", "Bylaw_Date": "2023-08-22", "Elderly_Housing_District": "No", "District_Mapped": "Yes", "Overlay_District": "No", "Base_Density": 0.4, "GIS_ID": null, "Last_Update": "20190601", "Shape_Length": 14572.44138371618, "Shape_Area": 1789395.3976740325, "F1F_Allowance": "Permitted", "F1F_Front_Setback": 50, "F1F_Side_Setback": 25, "F1F_Rear_Setback": 25, "F1F_Frontage": 200, "F1F_Max_Height": 35, "F1F_Max_Stories": null, "F1F_Min_Lot_Size": 2.5, "F1F_Max_Lot_Building_Coverage": 20, "F1F_Max_Lot_Impervious_Coverage": null, "F1F_Min_Parking_Spaces": 1.5, "F1F_Elderly_Housing_Only": null, "F1F_Affordable_Housing_Only": null, "F2F_Allowance": "Permitted", "F2F_Front_Setback": 50, "F2F_Side_Setback": 25, "F2F_Rear_Setback": 25, "F2F_Frontage": 200, "F2F_Max_Density": 0.4, "F2F_Max_Height": 35, "F2F_Max_Stories": null, "F2F_Min_Lot_Size": 5, "F2F_Max_Lot_Building_Coverage": 10, "F2F_Max_Lot_Impervious_Coverage": null, "F2F_Min_Parking_Spaces_per_1BR": 1.5, "F2F_Min_Parking_Spaces_per_mult_BR": 1.5, "F2F_Elderly_Housing_Only": "No", "F2F_Affordable_Housing_Only": "No", "F3F_Allowance": "Public Hearing", "F3F_Front_Setback": 50, "F3F_Side_Setback": 40, "F3F_Rear_Setback": 40, "F3F_Frontage": 200, "F3F_Max_Density": 0.4, "F3F_Max_Height": 35, "F3F_Max_Stories": null, "F3F_Min_Lot_Size": 7.5, "F3F_Max_Lot_Building_Coverage": 20, "F3F_Max_Lot_Impervious_Coverage": null, "F3F_Min_Parking_Spaces_per_1BR": 1.3, "F3F_Min_Parking_Spaces_per_mult_BR": 1.3, "F3F_Affordable_Housing_Only": "No", "F3F_Proximity_to_Public_Transit_Required": "No", "F3F_Connection_to_Sewage/Water_Required": "No", "F4F_Allowance": "Public Hearing", "F4F_Front_Setback": 50, "F4F_Side_Setback": 40, "F4F_Rear_Setback": 40, "F4F_Frontage": 200, "F1F_Max_Density": null, "F4F_Max_Density": 0.4, "F4F_Max_Height": 35, "F4F_Max_Stories": null, "F4F_Min_Lot_Size": 10, "F4F_Max_Lot_Building_Coverage": 20, "F4F_Max_Lot_Impervious_Coverage": null, "F4F_Min_Parking_Spaces_per_1BR": 1.58, "F4F_Min_Parking_Spaces_per_mult_BR": 1.58, "F3F_Elderly_Housing_Only": "No", "F4F_Elderly_Housing_Only": "No", "F4F_Affordable_Housing_Only": "No", "F4F_Proximity_to_Public_Transit_Required": "No", "F4F_Connection_to_Sewage/Water_Required": "No", "ADU_Allowance": "Allowed/Conditional", "ADU_Elderly_Housing_Only": "No", "ADU_Max_Size_as_Percent_of_Primary_Strcture": 30, "ADU_Max_Size_in_sq_ft": null, "ADU_Min_Lot_Size": 2.5, "ADU_Max_Bedrooms": 1, "ADU_Min_Parking_Spaces": 1.5, "ADU_Owner_Occupancy_Required": "Yes", "ADU_Renter_Occupancy_Prohibited": "No", "ADU_Employee_or_Family_Occupancy_Required": "No", "ADU_Restricted_to_Primary_Structure": "No", "Affordable_Housing_Allowance": "Not Mentioned", "Affordable_Housing_District": "No", "Affordable_Housing_Elderly_Only": "No", "Affordable_Housing_Min_Lot_Size": null, "Affordable_Housing_Max_Density": null, "Affordable_Housing_Min_Parking_Spaces_per_mult_BR": null, "Affordable_Housing_Max_Units_per_Building": null, "Affordable_Housing_Min_Parking_Spaces_per_1BR": null, "PRD_Allowance": "Not Mentioned", "PRD_Max_Density": null, "PRD_Max_Units": null, "PRD_Min_Lot_Size": null, "PRD_Mobile_or_Manufactured_Home_Park": "No", "PUD_Allowance": "Yes", "PUD_Required_with_Subdivision": "F", "PUD_Requires_Land_Conservation": "T", "PUD_Threshold_Number": null, "Notes": " Minimum Lot Depth 100 Ft. In 4+ Unit Dwellings, At Least 1 Parking Spot Must Be Accessible. ", "FIPS6": 1105}}, {"type": "Feature", "id": 9, "geometry": {"type": "Polygon", "coordinates": [[[-73.24500750048804, 44.130714100361715], [-73.2443175996557, 44.130800599985925], [-73.24443130000836, 44.13127710032467], [-73.24514569996101, 44.131182900023774], [-73.24500750048804, 44.130714100361715]]]}, "properties": {"OBJECT_ID": 161, "County": "Addison", "RPC": "ACRPC", "Municipal_Name": "waltham", "GEO_ID": "5000176075", "District_Name": "Municipal District", "Abbreviated_District_Name": "Mun", "District_Type": "Nonresidential", "Bylaw_Date": "2023-08-22", "Elderly_Housing_District": "No", "District_Mapped": "Yes", "Overlay_District": "No", "Base_Density": null, "GIS_ID": null, "Last_Update": "20190601", "Shape_Length": 221.14204802174748, "Shape_Area": 3052.394153524855, "F1F_Allowance": "Prohibited", "F1F_Front_Setback": null, "F1F_Side_Setback": null, "F1F_Rear_Setback": null, "F1F_Frontage": null, "F1F_Max_Height": null, "F1F_Max_Stories": null, "F1F_Min_Lot_Size": null, "F1F_Max_Lot_Building_Coverage": null, "F1F_Max_Lot_Impervious_Coverage": null, "F1F_Min_Parking_Spaces": null, "F1F_Elderly_Housing_Only": null, "F1F_Affordable_Housing_Only": null, "F2F_Allowance": "Prohibited", "F2F_Front_Setback": null, "F2F_Side_Setback": null, "F2F_Rear_Setback": null, "F2F_Frontage": null, "F2F_Max_Density": null, "F2F_Max_Height": null, "F2F_Max_Stories": null, "F2F_Min_Lot_Size": null, "F2F_Max_Lot_Building_Coverage": null, "F2F_Max_Lot_Impervious_Coverage": null, "F2F_Min_Parking_Spaces_per_1BR": null, "F2F_Min_Parking_Spaces_per_mult_BR": null, "F2F_Elderly_Housing_Only": "No", "F2F_Affordable_Housing_Only": "No", "F3F_Allowance": "Prohibited", "F3F_Front_Setback": null, "F3F_Side_Setback": null, "F3F_Rear_Setback": null, "F3F_Frontage": null, "F3F_Max_Density": null, "F3F_Max_Height": null, "F3F_Max_Stories": null, "F3F_Min_Lot_Size": null, "F3F_Max_Lot_Building_Coverage": null, "F3F_Max_Lot_Impervious_Coverage": null, "F3F_Min_Parking_Spaces_per_1BR": null, "F3F_Min_Parking_Spaces_per_mult_BR": null, "F3F_Affordable_Housing_Only": "No", "F3F_Proximity_to_Public_Transit_Required": "No", "F3F_Connection_to_Sewage/Water_Required": "No", "F4F_Allowance": "Prohibited", "F4F_Front_Setback": null, "F4F_Side_Setback": null, "F4F_Rear_Setback": null, "F4F_Frontage": null, "F1F_Max_Density": null, "F4F_Max_Density": null, "F4F_Max_Height": null, "F4F_Max_Stories": null, "F4F_Min_Lot_Size": null, "F4F_Max_Lot_Building_Coverage": null, "F4F_Max_Lot_Impervious_Coverage": null, "F4F_Min_Parking_Spaces_per_1BR": null, "F4F_Min_Parking_Spaces_per_mult_BR": null, "F3F_Elderly_Housing_Only": "No", "F4F_Elderly_Housing_Only": "No", "F4F_Affordable_Housing_Only": "No", "F4F_Proximity_to_Public_Transit_Required": "No", "F4F_Connection_to_Sewage/Water_Required": "No", "ADU_Allowance": "Not Mentioned", "ADU_Elderly_Housing_Only": "No", "ADU_Max_Size_as_Percent_of_Primary_Strcture": null, "ADU_Max_Size_in_sq_ft": null, "ADU_Min_Lot_Size": null, "ADU_Max_Bedrooms": null, "ADU_Min_Parking_Spaces": null, "ADU_Owner_Occupancy_Required": "No", "ADU_Renter_Occupancy_Prohibited": "No", "ADU_Employee_or_Family_Occupancy_Required": "No", "ADU_Restricted_to_Primary_Structure": "No", "Affordable_Housing_Allowance": "Not Mentioned", "Affordable_Housing_District": "No", "Affordable_Housing_Elderly_Only": "No", "Affordable_Housing_Min_Lot_Size": null, "Affordable_Housing_Max_Density": null, "Affordable_Housing_Min_Parking_Spaces_per_mult_BR": null, "Affordable_Housing_Max_Units_per_Building": null, "Affordable_Housing_Min_Parking_Spaces_per_1BR": null, "PRD_Allowance": "Not Mentioned", "PRD_Max_Density": null, "PRD_Max_Units": null, "PRD_Min_Lot_Size": null, "PRD_Mobile_or_Manufactured_Home_Park": "No", "PUD_Allowance": "Yes", "PUD_Required_with_Subdivision": "F", "PUD_Requires_Land_Conservation": "T", "PUD_Threshold_Number": null, "Notes": " This District Is Comprised Of Town Hall Property. ", "FIPS6": 1105}}]}