{
"type": "FeatureCollection",
"name": "Bennington_Unknown",
"crs": { "type": "name", "properties": { "name": "urn:ogc:def:crs:OGC:1.3:CRS84" } },
"features": [
{ "type": "Feature", "properties": { "OBJECT_ID": 1546, "County": "Bennington", "RPC": "BCRC", "Municipal_Name": " ", "GEO_ID": null, "District_Name": "Peru", "Abbreviated_District_Name": "Pvhd", "District_Type": "Mixed with Residential", "Bylaw_Date": null, "Elderly_Housing_District": "No", "District_Mapped": "Yes", "Overlay_District": "No", "Base_Density": null, "Shape_Length": 2585.9394769269002, "Shape_Area": 280891.93706234742, "F1F_Allowance": "Permitted", "F1F_Front_Setback": 55.0, "F1F_Side_Setback": 25.0, "F1F_Rear_Setback": 25.0, "F1F_Frontage": 75.0, "F1F_Max_Height": 35.0, "F1F_Max_Stories": null, "F1F_Min_Lot_Size": 0.25, "F1F_Max_Lot_Building_Coverage": 35.0, "F1F_Max_Lot_Impervious_Coverage": null, "F1F_Min_Parking_Spaces": 1.0, "F2F_Allowance": "Permitted", "F2F_Front_Setback": 55.0, "F2F_Side_Setback": 25.0, "F2F_Rear_Setback": 25.0, "F2F_Frontage": 75.0, "F2F_Max_Density": null, "F2F_Max_Height": 35.0, "F2F_Max_Stories": null, "F2F_Min_Lot_Size": 0.25, "F2F_Max_Lot_Building_Coverage": 35.0, "F2F_Max_Lot_Impervious_Coverage": null, "F2F_Min_Parking_Spaces_per_1BR": 1.0, "F2F_Min_Parking_Spaces_per_mult_BR": 1.0, "F2F_Elderly_Housing_Only": "No", "F2F_Affordable_Housing_Only": "No", "F3F_Allowance": "Prohibited", "F3F_Front_Setback": null, "F3F_Side_Setback": null, "F3F_Rear_Setback": null, "F3F_Frontage": null, "F3F_Max_Density": null, "F3F_Max_Height": null, "F3F_Max_Stories": null, "F3F_Min_Lot_Size": null, "F3F_Max_Lot_Building_Coverage": null, "F3F_Max_Lot_Impervious_Coverage": null, "F3F_Min_Parking_Spaces_per_1BR": null, "F3F_Min_Parking_Spaces_per_mult_BR": null, "F3F_Affordable_Housing_Only": null, "F3F_Proximity_to_Public_Transit_Required": null, "F3F_Connection_to_Sewage/Water_Required": null, "F4F_Allowance": "Prohibited", "F4F_Front_Setback": null, "F4F_Side_Setback": null, "F4F_Rear_Setback": null, "F4F_Frontage": null, "F4F_Max_Density": null, "F4F_Max_Height": null, "F4F_Max_Stories": null, "F4F_Min_Lot_Size": null, "F4F_Max_Lot_Building_Coverage": null, "F4F_Max_Lot_Impervious_Coverage": null, "F4F_Min_Parking_Spaces_per_1BR": null, "F4F_Min_Parking_Spaces_per_mult_BR": null, "F3F_Elderly_Housing_Only": null, "F4F_Elderly_Housing_Only": null, "F4F_Affordable_Housing_Only": null, "F4F_Proximity_to_Public_Transit_Required": null, "F4F_Connection_to_Sewage/Water_Required": null, "ADU_Allowance": "Allowed/Conditional", "ADU_Elderly_Housing_Only": null, "ADU_Max_Size_as_Percent_of_Primary_Strcture": 40.0, "ADU_Max_Size_in_sq_ft": 1000.0, "ADU_Min_Lot_Size": null, "ADU_Max_Bedrooms": 1.0, "ADU_Min_Parking_Spaces": 1.0, "ADU_Owner_Occupancy_Required": null, "ADU_Renter_Occupancy_Prohibited": null, "ADU_Employee_or_Family_Occupancy_Required": null, "ADU_Restricted_to_Primary_Structure": null, "Affordable_Housing_Allowance": "Not Mentioned", "Affordable_Housing_District": "No", "Affordable_Housing_Elderly_Only": null, "Affordable_Housing_Min_Lot_Size": null, "Affordable_Housing_Max_Density": null, "Affordable_Housing_Min_Parking_Spaces_per_mult_BR": null, "Affordable_Housing_Max_Units_per_Building": null, "Affordable_Housing_Min_Parking_Spaces_per_1BR": null, "PRD_Allowance": "Not Mentioned", "PRD_Max_Density": null, "PRD_Max_Units": null, "PRD_Min_Lot_Size": null, "PRD_Mobile_or_Manufactured_Home_Park": null, "PUD_Allowance": "Yes", "PUD_Required_with_Subdivision": null, "PUD_Requires_Land_Conservation": "Yes", "PUD_Threshold_Number": null, "Notes": "None" }, "geometry": { "type": "MultiPolygon", "coordinates": [ [ [ [ -72.894777285655024, 43.232831262781808 ], [ -72.895309606740724, 43.232697623804192 ], [ -72.895806935605037, 43.232496780820554 ], [ -72.896765642224935, 43.232024244857783 ], [ -72.898785461643826, 43.232130769373306 ], [ -72.898750407564208, 43.233106870776474 ], [ -72.898946359572406, 43.233493829651003 ], [ -72.899883632438915, 43.233539000195655 ], [ -72.901849086035867, 43.233631362719898 ], [ -72.902487505767354, 43.231969458070736 ], [ -72.90252882394104, 43.231860044317173 ], [ -72.903897658877213, 43.230804534678434 ], [ -72.904053381517002, 43.230526701923083 ], [ -72.90339830745647, 43.229428370564243 ], [ -72.903401256098292, 43.228493636648125 ], [ -72.902861104575578, 43.228093618722909 ], [ -72.904030267388336, 43.227512705862843 ], [ -72.902998584635085, 43.227653807627036 ], [ -72.901636384480184, 43.227749114854888 ], [ -72.900992747904226, 43.227841885804438 ], [ -72.899582523039228, 43.228172665989007 ], [ -72.898841301333064, 43.228501093816689 ], [ -72.898224200737573, 43.228865288604602 ], [ -72.897607563452979, 43.229301887784644 ], [ -72.895689110463479, 43.232049717370096 ], [ -72.894777285655024, 43.232831262781808 ] ] ] ] } }
]
}
