{"type":"FeatureCollection","name":"Bennington_OldBennington","features":[{"type":"Feature","properties":{"OBJECT_ID":1516,"County":"Bennington","RPC":"BCRC","Municipal_Name":"Old Bennington ","GEO_ID":null,"District_Name":"Rural Residential District","Abbreviated_District_Name":"Rrd","District_Type":"Primarily Residential","Bylaw_Date":"2023-09-05","Elderly_Housing_District":"No","District_Mapped":"Yes","Overlay_District":"No","Base_Density":null,"Shape_Length":4258.470629432126,"Shape_Area":976172.9100419588,"F1F_Allowance":"Permitted","F1F_Front_Setback":25.0,"F1F_Side_Setback":25.0,"F1F_Rear_Setback":25.0,"F1F_Frontage":null,"F1F_Max_Height":30.0,"F1F_Max_Stories":null,"F1F_Min_Lot_Size":1.84,"F1F_Max_Lot_Building_Coverage":null,"F1F_Max_Lot_Impervious_Coverage":5.0,"F1F_Min_Parking_Spaces":2.0,"F2F_Allowance":"Public Hearing","F2F_Front_Setback":25.0,"F2F_Side_Setback":25.0,"F2F_Rear_Setback":25.0,"F2F_Frontage":null,"F2F_Max_Density":null,"F2F_Max_Height":30.0,"F2F_Max_Stories":null,"F2F_Min_Lot_Size":1.84,"F2F_Max_Lot_Building_Coverage":null,"F2F_Max_Lot_Impervious_Coverage":5.0,"F2F_Min_Parking_Spaces_per_1BR":2.0,"F2F_Min_Parking_Spaces_per_mult_BR":2.0,"F2F_Elderly_Housing_Only":"No","F2F_Affordable_Housing_Only":"No","F3F_Allowance":"Public Hearing","F3F_Front_Setback":25.0,"F3F_Side_Setback":25.0,"F3F_Rear_Setback":25.0,"F3F_Frontage":null,"F3F_Max_Density":null,"F3F_Max_Height":30.0,"F3F_Max_Stories":null,"F3F_Min_Lot_Size":1.84,"F3F_Max_Lot_Building_Coverage":null,"F3F_Max_Lot_Impervious_Coverage":5.0,"F3F_Min_Parking_Spaces_per_1BR":2.0,"F3F_Min_Parking_Spaces_per_mult_BR":2.0,"F3F_Affordable_Housing_Only":"No","F3F_Proximity_to_Public_Transit_Required":"No","F3F_Connection_to_Sewage/Water_Required":"Yes","F4F_Allowance":"Public Hearing","F4F_Front_Setback":25.0,"F4F_Side_Setback":25.0,"F4F_Rear_Setback":25.0,"F4F_Frontage":null,"F4F_Max_Density":null,"F4F_Max_Height":35.0,"F4F_Max_Stories":null,"F4F_Min_Lot_Size":1.84,"F4F_Max_Lot_Building_Coverage":null,"F4F_Max_Lot_Impervious_Coverage":5.0,"F4F_Min_Parking_Spaces_per_1BR":2.0,"F4F_Min_Parking_Spaces_per_mult_BR":2.0,"F3F_Elderly_Housing_Only":"No","F4F_Elderly_Housing_Only":"No","F4F_Affordable_Housing_Only":"No","F4F_Proximity_to_Public_Transit_Required":"No","F4F_Connection_to_Sewage/Water_Required":"Yes","ADU_Allowance":"Allowed/Conditional","ADU_Elderly_Housing_Only":"No","ADU_Max_Size_as_Percent_of_Primary_Strcture":30.0,"ADU_Max_Size_in_sq_ft":null,"ADU_Min_Lot_Size":null,"ADU_Max_Bedrooms":null,"ADU_Min_Parking_Spaces":2.0,"ADU_Owner_Occupancy_Required":"Yes","ADU_Renter_Occupancy_Prohibited":"No","ADU_Employee_or_Family_Occupancy_Required":"Yes","ADU_Restricted_to_Primary_Structure":"Yes","Affordable_Housing_Allowance":"Not Mentioned","Affordable_Housing_District":"No","Affordable_Housing_Elderly_Only":"No","Affordable_Housing_Min_Lot_Size":null,"Affordable_Housing_Max_Density":null,"Affordable_Housing_Min_Parking_Spaces_per_mult_BR":null,"Affordable_Housing_Max_Units_per_Building":null,"Affordable_Housing_Min_Parking_Spaces_per_1BR":null,"PRD_Allowance":"Not Mentioned","PRD_Max_Density":null,"PRD_Max_Units":null,"PRD_Min_Lot_Size":null,"PRD_Mobile_or_Manufactured_Home_Park":"No","PUD_Allowance":"No","PUD_Required_with_Subdivision":"No","PUD_Requires_Land_Conservation":null,"PUD_Threshold_Number":null,"Notes":"None"},"geometry":{"type":"MultiPolygon","coordinates":[[[[-73.2122821217443,42.8907133582388],[-73.21449811410821,42.89052365976431],[-73.22040934339462,42.89016627262231],[-73.22040532842816,42.89005134682233],[-73.22038369523885,42.88944167226625],[-73.21885045664511,42.888428992740025],[-73.21849303228241,42.88611221888777],[-73.21854921121032,42.88610736532876],[-73.21841438816595,42.884939330387944],[-73.21798812656364,42.88215896227188],[-73.21810783058935,42.87918823797162],[-73.21720967064437,42.87868979408032],[-73.21434448349882,42.87800573093075],[-73.210230525161,42.87682225162304],[-73.20986070985491,42.87989667177228],[-73.2097017951054,42.88054910281146],[-73.2097546919919,42.88055869143373],[-73.20941765119439,42.883459267436685],[-73.20964389871045,42.88474232900801],[-73.21005594553257,42.88771519587885],[-73.21033700791719,42.88870510737766],[-73.21070023694816,42.889286817565946],[-73.21117627463704,42.88983027244903],[-73.21167162571011,42.89028917610957],[-73.2122821217443,42.8907133582388]]]]}}]}