{
"type": "FeatureCollection",
"name": "Bennington_Glastenbury",
"crs": { "type": "name", "properties": { "name": "urn:ogc:def:crs:OGC:1.3:CRS84" } },
"features": [
{ "type": "Feature", "properties": { "OBJECT_ID": 212, "County": "Bennington", "RPC": "BCRC", "Municipal_Name": "Glastenbury", "GEO_ID": "5000327962", "District_Name": null, "Abbreviated_District_Name": "F1", "District_Type": null, "Bylaw_Date": null, "Elderly_Housing_District": null, "District_Mapped": null, "Overlay_District": null, "Base_Density": null, "GIS_ID": null, "Last_Update": null, "Shape_Length": null, "Shape_Area": null, "F1F_Allowance": null, "F1F_Front_Setback": null, "F1F_Side_Setback": null, "F1F_Rear_Setback": null, "F1F_Frontage": null, "F1F_Max_Height": null, "F1F_Max_Stories": null, "F1F_Min_Lot_Size": null, "F1F_Max_Lot_Building_Coverage": null, "F1F_Max_Lot_Impervious_Coverage": null, "F1F_Min_Parking_Spaces": null, "F1F_Elderly_Housing_Only": null, "F1F_Affordable_Housing_Only": null, "F2F_Allowance": null, "F2F_Front_Setback": null, "F2F_Side_Setback": null, "F2F_Rear_Setback": null, "F2F_Frontage": null, "F2F_Max_Density": null, "F2F_Max_Height": null, "F2F_Max_Stories": null, "F2F_Min_Lot_Size": null, "F2F_Max_Lot_Building_Coverage": null, "F2F_Max_Lot_Impervious_Coverage": null, "F2F_Min_Parking_Spaces_per_1BR": null, "F2F_Min_Parking_Spaces_per_mult_BR": null, "F2F_Elderly_Housing_Only": null, "F2F_Affordable_Housing_Only": null, "F3F_Allowance": null, "F3F_Front_Setback": null, "F3F_Side_Setback": null, "F3F_Rear_Setback": null, "F3F_Frontage": null, "F3F_Max_Density": null, "F3F_Max_Height": null, "F3F_Max_Stories": null, "F3F_Min_Lot_Size": null, "F3F_Max_Lot_Building_Coverage": null, "F3F_Max_Lot_Impervious_Coverage": null, "F3F_Min_Parking_Spaces_per_1BR": null, "F3F_Min_Parking_Spaces_per_mult_BR": null, "F3F_Affordable_Housing_Only": null, "F3F_Proximity_to_Public_Transit_Required": null, "F3F_Connection_to_Sewage/Water_Required": null, "F4F_Allowance": null, "F4F_Front_Setback": null, "F4F_Side_Setback": null, "F4F_Rear_Setback": null, "F4F_Frontage": null, "F1F_Max_Density": null, "F4F_Max_Density": null, "F4F_Max_Height": null, "F4F_Max_Stories": null, "F4F_Min_Lot_Size": null, "F4F_Max_Lot_Building_Coverage": null, "F4F_Max_Lot_Impervious_Coverage": null, "F4F_Min_Parking_Spaces_per_1BR": null, "F4F_Min_Parking_Spaces_per_mult_BR": null, "F3F_Elderly_Housing_Only": null, "F4F_Elderly_Housing_Only": null, "F4F_Affordable_Housing_Only": null, "F4F_Proximity_to_Public_Transit_Required": null, "F4F_Connection_to_Sewage/Water_Required": null, "ADU_Allowance": null, "ADU_Elderly_Housing_Only": null, "ADU_Max_Size_as_Percent_of_Primary_Strcture": null, "ADU_Max_Size_in_sq_ft": null, "ADU_Min_Lot_Size": null, "ADU_Max_Bedrooms": null, "ADU_Min_Parking_Spaces": null, "ADU_Owner_Occupancy_Required": null, "ADU_Renter_Occupancy_Prohibited": null, "ADU_Employee_or_Family_Occupancy_Required": null, "ADU_Restricted_to_Primary_Structure": null, "Affordable_Housing_Allowance": null, "Affordable_Housing_District": null, "Affordable_Housing_Elderly_Only": null, "Affordable_Housing_Min_Lot_Size": null, "Affordable_Housing_Max_Density": null, "Affordable_Housing_Min_Parking_Spaces_per_mult_BR": null, "Affordable_Housing_Max_Units_per_Building": null, "Affordable_Housing_Min_Parking_Spaces_per_1BR": null, "PRD_Allowance": null, "PRD_Max_Density": null, "PRD_Max_Units": null, "PRD_Min_Lot_Size": null, "PRD_Mobile_or_Manufactured_Home_Park": null, "PUD_Allowance": null, "PUD_Required_with_Subdivision": null, "PUD_Requires_Land_Conservation": null, "PUD_Threshold_Number": null, "Notes": null, "FIPS6": "3018" }, "geometry": { "type": "MultiPolygon", "coordinates": [ [ [ [ -73.124438658999964, 42.932498222000049 ], [ -73.145947416999945, 42.932027668000046 ], [ -73.146005223999964, 42.930982985000071 ], [ -73.124438658999964, 42.932498222000049 ] ] ], [ [ [ -73.129168812999978, 42.991722251000056 ], [ -73.129116958999987, 42.992198681000048 ], [ -73.129178526999965, 42.992674488000034 ], [ -73.129180883999936, 42.992680207000035 ], [ -73.130124815999977, 42.996401927000079 ], [ -73.132274218999953, 42.999676530000045 ], [ -73.132418442999949, 42.999875214000042 ], [ -73.132796112999984, 43.000264633000029 ], [ -73.13312984199996, 43.00051740400005 ], [ -73.136263420999967, 43.002603101000034 ], [ -73.136303817999988, 43.002952152000034 ], [ -73.136346379999964, 43.003251048000038 ], [ -73.136508378999963, 43.003684342000042 ], [ -73.136815650999949, 43.004155436000076 ], [ -73.137174237999943, 43.004510417000063 ], [ -73.137664671999971, 43.004864697000073 ], [ -73.138114052999981, 43.00510341100005 ], [ -73.138747205999948, 43.005321829000025 ], [ -73.139774527999975, 43.005480092000028 ], [ -73.140498370999978, 43.005572531000041 ], [ -73.141142843999944, 43.005588228000079 ], [ -73.141629009999974, 43.005566199000043 ], [ -73.141845839999974, 43.005525508000062 ], [ -73.142182766999952, 43.000062443000047 ], [ -73.142808695999975, 42.988750651000032 ], [ -73.142739249999977, 42.98878502000008 ], [ -73.142497990999971, 42.98883606000004 ], [ -73.142395163999936, 42.988860056000078 ], [ -73.142065453999976, 42.988954068000055 ], [ -73.142005868999945, 42.988972582000031 ], [ -73.141863893999982, 42.989027389000057 ], [ -73.141640387999985, 42.989090670000053 ], [ -73.141373723999948, 42.98916762500005 ], [ -73.14102313799998, 42.98928126800007 ], [ -73.140812602999972, 42.989339165000047 ], [ -73.140660977999971, 42.989350457000057 ], [ -73.140457221999952, 42.989360177000037 ], [ -73.14001482599997, 42.989378159000069 ], [ -73.139700029999972, 42.98939602400003 ], [ -73.139380333999952, 42.989421862000029 ], [ -73.139267422999978, 42.989434342000038 ], [ -73.139169276999951, 42.989429581000024 ], [ -73.138965717999952, 42.989421294000067 ], [ -73.138561299999935, 42.989443523000034 ], [ -73.138224244999947, 42.989458167000066 ], [ -73.138065361999963, 42.989508774000058 ], [ -73.137979937999944, 42.98954849200004 ], [ -73.137865259999955, 42.989612496000063 ], [ -73.137727922999943, 42.989708764000056 ], [ -73.137657259999969, 42.989767846000063 ], [ -73.137549066999952, 42.989866132000031 ], [ -73.137302326999986, 42.990055102000042 ], [ -73.137080554999955, 42.990212883000027 ], [ -73.136508017999972, 42.990579832000037 ], [ -73.136265621999939, 42.990744689000053 ], [ -73.136131669999941, 42.990835170000025 ], [ -73.135987201999967, 42.990946420000057 ], [ -73.135821370999963, 42.991067073000067 ], [ -73.135681262999981, 42.991155337000066 ], [ -73.13553989899998, 42.991233270000066 ], [ -73.135429900999952, 42.991268622000064 ], [ -73.135279776999937, 42.991314570000043 ], [ -73.135129350999989, 42.991368501000068 ], [ -73.13496315499998, 42.991416788000038 ], [ -73.134854705999942, 42.991453678000028 ], [ -73.133435042999963, 42.988926099000025 ], [ -73.13341335299998, 42.988940847000038 ], [ -73.131238927999959, 42.989705037000078 ], [ -73.130960311999957, 42.989813926000068 ], [ -73.130429740999944, 42.990091018000044 ], [ -73.129972619999933, 42.99043148800007 ], [ -73.129603403999965, 42.990825027000028 ], [ -73.129332702999989, 42.991259692000028 ], [ -73.129168812999978, 42.991722251000056 ] ] ] ] } },
{ "type": "Feature", "properties": { "OBJECT_ID": 213, "County": "Bennington", "RPC": "BCRC", "Municipal_Name": "Glastenbury", "GEO_ID": "5000327962", "District_Name": null, "Abbreviated_District_Name": "F2", "District_Type": null, "Bylaw_Date": null, "Elderly_Housing_District": null, "District_Mapped": null, "Overlay_District": null, "Base_Density": null, "GIS_ID": null, "Last_Update": null, "Shape_Length": null, "Shape_Area": null, "F1F_Allowance": null, "F1F_Front_Setback": null, "F1F_Side_Setback": null, "F1F_Rear_Setback": null, "F1F_Frontage": null, "F1F_Max_Height": null, "F1F_Max_Stories": null, "F1F_Min_Lot_Size": null, "F1F_Max_Lot_Building_Coverage": null, "F1F_Max_Lot_Impervious_Coverage": null, "F1F_Min_Parking_Spaces": null, "F1F_Elderly_Housing_Only": null, "F1F_Affordable_Housing_Only": null, "F2F_Allowance": null, "F2F_Front_Setback": null, "F2F_Side_Setback": null, "F2F_Rear_Setback": null, "F2F_Frontage": null, "F2F_Max_Density": null, "F2F_Max_Height": null, "F2F_Max_Stories": null, "F2F_Min_Lot_Size": null, "F2F_Max_Lot_Building_Coverage": null, "F2F_Max_Lot_Impervious_Coverage": null, "F2F_Min_Parking_Spaces_per_1BR": null, "F2F_Min_Parking_Spaces_per_mult_BR": null, "F2F_Elderly_Housing_Only": null, "F2F_Affordable_Housing_Only": null, "F3F_Allowance": null, "F3F_Front_Setback": null, "F3F_Side_Setback": null, "F3F_Rear_Setback": null, "F3F_Frontage": null, "F3F_Max_Density": null, "F3F_Max_Height": null, "F3F_Max_Stories": null, "F3F_Min_Lot_Size": null, "F3F_Max_Lot_Building_Coverage": null, "F3F_Max_Lot_Impervious_Coverage": null, "F3F_Min_Parking_Spaces_per_1BR": null, "F3F_Min_Parking_Spaces_per_mult_BR": null, "F3F_Affordable_Housing_Only": null, "F3F_Proximity_to_Public_Transit_Required": null, "F3F_Connection_to_Sewage/Water_Required": null, "F4F_Allowance": null, "F4F_Front_Setback": null, "F4F_Side_Setback": null, "F4F_Rear_Setback": null, "F4F_Frontage": null, "F1F_Max_Density": null, "F4F_Max_Density": null, "F4F_Max_Height": null, "F4F_Max_Stories": null, "F4F_Min_Lot_Size": null, "F4F_Max_Lot_Building_Coverage": null, "F4F_Max_Lot_Impervious_Coverage": null, "F4F_Min_Parking_Spaces_per_1BR": null, "F4F_Min_Parking_Spaces_per_mult_BR": null, "F3F_Elderly_Housing_Only": null, "F4F_Elderly_Housing_Only": null, "F4F_Affordable_Housing_Only": null, "F4F_Proximity_to_Public_Transit_Required": null, "F4F_Connection_to_Sewage/Water_Required": null, "ADU_Allowance": null, "ADU_Elderly_Housing_Only": null, "ADU_Max_Size_as_Percent_of_Primary_Strcture": null, "ADU_Max_Size_in_sq_ft": null, "ADU_Min_Lot_Size": null, "ADU_Max_Bedrooms": null, "ADU_Min_Parking_Spaces": null, "ADU_Owner_Occupancy_Required": null, "ADU_Renter_Occupancy_Prohibited": null, "ADU_Employee_or_Family_Occupancy_Required": null, "ADU_Restricted_to_Primary_Structure": null, "Affordable_Housing_Allowance": null, "Affordable_Housing_District": null, "Affordable_Housing_Elderly_Only": null, "Affordable_Housing_Min_Lot_Size": null, "Affordable_Housing_Max_Density": null, "Affordable_Housing_Min_Parking_Spaces_per_mult_BR": null, "Affordable_Housing_Max_Units_per_Building": null, "Affordable_Housing_Min_Parking_Spaces_per_1BR": null, "PRD_Allowance": null, "PRD_Max_Density": null, "PRD_Max_Units": null, "PRD_Min_Lot_Size": null, "PRD_Mobile_or_Manufactured_Home_Park": null, "PUD_Allowance": null, "PUD_Required_with_Subdivision": null, "PUD_Requires_Land_Conservation": null, "PUD_Threshold_Number": null, "Notes": null, "FIPS6": "3018" }, "geometry": { "type": "Polygon", "coordinates": [ [ [ -73.140593819999935, 43.025826258000052 ], [ -73.141452662999939, 43.010904069000048 ], [ -73.141824106999934, 43.005529695000064 ], [ -73.141629009999974, 43.005566199000043 ], [ -73.141142843999944, 43.005588228000079 ], [ -73.140498370999978, 43.005572531000041 ], [ -73.139774527999975, 43.005480092000028 ], [ -73.138747205999948, 43.005321829000025 ], [ -73.138114052999981, 43.00510341100005 ], [ -73.137664671999971, 43.004864697000073 ], [ -73.137174237999943, 43.004510417000063 ], [ -73.136815650999949, 43.004155436000076 ], [ -73.136508378999963, 43.003684342000042 ], [ -73.136346379999964, 43.003251048000038 ], [ -73.136303817999988, 43.002952152000034 ], [ -73.136263420999967, 43.002603101000034 ], [ -73.13312984199996, 43.00051740400005 ], [ -73.132796112999984, 43.000264633000029 ], [ -73.132418442999949, 42.999875214000042 ], [ -73.132274218999953, 42.999676530000045 ], [ -73.130124815999977, 42.996401927000079 ], [ -73.129180883999936, 42.992680207000035 ], [ -73.129178526999965, 42.992674488000034 ], [ -73.129116958999987, 42.992198681000048 ], [ -73.129168812999978, 42.991722251000056 ], [ -73.129332702999989, 42.991259692000028 ], [ -73.129603403999965, 42.990825027000028 ], [ -73.129972619999933, 42.99043148800007 ], [ -73.130429740999944, 42.990091018000044 ], [ -73.130960311999957, 42.989813926000068 ], [ -73.131238927999959, 42.989705037000078 ], [ -73.13341335299998, 42.988940847000038 ], [ -73.133435042999963, 42.988926099000025 ], [ -73.134854705999942, 42.991453678000028 ], [ -73.13496315499998, 42.991416788000038 ], [ -73.135129350999989, 42.991368501000068 ], [ -73.135279776999937, 42.991314570000043 ], [ -73.135429900999952, 42.991268622000064 ], [ -73.13553989899998, 42.991233270000066 ], [ -73.135681262999981, 42.991155337000066 ], [ -73.135821370999963, 42.991067073000067 ], [ -73.135987201999967, 42.990946420000057 ], [ -73.136131669999941, 42.990835170000025 ], [ -73.136265621999939, 42.990744689000053 ], [ -73.136508017999972, 42.990579832000037 ], [ -73.137080554999955, 42.990212883000027 ], [ -73.137302326999986, 42.990055102000042 ], [ -73.137549066999952, 42.989866132000031 ], [ -73.137657259999969, 42.989767846000063 ], [ -73.137727922999943, 42.989708764000056 ], [ -73.137865259999955, 42.989612496000063 ], [ -73.137979937999944, 42.98954849200004 ], [ -73.138065361999963, 42.989508774000058 ], [ -73.138224244999947, 42.989458167000066 ], [ -73.138561299999935, 42.989443523000034 ], [ -73.138965717999952, 42.989421294000067 ], [ -73.139169276999951, 42.989429581000024 ], [ -73.139267422999978, 42.989434342000038 ], [ -73.139380333999952, 42.989421862000029 ], [ -73.139700029999972, 42.98939602400003 ], [ -73.14001482599997, 42.989378159000069 ], [ -73.140457221999952, 42.989360177000037 ], [ -73.140660977999971, 42.989350457000057 ], [ -73.140812602999972, 42.989339165000047 ], [ -73.14102313799998, 42.98928126800007 ], [ -73.141373723999948, 42.98916762500005 ], [ -73.141640387999985, 42.989090670000053 ], [ -73.141863893999982, 42.989027389000057 ], [ -73.142005868999945, 42.988972582000031 ], [ -73.142065453999976, 42.988954068000055 ], [ -73.142395163999936, 42.988860056000078 ], [ -73.142497990999971, 42.98883606000004 ], [ -73.142739249999977, 42.98878502000008 ], [ -73.142808695999975, 42.988750651000032 ], [ -73.145947416999945, 42.932027668000046 ], [ -73.124438658999964, 42.932498222000049 ], [ -73.118536650999943, 42.932563482000035 ], [ -73.113825429999963, 42.932594063000067 ], [ -73.10951277199996, 42.932666978000043 ], [ -73.108069414999989, 42.932670153000061 ], [ -73.104880958999956, 42.932563449000043 ], [ -73.100580155999978, 42.932483113000046 ], [ -73.092535645999988, 42.932286396000052 ], [ -73.082344474999957, 42.932035061000079 ], [ -73.072803663999935, 42.931811882000034 ], [ -73.064691426999957, 42.931558005000056 ], [ -73.056380794999939, 42.931399218000081 ], [ -73.046547008999937, 42.931105779000063 ], [ -73.037546108999948, 42.930897787000049 ], [ -73.029353496999988, 42.930712178000078 ], [ -73.020142853999971, 42.930445095000039 ], [ -73.010424444999956, 42.930258662000028 ], [ -73.008134929999983, 42.93056555000004 ], [ -73.007657820999952, 42.940056647000063 ], [ -73.00713535999995, 42.949069838000071 ], [ -73.006617546999962, 42.958084162000034 ], [ -73.006109231999972, 42.967092577000074 ], [ -73.005853227999978, 42.971557268000026 ], [ -73.00561068899998, 42.976068526000063 ], [ -73.005362128999934, 42.98058205600006 ], [ -73.005102604999934, 42.985093290000066 ], [ -73.004859721999935, 42.989604447000033 ], [ -73.004619551999951, 42.99412152900004 ], [ -73.004377103999957, 42.998633756000061 ], [ -73.004151088999947, 43.003104768000071 ], [ -73.003231793999987, 43.021473230000026 ], [ -73.004983178999964, 43.021525827000062 ], [ -73.026246877999938, 43.022272684000029 ], [ -73.037215293999964, 43.022614381000039 ], [ -73.051636275999954, 43.023067973000025 ], [ -73.062245908999955, 43.023428083000056 ], [ -73.07206135399997, 43.023719888000073 ], [ -73.086722048999945, 43.024182082000038 ], [ -73.100078529999962, 43.024620708000043 ], [ -73.113742739999964, 43.025017688000048 ], [ -73.124542602999952, 43.025303309000037 ], [ -73.137736363999977, 43.025725824000062 ], [ -73.140593819999935, 43.025826258000052 ] ] ] } },
{ "type": "Feature", "properties": { "OBJECT_ID": 143, "County": "Bennington", "RPC": "BCRC", "Municipal_Name": "Glastenbury ", "GEO_ID": "5000327962", "District_Name": "Forest #1", "Abbreviated_District_Name": "F1", "District_Type": "Mixed with Residential", "Bylaw_Date": "2023-09-05T00:00:00", "Elderly_Housing_District": "No", "District_Mapped": "Yes", "Overlay_District": "No", "Base_Density": 0.04, "GIS_ID": null, "Last_Update": null, "Shape_Length": 5438.8865160915957, "Shape_Area": 1448855.084597026, "F1F_Allowance": "Public Hearing", "F1F_Front_Setback": 50.0, "F1F_Side_Setback": 50.0, "F1F_Rear_Setback": 50.0, "F1F_Frontage": 300.0, "F1F_Max_Height": null, "F1F_Max_Stories": 2.0, "F1F_Min_Lot_Size": 25.0, "F1F_Max_Lot_Building_Coverage": 5.0, "F1F_Max_Lot_Impervious_Coverage": null, "F1F_Min_Parking_Spaces": null, "F1F_Elderly_Housing_Only": null, "F1F_Affordable_Housing_Only": null, "F2F_Allowance": "Public Hearing", "F2F_Front_Setback": 50.0, "F2F_Side_Setback": 50.0, "F2F_Rear_Setback": 50.0, "F2F_Frontage": 300.0, "F2F_Max_Density": 0.04, "F2F_Max_Height": null, "F2F_Max_Stories": 2.0, "F2F_Min_Lot_Size": 25.0, "F2F_Max_Lot_Building_Coverage": 5.0, "F2F_Max_Lot_Impervious_Coverage": null, "F2F_Min_Parking_Spaces_per_1BR": null, "F2F_Min_Parking_Spaces_per_mult_BR": null, "F2F_Elderly_Housing_Only": "No", "F2F_Affordable_Housing_Only": "No", "F3F_Allowance": "Public Hearing", "F3F_Front_Setback": 50.0, "F3F_Side_Setback": 50.0, "F3F_Rear_Setback": 50.0, "F3F_Frontage": 300.0, "F3F_Max_Density": 0.04, "F3F_Max_Height": null, "F3F_Max_Stories": 2.0, "F3F_Min_Lot_Size": 25.0, "F3F_Max_Lot_Building_Coverage": 5.0, "F3F_Max_Lot_Impervious_Coverage": null, "F3F_Min_Parking_Spaces_per_1BR": null, "F3F_Min_Parking_Spaces_per_mult_BR": null, "F3F_Affordable_Housing_Only": "No", "F3F_Proximity_to_Public_Transit_Required": "No", "F3F_Connection_to_Sewage/Water_Required": "No", "F4F_Allowance": "Public Hearing", "F4F_Front_Setback": 50.0, "F4F_Side_Setback": 50.0, "F4F_Rear_Setback": 50.0, "F4F_Frontage": 300.0, "F1F_Max_Density": null, "F4F_Max_Density": 0.04, "F4F_Max_Height": null, "F4F_Max_Stories": 2.0, "F4F_Min_Lot_Size": 25.0, "F4F_Max_Lot_Building_Coverage": 5.0, "F4F_Max_Lot_Impervious_Coverage": null, "F4F_Min_Parking_Spaces_per_1BR": null, "F4F_Min_Parking_Spaces_per_mult_BR": null, "F3F_Elderly_Housing_Only": "No", "F4F_Elderly_Housing_Only": "No", "F4F_Affordable_Housing_Only": "No", "F4F_Proximity_to_Public_Transit_Required": "No", "F4F_Connection_to_Sewage/Water_Required": "No", "ADU_Allowance": "Allowed/Conditional", "ADU_Elderly_Housing_Only": "No", "ADU_Max_Size_as_Percent_of_Primary_Strcture": null, "ADU_Max_Size_in_sq_ft": null, "ADU_Min_Lot_Size": 25.0, "ADU_Max_Bedrooms": null, "ADU_Min_Parking_Spaces": null, "ADU_Owner_Occupancy_Required": "No", "ADU_Renter_Occupancy_Prohibited": "No", "ADU_Employee_or_Family_Occupancy_Required": "No", "ADU_Restricted_to_Primary_Structure": "No", "Affordable_Housing_Allowance": "Not Mentioned", "Affordable_Housing_District": "No", "Affordable_Housing_Elderly_Only": "No", "Affordable_Housing_Min_Lot_Size": null, "Affordable_Housing_Max_Density": null, "Affordable_Housing_Min_Parking_Spaces_per_mult_BR": null, "Affordable_Housing_Max_Units_per_Building": null, "Affordable_Housing_Min_Parking_Spaces_per_1BR": null, "PRD_Allowance": "Not Mentioned", "PRD_Max_Density": null, "PRD_Max_Units": null, "PRD_Min_Lot_Size": null, "PRD_Mobile_or_Manufactured_Home_Park": "No", "PUD_Allowance": "Yes", "PUD_Required_with_Subdivision": null, "PUD_Requires_Land_Conservation": null, "PUD_Threshold_Number": null, "Notes": "None", "FIPS6": null }, "geometry": { "type": "MultiPolygon", "coordinates": [ [ [ [ -73.142808695696772, 42.988750650850761 ], [ -73.14081260311616, 42.989339164573472 ], [ -73.138224244927102, 42.989458167346022 ], [ -73.138065361582122, 42.989508773667886 ], [ -73.135681263224143, 42.991155337350953 ], [ -73.134854706484035, 42.991453677585859 ], [ -73.1334350434513, 42.988926098840878 ], [ -73.130960311902754, 42.98981392630408 ], [ -73.130429741032643, 42.990091018307197 ], [ -73.129972619779494, 42.990431487562326 ], [ -73.12960340427945, 42.990825026687943 ], [ -73.129332703036255, 42.991259692234422 ], [ -73.129168813092932, 42.991722250764902 ], [ -73.129116958511204, 42.992198680740429 ], [ -73.129178526837876, 42.992674488108584 ], [ -73.130124816333932, 42.996401926740859 ], [ -73.132418443264285, 42.999875213823969 ], [ -73.133129842407357, 43.000517403644373 ], [ -73.136263420602958, 43.002603100953195 ], [ -73.136346379710204, 43.003251047850306 ], [ -73.136508378513696, 43.003684341847446 ], [ -73.136815651368565, 43.004155435937697 ], [ -73.137174238172037, 43.004510416891456 ], [ -73.137664672005997, 43.004864697300334 ], [ -73.138114053415521, 43.005103411183413 ], [ -73.13874720636008, 43.005321828649009 ], [ -73.140498371184151, 43.005572530671209 ], [ -73.141629009666758, 43.005566198688044 ], [ -73.141845839466214, 43.005525508384181 ], [ -73.142182767388363, 43.000062442645749 ], [ -73.142808695696772, 42.988750650850761 ] ] ] ] } },
{ "type": "Feature", "properties": { "OBJECT_ID": 144, "County": "Bennington", "RPC": "BCRC", "Municipal_Name": "Glastenbury ", "GEO_ID": "5000327962", "District_Name": "Forest #2", "Abbreviated_District_Name": "F2", "District_Type": "Nonresidential", "Bylaw_Date": "2023-09-05T00:00:00", "Elderly_Housing_District": "No", "District_Mapped": "Yes", "Overlay_District": "No", "Base_Density": null, "GIS_ID": null, "Last_Update": null, "Shape_Length": 44835.626396718959, "Shape_Area": 113562222.50579621, "F1F_Allowance": "Prohibited", "F1F_Front_Setback": null, "F1F_Side_Setback": null, "F1F_Rear_Setback": null, "F1F_Frontage": null, "F1F_Max_Height": null, "F1F_Max_Stories": null, "F1F_Min_Lot_Size": null, "F1F_Max_Lot_Building_Coverage": null, "F1F_Max_Lot_Impervious_Coverage": null, "F1F_Min_Parking_Spaces": null, "F1F_Elderly_Housing_Only": null, "F1F_Affordable_Housing_Only": null, "F2F_Allowance": "Prohibited", "F2F_Front_Setback": null, "F2F_Side_Setback": null, "F2F_Rear_Setback": null, "F2F_Frontage": null, "F2F_Max_Density": null, "F2F_Max_Height": null, "F2F_Max_Stories": null, "F2F_Min_Lot_Size": null, "F2F_Max_Lot_Building_Coverage": null, "F2F_Max_Lot_Impervious_Coverage": null, "F2F_Min_Parking_Spaces_per_1BR": null, "F2F_Min_Parking_Spaces_per_mult_BR": null, "F2F_Elderly_Housing_Only": "No", "F2F_Affordable_Housing_Only": "No", "F3F_Allowance": "Prohibited", "F3F_Front_Setback": null, "F3F_Side_Setback": null, "F3F_Rear_Setback": null, "F3F_Frontage": null, "F3F_Max_Density": null, "F3F_Max_Height": null, "F3F_Max_Stories": null, "F3F_Min_Lot_Size": null, "F3F_Max_Lot_Building_Coverage": null, "F3F_Max_Lot_Impervious_Coverage": null, "F3F_Min_Parking_Spaces_per_1BR": null, "F3F_Min_Parking_Spaces_per_mult_BR": null, "F3F_Affordable_Housing_Only": "No", "F3F_Proximity_to_Public_Transit_Required": "No", "F3F_Connection_to_Sewage/Water_Required": "No", "F4F_Allowance": "Prohibited", "F4F_Front_Setback": null, "F4F_Side_Setback": null, "F4F_Rear_Setback": null, "F4F_Frontage": null, "F1F_Max_Density": null, "F4F_Max_Density": null, "F4F_Max_Height": null, "F4F_Max_Stories": null, "F4F_Min_Lot_Size": null, "F4F_Max_Lot_Building_Coverage": null, "F4F_Max_Lot_Impervious_Coverage": null, "F4F_Min_Parking_Spaces_per_1BR": null, "F4F_Min_Parking_Spaces_per_mult_BR": null, "F3F_Elderly_Housing_Only": "No", "F4F_Elderly_Housing_Only": "No", "F4F_Affordable_Housing_Only": "No", "F4F_Proximity_to_Public_Transit_Required": "No", "F4F_Connection_to_Sewage/Water_Required": "No", "ADU_Allowance": "Prohibited", "ADU_Elderly_Housing_Only": "No", "ADU_Max_Size_as_Percent_of_Primary_Strcture": null, "ADU_Max_Size_in_sq_ft": null, "ADU_Min_Lot_Size": null, "ADU_Max_Bedrooms": null, "ADU_Min_Parking_Spaces": null, "ADU_Owner_Occupancy_Required": "No", "ADU_Renter_Occupancy_Prohibited": "No", "ADU_Employee_or_Family_Occupancy_Required": "No", "ADU_Restricted_to_Primary_Structure": "No", "Affordable_Housing_Allowance": "Not Mentioned", "Affordable_Housing_District": "No", "Affordable_Housing_Elderly_Only": "No", "Affordable_Housing_Min_Lot_Size": null, "Affordable_Housing_Max_Density": null, "Affordable_Housing_Min_Parking_Spaces_per_mult_BR": null, "Affordable_Housing_Max_Units_per_Building": null, "Affordable_Housing_Min_Parking_Spaces_per_1BR": null, "PRD_Allowance": "Not Mentioned", "PRD_Max_Density": null, "PRD_Max_Units": null, "PRD_Min_Lot_Size": null, "PRD_Mobile_or_Manufactured_Home_Park": "No", "PUD_Allowance": "Yes", "PUD_Required_with_Subdivision": null, "PUD_Requires_Land_Conservation": null, "PUD_Threshold_Number": null, "Notes": "None", "FIPS6": null }, "geometry": { "type": "MultiPolygon", "coordinates": [ [ [ [ -73.086722048437267, 43.024182082313146 ], [ -73.100078530447817, 43.02462070835746 ], [ -73.124542603587685, 43.025303308699989 ], [ -73.140593820118838, 43.02582625759468 ], [ -73.141452663159967, 43.010904068749106 ], [ -73.141824107308466, 43.005529694551718 ], [ -73.141629009666758, 43.005566198688044 ], [ -73.140498371184151, 43.005572530671209 ], [ -73.13874720636008, 43.005321828649009 ], [ -73.138114053415521, 43.005103411183413 ], [ -73.137664672005997, 43.004864697300334 ], [ -73.137174238172037, 43.004510416891456 ], [ -73.136815651368565, 43.004155435937697 ], [ -73.136508378513696, 43.003684341847446 ], [ -73.136346379710204, 43.003251047850306 ], [ -73.136263420602958, 43.002603100953195 ], [ -73.133129842407357, 43.000517403644373 ], [ -73.132418443264285, 42.999875213823969 ], [ -73.130124816333932, 42.996401926740859 ], [ -73.129178526837876, 42.992674488108584 ], [ -73.129116958511204, 42.992198680740429 ], [ -73.129168813092932, 42.991722250764902 ], [ -73.129332703036255, 42.991259692234422 ], [ -73.12960340427945, 42.990825026687943 ], [ -73.129972619779494, 42.990431487562326 ], [ -73.130429741032643, 42.990091018307197 ], [ -73.130960311902754, 42.98981392630408 ], [ -73.1334350434513, 42.988926098840878 ], [ -73.134854706484035, 42.991453677585859 ], [ -73.135681263224143, 42.991155337350953 ], [ -73.138065361582122, 42.989508773667886 ], [ -73.138224244927102, 42.989458167346022 ], [ -73.14081260311616, 42.989339164573472 ], [ -73.142808695696772, 42.988750650850761 ], [ -73.146005224566423, 42.930982985302542 ], [ -73.124438658878802, 42.932498221612981 ], [ -73.10806941512962, 42.932670152911001 ], [ -73.090436432257349, 42.932242376328333 ], [ -73.072803664188555, 42.931811882107418 ], [ -73.064691426742286, 42.931558005295834 ], [ -73.05638079488584, 42.931399217809911 ], [ -73.046547009451032, 42.931105778680568 ], [ -73.029353497357462, 42.930712178089735 ], [ -73.020142854068652, 42.930445094652924 ], [ -73.010424444744032, 42.930258661858325 ], [ -73.008134930332488, 42.930565550075208 ], [ -73.007657821436894, 42.940056646843097 ], [ -73.005102605214518, 42.985093290205874 ], [ -73.00323179410006, 43.021473229911678 ], [ -73.026246877648603, 43.0222726836327 ], [ -73.049153870468132, 43.022998579931134 ], [ -73.072061354367875, 43.023719888147291 ], [ -73.086722048437267, 43.024182082313146 ] ] ] ] } }
]
}
