{
  "type": "FeatureCollection",
  "crs": {
    "type": "name",
    "properties": {
      "name": "urn:ogc:def:crs:OGC:1.3:CRS84"
    }
  },
  "features": [
    {
      "type": "Feature",
      "properties": {
        "ABB_DIST_NAME": "F1",
        "Jurisdiction_County": "Bennington",
        "Jurisdiction_District_Name": "Glastenbury"
      },
      "geometry": {
        "type": "MultiPolygon",
        "coordinates": [
          [
            [
              [
                -73.12443865899996,
                42.93249822200005
              ],
              [
                -73.14594741699995,
                42.932027668000046
              ],
              [
                -73.14600522399996,
                42.93098298500007
              ],
              [
                -73.12443865899996,
                42.93249822200005
              ]
            ]
          ],
          [
            [
              [
                -73.12916881299998,
                42.991722251000056
              ],
              [
                -73.12911695899999,
                42.99219868100005
              ],
              [
                -73.12917852699997,
                42.992674488000034
              ],
              [
                -73.12918088399994,
                42.992680207000035
              ],
              [
                -73.13012481599998,
                42.99640192700008
              ],
              [
                -73.13227421899995,
                42.999676530000045
              ],
              [
                -73.13241844299995,
                42.99987521400004
              ],
              [
                -73.13279611299998,
                43.00026463300003
              ],
              [
                -73.13312984199996,
                43.00051740400005
              ],
              [
                -73.13626342099997,
                43.002603101000034
              ],
              [
                -73.13630381799999,
                43.002952152000034
              ],
              [
                -73.13634637999996,
                43.00325104800004
              ],
              [
                -73.13650837899996,
                43.00368434200004
              ],
              [
                -73.13681565099995,
                43.004155436000076
              ],
              [
                -73.13717423799994,
                43.00451041700006
              ],
              [
                -73.13766467199997,
                43.00486469700007
              ],
              [
                -73.13811405299998,
                43.00510341100005
              ],
              [
                -73.13874720599995,
                43.005321829000025
              ],
              [
                -73.13977452799998,
                43.00548009200003
              ],
              [
                -73.14049837099998,
                43.00557253100004
              ],
              [
                -73.14114284399994,
                43.00558822800008
              ],
              [
                -73.14162900999997,
                43.00556619900004
              ],
              [
                -73.14184583999997,
                43.00552550800006
              ],
              [
                -73.14218276699995,
                43.00006244300005
              ],
              [
                -73.14280869599997,
                42.98875065100003
              ],
              [
                -73.14273924999998,
                42.98878502000008
              ],
              [
                -73.14249799099997,
                42.98883606000004
              ],
              [
                -73.14239516399994,
                42.98886005600008
              ],
              [
                -73.14206545399998,
                42.988954068000055
              ],
              [
                -73.14200586899995,
                42.98897258200003
              ],
              [
                -73.14186389399998,
                42.98902738900006
              ],
              [
                -73.14164038799998,
                42.98909067000005
              ],
              [
                -73.14137372399995,
                42.98916762500005
              ],
              [
                -73.14102313799998,
                42.98928126800007
              ],
              [
                -73.14081260299997,
                42.98933916500005
              ],
              [
                -73.14066097799997,
                42.98935045700006
              ],
              [
                -73.14045722199995,
                42.98936017700004
              ],
              [
                -73.14001482599997,
                42.98937815900007
              ],
              [
                -73.13970002999997,
                42.98939602400003
              ],
              [
                -73.13938033399995,
                42.98942186200003
              ],
              [
                -73.13926742299998,
                42.98943434200004
              ],
              [
                -73.13916927699995,
                42.989429581000024
              ],
              [
                -73.13896571799995,
                42.98942129400007
              ],
              [
                -73.13856129999994,
                42.989443523000034
              ],
              [
                -73.13822424499995,
                42.989458167000066
              ],
              [
                -73.13806536199996,
                42.98950877400006
              ],
              [
                -73.13797993799994,
                42.98954849200004
              ],
              [
                -73.13786525999996,
                42.98961249600006
              ],
              [
                -73.13772792299994,
                42.989708764000056
              ],
              [
                -73.13765725999997,
                42.98976784600006
              ],
              [
                -73.13754906699995,
                42.98986613200003
              ],
              [
                -73.13730232699999,
                42.99005510200004
              ],
              [
                -73.13708055499995,
                42.99021288300003
              ],
              [
                -73.13650801799997,
                42.99057983200004
              ],
              [
                -73.13626562199994,
                42.99074468900005
              ],
              [
                -73.13613166999994,
                42.990835170000025
              ],
              [
                -73.13598720199997,
                42.99094642000006
              ],
              [
                -73.13582137099996,
                42.99106707300007
              ],
              [
                -73.13568126299998,
                42.991155337000066
              ],
              [
                -73.13553989899998,
                42.991233270000066
              ],
              [
                -73.13542990099995,
                42.991268622000064
              ],
              [
                -73.13527977699994,
                42.99131457000004
              ],
              [
                -73.13512935099999,
                42.99136850100007
              ],
              [
                -73.13496315499998,
                42.99141678800004
              ],
              [
                -73.13485470599994,
                42.99145367800003
              ],
              [
                -73.13343504299996,
                42.988926099000025
              ],
              [
                -73.13341335299998,
                42.98894084700004
              ],
              [
                -73.13123892799996,
                42.98970503700008
              ],
              [
                -73.13096031199996,
                42.98981392600007
              ],
              [
                -73.13042974099994,
                42.990091018000044
              ],
              [
                -73.12997261999993,
                42.99043148800007
              ],
              [
                -73.12960340399997,
                42.99082502700003
              ],
              [
                -73.12933270299999,
                42.99125969200003
              ],
              [
                -73.12916881299998,
                42.991722251000056
              ]
            ]
          ]
        ]
      }
    },
    {
      "type": "Feature",
      "properties": {
        "ABB_DIST_NAME": "F2",
        "Jurisdiction_County": "Bennington",
        "Jurisdiction_District_Name": "Glastenbury"
      },
      "geometry": {
        "type": "Polygon",
        "coordinates": [
          [
            [
              -73.14059381999994,
              43.02582625800005
            ],
            [
              -73.14145266299994,
              43.01090406900005
            ],
            [
              -73.14182410699993,
              43.005529695000064
            ],
            [
              -73.14162900999997,
              43.00556619900004
            ],
            [
              -73.14114284399994,
              43.00558822800008
            ],
            [
              -73.14049837099998,
              43.00557253100004
            ],
            [
              -73.13977452799998,
              43.00548009200003
            ],
            [
              -73.13874720599995,
              43.005321829000025
            ],
            [
              -73.13811405299998,
              43.00510341100005
            ],
            [
              -73.13766467199997,
              43.00486469700007
            ],
            [
              -73.13717423799994,
              43.00451041700006
            ],
            [
              -73.13681565099995,
              43.004155436000076
            ],
            [
              -73.13650837899996,
              43.00368434200004
            ],
            [
              -73.13634637999996,
              43.00325104800004
            ],
            [
              -73.13630381799999,
              43.002952152000034
            ],
            [
              -73.13626342099997,
              43.002603101000034
            ],
            [
              -73.13312984199996,
              43.00051740400005
            ],
            [
              -73.13279611299998,
              43.00026463300003
            ],
            [
              -73.13241844299995,
              42.99987521400004
            ],
            [
              -73.13227421899995,
              42.999676530000045
            ],
            [
              -73.13012481599998,
              42.99640192700008
            ],
            [
              -73.12918088399994,
              42.992680207000035
            ],
            [
              -73.12917852699997,
              42.992674488000034
            ],
            [
              -73.12911695899999,
              42.99219868100005
            ],
            [
              -73.12916881299998,
              42.991722251000056
            ],
            [
              -73.12933270299999,
              42.99125969200003
            ],
            [
              -73.12960340399997,
              42.99082502700003
            ],
            [
              -73.12997261999993,
              42.99043148800007
            ],
            [
              -73.13042974099994,
              42.990091018000044
            ],
            [
              -73.13096031199996,
              42.98981392600007
            ],
            [
              -73.13123892799996,
              42.98970503700008
            ],
            [
              -73.13341335299998,
              42.98894084700004
            ],
            [
              -73.13343504299996,
              42.988926099000025
            ],
            [
              -73.13485470599994,
              42.99145367800003
            ],
            [
              -73.13496315499998,
              42.99141678800004
            ],
            [
              -73.13512935099999,
              42.99136850100007
            ],
            [
              -73.13527977699994,
              42.99131457000004
            ],
            [
              -73.13542990099995,
              42.991268622000064
            ],
            [
              -73.13553989899998,
              42.991233270000066
            ],
            [
              -73.13568126299998,
              42.991155337000066
            ],
            [
              -73.13582137099996,
              42.99106707300007
            ],
            [
              -73.13598720199997,
              42.99094642000006
            ],
            [
              -73.13613166999994,
              42.990835170000025
            ],
            [
              -73.13626562199994,
              42.99074468900005
            ],
            [
              -73.13650801799997,
              42.99057983200004
            ],
            [
              -73.13708055499995,
              42.99021288300003
            ],
            [
              -73.13730232699999,
              42.99005510200004
            ],
            [
              -73.13754906699995,
              42.98986613200003
            ],
            [
              -73.13765725999997,
              42.98976784600006
            ],
            [
              -73.13772792299994,
              42.989708764000056
            ],
            [
              -73.13786525999996,
              42.98961249600006
            ],
            [
              -73.13797993799994,
              42.98954849200004
            ],
            [
              -73.13806536199996,
              42.98950877400006
            ],
            [
              -73.13822424499995,
              42.989458167000066
            ],
            [
              -73.13856129999994,
              42.989443523000034
            ],
            [
              -73.13896571799995,
              42.98942129400007
            ],
            [
              -73.13916927699995,
              42.989429581000024
            ],
            [
              -73.13926742299998,
              42.98943434200004
            ],
            [
              -73.13938033399995,
              42.98942186200003
            ],
            [
              -73.13970002999997,
              42.98939602400003
            ],
            [
              -73.14001482599997,
              42.98937815900007
            ],
            [
              -73.14045722199995,
              42.98936017700004
            ],
            [
              -73.14066097799997,
              42.98935045700006
            ],
            [
              -73.14081260299997,
              42.98933916500005
            ],
            [
              -73.14102313799998,
              42.98928126800007
            ],
            [
              -73.14137372399995,
              42.98916762500005
            ],
            [
              -73.14164038799998,
              42.98909067000005
            ],
            [
              -73.14186389399998,
              42.98902738900006
            ],
            [
              -73.14200586899995,
              42.98897258200003
            ],
            [
              -73.14206545399998,
              42.988954068000055
            ],
            [
              -73.14239516399994,
              42.98886005600008
            ],
            [
              -73.14249799099997,
              42.98883606000004
            ],
            [
              -73.14273924999998,
              42.98878502000008
            ],
            [
              -73.14280869599997,
              42.98875065100003
            ],
            [
              -73.14594741699995,
              42.932027668000046
            ],
            [
              -73.12443865899996,
              42.93249822200005
            ],
            [
              -73.11853665099994,
              42.932563482000035
            ],
            [
              -73.11382542999996,
              42.93259406300007
            ],
            [
              -73.10951277199996,
              42.93266697800004
            ],
            [
              -73.10806941499999,
              42.93267015300006
            ],
            [
              -73.10488095899996,
              42.93256344900004
            ],
            [
              -73.10058015599998,
              42.932483113000046
            ],
            [
              -73.09253564599999,
              42.93228639600005
            ],
            [
              -73.08234447499996,
              42.93203506100008
            ],
            [
              -73.07280366399993,
              42.931811882000034
            ],
            [
              -73.06469142699996,
              42.931558005000056
            ],
            [
              -73.05638079499994,
              42.93139921800008
            ],
            [
              -73.04654700899994,
              42.93110577900006
            ],
            [
              -73.03754610899995,
              42.93089778700005
            ],
            [
              -73.02935349699999,
              42.93071217800008
            ],
            [
              -73.02014285399997,
              42.93044509500004
            ],
            [
              -73.01042444499996,
              42.93025866200003
            ],
            [
              -73.00813492999998,
              42.93056555000004
            ],
            [
              -73.00765782099995,
              42.94005664700006
            ],
            [
              -73.00713535999995,
              42.94906983800007
            ],
            [
              -73.00661754699996,
              42.958084162000034
            ],
            [
              -73.00610923199997,
              42.967092577000074
            ],
            [
              -73.00585322799998,
              42.971557268000026
            ],
            [
              -73.00561068899998,
              42.97606852600006
            ],
            [
              -73.00536212899993,
              42.98058205600006
            ],
            [
              -73.00510260499993,
              42.985093290000066
            ],
            [
              -73.00485972199994,
              42.98960444700003
            ],
            [
              -73.00461955199995,
              42.99412152900004
            ],
            [
              -73.00437710399996,
              42.99863375600006
            ],
            [
              -73.00415108899995,
              43.00310476800007
            ],
            [
              -73.00323179399999,
              43.021473230000026
            ],
            [
              -73.00498317899996,
              43.02152582700006
            ],
            [
              -73.02624687799994,
              43.02227268400003
            ],
            [
              -73.03721529399996,
              43.02261438100004
            ],
            [
              -73.05163627599995,
              43.023067973000025
            ],
            [
              -73.06224590899996,
              43.023428083000056
            ],
            [
              -73.07206135399997,
              43.02371988800007
            ],
            [
              -73.08672204899995,
              43.02418208200004
            ],
            [
              -73.10007852999996,
              43.02462070800004
            ],
            [
              -73.11374273999996,
              43.02501768800005
            ],
            [
              -73.12454260299995,
              43.02530330900004
            ],
            [
              -73.13773636399998,
              43.02572582400006
            ],
            [
              -73.14059381999994,
              43.02582625800005
            ]
          ]
        ]
      }
    }
  ]
}