{
"type": "FeatureCollection",
"name": "Bennington_NorthBennington",
"crs": { "type": "name", "properties": { "name": "urn:ogc:def:crs:OGC:1.3:CRS84" } },
"features": [
{ "type": "Feature", "properties": { "OBJECT_ID": 1483, "County": "Bennington", "RPC": "BCRC", "Municipal_Name": "North Bennington ", "GEO_ID": null, "District_Name": "Shoreland Protection Area", "Abbreviated_District_Name": "Spa", "District_Type": "Overlay not Affecting Use", "Bylaw_Date": "2023-09-05T00:00:00", "Elderly_Housing_District": "No", "District_Mapped": "Yes", "Overlay_District": "Yes", "Base_Density": null, "Shape_Length": 3270.116872602729, "Shape_Area": 196711.63715062043, "F1F_Allowance": "Overlay", "F1F_Front_Setback": 200.0, "F1F_Side_Setback": 200.0, "F1F_Rear_Setback": 200.0, "F1F_Frontage": null, "F1F_Max_Height": null, "F1F_Max_Stories": null, "F1F_Min_Lot_Size": null, "F1F_Max_Lot_Building_Coverage": null, "F1F_Max_Lot_Impervious_Coverage": null, "F1F_Min_Parking_Spaces": null, "F2F_Allowance": "Overlay", "F2F_Front_Setback": 200.0, "F2F_Side_Setback": 200.0, "F2F_Rear_Setback": 200.0, "F2F_Frontage": null, "F2F_Max_Density": null, "F2F_Max_Height": null, "F2F_Max_Stories": null, "F2F_Min_Lot_Size": null, "F2F_Max_Lot_Building_Coverage": null, "F2F_Max_Lot_Impervious_Coverage": null, "F2F_Min_Parking_Spaces_per_1BR": null, "F2F_Min_Parking_Spaces_per_mult_BR": null, "F2F_Elderly_Housing_Only": "No", "F2F_Affordable_Housing_Only": "No", "F3F_Allowance": "Overlay", "F3F_Front_Setback": 200.0, "F3F_Side_Setback": 200.0, "F3F_Rear_Setback": 200.0, "F3F_Frontage": null, "F3F_Max_Density": null, "F3F_Max_Height": null, "F3F_Max_Stories": null, "F3F_Min_Lot_Size": null, "F3F_Max_Lot_Building_Coverage": null, "F3F_Max_Lot_Impervious_Coverage": null, "F3F_Min_Parking_Spaces_per_1BR": null, "F3F_Min_Parking_Spaces_per_mult_BR": null, "F3F_Affordable_Housing_Only": "No", "F3F_Proximity_to_Public_Transit_Required": "No", "F3F_Connection_to_Sewage/Water_Required": "No", "F4F_Allowance": "Overlay", "F4F_Front_Setback": 200.0, "F4F_Side_Setback": 200.0, "F4F_Rear_Setback": 200.0, "F4F_Frontage": null, "F4F_Max_Density": null, "F4F_Max_Height": null, "F4F_Max_Stories": null, "F4F_Min_Lot_Size": null, "F4F_Max_Lot_Building_Coverage": null, "F4F_Max_Lot_Impervious_Coverage": null, "F4F_Min_Parking_Spaces_per_1BR": null, "F4F_Min_Parking_Spaces_per_mult_BR": null, "F3F_Elderly_Housing_Only": "No", "F4F_Elderly_Housing_Only": "No", "F4F_Affordable_Housing_Only": "No", "F4F_Proximity_to_Public_Transit_Required": "No", "F4F_Connection_to_Sewage/Water_Required": "No", "ADU_Allowance": "Not Mentioned", "ADU_Elderly_Housing_Only": "No", "ADU_Max_Size_as_Percent_of_Primary_Strcture": null, "ADU_Max_Size_in_sq_ft": null, "ADU_Min_Lot_Size": null, "ADU_Max_Bedrooms": null, "ADU_Min_Parking_Spaces": null, "ADU_Owner_Occupancy_Required": "No", "ADU_Renter_Occupancy_Prohibited": "No", "ADU_Employee_or_Family_Occupancy_Required": "No", "ADU_Restricted_to_Primary_Structure": "No", "Affordable_Housing_Allowance": "Not Mentioned", "Affordable_Housing_District": "No", "Affordable_Housing_Elderly_Only": "No", "Affordable_Housing_Min_Lot_Size": null, "Affordable_Housing_Max_Density": null, "Affordable_Housing_Min_Parking_Spaces_per_mult_BR": null, "Affordable_Housing_Max_Units_per_Building": null, "Affordable_Housing_Min_Parking_Spaces_per_1BR": null, "PRD_Allowance": "Not Mentioned", "PRD_Max_Density": null, "PRD_Max_Units": null, "PRD_Min_Lot_Size": null, "PRD_Mobile_or_Manufactured_Home_Park": "No", "PUD_Allowance": null, "PUD_Required_with_Subdivision": null, "PUD_Requires_Land_Conservation": null, "PUD_Threshold_Number": null, "Notes": " Uses Within The Designated Shoreland May Include Those Uses Permitted Or Conditionally Permitted In The Vr-20 District. \r\nWaste Disposal, Sanitary Landfill, And The Storage Of Industrial Wastes Or Hazardous Products Are Specifically Prohibited.\r\nAll Buildings Must Have A Minimum Setback Of 200 Feet From The Mean High Water Line Of Lake Paran. " }, "geometry": { "type": "MultiPolygon", "coordinates": [ [ [ [ -73.229900299013153, 42.930819031435341 ], [ -73.230294719747249, 42.931128158633605 ], [ -73.232203515386516, 42.931563541448845 ], [ -73.234932246117864, 42.931750002834704 ], [ -73.23495583749974, 42.931854092961494 ], [ -73.2361162548453, 42.931879532153268 ], [ -73.238065923813309, 42.932037076286832 ], [ -73.238064096147937, 42.932161015828349 ], [ -73.237485770738772, 42.932470919983921 ], [ -73.237033499245044, 42.932814028598855 ], [ -73.235840810886899, 42.933387419232901 ], [ -73.238808292185382, 42.933453019808717 ], [ -73.239701863868007, 42.932696894358074 ], [ -73.239883224074291, 42.932136473435307 ], [ -73.239861407333834, 42.931786813727726 ], [ -73.239601020511216, 42.931391191919481 ], [ -73.239416471064374, 42.931193731904457 ], [ -73.238990519192811, 42.930958963811143 ], [ -73.238612821105036, 42.930827527557319 ], [ -73.237826605675835, 42.930690085708143 ], [ -73.236085345730999, 42.930579837252786 ], [ -73.234818225136536, 42.93058797824353 ], [ -73.234145829798493, 42.930801471620796 ], [ -73.233348859758308, 42.930577159453399 ], [ -73.232979697551826, 42.930420950579858 ], [ -73.231414404119519, 42.930063213960963 ], [ -73.231171593057496, 42.929911499343397 ], [ -73.230484799137528, 42.929492221962576 ], [ -73.229632368854894, 42.92923449782856 ], [ -73.229140026121172, 42.929143168409503 ], [ -73.227358076410809, 42.92909714858289 ], [ -73.22649509466595, 42.928721383353839 ], [ -73.226131345400177, 42.928632596884448 ], [ -73.2256671509098, 42.928591680668575 ], [ -73.224662109083113, 42.928849714602777 ], [ -73.224753751586576, 42.928929862298922 ], [ -73.224823034819835, 42.928989681245959 ], [ -73.225522003443899, 42.929510230660618 ], [ -73.226384839927533, 42.929995993425734 ], [ -73.227783750488115, 42.930505609292851 ], [ -73.228117775398161, 42.930432681851379 ], [ -73.228628852114028, 42.930414314859604 ], [ -73.228944822832318, 42.930546178086558 ], [ -73.22957667421619, 42.930552948687158 ], [ -73.229900299013153, 42.930819031435341 ] ] ] ] } },
{ "type": "Feature", "properties": { "OBJECT_ID": 1486, "County": "Bennington", "RPC": "BCRC", "Municipal_Name": "North Bennington ", "GEO_ID": null, "District_Name": "Village Residential 10", "Abbreviated_District_Name": "Vr-10", "District_Type": "Primarily Residential", "Bylaw_Date": "2024-04-26T00:00:00", "Elderly_Housing_District": "No", "District_Mapped": "Yes", "Overlay_District": "No", "Base_Density": null, "Shape_Length": 2700.2853478262268, "Shape_Area": 92365.069824343547, "F1F_Allowance": "Permitted", "F1F_Front_Setback": 10.0, "F1F_Side_Setback": 10.0, "F1F_Rear_Setback": 20.0, "F1F_Frontage": 50.0, "F1F_Max_Height": 30.0, "F1F_Max_Stories": null, "F1F_Min_Lot_Size": 0.23, "F1F_Max_Lot_Building_Coverage": 35.0, "F1F_Max_Lot_Impervious_Coverage": null, "F1F_Min_Parking_Spaces": 2.0, "F2F_Allowance": "Permitted", "F2F_Front_Setback": 10.0, "F2F_Side_Setback": 10.0, "F2F_Rear_Setback": 20.0, "F2F_Frontage": 50.0, "F2F_Max_Density": null, "F2F_Max_Height": 30.0, "F2F_Max_Stories": null, "F2F_Min_Lot_Size": 0.23, "F2F_Max_Lot_Building_Coverage": 35.0, "F2F_Max_Lot_Impervious_Coverage": null, "F2F_Min_Parking_Spaces_per_1BR": 2.0, "F2F_Min_Parking_Spaces_per_mult_BR": 2.0, "F2F_Elderly_Housing_Only": "No", "F2F_Affordable_Housing_Only": "No", "F3F_Allowance": "Public Hearing", "F3F_Front_Setback": 10.0, "F3F_Side_Setback": 10.0, "F3F_Rear_Setback": 20.0, "F3F_Frontage": 50.0, "F3F_Max_Density": null, "F3F_Max_Height": 30.0, "F3F_Max_Stories": null, "F3F_Min_Lot_Size": 0.23, "F3F_Max_Lot_Building_Coverage": 35.0, "F3F_Max_Lot_Impervious_Coverage": null, "F3F_Min_Parking_Spaces_per_1BR": 2.0, "F3F_Min_Parking_Spaces_per_mult_BR": 2.0, "F3F_Affordable_Housing_Only": "No", "F3F_Proximity_to_Public_Transit_Required": "No", "F3F_Connection_to_Sewage/Water_Required": "Yes", "F4F_Allowance": "Public Hearing", "F4F_Front_Setback": 10.0, "F4F_Side_Setback": 10.0, "F4F_Rear_Setback": 20.0, "F4F_Frontage": 50.0, "F4F_Max_Density": null, "F4F_Max_Height": 30.0, "F4F_Max_Stories": null, "F4F_Min_Lot_Size": 0.23, "F4F_Max_Lot_Building_Coverage": 35.0, "F4F_Max_Lot_Impervious_Coverage": null, "F4F_Min_Parking_Spaces_per_1BR": 2.0, "F4F_Min_Parking_Spaces_per_mult_BR": 2.0, "F3F_Elderly_Housing_Only": "No", "F4F_Elderly_Housing_Only": "No", "F4F_Affordable_Housing_Only": "No", "F4F_Proximity_to_Public_Transit_Required": "No", "F4F_Connection_to_Sewage/Water_Required": "Yes", "ADU_Allowance": "Allowed/Conditional", "ADU_Elderly_Housing_Only": "No", "ADU_Max_Size_as_Percent_of_Primary_Strcture": 30.0, "ADU_Max_Size_in_sq_ft": null, "ADU_Min_Lot_Size": null, "ADU_Max_Bedrooms": null, "ADU_Min_Parking_Spaces": 1.0, "ADU_Owner_Occupancy_Required": "No", "ADU_Renter_Occupancy_Prohibited": "No", "ADU_Employee_or_Family_Occupancy_Required": "No", "ADU_Restricted_to_Primary_Structure": "No", "Affordable_Housing_Allowance": "Not Mentioned", "Affordable_Housing_District": "No", "Affordable_Housing_Elderly_Only": "No", "Affordable_Housing_Min_Lot_Size": null, "Affordable_Housing_Max_Density": null, "Affordable_Housing_Min_Parking_Spaces_per_mult_BR": null, "Affordable_Housing_Max_Units_per_Building": null, "Affordable_Housing_Min_Parking_Spaces_per_1BR": null, "PRD_Allowance": "Not Mentioned", "PRD_Max_Density": null, "PRD_Max_Units": null, "PRD_Min_Lot_Size": null, "PRD_Mobile_or_Manufactured_Home_Park": "No", "PUD_Allowance": null, "PUD_Required_with_Subdivision": null, "PUD_Requires_Land_Conservation": null, "PUD_Threshold_Number": null, "Notes": "None" }, "geometry": { "type": "MultiPolygon", "coordinates": [ [ [ [ -73.242476079325556, 42.930275987092529 ], [ -73.242120075464584, 42.930370634076397 ], [ -73.240688171050877, 42.931831727192574 ], [ -73.241934853295604, 42.931951499030582 ], [ -73.241899417521992, 42.93140061029483 ], [ -73.242075692508593, 42.930990305048866 ], [ -73.242251185917581, 42.930979676581757 ], [ -73.242236435145799, 42.930611602246671 ], [ -73.242435169493376, 42.93060082460002 ], [ -73.242500123795708, 42.930418215444746 ], [ -73.242476079325556, 42.930275987092529 ] ] ], [ [ [ -73.241296410083976, 42.929108950113815 ], [ -73.240652928976729, 42.929289609604055 ], [ -73.240563581093411, 42.929161138693111 ], [ -73.239908299663682, 42.929434862332222 ], [ -73.239819884295869, 42.929384193358814 ], [ -73.239650582218914, 42.929480177009353 ], [ -73.239664379681017, 42.92955410121106 ], [ -73.23980780413919, 42.9298852865575 ], [ -73.239754161887063, 42.929921336430645 ], [ -73.239853249459614, 42.930234649646266 ], [ -73.239940879404003, 42.930372591353532 ], [ -73.241117577834089, 42.930051513427067 ], [ -73.241066027426712, 42.92988903940914 ], [ -73.241392591196288, 42.929821314717927 ], [ -73.241297122832108, 42.929581366204644 ], [ -73.2412620882222, 42.929477343354151 ], [ -73.241370026387784, 42.929432995190794 ], [ -73.241296410083976, 42.929108950113815 ] ] ], [ [ [ -73.243354683876362, 42.927279180236901 ], [ -73.242947024487677, 42.927638842736528 ], [ -73.24242723140793, 42.927860911960771 ], [ -73.242503664122708, 42.928038363371307 ], [ -73.242387271409697, 42.928118065571802 ], [ -73.242355792898621, 42.928249444953693 ], [ -73.24227282966315, 42.928265698409611 ], [ -73.24267068775977, 42.928492749237066 ], [ -73.242645843542761, 42.928574515058422 ], [ -73.242479221381132, 42.928678076788842 ], [ -73.242622801516276, 42.928806195297376 ], [ -73.242995598220062, 42.928881585648256 ], [ -73.242879865229867, 42.929136640440042 ], [ -73.243038393743021, 42.929219114655645 ], [ -73.243157224918178, 42.929436589024306 ], [ -73.24334649276048, 42.929497987011217 ], [ -73.243354851949093, 42.929763623725329 ], [ -73.243478990704304, 42.929778000070058 ], [ -73.243547183727728, 42.929864855441942 ], [ -73.243383780812508, 42.930021535573481 ], [ -73.243362478848724, 42.930182986446916 ], [ -73.243011811686102, 42.930445258595071 ], [ -73.243291144013313, 42.930693953559988 ], [ -73.24327011543626, 42.930878176440658 ], [ -73.243010857202776, 42.931225256581669 ], [ -73.243360904775983, 42.931340648207708 ], [ -73.243556371600789, 42.931487406248102 ], [ -73.243559134076207, 42.932277723088099 ], [ -73.244660692439652, 42.932256423219755 ], [ -73.245832208025988, 42.932379829996421 ], [ -73.244927609625506, 42.931607659636242 ], [ -73.24501060761726, 42.929574466865581 ], [ -73.245101375495992, 42.929177239428384 ], [ -73.244226428336248, 42.929008333665088 ], [ -73.244436720733177, 42.928242155850754 ], [ -73.244004623781791, 42.928174746895543 ], [ -73.243546795906155, 42.928115094721157 ], [ -73.243247522734649, 42.927925361451216 ], [ -73.243375684273872, 42.927630372450245 ], [ -73.243354683876362, 42.927279180236901 ] ] ] ] } },
{ "type": "Feature", "properties": { "OBJECT_ID": 1484, "County": "Bennington", "RPC": "BCRC", "Municipal_Name": "North Bennington ", "GEO_ID": null, "District_Name": "Village Commercial District", "Abbreviated_District_Name": "Vc", "District_Type": "Mixed with Residential", "Bylaw_Date": "2023-09-05T00:00:00", "Elderly_Housing_District": "No", "District_Mapped": "Yes", "Overlay_District": "No", "Base_Density": null, "Shape_Length": 3065.6415978548353, "Shape_Area": 96181.034066424501, "F1F_Allowance": "Permitted", "F1F_Front_Setback": 1.0, "F1F_Side_Setback": 10.0, "F1F_Rear_Setback": 20.0, "F1F_Frontage": 50.0, "F1F_Max_Height": 40.0, "F1F_Max_Stories": null, "F1F_Min_Lot_Size": 0.23, "F1F_Max_Lot_Building_Coverage": null, "F1F_Max_Lot_Impervious_Coverage": null, "F1F_Min_Parking_Spaces": 2.0, "F2F_Allowance": "Permitted", "F2F_Front_Setback": 1.0, "F2F_Side_Setback": 10.0, "F2F_Rear_Setback": 20.0, "F2F_Frontage": 50.0, "F2F_Max_Density": null, "F2F_Max_Height": 40.0, "F2F_Max_Stories": null, "F2F_Min_Lot_Size": 0.23, "F2F_Max_Lot_Building_Coverage": null, "F2F_Max_Lot_Impervious_Coverage": null, "F2F_Min_Parking_Spaces_per_1BR": 2.0, "F2F_Min_Parking_Spaces_per_mult_BR": 2.0, "F2F_Elderly_Housing_Only": "No", "F2F_Affordable_Housing_Only": "No", "F3F_Allowance": "Public Hearing", "F3F_Front_Setback": 1.0, "F3F_Side_Setback": 10.0, "F3F_Rear_Setback": 20.0, "F3F_Frontage": 50.0, "F3F_Max_Density": null, "F3F_Max_Height": 40.0, "F3F_Max_Stories": null, "F3F_Min_Lot_Size": 0.23, "F3F_Max_Lot_Building_Coverage": null, "F3F_Max_Lot_Impervious_Coverage": null, "F3F_Min_Parking_Spaces_per_1BR": 2.0, "F3F_Min_Parking_Spaces_per_mult_BR": 2.0, "F3F_Affordable_Housing_Only": "No", "F3F_Proximity_to_Public_Transit_Required": "No", "F3F_Connection_to_Sewage/Water_Required": "Yes", "F4F_Allowance": "Public Hearing", "F4F_Front_Setback": 1.0, "F4F_Side_Setback": 10.0, "F4F_Rear_Setback": 20.0, "F4F_Frontage": 50.0, "F4F_Max_Density": null, "F4F_Max_Height": 40.0, "F4F_Max_Stories": null, "F4F_Min_Lot_Size": 0.23, "F4F_Max_Lot_Building_Coverage": null, "F4F_Max_Lot_Impervious_Coverage": null, "F4F_Min_Parking_Spaces_per_1BR": 2.0, "F4F_Min_Parking_Spaces_per_mult_BR": 2.0, "F3F_Elderly_Housing_Only": "No", "F4F_Elderly_Housing_Only": "No", "F4F_Affordable_Housing_Only": "No", "F4F_Proximity_to_Public_Transit_Required": "No", "F4F_Connection_to_Sewage/Water_Required": "Yes", "ADU_Allowance": "Allowed/Conditional", "ADU_Elderly_Housing_Only": "No", "ADU_Max_Size_as_Percent_of_Primary_Strcture": 30.0, "ADU_Max_Size_in_sq_ft": null, "ADU_Min_Lot_Size": null, "ADU_Max_Bedrooms": null, "ADU_Min_Parking_Spaces": 1.0, "ADU_Owner_Occupancy_Required": "No", "ADU_Renter_Occupancy_Prohibited": "No", "ADU_Employee_or_Family_Occupancy_Required": "No", "ADU_Restricted_to_Primary_Structure": "No", "Affordable_Housing_Allowance": "Not Mentioned", "Affordable_Housing_District": "No", "Affordable_Housing_Elderly_Only": "No", "Affordable_Housing_Min_Lot_Size": null, "Affordable_Housing_Max_Density": null, "Affordable_Housing_Min_Parking_Spaces_per_mult_BR": null, "Affordable_Housing_Max_Units_per_Building": null, "Affordable_Housing_Min_Parking_Spaces_per_1BR": null, "PRD_Allowance": "Not Mentioned", "PRD_Max_Density": null, "PRD_Max_Units": null, "PRD_Min_Lot_Size": null, "PRD_Mobile_or_Manufactured_Home_Park": "No", "PUD_Allowance": null, "PUD_Required_with_Subdivision": null, "PUD_Requires_Land_Conservation": null, "PUD_Threshold_Number": null, "Notes": "None" }, "geometry": { "type": "MultiPolygon", "coordinates": [ [ [ [ -73.244927609625506, 42.931607659636242 ], [ -73.245832208025988, 42.932379829996421 ], [ -73.247579168588501, 42.93289783198712 ], [ -73.248480502135749, 42.933320841969334 ], [ -73.249012768461441, 42.933678618558709 ], [ -73.249355116726449, 42.9336860828559 ], [ -73.249592333725616, 42.933691254101888 ], [ -73.249116510329998, 42.933299344873404 ], [ -73.248766548269941, 42.933041538414322 ], [ -73.247828349386509, 42.932546536070376 ], [ -73.246171691817821, 42.932038420207718 ], [ -73.24536626429061, 42.931842027606564 ], [ -73.244927609625506, 42.931607659636242 ] ] ], [ [ [ -73.24227282966315, 42.928265698409611 ], [ -73.241834969815514, 42.928363424611092 ], [ -73.241664544522138, 42.928470359401778 ], [ -73.241376446246051, 42.928475215160681 ], [ -73.241216292315571, 42.928631770374182 ], [ -73.241152274189375, 42.928718938589654 ], [ -73.24114931576807, 42.92890304325114 ], [ -73.240826507446627, 42.929119583436758 ], [ -73.240563581093411, 42.929161138693111 ], [ -73.240652928976729, 42.929289609604055 ], [ -73.241296410083976, 42.929108950113815 ], [ -73.241370026387784, 42.929432995190794 ], [ -73.2412620882222, 42.929477343354151 ], [ -73.241297122832108, 42.929581366204644 ], [ -73.24210680228272, 42.929265083860663 ], [ -73.242328312293665, 42.929261217110771 ], [ -73.242341519145867, 42.929810304767116 ], [ -73.242476079325556, 42.930275987092529 ], [ -73.242500123795708, 42.930418215444746 ], [ -73.242435169493376, 42.93060082460002 ], [ -73.242236435145799, 42.930611602246671 ], [ -73.242251185917581, 42.930979676581757 ], [ -73.242075692508593, 42.930990305048866 ], [ -73.241899417521992, 42.93140061029483 ], [ -73.241934853295604, 42.931951499030582 ], [ -73.240688171050877, 42.931831727192574 ], [ -73.23905827249591, 42.933456721720709 ], [ -73.242017860988966, 42.933515078642706 ], [ -73.241988914312401, 42.932878100123972 ], [ -73.242609727363245, 42.932877039577669 ], [ -73.242636779352125, 42.932334096795174 ], [ -73.243559134076207, 42.932277723088099 ], [ -73.243556371600789, 42.931487406248102 ], [ -73.243360904775983, 42.931340648207708 ], [ -73.243010857202776, 42.931225256581669 ], [ -73.24327011543626, 42.930878176440658 ], [ -73.243291144013313, 42.930693953559988 ], [ -73.243011811686102, 42.930445258595071 ], [ -73.243362478848724, 42.930182986446916 ], [ -73.243383780812508, 42.930021535573481 ], [ -73.243547183727728, 42.929864855441942 ], [ -73.243478990704304, 42.929778000070058 ], [ -73.243354851949093, 42.929763623725329 ], [ -73.24334649276048, 42.929497987011217 ], [ -73.243157224918178, 42.929436589024306 ], [ -73.243038393743021, 42.929219114655645 ], [ -73.242879865229867, 42.929136640440042 ], [ -73.242995598220062, 42.928881585648256 ], [ -73.242622801516276, 42.928806195297376 ], [ -73.242479221381132, 42.928678076788842 ], [ -73.242645843542761, 42.928574515058422 ], [ -73.24267068775977, 42.928492749237066 ], [ -73.24227282966315, 42.928265698409611 ] ] ] ] } },
{ "type": "Feature", "properties": { "OBJECT_ID": 1488, "County": "Bennington", "RPC": "BCRC", "Municipal_Name": "North Bennington ", "GEO_ID": null, "District_Name": "Village Residential 20", "Abbreviated_District_Name": "Vr-20", "District_Type": "Primarily Residential", "Bylaw_Date": "2024-04-26T00:00:00", "Elderly_Housing_District": "No", "District_Mapped": "Yes", "Overlay_District": "No", "Base_Density": null, "Shape_Length": 12706.501838382343, "Shape_Area": 955525.3936214688, "F1F_Allowance": "Permitted", "F1F_Front_Setback": 30.0, "F1F_Side_Setback": 15.0, "F1F_Rear_Setback": 40.0, "F1F_Frontage": 50.0, "F1F_Max_Height": 30.0, "F1F_Max_Stories": null, "F1F_Min_Lot_Size": 0.46, "F1F_Max_Lot_Building_Coverage": 20.0, "F1F_Max_Lot_Impervious_Coverage": null, "F1F_Min_Parking_Spaces": 2.0, "F2F_Allowance": "Permitted", "F2F_Front_Setback": 30.0, "F2F_Side_Setback": 15.0, "F2F_Rear_Setback": 40.0, "F2F_Frontage": 50.0, "F2F_Max_Density": null, "F2F_Max_Height": 30.0, "F2F_Max_Stories": null, "F2F_Min_Lot_Size": 0.46, "F2F_Max_Lot_Building_Coverage": 20.0, "F2F_Max_Lot_Impervious_Coverage": null, "F2F_Min_Parking_Spaces_per_1BR": 2.0, "F2F_Min_Parking_Spaces_per_mult_BR": 2.0, "F2F_Elderly_Housing_Only": "No", "F2F_Affordable_Housing_Only": "No", "F3F_Allowance": "Public Hearing", "F3F_Front_Setback": 30.0, "F3F_Side_Setback": 15.0, "F3F_Rear_Setback": 40.0, "F3F_Frontage": 50.0, "F3F_Max_Density": null, "F3F_Max_Height": 30.0, "F3F_Max_Stories": null, "F3F_Min_Lot_Size": 0.46, "F3F_Max_Lot_Building_Coverage": 20.0, "F3F_Max_Lot_Impervious_Coverage": null, "F3F_Min_Parking_Spaces_per_1BR": 2.0, "F3F_Min_Parking_Spaces_per_mult_BR": 2.0, "F3F_Affordable_Housing_Only": "No", "F3F_Proximity_to_Public_Transit_Required": "No", "F3F_Connection_to_Sewage/Water_Required": "Yes", "F4F_Allowance": "Public Hearing", "F4F_Front_Setback": 30.0, "F4F_Side_Setback": 15.0, "F4F_Rear_Setback": 40.0, "F4F_Frontage": 50.0, "F4F_Max_Density": null, "F4F_Max_Height": 30.0, "F4F_Max_Stories": null, "F4F_Min_Lot_Size": 0.46, "F4F_Max_Lot_Building_Coverage": 20.0, "F4F_Max_Lot_Impervious_Coverage": null, "F4F_Min_Parking_Spaces_per_1BR": 2.0, "F4F_Min_Parking_Spaces_per_mult_BR": 2.0, "F3F_Elderly_Housing_Only": "No", "F4F_Elderly_Housing_Only": "No", "F4F_Affordable_Housing_Only": "No", "F4F_Proximity_to_Public_Transit_Required": "No", "F4F_Connection_to_Sewage/Water_Required": "Yes", "ADU_Allowance": "Allowed/Conditional", "ADU_Elderly_Housing_Only": "No", "ADU_Max_Size_as_Percent_of_Primary_Strcture": 30.0, "ADU_Max_Size_in_sq_ft": null, "ADU_Min_Lot_Size": null, "ADU_Max_Bedrooms": null, "ADU_Min_Parking_Spaces": 1.0, "ADU_Owner_Occupancy_Required": "No", "ADU_Renter_Occupancy_Prohibited": "No", "ADU_Employee_or_Family_Occupancy_Required": "No", "ADU_Restricted_to_Primary_Structure": "No", "Affordable_Housing_Allowance": "Not Mentioned", "Affordable_Housing_District": "No", "Affordable_Housing_Elderly_Only": "No", "Affordable_Housing_Min_Lot_Size": null, "Affordable_Housing_Max_Density": null, "Affordable_Housing_Min_Parking_Spaces_per_mult_BR": null, "Affordable_Housing_Max_Units_per_Building": null, "Affordable_Housing_Min_Parking_Spaces_per_1BR": null, "PRD_Allowance": "Not Mentioned", "PRD_Max_Density": null, "PRD_Max_Units": null, "PRD_Min_Lot_Size": null, "PRD_Mobile_or_Manufactured_Home_Park": "No", "PUD_Allowance": null, "PUD_Required_with_Subdivision": null, "PUD_Requires_Land_Conservation": null, "PUD_Threshold_Number": null, "Notes": "None" }, "geometry": { "type": "MultiPolygon", "coordinates": [ [ [ [ -73.244660692439652, 42.932256423219755 ], [ -73.243559134076207, 42.932277723088099 ], [ -73.242636779352125, 42.932334096795174 ], [ -73.242609727363245, 42.932877039577669 ], [ -73.241988914312401, 42.932878100123972 ], [ -73.242017860988966, 42.933515078642706 ], [ -73.242645127937664, 42.933529705013598 ], [ -73.249012768461441, 42.933678618558709 ], [ -73.248480502135749, 42.933320841969334 ], [ -73.247579168588501, 42.93289783198712 ], [ -73.245832208025988, 42.932379829996421 ], [ -73.244660692439652, 42.932256423219755 ] ] ], [ [ [ -73.244203922102244, 42.927782507409432 ], [ -73.244004623781791, 42.928174746895543 ], [ -73.244436720733177, 42.928242155850754 ], [ -73.244226428336248, 42.929008333665088 ], [ -73.245101375495992, 42.929177239428384 ], [ -73.24501060761726, 42.929574466865581 ], [ -73.244927609625506, 42.931607659636242 ], [ -73.24536626429061, 42.931842027606564 ], [ -73.246171691817821, 42.932038420207718 ], [ -73.246346712014017, 42.931159551634401 ], [ -73.245901919601181, 42.931085353448161 ], [ -73.245972324355108, 42.930565967780446 ], [ -73.250452280364016, 42.930662720628447 ], [ -73.250494185377164, 42.929919953199104 ], [ -73.249710291606391, 42.929905650356922 ], [ -73.249741954317614, 42.929244490883725 ], [ -73.248949127929066, 42.929170232179594 ], [ -73.245218516700135, 42.929105590783372 ], [ -73.245516242478104, 42.927945567237508 ], [ -73.244203922102244, 42.927782507409432 ] ] ], [ [ [ -73.243145843342901, 42.925197858598558 ], [ -73.242829553564405, 42.926118441908073 ], [ -73.240547502461283, 42.92580275195207 ], [ -73.239660491873394, 42.926561777906194 ], [ -73.239456598621501, 42.926655434584269 ], [ -73.239513563326028, 42.926718246231694 ], [ -73.239379628872939, 42.926855189094134 ], [ -73.238780146581675, 42.926496994418592 ], [ -73.237253253905052, 42.926839743950261 ], [ -73.236502755792074, 42.926849435165934 ], [ -73.23542341800885, 42.92673487617877 ], [ -73.235250496596976, 42.927798370765132 ], [ -73.231683801388968, 42.927021861430255 ], [ -73.231668953730576, 42.92822314537564 ], [ -73.231171593057496, 42.929911499343397 ], [ -73.231033783445866, 42.930873594404012 ], [ -73.229900299013153, 42.930819031435341 ], [ -73.229849864818064, 42.930816602937313 ], [ -73.230294719747249, 42.931128158633605 ], [ -73.232203515386516, 42.931563541448845 ], [ -73.234932246117864, 42.931750002834704 ], [ -73.23495583749974, 42.931854092961494 ], [ -73.23501348259785, 42.932145100582822 ], [ -73.235236731644136, 42.933372782173059 ], [ -73.235840810886899, 42.933387419232901 ], [ -73.238808292185382, 42.933453019808717 ], [ -73.23896687299694, 42.933455370089781 ], [ -73.23905827249591, 42.933456721720709 ], [ -73.240688171050877, 42.931831727192574 ], [ -73.242120075464584, 42.930370634076397 ], [ -73.242476079325556, 42.930275987092529 ], [ -73.242341519145867, 42.929810304767116 ], [ -73.242328312293665, 42.929261217110771 ], [ -73.24210680228272, 42.929265083860663 ], [ -73.241297122832108, 42.929581366204644 ], [ -73.241392591196288, 42.929821314717927 ], [ -73.241066027426712, 42.92988903940914 ], [ -73.241117577834089, 42.930051513427067 ], [ -73.239940879404003, 42.930372591353532 ], [ -73.239853249459614, 42.930234649646266 ], [ -73.23880210442438, 42.930547614602652 ], [ -73.238624121412172, 42.930043329983597 ], [ -73.238304513761904, 42.930140159859448 ], [ -73.238214916560622, 42.930114007557449 ], [ -73.238680184150383, 42.929753801250399 ], [ -73.239695634053234, 42.929222370370013 ], [ -73.240368470034369, 42.928800065688023 ], [ -73.240822614451602, 42.928617309780989 ], [ -73.241216292315571, 42.928631770374182 ], [ -73.241376446246051, 42.928475215160681 ], [ -73.241381019565537, 42.928305088025887 ], [ -73.24181643807097, 42.927940201196591 ], [ -73.24194406773978, 42.928104612354694 ], [ -73.24200581205082, 42.928014303272626 ], [ -73.242360372760558, 42.927800596448577 ], [ -73.24242723140793, 42.927860911960771 ], [ -73.242947024487677, 42.927638842736528 ], [ -73.243354683876362, 42.927279180236901 ], [ -73.243852643078029, 42.926430177424649 ], [ -73.243934349891902, 42.926150147335633 ], [ -73.243884637455793, 42.926140750176373 ], [ -73.243712380696593, 42.926389726981469 ], [ -73.243493157959691, 42.926857705431061 ], [ -73.243191304250232, 42.927054063673651 ], [ -73.243053405273884, 42.926860560776902 ], [ -73.243434498309838, 42.926379382192195 ], [ -73.243435438583674, 42.926182548355619 ], [ -73.243650532114856, 42.925921143855831 ], [ -73.243798355718582, 42.925565407940319 ], [ -73.243792418862142, 42.925346748708129 ], [ -73.243145843342901, 42.925197858598558 ] ] ], [ [ [ -73.245605931725805, 42.912721422621317 ], [ -73.243637361085348, 42.913480048627576 ], [ -73.24345333247598, 42.913603668764097 ], [ -73.242025663412022, 42.913820955580562 ], [ -73.242024562957681, 42.913862955637057 ], [ -73.242023817155584, 42.913891438854918 ], [ -73.24202370685191, 42.91389561734767 ], [ -73.241937137291188, 42.916809981937206 ], [ -73.245117382341547, 42.917365728283002 ], [ -73.245065251217738, 42.918398332618118 ], [ -73.2454373838994, 42.918467100450229 ], [ -73.245319301983599, 42.917376278288138 ], [ -73.245723785301351, 42.917450767716886 ], [ -73.245687522700166, 42.91687562410619 ], [ -73.24547482541584, 42.916601417567591 ], [ -73.245526832827224, 42.916472232170662 ], [ -73.245759988694346, 42.916272485631055 ], [ -73.245700278378109, 42.913765485727701 ], [ -73.245605931725805, 42.912721422621317 ] ] ], [ [ [ -73.24954916262385, 42.912286051224605 ], [ -73.248755997497241, 42.912477286677877 ], [ -73.247592227000993, 42.912777248950341 ], [ -73.247265322154931, 42.912963430648482 ], [ -73.247149765279715, 42.913218773718285 ], [ -73.247131272406662, 42.913286594940637 ], [ -73.247552868177877, 42.913436971965908 ], [ -73.247371140946882, 42.913755446397793 ], [ -73.247310860391025, 42.914108711340518 ], [ -73.247190485310043, 42.914162872911049 ], [ -73.246993048289838, 42.914517032814928 ], [ -73.248198483640323, 42.91478196820416 ], [ -73.24817650411272, 42.914965961036117 ], [ -73.248411159855877, 42.915020768171779 ], [ -73.248264037262672, 42.915531761617281 ], [ -73.248478775370614, 42.915607456249383 ], [ -73.248209213011492, 42.916335718437821 ], [ -73.247773673059442, 42.916345193300501 ], [ -73.247889945204818, 42.916424605427977 ], [ -73.247873574016538, 42.917132516276517 ], [ -73.24807323967056, 42.917149536802839 ], [ -73.247957049905082, 42.9175923867042 ], [ -73.247480487981107, 42.917579557156564 ], [ -73.247558009115082, 42.917907312763582 ], [ -73.247976782872229, 42.917946328891077 ], [ -73.247388906520172, 42.919939056247841 ], [ -73.24721570609033, 42.919923107659308 ], [ -73.247078678682627, 42.92037167544953 ], [ -73.246983576176177, 42.920550798857271 ], [ -73.248046035715703, 42.920816613425636 ], [ -73.248206039084877, 42.919826244879197 ], [ -73.248919431210993, 42.917442483039338 ], [ -73.249128609101987, 42.916799448269039 ], [ -73.249637890611936, 42.915770968726513 ], [ -73.249918127136169, 42.915024952588553 ], [ -73.249081490024608, 42.915041820378917 ], [ -73.249085229975208, 42.914924094412243 ], [ -73.24993182692522, 42.914876786276103 ], [ -73.25021712067192, 42.914548388730687 ], [ -73.25193551377825, 42.913128486827766 ], [ -73.252453218825337, 42.912798556793582 ], [ -73.25203305866124, 42.912654259254005 ], [ -73.251272535374781, 42.912569624655148 ], [ -73.250936575170712, 42.912538939666099 ], [ -73.24996312502131, 42.912292790173112 ], [ -73.24954916262385, 42.912286051224605 ] ] ] ] } },
{ "type": "Feature", "properties": { "OBJECT_ID": 1482, "County": "Bennington", "RPC": "BCRC", "Municipal_Name": "North Bennington ", "GEO_ID": null, "District_Name": "Industrial District", "Abbreviated_District_Name": "I", "District_Type": "Mixed with Residential", "Bylaw_Date": "2023-09-05T00:00:00", "Elderly_Housing_District": "No", "District_Mapped": "Yes", "Overlay_District": "No", "Base_Density": null, "Shape_Length": 4058.7108685946846, "Shape_Area": 144345.75454388311, "F1F_Allowance": "Prohibited", "F1F_Front_Setback": null, "F1F_Side_Setback": null, "F1F_Rear_Setback": null, "F1F_Frontage": 50.0, "F1F_Max_Height": null, "F1F_Max_Stories": null, "F1F_Min_Lot_Size": null, "F1F_Max_Lot_Building_Coverage": null, "F1F_Max_Lot_Impervious_Coverage": null, "F1F_Min_Parking_Spaces": null, "F2F_Allowance": "Permitted", "F2F_Front_Setback": 25.0, "F2F_Side_Setback": 20.0, "F2F_Rear_Setback": 20.0, "F2F_Frontage": 50.0, "F2F_Max_Density": null, "F2F_Max_Height": 30.0, "F2F_Max_Stories": null, "F2F_Min_Lot_Size": 0.92, "F2F_Max_Lot_Building_Coverage": 25.0, "F2F_Max_Lot_Impervious_Coverage": null, "F2F_Min_Parking_Spaces_per_1BR": 1.5, "F2F_Min_Parking_Spaces_per_mult_BR": 1.5, "F2F_Elderly_Housing_Only": "No", "F2F_Affordable_Housing_Only": "No", "F3F_Allowance": "Permitted", "F3F_Front_Setback": 25.0, "F3F_Side_Setback": 20.0, "F3F_Rear_Setback": 20.0, "F3F_Frontage": 50.0, "F3F_Max_Density": null, "F3F_Max_Height": 30.0, "F3F_Max_Stories": null, "F3F_Min_Lot_Size": 0.92, "F3F_Max_Lot_Building_Coverage": 25.0, "F3F_Max_Lot_Impervious_Coverage": null, "F3F_Min_Parking_Spaces_per_1BR": 1.5, "F3F_Min_Parking_Spaces_per_mult_BR": 1.5, "F3F_Affordable_Housing_Only": "No", "F3F_Proximity_to_Public_Transit_Required": "No", "F3F_Connection_to_Sewage/Water_Required": "Yes", "F4F_Allowance": "Public Hearing", "F4F_Front_Setback": 25.0, "F4F_Side_Setback": 20.0, "F4F_Rear_Setback": 20.0, "F4F_Frontage": 50.0, "F4F_Max_Density": null, "F4F_Max_Height": 30.0, "F4F_Max_Stories": null, "F4F_Min_Lot_Size": 0.92, "F4F_Max_Lot_Building_Coverage": 25.0, "F4F_Max_Lot_Impervious_Coverage": null, "F4F_Min_Parking_Spaces_per_1BR": 1.5, "F4F_Min_Parking_Spaces_per_mult_BR": 1.5, "F3F_Elderly_Housing_Only": "No", "F4F_Elderly_Housing_Only": "No", "F4F_Affordable_Housing_Only": "No", "F4F_Proximity_to_Public_Transit_Required": "No", "F4F_Connection_to_Sewage/Water_Required": "Yes", "ADU_Allowance": "Allowed/Conditional", "ADU_Elderly_Housing_Only": "No", "ADU_Max_Size_as_Percent_of_Primary_Strcture": 30.0, "ADU_Max_Size_in_sq_ft": null, "ADU_Min_Lot_Size": null, "ADU_Max_Bedrooms": null, "ADU_Min_Parking_Spaces": 1.0, "ADU_Owner_Occupancy_Required": "No", "ADU_Renter_Occupancy_Prohibited": "No", "ADU_Employee_or_Family_Occupancy_Required": "No", "ADU_Restricted_to_Primary_Structure": "No", "Affordable_Housing_Allowance": "Not Mentioned", "Affordable_Housing_District": "No", "Affordable_Housing_Elderly_Only": "No", "Affordable_Housing_Min_Lot_Size": null, "Affordable_Housing_Max_Density": null, "Affordable_Housing_Min_Parking_Spaces_per_mult_BR": null, "Affordable_Housing_Max_Units_per_Building": null, "Affordable_Housing_Min_Parking_Spaces_per_1BR": null, "PRD_Allowance": "Not Mentioned", "PRD_Max_Density": null, "PRD_Max_Units": null, "PRD_Min_Lot_Size": null, "PRD_Mobile_or_Manufactured_Home_Park": "No", "PUD_Allowance": null, "PUD_Required_with_Subdivision": null, "PUD_Requires_Land_Conservation": null, "PUD_Threshold_Number": null, "Notes": " Info Is For New Residential Developments. " }, "geometry": { "type": "MultiPolygon", "coordinates": [ [ [ [ -73.239664379681017, 42.92955410121106 ], [ -73.238624121412172, 42.930043329983597 ], [ -73.23880210442438, 42.930547614602652 ], [ -73.239853249459614, 42.930234649646266 ], [ -73.239754161887063, 42.929921336430645 ], [ -73.23980780413919, 42.9298852865575 ], [ -73.239664379681017, 42.92955410121106 ] ] ], [ [ [ -73.246912278088999, 42.912229003584017 ], [ -73.246274700131494, 42.912429745113371 ], [ -73.246108150021229, 42.912542306584719 ], [ -73.245782066139029, 42.912563342585486 ], [ -73.245605931725805, 42.912721422621317 ], [ -73.245700278378109, 42.913765485727701 ], [ -73.245759988694346, 42.916272485631055 ], [ -73.245976985441359, 42.916486724575144 ], [ -73.246353778515996, 42.917474057434632 ], [ -73.246707025716859, 42.917756524802527 ], [ -73.246689699398559, 42.918190707781328 ], [ -73.246449536615827, 42.91831744975611 ], [ -73.246560244084037, 42.918792101074843 ], [ -73.246508275569596, 42.919416943788711 ], [ -73.245998097178216, 42.920703296059287 ], [ -73.245568374147069, 42.921260129860016 ], [ -73.245212749019586, 42.921381514265001 ], [ -73.245025764423673, 42.921504230632607 ], [ -73.244663670586718, 42.921912392272674 ], [ -73.244609398238396, 42.922347710662031 ], [ -73.244428991814104, 42.922742539711805 ], [ -73.244407311137238, 42.923138765988277 ], [ -73.244231376248493, 42.923905352069873 ], [ -73.244122877865067, 42.925055434763841 ], [ -73.24423328389733, 42.925066099889179 ], [ -73.244347478118684, 42.925184968001155 ], [ -73.244056143442378, 42.925689668839517 ], [ -73.243934349891902, 42.926150147335633 ], [ -73.243852643078029, 42.926430177424649 ], [ -73.243993553463113, 42.926491071235027 ], [ -73.244184270609992, 42.926132402316497 ], [ -73.244505229454148, 42.925192505607527 ], [ -73.245113994667449, 42.923760597152452 ], [ -73.245248133740105, 42.923703101250766 ], [ -73.24568153256169, 42.92370381842175 ], [ -73.246289423325706, 42.923815560774187 ], [ -73.246529429831597, 42.923582389276845 ], [ -73.246910679961886, 42.922621884844105 ], [ -73.246921937249141, 42.922459003441126 ], [ -73.247723324882685, 42.922560690572993 ], [ -73.247897669407863, 42.921939908304509 ], [ -73.248046035715703, 42.920816613425636 ], [ -73.246983576176177, 42.920550798857271 ], [ -73.247078678682627, 42.92037167544953 ], [ -73.246505226140528, 42.920334718985991 ], [ -73.246566166442847, 42.919998125617553 ], [ -73.24677412062492, 42.919474779800765 ], [ -73.246856860946224, 42.918949928972793 ], [ -73.246939454662382, 42.91881164236851 ], [ -73.247013418245871, 42.917560438879221 ], [ -73.246877840952479, 42.917497622583475 ], [ -73.246898372930318, 42.917403707883672 ], [ -73.246657788612723, 42.916619639561496 ], [ -73.246704901887014, 42.916334450450073 ], [ -73.246586604858564, 42.916306911092775 ], [ -73.246611398717747, 42.915568886274961 ], [ -73.246464148038896, 42.913940178716935 ], [ -73.246513522863495, 42.913842536405248 ], [ -73.246976919670928, 42.913542245031529 ], [ -73.247131272406662, 42.913286594940637 ], [ -73.247149765279715, 42.913218773718285 ], [ -73.247265322154931, 42.912963430648482 ], [ -73.247186089812814, 42.912534715996465 ], [ -73.246940490992998, 42.912520767094151 ], [ -73.246912278088999, 42.912229003584017 ] ] ] ] } },
{ "type": "Feature", "properties": { "OBJECT_ID": 1485, "County": "Bennington", "RPC": "BCRC", "Municipal_Name": "North Bennington ", "GEO_ID": null, "District_Name": "Village Residential-Professional District", "Abbreviated_District_Name": "Vrp", "District_Type": "Mixed with Residential", "Bylaw_Date": "2023-09-05T00:00:00", "Elderly_Housing_District": "No", "District_Mapped": "Yes", "Overlay_District": "No", "Base_Density": null, "Shape_Length": 2949.5855614301599, "Shape_Area": 81768.017992991154, "F1F_Allowance": "Permitted", "F1F_Front_Setback": 30.0, "F1F_Side_Setback": 15.0, "F1F_Rear_Setback": 40.0, "F1F_Frontage": 50.0, "F1F_Max_Height": 30.0, "F1F_Max_Stories": null, "F1F_Min_Lot_Size": 0.46, "F1F_Max_Lot_Building_Coverage": 20.0, "F1F_Max_Lot_Impervious_Coverage": null, "F1F_Min_Parking_Spaces": 2.0, "F2F_Allowance": "Permitted", "F2F_Front_Setback": 30.0, "F2F_Side_Setback": 15.0, "F2F_Rear_Setback": 40.0, "F2F_Frontage": 50.0, "F2F_Max_Density": null, "F2F_Max_Height": 30.0, "F2F_Max_Stories": null, "F2F_Min_Lot_Size": 0.46, "F2F_Max_Lot_Building_Coverage": 20.0, "F2F_Max_Lot_Impervious_Coverage": null, "F2F_Min_Parking_Spaces_per_1BR": 2.0, "F2F_Min_Parking_Spaces_per_mult_BR": 2.0, "F2F_Elderly_Housing_Only": "No", "F2F_Affordable_Housing_Only": "No", "F3F_Allowance": "Public Hearing", "F3F_Front_Setback": 30.0, "F3F_Side_Setback": 15.0, "F3F_Rear_Setback": 40.0, "F3F_Frontage": 50.0, "F3F_Max_Density": null, "F3F_Max_Height": 30.0, "F3F_Max_Stories": null, "F3F_Min_Lot_Size": 0.46, "F3F_Max_Lot_Building_Coverage": 20.0, "F3F_Max_Lot_Impervious_Coverage": null, "F3F_Min_Parking_Spaces_per_1BR": 2.0, "F3F_Min_Parking_Spaces_per_mult_BR": 2.0, "F3F_Affordable_Housing_Only": "No", "F3F_Proximity_to_Public_Transit_Required": "No", "F3F_Connection_to_Sewage/Water_Required": "Yes", "F4F_Allowance": "Public Hearing", "F4F_Front_Setback": 30.0, "F4F_Side_Setback": 15.0, "F4F_Rear_Setback": 40.0, "F4F_Frontage": 50.0, "F4F_Max_Density": null, "F4F_Max_Height": 30.0, "F4F_Max_Stories": null, "F4F_Min_Lot_Size": 0.46, "F4F_Max_Lot_Building_Coverage": 20.0, "F4F_Max_Lot_Impervious_Coverage": null, "F4F_Min_Parking_Spaces_per_1BR": 2.0, "F4F_Min_Parking_Spaces_per_mult_BR": 2.0, "F3F_Elderly_Housing_Only": "No", "F4F_Elderly_Housing_Only": "No", "F4F_Affordable_Housing_Only": "No", "F4F_Proximity_to_Public_Transit_Required": "No", "F4F_Connection_to_Sewage/Water_Required": "Yes", "ADU_Allowance": "Allowed/Conditional", "ADU_Elderly_Housing_Only": "No", "ADU_Max_Size_as_Percent_of_Primary_Strcture": 30.0, "ADU_Max_Size_in_sq_ft": null, "ADU_Min_Lot_Size": null, "ADU_Max_Bedrooms": null, "ADU_Min_Parking_Spaces": 1.0, "ADU_Owner_Occupancy_Required": "No", "ADU_Renter_Occupancy_Prohibited": "No", "ADU_Employee_or_Family_Occupancy_Required": "No", "ADU_Restricted_to_Primary_Structure": "No", "Affordable_Housing_Allowance": "Not Mentioned", "Affordable_Housing_District": "No", "Affordable_Housing_Elderly_Only": "No", "Affordable_Housing_Min_Lot_Size": null, "Affordable_Housing_Max_Density": null, "Affordable_Housing_Min_Parking_Spaces_per_mult_BR": null, "Affordable_Housing_Max_Units_per_Building": null, "Affordable_Housing_Min_Parking_Spaces_per_1BR": null, "PRD_Allowance": "Not Mentioned", "PRD_Max_Density": null, "PRD_Max_Units": null, "PRD_Min_Lot_Size": null, "PRD_Mobile_or_Manufactured_Home_Park": "No", "PUD_Allowance": null, "PUD_Required_with_Subdivision": null, "PUD_Requires_Land_Conservation": null, "PUD_Threshold_Number": null, "Notes": "None" }, "geometry": { "type": "MultiPolygon", "coordinates": [ [ [ [ -73.245248133740105, 42.923703101250766 ], [ -73.245113994667449, 42.923760597152452 ], [ -73.244505229454148, 42.925192505607527 ], [ -73.244184270609992, 42.926132402316497 ], [ -73.243993553463113, 42.926491071235027 ], [ -73.243852643078029, 42.926430177424649 ], [ -73.243354683876362, 42.927279180236901 ], [ -73.243375684273872, 42.927630372450245 ], [ -73.243247522734649, 42.927925361451216 ], [ -73.243546795906155, 42.928115094721157 ], [ -73.244004623781791, 42.928174746895543 ], [ -73.244203922102244, 42.927782507409432 ], [ -73.24391614262268, 42.927689486556638 ], [ -73.244481868284481, 42.926447144987854 ], [ -73.244713478143325, 42.925944457433566 ], [ -73.245479792393837, 42.924796622309856 ], [ -73.245737355610046, 42.924305153608316 ], [ -73.246289423325706, 42.923815560774187 ], [ -73.24568153256169, 42.92370381842175 ], [ -73.245248133740105, 42.923703101250766 ] ] ], [ [ [ -73.247013418245871, 42.917560438879221 ], [ -73.246939454662382, 42.91881164236851 ], [ -73.246856860946224, 42.918949928972793 ], [ -73.24677412062492, 42.919474779800765 ], [ -73.246566166442847, 42.919998125617553 ], [ -73.246505226140528, 42.920334718985991 ], [ -73.247078678682627, 42.92037167544953 ], [ -73.24721570609033, 42.919923107659308 ], [ -73.247388906520172, 42.919939056247841 ], [ -73.247976782872229, 42.917946328891077 ], [ -73.247558009115082, 42.917907312763582 ], [ -73.247480487981107, 42.917579557156564 ], [ -73.247013418245871, 42.917560438879221 ] ] ], [ [ [ -73.247131272406662, 42.913286594940637 ], [ -73.246976919670928, 42.913542245031529 ], [ -73.246513522863495, 42.913842536405248 ], [ -73.246464148038896, 42.913940178716935 ], [ -73.246611398717747, 42.915568886274961 ], [ -73.246586604858564, 42.916306911092775 ], [ -73.246704901887014, 42.916334450450073 ], [ -73.247773673059442, 42.916345193300501 ], [ -73.248209213011492, 42.916335718437821 ], [ -73.248478775370614, 42.915607456249383 ], [ -73.248264037262672, 42.915531761617281 ], [ -73.248411159855877, 42.915020768171779 ], [ -73.24817650411272, 42.914965961036117 ], [ -73.248198483640323, 42.91478196820416 ], [ -73.246993048289838, 42.914517032814928 ], [ -73.247190485310043, 42.914162872911049 ], [ -73.247310860391025, 42.914108711340518 ], [ -73.247371140946882, 42.913755446397793 ], [ -73.247552868177877, 42.913436971965908 ], [ -73.247131272406662, 42.913286594940637 ] ] ] ] } },
{ "type": "Feature", "properties": { "OBJECT_ID": 1480, "County": "Bennington", "RPC": "BCRC", "Municipal_Name": "North Bennington ", "GEO_ID": null, "District_Name": "Educational Campus District", "Abbreviated_District_Name": "Ec", "District_Type": "Mixed with Residential", "Bylaw_Date": "2023-09-05T00:00:00", "Elderly_Housing_District": "No", "District_Mapped": "Yes", "Overlay_District": "No", "Base_Density": null, "Shape_Length": 4266.9672565124065, "Shape_Area": 919410.65533094632, "F1F_Allowance": "Permitted", "F1F_Front_Setback": null, "F1F_Side_Setback": null, "F1F_Rear_Setback": null, "F1F_Frontage": 50.0, "F1F_Max_Height": null, "F1F_Max_Stories": null, "F1F_Min_Lot_Size": null, "F1F_Max_Lot_Building_Coverage": null, "F1F_Max_Lot_Impervious_Coverage": null, "F1F_Min_Parking_Spaces": null, "F2F_Allowance": "Permitted", "F2F_Front_Setback": null, "F2F_Side_Setback": null, "F2F_Rear_Setback": null, "F2F_Frontage": 50.0, "F2F_Max_Density": null, "F2F_Max_Height": null, "F2F_Max_Stories": null, "F2F_Min_Lot_Size": null, "F2F_Max_Lot_Building_Coverage": null, "F2F_Max_Lot_Impervious_Coverage": null, "F2F_Min_Parking_Spaces_per_1BR": null, "F2F_Min_Parking_Spaces_per_mult_BR": null, "F2F_Elderly_Housing_Only": "No", "F2F_Affordable_Housing_Only": "No", "F3F_Allowance": "Permitted", "F3F_Front_Setback": null, "F3F_Side_Setback": null, "F3F_Rear_Setback": null, "F3F_Frontage": 50.0, "F3F_Max_Density": null, "F3F_Max_Height": null, "F3F_Max_Stories": null, "F3F_Min_Lot_Size": null, "F3F_Max_Lot_Building_Coverage": null, "F3F_Max_Lot_Impervious_Coverage": null, "F3F_Min_Parking_Spaces_per_1BR": null, "F3F_Min_Parking_Spaces_per_mult_BR": null, "F3F_Affordable_Housing_Only": "No", "F3F_Proximity_to_Public_Transit_Required": "No", "F3F_Connection_to_Sewage/Water_Required": "No", "F4F_Allowance": "Public Hearing", "F4F_Front_Setback": null, "F4F_Side_Setback": null, "F4F_Rear_Setback": null, "F4F_Frontage": 50.0, "F4F_Max_Density": null, "F4F_Max_Height": null, "F4F_Max_Stories": null, "F4F_Min_Lot_Size": null, "F4F_Max_Lot_Building_Coverage": null, "F4F_Max_Lot_Impervious_Coverage": null, "F4F_Min_Parking_Spaces_per_1BR": null, "F4F_Min_Parking_Spaces_per_mult_BR": null, "F3F_Elderly_Housing_Only": "No", "F4F_Elderly_Housing_Only": "No", "F4F_Affordable_Housing_Only": "No", "F4F_Proximity_to_Public_Transit_Required": "No", "F4F_Connection_to_Sewage/Water_Required": "No", "ADU_Allowance": "Allowed/Conditional", "ADU_Elderly_Housing_Only": "No", "ADU_Max_Size_as_Percent_of_Primary_Strcture": 30.0, "ADU_Max_Size_in_sq_ft": null, "ADU_Min_Lot_Size": null, "ADU_Max_Bedrooms": null, "ADU_Min_Parking_Spaces": 1.0, "ADU_Owner_Occupancy_Required": "No", "ADU_Renter_Occupancy_Prohibited": "No", "ADU_Employee_or_Family_Occupancy_Required": "No", "ADU_Restricted_to_Primary_Structure": "No", "Affordable_Housing_Allowance": "Not Mentioned", "Affordable_Housing_District": "No", "Affordable_Housing_Elderly_Only": "No", "Affordable_Housing_Min_Lot_Size": null, "Affordable_Housing_Max_Density": null, "Affordable_Housing_Min_Parking_Spaces_per_mult_BR": null, "Affordable_Housing_Max_Units_per_Building": null, "Affordable_Housing_Min_Parking_Spaces_per_1BR": null, "PRD_Allowance": "Not Mentioned", "PRD_Max_Density": null, "PRD_Max_Units": null, "PRD_Min_Lot_Size": null, "PRD_Mobile_or_Manufactured_Home_Park": "No", "PUD_Allowance": null, "PUD_Required_with_Subdivision": null, "PUD_Requires_Land_Conservation": null, "PUD_Threshold_Number": null, "Notes": " Dwellings Permitted For Use Only By Faculty, Employees And Guests Of The College.\r\nConstruction Only Allowed By Bennington College; Dimensional Standards Do not Exist, As All Construction Is Approved First By Bennington College Master Plan, Then Development Review Board. " }, "geometry": { "type": "MultiPolygon", "coordinates": [ [ [ [ -73.23542341800885, 42.92673487617877 ], [ -73.236502755792074, 42.926849435165934 ], [ -73.237253253905052, 42.926839743950261 ], [ -73.238780146581675, 42.926496994418592 ], [ -73.239379628872939, 42.926855189094134 ], [ -73.239513563326028, 42.926718246231694 ], [ -73.239456598621501, 42.926655434584269 ], [ -73.239660491873394, 42.926561777906194 ], [ -73.240547502461283, 42.92580275195207 ], [ -73.242829553564405, 42.926118441908073 ], [ -73.243145843342901, 42.925197858598558 ], [ -73.243792418862142, 42.925346748708129 ], [ -73.244122877865067, 42.925055434763841 ], [ -73.244231376248493, 42.923905352069873 ], [ -73.244407311137238, 42.923138765988277 ], [ -73.244428991814104, 42.922742539711805 ], [ -73.244609398238396, 42.922347710662031 ], [ -73.244663670586718, 42.921912392272674 ], [ -73.245025764423673, 42.921504230632607 ], [ -73.245212749019586, 42.921381514265001 ], [ -73.245568374147069, 42.921260129860016 ], [ -73.245998097178216, 42.920703296059287 ], [ -73.246508275569596, 42.919416943788711 ], [ -73.246560244084037, 42.918792101074843 ], [ -73.246449536615827, 42.91831744975611 ], [ -73.246427706359526, 42.918258940327931 ], [ -73.246082077604655, 42.918379844607742 ], [ -73.245895295542212, 42.918286141438713 ], [ -73.245788795767652, 42.91815631880835 ], [ -73.245723785301351, 42.917450767716886 ], [ -73.245319301983599, 42.917376278288138 ], [ -73.2454373838994, 42.918467100450229 ], [ -73.245065251217738, 42.918398332618118 ], [ -73.245117382341547, 42.917365728283002 ], [ -73.241937137291188, 42.916809981937206 ], [ -73.23489979320685, 42.920036100704522 ], [ -73.232101604202924, 42.919338240146338 ], [ -73.231893567120721, 42.920172269883302 ], [ -73.231672005644199, 42.921845509432998 ], [ -73.232166251345419, 42.923655109931772 ], [ -73.232634750677605, 42.92468485097735 ], [ -73.232826320340152, 42.924946061839556 ], [ -73.233224066660824, 42.925305581092807 ], [ -73.234001107257839, 42.925861924897717 ], [ -73.23542341800885, 42.92673487617877 ] ] ] ] } },
{ "type": "Feature", "properties": { "OBJECT_ID": 1490, "County": "Bennington", "RPC": "BCRC", "Municipal_Name": "North Bennington ", "GEO_ID": null, "District_Name": "Village Residential 40", "Abbreviated_District_Name": "Vr-40", "District_Type": "Primarily Residential", "Bylaw_Date": "2024-04-26T00:00:00", "Elderly_Housing_District": "No", "District_Mapped": "Yes", "Overlay_District": "No", "Base_Density": null, "Shape_Length": 6399.7810745260786, "Shape_Area": 1142795.8488449627, "F1F_Allowance": "Permitted", "F1F_Front_Setback": 40.0, "F1F_Side_Setback": 25.0, "F1F_Rear_Setback": 40.0, "F1F_Frontage": 50.0, "F1F_Max_Height": 30.0, "F1F_Max_Stories": null, "F1F_Min_Lot_Size": 0.92, "F1F_Max_Lot_Building_Coverage": 10.0, "F1F_Max_Lot_Impervious_Coverage": null, "F1F_Min_Parking_Spaces": 2.0, "F2F_Allowance": "Permitted", "F2F_Front_Setback": 40.0, "F2F_Side_Setback": 25.0, "F2F_Rear_Setback": 40.0, "F2F_Frontage": 50.0, "F2F_Max_Density": null, "F2F_Max_Height": 30.0, "F2F_Max_Stories": null, "F2F_Min_Lot_Size": 0.92, "F2F_Max_Lot_Building_Coverage": 10.0, "F2F_Max_Lot_Impervious_Coverage": null, "F2F_Min_Parking_Spaces_per_1BR": 2.0, "F2F_Min_Parking_Spaces_per_mult_BR": 2.0, "F2F_Elderly_Housing_Only": "No", "F2F_Affordable_Housing_Only": "No", "F3F_Allowance": "Public Hearing", "F3F_Front_Setback": 40.0, "F3F_Side_Setback": 25.0, "F3F_Rear_Setback": 40.0, "F3F_Frontage": 50.0, "F3F_Max_Density": null, "F3F_Max_Height": 30.0, "F3F_Max_Stories": null, "F3F_Min_Lot_Size": 0.92, "F3F_Max_Lot_Building_Coverage": 10.0, "F3F_Max_Lot_Impervious_Coverage": null, "F3F_Min_Parking_Spaces_per_1BR": 2.0, "F3F_Min_Parking_Spaces_per_mult_BR": 2.0, "F3F_Affordable_Housing_Only": "No", "F3F_Proximity_to_Public_Transit_Required": "No", "F3F_Connection_to_Sewage/Water_Required": "No", "F4F_Allowance": "Public Hearing", "F4F_Front_Setback": 40.0, "F4F_Side_Setback": 25.0, "F4F_Rear_Setback": 40.0, "F4F_Frontage": 50.0, "F4F_Max_Density": null, "F4F_Max_Height": 30.0, "F4F_Max_Stories": null, "F4F_Min_Lot_Size": 0.92, "F4F_Max_Lot_Building_Coverage": 10.0, "F4F_Max_Lot_Impervious_Coverage": null, "F4F_Min_Parking_Spaces_per_1BR": 2.0, "F4F_Min_Parking_Spaces_per_mult_BR": 2.0, "F3F_Elderly_Housing_Only": "No", "F4F_Elderly_Housing_Only": "No", "F4F_Affordable_Housing_Only": "No", "F4F_Proximity_to_Public_Transit_Required": "No", "F4F_Connection_to_Sewage/Water_Required": "No", "ADU_Allowance": "Allowed/Conditional", "ADU_Elderly_Housing_Only": "No", "ADU_Max_Size_as_Percent_of_Primary_Strcture": 30.0, "ADU_Max_Size_in_sq_ft": null, "ADU_Min_Lot_Size": null, "ADU_Max_Bedrooms": null, "ADU_Min_Parking_Spaces": 1.0, "ADU_Owner_Occupancy_Required": "No", "ADU_Renter_Occupancy_Prohibited": "No", "ADU_Employee_or_Family_Occupancy_Required": "No", "ADU_Restricted_to_Primary_Structure": "No", "Affordable_Housing_Allowance": "Not Mentioned", "Affordable_Housing_District": "No", "Affordable_Housing_Elderly_Only": "No", "Affordable_Housing_Min_Lot_Size": null, "Affordable_Housing_Max_Density": null, "Affordable_Housing_Min_Parking_Spaces_per_mult_BR": null, "Affordable_Housing_Max_Units_per_Building": null, "Affordable_Housing_Min_Parking_Spaces_per_1BR": null, "PRD_Allowance": "Not Mentioned", "PRD_Max_Density": null, "PRD_Max_Units": null, "PRD_Min_Lot_Size": null, "PRD_Mobile_or_Manufactured_Home_Park": "No", "PUD_Allowance": null, "PUD_Required_with_Subdivision": null, "PUD_Requires_Land_Conservation": null, "PUD_Threshold_Number": null, "Notes": "None" }, "geometry": { "type": "MultiPolygon", "coordinates": [ [ [ [ -73.245972324355108, 42.930565967780446 ], [ -73.245901919601181, 42.931085353448161 ], [ -73.246346712014017, 42.931159551634401 ], [ -73.246171691817821, 42.932038420207718 ], [ -73.247828349386509, 42.932546536070376 ], [ -73.248766548269941, 42.933041538414322 ], [ -73.249116510329998, 42.933299344873404 ], [ -73.250376685655411, 42.932498921031382 ], [ -73.250452280364016, 42.930662720628447 ], [ -73.245972324355108, 42.930565967780446 ] ] ], [ [ [ -73.244481868284481, 42.926447144987854 ], [ -73.24391614262268, 42.927689486556638 ], [ -73.244203922102244, 42.927782507409432 ], [ -73.245516242478104, 42.927945567237508 ], [ -73.245685754874899, 42.927308784414294 ], [ -73.245978299582944, 42.926718367578118 ], [ -73.244481868284481, 42.926447144987854 ] ] ], [ [ [ -73.22788824484995, 42.918329996971885 ], [ -73.227447148774857, 42.919128940247148 ], [ -73.225030683692836, 42.918920524238587 ], [ -73.219859424053226, 42.918665838631121 ], [ -73.220115536278882, 42.92011641477788 ], [ -73.22167524092788, 42.923372653706501 ], [ -73.222425302602929, 42.924903926629732 ], [ -73.222440394007961, 42.924934564697253 ], [ -73.222452905760505, 42.924959963747312 ], [ -73.22291082152816, 42.925894556165019 ], [ -73.223219383769091, 42.926519790270028 ], [ -73.223997305026501, 42.928044737589346 ], [ -73.224279215951597, 42.928450816450741 ], [ -73.224662109083113, 42.928849714602777 ], [ -73.224753751586576, 42.928929862298922 ], [ -73.224823034819835, 42.928989681245959 ], [ -73.225522003443899, 42.929510230660618 ], [ -73.226384839927533, 42.929995993425734 ], [ -73.227783750488115, 42.930505609292851 ], [ -73.228117775398161, 42.930432681851379 ], [ -73.228628852114028, 42.930414314859604 ], [ -73.228944822832318, 42.930546178086558 ], [ -73.22957667421619, 42.930552948687158 ], [ -73.229900299013153, 42.930819031435341 ], [ -73.231033783445866, 42.930873594404012 ], [ -73.231171593057496, 42.929911499343397 ], [ -73.231668953730576, 42.92822314537564 ], [ -73.231683801388968, 42.927021861430255 ], [ -73.235250496596976, 42.927798370765132 ], [ -73.23542341800885, 42.92673487617877 ], [ -73.234001107257839, 42.925861924897717 ], [ -73.233224066660824, 42.925305581092807 ], [ -73.232826320340152, 42.924946061839556 ], [ -73.232634750677605, 42.92468485097735 ], [ -73.232166251345419, 42.923655109931772 ], [ -73.231672005644199, 42.921845509432998 ], [ -73.231893567120721, 42.920172269883302 ], [ -73.232101604202924, 42.919338240146338 ], [ -73.230081178500555, 42.918798406297682 ], [ -73.22788824484995, 42.918329996971885 ] ] ] ] } },
{ "type": "Feature", "properties": { "OBJECT_ID": 1481, "County": "Bennington", "RPC": "BCRC", "Municipal_Name": "North Bennington ", "GEO_ID": null, "District_Name": "Flood Hazard Area", "Abbreviated_District_Name": "Fha", "District_Type": "Overlay not Affecting Use", "Bylaw_Date": "2023-09-05T00:00:00", "Elderly_Housing_District": "No", "District_Mapped": "Yes", "Overlay_District": "Yes", "Base_Density": null, "Shape_Length": 2268.7575462971213, "Shape_Area": 57305.370100699314, "F1F_Allowance": "Overlay", "F1F_Front_Setback": null, "F1F_Side_Setback": null, "F1F_Rear_Setback": null, "F1F_Frontage": null, "F1F_Max_Height": null, "F1F_Max_Stories": null, "F1F_Min_Lot_Size": null, "F1F_Max_Lot_Building_Coverage": null, "F1F_Max_Lot_Impervious_Coverage": null, "F1F_Min_Parking_Spaces": null, "F2F_Allowance": "Overlay", "F2F_Front_Setback": null, "F2F_Side_Setback": null, "F2F_Rear_Setback": null, "F2F_Frontage": null, "F2F_Max_Density": null, "F2F_Max_Height": null, "F2F_Max_Stories": null, "F2F_Min_Lot_Size": null, "F2F_Max_Lot_Building_Coverage": null, "F2F_Max_Lot_Impervious_Coverage": null, "F2F_Min_Parking_Spaces_per_1BR": null, "F2F_Min_Parking_Spaces_per_mult_BR": null, "F2F_Elderly_Housing_Only": "No", "F2F_Affordable_Housing_Only": "No", "F3F_Allowance": "Overlay", "F3F_Front_Setback": null, "F3F_Side_Setback": null, "F3F_Rear_Setback": null, "F3F_Frontage": null, "F3F_Max_Density": null, "F3F_Max_Height": null, "F3F_Max_Stories": null, "F3F_Min_Lot_Size": null, "F3F_Max_Lot_Building_Coverage": null, "F3F_Max_Lot_Impervious_Coverage": null, "F3F_Min_Parking_Spaces_per_1BR": null, "F3F_Min_Parking_Spaces_per_mult_BR": null, "F3F_Affordable_Housing_Only": "No", "F3F_Proximity_to_Public_Transit_Required": "No", "F3F_Connection_to_Sewage/Water_Required": "No", "F4F_Allowance": "Overlay", "F4F_Front_Setback": null, "F4F_Side_Setback": null, "F4F_Rear_Setback": null, "F4F_Frontage": null, "F4F_Max_Density": null, "F4F_Max_Height": null, "F4F_Max_Stories": null, "F4F_Min_Lot_Size": null, "F4F_Max_Lot_Building_Coverage": null, "F4F_Max_Lot_Impervious_Coverage": null, "F4F_Min_Parking_Spaces_per_1BR": null, "F4F_Min_Parking_Spaces_per_mult_BR": null, "F3F_Elderly_Housing_Only": "No", "F4F_Elderly_Housing_Only": "No", "F4F_Affordable_Housing_Only": "No", "F4F_Proximity_to_Public_Transit_Required": "No", "F4F_Connection_to_Sewage/Water_Required": "No", "ADU_Allowance": "Not Mentioned", "ADU_Elderly_Housing_Only": "No", "ADU_Max_Size_as_Percent_of_Primary_Strcture": null, "ADU_Max_Size_in_sq_ft": null, "ADU_Min_Lot_Size": null, "ADU_Max_Bedrooms": null, "ADU_Min_Parking_Spaces": null, "ADU_Owner_Occupancy_Required": "No", "ADU_Renter_Occupancy_Prohibited": "No", "ADU_Employee_or_Family_Occupancy_Required": "No", "ADU_Restricted_to_Primary_Structure": "No", "Affordable_Housing_Allowance": "Not Mentioned", "Affordable_Housing_District": "No", "Affordable_Housing_Elderly_Only": "No", "Affordable_Housing_Min_Lot_Size": null, "Affordable_Housing_Max_Density": null, "Affordable_Housing_Min_Parking_Spaces_per_mult_BR": null, "Affordable_Housing_Max_Units_per_Building": null, "Affordable_Housing_Min_Parking_Spaces_per_1BR": null, "PRD_Allowance": "Not Mentioned", "PRD_Max_Density": null, "PRD_Max_Units": null, "PRD_Min_Lot_Size": null, "PRD_Mobile_or_Manufactured_Home_Park": "No", "PUD_Allowance": null, "PUD_Required_with_Subdivision": null, "PUD_Requires_Land_Conservation": null, "PUD_Threshold_Number": null, "Notes": " All Permitted/Conditional Uses From The Base District Beneath This Overlay Are Public Hearing. " }, "geometry": { "type": "MultiPolygon", "coordinates": [ [ [ [ -73.246912278088999, 42.912229003584017 ], [ -73.246274700131494, 42.912429745113371 ], [ -73.246108150021229, 42.912542306584719 ], [ -73.245782066139029, 42.912563342585486 ], [ -73.245605931725805, 42.912721422621317 ], [ -73.243637361085348, 42.913480048627576 ], [ -73.24345333247598, 42.913603668764097 ], [ -73.242025663412022, 42.913820955580562 ], [ -73.242024562957681, 42.913862955637057 ], [ -73.242023817155584, 42.913891438854918 ], [ -73.242162562495423, 42.913942854821663 ], [ -73.243748424549295, 42.913764949917201 ], [ -73.244362910065192, 42.913609131846037 ], [ -73.245264531626475, 42.913192869366377 ], [ -73.2454774578637, 42.913310243123149 ], [ -73.245563895925258, 42.913657322441793 ], [ -73.245700278378109, 42.913765485727701 ], [ -73.24574482427964, 42.913800815126294 ], [ -73.245873837388245, 42.913780541320797 ], [ -73.246620218879315, 42.913311432041631 ], [ -73.247104450115685, 42.913271565800088 ], [ -73.247149765279715, 42.913218773718285 ], [ -73.247344890600289, 42.91299145081782 ], [ -73.247646529291302, 42.912913906710877 ], [ -73.248204621881399, 42.912666262327797 ], [ -73.249575237628719, 42.912320449559317 ], [ -73.24996312502131, 42.912292790173112 ], [ -73.250341839832672, 42.912311109149833 ], [ -73.251272535374781, 42.912569624655148 ], [ -73.25203305866124, 42.912654259254005 ], [ -73.252749049902164, 42.912660222439584 ], [ -73.253977097823793, 42.912911252897501 ], [ -73.254260841246563, 42.912812216395132 ], [ -73.254630773151092, 42.912522668450883 ], [ -73.254308523722884, 42.912538332033428 ], [ -73.253728983663223, 42.912317207329991 ], [ -73.253398563112583, 42.912315400867541 ], [ -73.253002108647237, 42.912228430638173 ], [ -73.252671784245891, 42.912234585418823 ], [ -73.252358009749841, 42.912154035873755 ], [ -73.251350997815592, 42.912078037567269 ], [ -73.251075365651658, 42.912016146227991 ], [ -73.249762080960096, 42.911919251167944 ], [ -73.249578748263588, 42.911987138688531 ], [ -73.246912278088999, 42.912229003584017 ] ] ] ] } },
{ "type": "Feature", "properties": { "OBJECT_ID": 1489, "County": "Bennington", "RPC": "BCRC", "Municipal_Name": "North Bennington ", "GEO_ID": null, "District_Name": "Village Residential 3", "Abbreviated_District_Name": "Vr-3", "District_Type": "Primarily Residential", "Bylaw_Date": "2024-04-26T00:00:00", "Elderly_Housing_District": "No", "District_Mapped": "Yes", "Overlay_District": "No", "Base_Density": null, "Shape_Length": 467.39923765256083, "Shape_Area": 12915.214281805054, "F1F_Allowance": "Permitted", "F1F_Front_Setback": 10.0, "F1F_Side_Setback": 10.0, "F1F_Rear_Setback": 10.0, "F1F_Frontage": 50.0, "F1F_Max_Height": 30.0, "F1F_Max_Stories": null, "F1F_Min_Lot_Size": 0.07, "F1F_Max_Lot_Building_Coverage": 35.0, "F1F_Max_Lot_Impervious_Coverage": null, "F1F_Min_Parking_Spaces": 2.0, "F2F_Allowance": "Permitted", "F2F_Front_Setback": 10.0, "F2F_Side_Setback": 10.0, "F2F_Rear_Setback": 10.0, "F2F_Frontage": 50.0, "F2F_Max_Density": null, "F2F_Max_Height": 30.0, "F2F_Max_Stories": null, "F2F_Min_Lot_Size": 0.07, "F2F_Max_Lot_Building_Coverage": 35.0, "F2F_Max_Lot_Impervious_Coverage": null, "F2F_Min_Parking_Spaces_per_1BR": 2.0, "F2F_Min_Parking_Spaces_per_mult_BR": 2.0, "F2F_Elderly_Housing_Only": "No", "F2F_Affordable_Housing_Only": "No", "F3F_Allowance": "Public Hearing", "F3F_Front_Setback": 10.0, "F3F_Side_Setback": 10.0, "F3F_Rear_Setback": 10.0, "F3F_Frontage": 50.0, "F3F_Max_Density": null, "F3F_Max_Height": 30.0, "F3F_Max_Stories": null, "F3F_Min_Lot_Size": 0.07, "F3F_Max_Lot_Building_Coverage": 35.0, "F3F_Max_Lot_Impervious_Coverage": null, "F3F_Min_Parking_Spaces_per_1BR": 2.0, "F3F_Min_Parking_Spaces_per_mult_BR": 2.0, "F3F_Affordable_Housing_Only": "No", "F3F_Proximity_to_Public_Transit_Required": "No", "F3F_Connection_to_Sewage/Water_Required": "Yes", "F4F_Allowance": "Public Hearing", "F4F_Front_Setback": 10.0, "F4F_Side_Setback": 10.0, "F4F_Rear_Setback": 10.0, "F4F_Frontage": 50.0, "F4F_Max_Density": null, "F4F_Max_Height": 30.0, "F4F_Max_Stories": null, "F4F_Min_Lot_Size": 0.07, "F4F_Max_Lot_Building_Coverage": 35.0, "F4F_Max_Lot_Impervious_Coverage": null, "F4F_Min_Parking_Spaces_per_1BR": 2.0, "F4F_Min_Parking_Spaces_per_mult_BR": 2.0, "F3F_Elderly_Housing_Only": "No", "F4F_Elderly_Housing_Only": "No", "F4F_Affordable_Housing_Only": "No", "F4F_Proximity_to_Public_Transit_Required": "No", "F4F_Connection_to_Sewage/Water_Required": "Yes", "ADU_Allowance": "Allowed/Conditional", "ADU_Elderly_Housing_Only": "No", "ADU_Max_Size_as_Percent_of_Primary_Strcture": 30.0, "ADU_Max_Size_in_sq_ft": null, "ADU_Min_Lot_Size": null, "ADU_Max_Bedrooms": null, "ADU_Min_Parking_Spaces": 1.0, "ADU_Owner_Occupancy_Required": "No", "ADU_Renter_Occupancy_Prohibited": "No", "ADU_Employee_or_Family_Occupancy_Required": "No", "ADU_Restricted_to_Primary_Structure": "No", "Affordable_Housing_Allowance": "Not Mentioned", "Affordable_Housing_District": "No", "Affordable_Housing_Elderly_Only": "No", "Affordable_Housing_Min_Lot_Size": null, "Affordable_Housing_Max_Density": null, "Affordable_Housing_Min_Parking_Spaces_per_mult_BR": null, "Affordable_Housing_Max_Units_per_Building": null, "Affordable_Housing_Min_Parking_Spaces_per_1BR": null, "PRD_Allowance": "Not Mentioned", "PRD_Max_Density": null, "PRD_Max_Units": null, "PRD_Min_Lot_Size": null, "PRD_Mobile_or_Manufactured_Home_Park": "No", "PUD_Allowance": null, "PUD_Required_with_Subdivision": null, "PUD_Requires_Land_Conservation": null, "PUD_Threshold_Number": null, "Notes": "None" }, "geometry": { "type": "MultiPolygon", "coordinates": [ [ [ [ -73.247480487981107, 42.917579557156564 ], [ -73.247957049905082, 42.9175923867042 ], [ -73.24807323967056, 42.917149536802839 ], [ -73.247873574016538, 42.917132516276517 ], [ -73.247889945204818, 42.916424605427977 ], [ -73.247773673059442, 42.916345193300501 ], [ -73.246704901887014, 42.916334450450073 ], [ -73.246657788612723, 42.916619639561496 ], [ -73.246898372930318, 42.917403707883672 ], [ -73.246877840952479, 42.917497622583475 ], [ -73.247013418245871, 42.917560438879221 ], [ -73.247480487981107, 42.917579557156564 ] ] ] ] } },
{ "type": "Feature", "properties": { "OBJECT_ID": 1479, "County": "Bennington", "RPC": "BCRC", "Municipal_Name": "North Bennington ", "GEO_ID": null, "District_Name": "Conservation", "Abbreviated_District_Name": "Cons", "District_Type": "Primarily Residential", "Bylaw_Date": "2024-04-26T00:00:00", "Elderly_Housing_District": "No", "District_Mapped": "Yes", "Overlay_District": "No", "Base_Density": null, "Shape_Length": 6376.5466874670892, "Shape_Area": 1100491.7334051386, "F1F_Allowance": "Permitted", "F1F_Front_Setback": 40.0, "F1F_Side_Setback": 25.0, "F1F_Rear_Setback": 40.0, "F1F_Frontage": 50.0, "F1F_Max_Height": 30.0, "F1F_Max_Stories": null, "F1F_Min_Lot_Size": 4.59, "F1F_Max_Lot_Building_Coverage": 5.0, "F1F_Max_Lot_Impervious_Coverage": null, "F1F_Min_Parking_Spaces": 2.0, "F2F_Allowance": "Permitted", "F2F_Front_Setback": 40.0, "F2F_Side_Setback": 25.0, "F2F_Rear_Setback": 40.0, "F2F_Frontage": 50.0, "F2F_Max_Density": null, "F2F_Max_Height": 30.0, "F2F_Max_Stories": null, "F2F_Min_Lot_Size": 4.59, "F2F_Max_Lot_Building_Coverage": 5.0, "F2F_Max_Lot_Impervious_Coverage": null, "F2F_Min_Parking_Spaces_per_1BR": 2.0, "F2F_Min_Parking_Spaces_per_mult_BR": 4.0, "F2F_Elderly_Housing_Only": "No", "F2F_Affordable_Housing_Only": "No", "F3F_Allowance": "Prohibited", "F3F_Front_Setback": null, "F3F_Side_Setback": null, "F3F_Rear_Setback": null, "F3F_Frontage": 50.0, "F3F_Max_Density": null, "F3F_Max_Height": null, "F3F_Max_Stories": null, "F3F_Min_Lot_Size": null, "F3F_Max_Lot_Building_Coverage": null, "F3F_Max_Lot_Impervious_Coverage": null, "F3F_Min_Parking_Spaces_per_1BR": null, "F3F_Min_Parking_Spaces_per_mult_BR": null, "F3F_Affordable_Housing_Only": "No", "F3F_Proximity_to_Public_Transit_Required": "No", "F3F_Connection_to_Sewage/Water_Required": "No", "F4F_Allowance": "Prohibited", "F4F_Front_Setback": null, "F4F_Side_Setback": null, "F4F_Rear_Setback": null, "F4F_Frontage": 50.0, "F4F_Max_Density": null, "F4F_Max_Height": null, "F4F_Max_Stories": null, "F4F_Min_Lot_Size": null, "F4F_Max_Lot_Building_Coverage": null, "F4F_Max_Lot_Impervious_Coverage": null, "F4F_Min_Parking_Spaces_per_1BR": null, "F4F_Min_Parking_Spaces_per_mult_BR": null, "F3F_Elderly_Housing_Only": "No", "F4F_Elderly_Housing_Only": "No", "F4F_Affordable_Housing_Only": "No", "F4F_Proximity_to_Public_Transit_Required": "No", "F4F_Connection_to_Sewage/Water_Required": "No", "ADU_Allowance": "Allowed/Conditional", "ADU_Elderly_Housing_Only": "No", "ADU_Max_Size_as_Percent_of_Primary_Strcture": 30.0, "ADU_Max_Size_in_sq_ft": null, "ADU_Min_Lot_Size": null, "ADU_Max_Bedrooms": null, "ADU_Min_Parking_Spaces": 1.0, "ADU_Owner_Occupancy_Required": "No", "ADU_Renter_Occupancy_Prohibited": "No", "ADU_Employee_or_Family_Occupancy_Required": "No", "ADU_Restricted_to_Primary_Structure": "No", "Affordable_Housing_Allowance": "Not Mentioned", "Affordable_Housing_District": "No", "Affordable_Housing_Elderly_Only": "No", "Affordable_Housing_Min_Lot_Size": null, "Affordable_Housing_Max_Density": null, "Affordable_Housing_Min_Parking_Spaces_per_mult_BR": null, "Affordable_Housing_Max_Units_per_Building": null, "Affordable_Housing_Min_Parking_Spaces_per_1BR": null, "PRD_Allowance": "Not Mentioned", "PRD_Max_Density": null, "PRD_Max_Units": null, "PRD_Min_Lot_Size": null, "PRD_Mobile_or_Manufactured_Home_Park": "No", "PUD_Allowance": null, "PUD_Required_with_Subdivision": null, "PUD_Requires_Land_Conservation": null, "PUD_Threshold_Number": null, "Notes": "None" }, "geometry": { "type": "MultiPolygon", "coordinates": [ [ [ [ -73.246912278088999, 42.912229003584017 ], [ -73.246940490992998, 42.912520767094151 ], [ -73.247186089812814, 42.912534715996465 ], [ -73.247265322154931, 42.912963430648482 ], [ -73.247592227000993, 42.912777248950341 ], [ -73.248755997497241, 42.912477286677877 ], [ -73.24954916262385, 42.912286051224605 ], [ -73.24996312502131, 42.912292790173112 ], [ -73.250936575170712, 42.912538939666099 ], [ -73.251272535374781, 42.912569624655148 ], [ -73.25203305866124, 42.912654259254005 ], [ -73.252453218825337, 42.912798556793582 ], [ -73.25193551377825, 42.913128486827766 ], [ -73.25021712067192, 42.914548388730687 ], [ -73.24993182692522, 42.914876786276103 ], [ -73.249085229975208, 42.914924094412243 ], [ -73.249081490024608, 42.915041820378917 ], [ -73.249918127136169, 42.915024952588553 ], [ -73.249637890611936, 42.915770968726513 ], [ -73.249128609101987, 42.916799448269039 ], [ -73.248919431210993, 42.917442483039338 ], [ -73.248206039084877, 42.919826244879197 ], [ -73.248046035715703, 42.920816613425636 ], [ -73.247897669407863, 42.921939908304509 ], [ -73.247723324882685, 42.922560690572993 ], [ -73.246921937249141, 42.922459003441126 ], [ -73.246910679961886, 42.922621884844105 ], [ -73.246529429831597, 42.923582389276845 ], [ -73.246289423325706, 42.923815560774187 ], [ -73.245737355610046, 42.924305153608316 ], [ -73.245479792393837, 42.924796622309856 ], [ -73.244713478143325, 42.925944457433566 ], [ -73.244481868284481, 42.926447144987854 ], [ -73.245978299582944, 42.926718367578118 ], [ -73.245685754874899, 42.927308784414294 ], [ -73.245516242478104, 42.927945567237508 ], [ -73.245218516700135, 42.929105590783372 ], [ -73.248949127929066, 42.929170232179594 ], [ -73.249741954317614, 42.929244490883725 ], [ -73.253237232448399, 42.929215587320343 ], [ -73.253629934038713, 42.922599977952935 ], [ -73.254113860202338, 42.922608149575112 ], [ -73.254870511045581, 42.921189656243094 ], [ -73.255152039623709, 42.91988934857428 ], [ -73.254667995644766, 42.919869790212672 ], [ -73.257315470001757, 42.917990041907352 ], [ -73.256376319588156, 42.917060055223821 ], [ -73.258089875586322, 42.916094625798017 ], [ -73.256270175593087, 42.91463995218421 ], [ -73.255391807248159, 42.913604697635847 ], [ -73.255063837418291, 42.913326997092561 ], [ -73.254417079904172, 42.912961087246053 ], [ -73.254630773151092, 42.912522668450883 ], [ -73.254308523722884, 42.912538332033428 ], [ -73.253728983663223, 42.912317207329991 ], [ -73.253398563112583, 42.912315400867541 ], [ -73.253002108647237, 42.912228430638173 ], [ -73.252671784245891, 42.912234585418823 ], [ -73.252358009749841, 42.912154035873755 ], [ -73.251350997815592, 42.912078037567269 ], [ -73.251075365651658, 42.912016146227991 ], [ -73.249762080960096, 42.911919251167944 ], [ -73.249578748263588, 42.911987138688531 ], [ -73.246912278088999, 42.912229003584017 ] ] ] ] } },
{ "type": "Feature", "properties": { "OBJECT_ID": 1487, "County": "Bennington", "RPC": "BCRC", "Municipal_Name": "North Bennington ", "GEO_ID": null, "District_Name": "Village Residential 120", "Abbreviated_District_Name": "Vr-120", "District_Type": "Primarily Residential", "Bylaw_Date": "2024-04-26T00:00:00", "Elderly_Housing_District": "No", "District_Mapped": "Yes", "Overlay_District": "No", "Base_Density": null, "Shape_Length": 2708.1182272013434, "Shape_Area": 373780.8996156092, "F1F_Allowance": "Permitted", "F1F_Front_Setback": 40.0, "F1F_Side_Setback": 25.0, "F1F_Rear_Setback": 40.0, "F1F_Frontage": 50.0, "F1F_Max_Height": 30.0, "F1F_Max_Stories": null, "F1F_Min_Lot_Size": 2.75, "F1F_Max_Lot_Building_Coverage": 10.0, "F1F_Max_Lot_Impervious_Coverage": null, "F1F_Min_Parking_Spaces": 2.0, "F2F_Allowance": "Permitted", "F2F_Front_Setback": 40.0, "F2F_Side_Setback": 25.0, "F2F_Rear_Setback": 40.0, "F2F_Frontage": 50.0, "F2F_Max_Density": null, "F2F_Max_Height": 30.0, "F2F_Max_Stories": null, "F2F_Min_Lot_Size": 2.75, "F2F_Max_Lot_Building_Coverage": 10.0, "F2F_Max_Lot_Impervious_Coverage": null, "F2F_Min_Parking_Spaces_per_1BR": 2.0, "F2F_Min_Parking_Spaces_per_mult_BR": 2.0, "F2F_Elderly_Housing_Only": "No", "F2F_Affordable_Housing_Only": "No", "F3F_Allowance": "Public Hearing", "F3F_Front_Setback": 40.0, "F3F_Side_Setback": 25.0, "F3F_Rear_Setback": 40.0, "F3F_Frontage": 50.0, "F3F_Max_Density": null, "F3F_Max_Height": 30.0, "F3F_Max_Stories": null, "F3F_Min_Lot_Size": 2.75, "F3F_Max_Lot_Building_Coverage": 10.0, "F3F_Max_Lot_Impervious_Coverage": null, "F3F_Min_Parking_Spaces_per_1BR": 2.0, "F3F_Min_Parking_Spaces_per_mult_BR": 2.0, "F3F_Affordable_Housing_Only": "No", "F3F_Proximity_to_Public_Transit_Required": "No", "F3F_Connection_to_Sewage/Water_Required": "No", "F4F_Allowance": "Public Hearing", "F4F_Front_Setback": 40.0, "F4F_Side_Setback": 25.0, "F4F_Rear_Setback": 40.0, "F4F_Frontage": 50.0, "F4F_Max_Density": null, "F4F_Max_Height": 30.0, "F4F_Max_Stories": null, "F4F_Min_Lot_Size": 2.75, "F4F_Max_Lot_Building_Coverage": 10.0, "F4F_Max_Lot_Impervious_Coverage": null, "F4F_Min_Parking_Spaces_per_1BR": 2.0, "F4F_Min_Parking_Spaces_per_mult_BR": 2.0, "F3F_Elderly_Housing_Only": "No", "F4F_Elderly_Housing_Only": "No", "F4F_Affordable_Housing_Only": "No", "F4F_Proximity_to_Public_Transit_Required": "No", "F4F_Connection_to_Sewage/Water_Required": "No", "ADU_Allowance": "Allowed/Conditional", "ADU_Elderly_Housing_Only": "No", "ADU_Max_Size_as_Percent_of_Primary_Strcture": 30.0, "ADU_Max_Size_in_sq_ft": null, "ADU_Min_Lot_Size": null, "ADU_Max_Bedrooms": null, "ADU_Min_Parking_Spaces": 1.0, "ADU_Owner_Occupancy_Required": "No", "ADU_Renter_Occupancy_Prohibited": "No", "ADU_Employee_or_Family_Occupancy_Required": "No", "ADU_Restricted_to_Primary_Structure": "No", "Affordable_Housing_Allowance": "Not Mentioned", "Affordable_Housing_District": "No", "Affordable_Housing_Elderly_Only": "No", "Affordable_Housing_Min_Lot_Size": null, "Affordable_Housing_Max_Density": null, "Affordable_Housing_Min_Parking_Spaces_per_mult_BR": null, "Affordable_Housing_Max_Units_per_Building": null, "Affordable_Housing_Min_Parking_Spaces_per_1BR": null, "PRD_Allowance": "Not Mentioned", "PRD_Max_Density": null, "PRD_Max_Units": null, "PRD_Min_Lot_Size": null, "PRD_Mobile_or_Manufactured_Home_Park": "No", "PUD_Allowance": null, "PUD_Required_with_Subdivision": null, "PUD_Requires_Land_Conservation": null, "PUD_Threshold_Number": null, "Notes": "None" }, "geometry": { "type": "MultiPolygon", "coordinates": [ [ [ [ -73.249592333725616, 42.933691254101888 ], [ -73.253831698062655, 42.933877810959551 ], [ -73.259120676918457, 42.934025326217181 ], [ -73.259225253958604, 42.92935779959187 ], [ -73.258609581309656, 42.929380517933637 ], [ -73.257808383573675, 42.929508333827449 ], [ -73.257286560483777, 42.929536015680149 ], [ -73.255529321998111, 42.929339247606073 ], [ -73.25322940462425, 42.929342554333736 ], [ -73.253237232448399, 42.929215587320343 ], [ -73.249741954317614, 42.929244490883725 ], [ -73.249710291606391, 42.929905650356922 ], [ -73.250494185377164, 42.929919953199104 ], [ -73.250452280364016, 42.930662720628447 ], [ -73.250376685655411, 42.932498921031382 ], [ -73.249116510329998, 42.933299344873404 ], [ -73.249592333725616, 42.933691254101888 ] ] ] ] } }
]
}
