{
"type": "FeatureCollection",
"name": "Bennington_Landgrove",
"crs": { "type": "name", "properties": { "name": "urn:ogc:def:crs:OGC:1.3:CRS84" } },
"features": [
{ "type": "Feature", "properties": { "OBJECT_ID": 214, "County": "Bennington", "RPC": "BCRC", "Municipal_Name": "Landgrove", "GEO_ID": "5000339025", "District_Name": "Mixed Use", "Abbreviated_District_Name": "Mu", "District_Type": "Mixed with Residential", "Bylaw_Date": "2024-05-20T00:00:00", "Elderly_Housing_District": "No", "District_Mapped": "Yes", "Overlay_District": "No", "Base_Density": 0.25, "GIS_ID": null, "Last_Update": "20240301", "Shape_Length": 3399.9785943600041, "Shape_Area": 521600.24576145335, "F1F_Allowance": "Permitted", "F1F_Front_Setback": 50.0, "F1F_Side_Setback": 50.0, "F1F_Rear_Setback": 50.0, "F1F_Frontage": 200.0, "F1F_Max_Height": 35.0, "F1F_Max_Stories": 3.0, "F1F_Min_Lot_Size": 4.0, "F1F_Max_Lot_Building_Coverage": 20.0, "F1F_Max_Lot_Impervious_Coverage": null, "F1F_Min_Parking_Spaces": 1.0, "F1F_Elderly_Housing_Only": null, "F1F_Affordable_Housing_Only": null, "F2F_Allowance": "Permitted", "F2F_Front_Setback": 50.0, "F2F_Side_Setback": 50.0, "F2F_Rear_Setback": 50.0, "F2F_Frontage": 200.0, "F2F_Max_Density": 0.25, "F2F_Max_Height": 35.0, "F2F_Max_Stories": 3.0, "F2F_Min_Lot_Size": 4.0, "F2F_Max_Lot_Building_Coverage": 20.0, "F2F_Max_Lot_Impervious_Coverage": null, "F2F_Min_Parking_Spaces_per_1BR": 1.0, "F2F_Min_Parking_Spaces_per_mult_BR": 1.0, "F2F_Elderly_Housing_Only": "No", "F2F_Affordable_Housing_Only": "No", "F3F_Allowance": "Permitted", "F3F_Front_Setback": 50.0, "F3F_Side_Setback": 50.0, "F3F_Rear_Setback": 50.0, "F3F_Frontage": 200.0, "F3F_Max_Density": 0.25, "F3F_Max_Height": 35.0, "F3F_Max_Stories": 3.0, "F3F_Min_Lot_Size": 4.0, "F3F_Max_Lot_Building_Coverage": 20.0, "F3F_Max_Lot_Impervious_Coverage": null, "F3F_Min_Parking_Spaces_per_1BR": null, "F3F_Min_Parking_Spaces_per_mult_BR": null, "F3F_Affordable_Housing_Only": "No", "F3F_Proximity_to_Public_Transit_Required": "No", "F3F_Connection_to_Sewage/Water_Required": "Yes", "F4F_Allowance": "Public Hearing", "F4F_Front_Setback": 50.0, "F4F_Side_Setback": 50.0, "F4F_Rear_Setback": 50.0, "F4F_Frontage": 200.0, "F1F_Max_Density": null, "F4F_Max_Density": 0.25, "F4F_Max_Height": 35.0, "F4F_Max_Stories": 3.0, "F4F_Min_Lot_Size": 4.0, "F4F_Max_Lot_Building_Coverage": 20.0, "F4F_Max_Lot_Impervious_Coverage": null, "F4F_Min_Parking_Spaces_per_1BR": null, "F4F_Min_Parking_Spaces_per_mult_BR": null, "F3F_Elderly_Housing_Only": "No", "F4F_Elderly_Housing_Only": "No", "F4F_Affordable_Housing_Only": "No", "F4F_Proximity_to_Public_Transit_Required": "No", "F4F_Connection_to_Sewage/Water_Required": "Yes", "ADU_Allowance": "Allowed/Conditional", "ADU_Elderly_Housing_Only": "No", "ADU_Max_Size_as_Percent_of_Primary_Strcture": 40.0, "ADU_Max_Size_in_sq_ft": 1000.0, "ADU_Min_Lot_Size": null, "ADU_Max_Bedrooms": null, "ADU_Min_Parking_Spaces": 1.0, "ADU_Owner_Occupancy_Required": "No", "ADU_Renter_Occupancy_Prohibited": "No", "ADU_Employee_or_Family_Occupancy_Required": "No", "ADU_Restricted_to_Primary_Structure": "No", "Affordable_Housing_Allowance": "Not Mentioned", "Affordable_Housing_District": "No", "Affordable_Housing_Elderly_Only": "No", "Affordable_Housing_Min_Lot_Size": null, "Affordable_Housing_Max_Density": null, "Affordable_Housing_Min_Parking_Spaces_per_mult_BR": null, "Affordable_Housing_Max_Units_per_Building": null, "Affordable_Housing_Min_Parking_Spaces_per_1BR": null, "PRD_Allowance": "Public Hearing", "PRD_Max_Density": null, "PRD_Max_Units": null, "PRD_Min_Lot_Size": null, "PRD_Mobile_or_Manufactured_Home_Park": "No", "PUD_Allowance": "Yes", "PUD_Required_with_Subdivision": "F", "PUD_Requires_Land_Conservation": "F", "PUD_Threshold_Number": null, "Notes": " Neighborhood And Mixed-Use Puds Permitted With Conditional Use (Public Hearing). ", "FIPS6": "3020" }, "geometry": { "type": "Polygon", "coordinates": [ [ [ -72.857979880993483, 43.237846426634384 ], [ -72.858858720863154, 43.237760095796318 ], [ -72.859817549584747, 43.23782912057893 ], [ -72.862722427303694, 43.238291462189487 ], [ -72.86454103243085, 43.238338070607426 ], [ -72.86488120639379, 43.238304243412941 ], [ -72.865242998273303, 43.238190004878199 ], [ -72.865464884518616, 43.234801298739711 ], [ -72.863865656043615, 43.234785785119669 ], [ -72.860657882563558, 43.234209167800309 ], [ -72.860210451890083, 43.234156091862452 ], [ -72.858156470005667, 43.234088407811782 ], [ -72.857217261181844, 43.234300906736721 ], [ -72.855338254300733, 43.23462765156053 ], [ -72.854211430909515, 43.234925843026502 ], [ -72.853370454384873, 43.235092164567554 ], [ -72.851149242515319, 43.23510555278358 ], [ -72.850985515488929, 43.235051744206935 ], [ -72.84992998481421, 43.234684665287006 ], [ -72.84989403340613, 43.23467147563894 ], [ -72.849878828351308, 43.234906328055345 ], [ -72.849774693730922, 43.236514630254931 ], [ -72.849765788709917, 43.236652160588825 ], [ -72.84964690951729, 43.238518994876294 ], [ -72.850955998720664, 43.238703018793181 ], [ -72.854125871099683, 43.238711324949399 ], [ -72.85498549432954, 43.238662819127825 ], [ -72.855817482446795, 43.23848341578428 ], [ -72.85708485687114, 43.238106214589678 ], [ -72.857234385302235, 43.238065931744202 ], [ -72.857261548019679, 43.238058614273577 ], [ -72.857979880993483, 43.237846426634384 ] ] ] } },
{ "type": "Feature", "properties": { "OBJECT_ID": 215, "County": "Bennington", "RPC": "BCRC", "Municipal_Name": "Landgrove", "GEO_ID": "5000339025", "District_Name": "Regulated Flood Hazard Area Overlay", "Abbreviated_District_Name": "Rfha", "District_Type": "Overlay not Affecting Use", "Bylaw_Date": "2023-09-05T00:00:00", "Elderly_Housing_District": "No", "District_Mapped": "Yes", "Overlay_District": "Yes", "Base_Density": null, "GIS_ID": null, "Last_Update": "20240301", "Shape_Length": 18833.927732861168, "Shape_Area": 582297.8868299895, "F1F_Allowance": "Overlay", "F1F_Front_Setback": null, "F1F_Side_Setback": null, "F1F_Rear_Setback": null, "F1F_Frontage": null, "F1F_Max_Height": null, "F1F_Max_Stories": null, "F1F_Min_Lot_Size": null, "F1F_Max_Lot_Building_Coverage": null, "F1F_Max_Lot_Impervious_Coverage": null, "F1F_Min_Parking_Spaces": null, "F1F_Elderly_Housing_Only": null, "F1F_Affordable_Housing_Only": null, "F2F_Allowance": "Overlay", "F2F_Front_Setback": null, "F2F_Side_Setback": null, "F2F_Rear_Setback": null, "F2F_Frontage": null, "F2F_Max_Density": null, "F2F_Max_Height": null, "F2F_Max_Stories": null, "F2F_Min_Lot_Size": null, "F2F_Max_Lot_Building_Coverage": null, "F2F_Max_Lot_Impervious_Coverage": null, "F2F_Min_Parking_Spaces_per_1BR": null, "F2F_Min_Parking_Spaces_per_mult_BR": null, "F2F_Elderly_Housing_Only": "No", "F2F_Affordable_Housing_Only": "No", "F3F_Allowance": "Overlay", "F3F_Front_Setback": null, "F3F_Side_Setback": null, "F3F_Rear_Setback": null, "F3F_Frontage": null, "F3F_Max_Density": null, "F3F_Max_Height": null, "F3F_Max_Stories": null, "F3F_Min_Lot_Size": null, "F3F_Max_Lot_Building_Coverage": null, "F3F_Max_Lot_Impervious_Coverage": null, "F3F_Min_Parking_Spaces_per_1BR": null, "F3F_Min_Parking_Spaces_per_mult_BR": null, "F3F_Affordable_Housing_Only": "No", "F3F_Proximity_to_Public_Transit_Required": "No", "F3F_Connection_to_Sewage/Water_Required": "No", "F4F_Allowance": "Overlay", "F4F_Front_Setback": null, "F4F_Side_Setback": null, "F4F_Rear_Setback": null, "F4F_Frontage": null, "F1F_Max_Density": null, "F4F_Max_Density": null, "F4F_Max_Height": null, "F4F_Max_Stories": null, "F4F_Min_Lot_Size": null, "F4F_Max_Lot_Building_Coverage": null, "F4F_Max_Lot_Impervious_Coverage": null, "F4F_Min_Parking_Spaces_per_1BR": null, "F4F_Min_Parking_Spaces_per_mult_BR": null, "F3F_Elderly_Housing_Only": "No", "F4F_Elderly_Housing_Only": "No", "F4F_Affordable_Housing_Only": "No", "F4F_Proximity_to_Public_Transit_Required": "No", "F4F_Connection_to_Sewage/Water_Required": "No", "ADU_Allowance": "Not Mentioned", "ADU_Elderly_Housing_Only": "No", "ADU_Max_Size_as_Percent_of_Primary_Strcture": null, "ADU_Max_Size_in_sq_ft": null, "ADU_Min_Lot_Size": null, "ADU_Max_Bedrooms": null, "ADU_Min_Parking_Spaces": null, "ADU_Owner_Occupancy_Required": "No", "ADU_Renter_Occupancy_Prohibited": "No", "ADU_Employee_or_Family_Occupancy_Required": "No", "ADU_Restricted_to_Primary_Structure": "No", "Affordable_Housing_Allowance": "Not Mentioned", "Affordable_Housing_District": "No", "Affordable_Housing_Elderly_Only": "No", "Affordable_Housing_Min_Lot_Size": null, "Affordable_Housing_Max_Density": null, "Affordable_Housing_Min_Parking_Spaces_per_mult_BR": null, "Affordable_Housing_Max_Units_per_Building": null, "Affordable_Housing_Min_Parking_Spaces_per_1BR": null, "PRD_Allowance": "Not Mentioned", "PRD_Max_Density": null, "PRD_Max_Units": null, "PRD_Min_Lot_Size": null, "PRD_Mobile_or_Manufactured_Home_Park": "No", "PUD_Allowance": null, "PUD_Required_with_Subdivision": null, "PUD_Requires_Land_Conservation": null, "PUD_Threshold_Number": null, "Notes": " \"The Uses Allowed In The Underlying District Are Allowed to The Same Extent Within This Overlay District Provided That The Applicant Demonstrates Compliance With Section 813 Or Sections 813-826 As Applicable\" (Page 80 Of Landgrove Bylaws) ", "FIPS6": "3020" }, "geometry": { "type": "MultiPolygon", "coordinates": [ [ [ [ -72.862469949657481, 43.274111710667881 ], [ -72.862467709450996, 43.274116177044093 ], [ -72.862457639555871, 43.274230088854807 ], [ -72.862459167525444, 43.274233684560201 ], [ -72.862469949657481, 43.274111710667881 ] ] ], [ [ [ -72.862577207272494, 43.272898457019977 ], [ -72.862574204649874, 43.272911442911749 ], [ -72.862496760598304, 43.273143019050231 ], [ -72.862535084926037, 43.273208425762043 ], [ -72.86239272890333, 43.273507415346145 ], [ -72.862483498160884, 43.273937564178297 ], [ -72.862485194164123, 43.273939376180074 ], [ -72.862577207272494, 43.272898457019977 ] ] ], [ [ [ -72.857125576563647, 43.258628846210783 ], [ -72.857155815052423, 43.25872814157767 ], [ -72.857088245413379, 43.258789408066939 ], [ -72.856672786584284, 43.259425720891777 ], [ -72.856844505864331, 43.25956769356798 ], [ -72.856837401771386, 43.259634315219841 ], [ -72.856287687503865, 43.259404102449395 ], [ -72.85590695203156, 43.259450524152527 ], [ -72.855375028260283, 43.259393476211216 ], [ -72.855365835994789, 43.259277935003546 ], [ -72.855175255700942, 43.25923902608691 ], [ -72.854893437885053, 43.25935786308866 ], [ -72.854765571453967, 43.259498225047246 ], [ -72.854446272869751, 43.2595381809681 ], [ -72.854446168246909, 43.259538192093949 ], [ -72.853632922773656, 43.259627694902981 ], [ -72.852889183485672, 43.259873662940606 ], [ -72.852243234365744, 43.260471707872888 ], [ -72.851902014962377, 43.26066549492505 ], [ -72.851589964512669, 43.260554428561122 ], [ -72.85161494224414, 43.260431387402299 ], [ -72.851324355519594, 43.260430562765926 ], [ -72.851238420241515, 43.260383348829578 ], [ -72.850918273968787, 43.260515168387755 ], [ -72.850816149122352, 43.260797459159569 ], [ -72.850688895095018, 43.260932297701416 ], [ -72.849945847298642, 43.260892888702536 ], [ -72.849542228619555, 43.26099573041644 ], [ -72.849412894213017, 43.260979704310763 ], [ -72.849218265393233, 43.261129384150657 ], [ -72.848963748986478, 43.26114061057438 ], [ -72.848858415801431, 43.261102408611002 ], [ -72.848817774792437, 43.260978302574429 ], [ -72.848601370921969, 43.260998584383664 ], [ -72.848509407517867, 43.260920400388947 ], [ -72.848344538378385, 43.260931418888283 ], [ -72.848344378303281, 43.260931425676716 ], [ -72.848242042004884, 43.26091821177635 ], [ -72.848231614283293, 43.261025505875594 ], [ -72.848393181151195, 43.261186552847228 ], [ -72.848418251097272, 43.261319550322789 ], [ -72.848611500414307, 43.261428018778005 ], [ -72.848622588355212, 43.261508852560418 ], [ -72.848545167782135, 43.261509302715872 ], [ -72.848755127482576, 43.261669711125606 ], [ -72.849086412652511, 43.262149278420011 ], [ -72.84942125945453, 43.26240389007841 ], [ -72.849882682633378, 43.262493116444773 ], [ -72.851216589051575, 43.262515834853104 ], [ -72.851924792335808, 43.262586465976284 ], [ -72.852215476367761, 43.262661144258644 ], [ -72.852306811730571, 43.262600299869177 ], [ -72.85263777258578, 43.262588616142786 ], [ -72.85302227386083, 43.262681938439101 ], [ -72.853139668547513, 43.262792888129908 ], [ -72.853500807963187, 43.262719725585285 ], [ -72.853696197250173, 43.262799579601548 ], [ -72.853869376882571, 43.263207478278581 ], [ -72.853744161354527, 43.262784252250007 ], [ -72.853904183600505, 43.262462695837662 ], [ -72.853639385443856, 43.262279648837598 ], [ -72.852976306538594, 43.26228202536371 ], [ -72.852318458449844, 43.262431772443961 ], [ -72.851749000867386, 43.262424047359609 ], [ -72.85157941241745, 43.262381597890965 ], [ -72.852006836897289, 43.262171098381479 ], [ -72.852178546718264, 43.26200897156032 ], [ -72.852098106599414, 43.261728136453399 ], [ -72.852176112304718, 43.261651803092242 ], [ -72.852226748940353, 43.261348109575295 ], [ -72.852360791433767, 43.261249949784947 ], [ -72.852634708592078, 43.261233595417494 ], [ -72.852718596894022, 43.261287886999604 ], [ -72.853084417068189, 43.261309610259559 ], [ -72.854159343585678, 43.261146147210972 ], [ -72.854629937794897, 43.261175372306319 ], [ -72.855223335941687, 43.260934591989546 ], [ -72.855424211904378, 43.260932627721829 ], [ -72.855467911414394, 43.26111228297404 ], [ -72.855413481044451, 43.261214102981675 ], [ -72.855243138395053, 43.261307013355996 ], [ -72.855235094438839, 43.261505077876954 ], [ -72.855529182677813, 43.261723651368911 ], [ -72.85567654940246, 43.26194026711746 ], [ -72.85583111754282, 43.262001236186045 ], [ -72.855896060581614, 43.26221813500571 ], [ -72.855771676586883, 43.262451428302029 ], [ -72.855930642721304, 43.262612740007455 ], [ -72.855873394231736, 43.262786120093189 ], [ -72.856015564555548, 43.262759021006303 ], [ -72.856404539453251, 43.262844545308482 ], [ -72.85632320049379, 43.263051536228978 ], [ -72.856111207387997, 43.263299401425378 ], [ -72.856370143416171, 43.26361906504296 ], [ -72.85647393510223, 43.263654974020149 ], [ -72.856466445895038, 43.26408025695337 ], [ -72.856806728531907, 43.264491276692929 ], [ -72.856747534016378, 43.264615184427008 ], [ -72.85687167781839, 43.26475605319748 ], [ -72.857015699871241, 43.264780805864667 ], [ -72.857091887545664, 43.264586431631244 ], [ -72.857065647530845, 43.264795574258905 ], [ -72.857425156027148, 43.264982441779424 ], [ -72.857426428749335, 43.265174712728147 ], [ -72.857303231395349, 43.265477181279977 ], [ -72.85765592590846, 43.266021319745064 ], [ -72.857695941897163, 43.266320705658089 ], [ -72.857889743063566, 43.266810935726319 ], [ -72.858279609474721, 43.267257200858978 ], [ -72.858763123079342, 43.267605563613827 ], [ -72.858981507365243, 43.267690614810988 ], [ -72.859074671370337, 43.267662659369037 ], [ -72.859294727021492, 43.267385273228328 ], [ -72.859482751416181, 43.267521982322364 ], [ -72.859618927538094, 43.267934076643542 ], [ -72.859547668114985, 43.267960967227296 ], [ -72.859495088286081, 43.267884604570114 ], [ -72.859485858792425, 43.267972351100234 ], [ -72.85955725170983, 43.267971062753645 ], [ -72.859636634794199, 43.268076404763519 ], [ -72.859756883566604, 43.268448960898262 ], [ -72.859682021550867, 43.268601738144788 ], [ -72.85937736404145, 43.268729607895565 ], [ -72.859303902684402, 43.268716765965515 ], [ -72.859393438578422, 43.268960241961956 ], [ -72.859468959643635, 43.268981843801292 ], [ -72.859595055586354, 43.268794918260596 ], [ -72.859766029765709, 43.268718148904448 ], [ -72.859839243343146, 43.268709613948381 ], [ -72.859835890477584, 43.268800799436136 ], [ -72.859936491739631, 43.268844472656511 ], [ -72.860055515758049, 43.268777553602831 ], [ -72.860135822432213, 43.268822563320363 ], [ -72.860021446180198, 43.268898288277619 ], [ -72.860145123075739, 43.269067510086707 ], [ -72.86030091561183, 43.269126116215638 ], [ -72.860651709241395, 43.269598882763304 ], [ -72.860942113639553, 43.269747398621533 ], [ -72.861043865913146, 43.270145659266831 ], [ -72.861191582464343, 43.270165307409506 ], [ -72.861158982698541, 43.27033187094721 ], [ -72.861240935485128, 43.27029106458243 ], [ -72.861219087542352, 43.270185016379074 ], [ -72.861341532472011, 43.27016664041161 ], [ -72.861231569839916, 43.269934052855227 ], [ -72.861340661125084, 43.269881294200516 ], [ -72.861498510499857, 43.269910995979416 ], [ -72.861525410498913, 43.269795802289238 ], [ -72.861730292881006, 43.269847492172921 ], [ -72.861799501507818, 43.269933557770763 ], [ -72.861979924933522, 43.270000753819176 ], [ -72.862103060981013, 43.270005138424466 ], [ -72.862260264737174, 43.270147064925851 ], [ -72.862313755765115, 43.270147693034502 ], [ -72.86230393587914, 43.270097896131304 ], [ -72.862627404488691, 43.270152896610462 ], [ -72.862651206196034, 43.270353363660547 ], [ -72.86224869259074, 43.270448595385105 ], [ -72.862385199526372, 43.27085093125649 ], [ -72.862364917396391, 43.270989040560792 ], [ -72.861910938430952, 43.271175083330846 ], [ -72.861893842941271, 43.271317521123535 ], [ -72.861772892619243, 43.271409526876468 ], [ -72.861803264782353, 43.271526110199424 ], [ -72.861886790211869, 43.271531812094693 ], [ -72.862211471227226, 43.271815375423799 ], [ -72.862211029576258, 43.27221990383709 ], [ -72.862289017169275, 43.272287645117025 ], [ -72.862409331750655, 43.272257951934677 ], [ -72.86246178189738, 43.272396106209712 ], [ -72.862616133127503, 43.272437134037531 ], [ -72.862617887179567, 43.272438355363903 ], [ -72.862674547543037, 43.271797359142781 ], [ -72.862679263640928, 43.271722972159218 ], [ -72.862707059599103, 43.271408535423596 ], [ -72.862709034401405, 43.271407313976646 ], [ -72.862782989430471, 43.27057077632692 ], [ -72.862781197780492, 43.270569853067357 ], [ -72.862948599743987, 43.268458018944635 ], [ -72.862887940422993, 43.268401909584213 ], [ -72.862941302522231, 43.268296924655779 ], [ -72.862411513303343, 43.267992970706594 ], [ -72.862308922015018, 43.268023590726457 ], [ -72.86231077978583, 43.26807845723809 ], [ -72.86211254651532, 43.267805367449768 ], [ -72.862260881211014, 43.267720362247879 ], [ -72.862241413132963, 43.267767552412913 ], [ -72.862360323479976, 43.267796872240744 ], [ -72.862437820176538, 43.267748552165806 ], [ -72.862570610477064, 43.267928359633707 ], [ -72.862604037018286, 43.26755559934255 ], [ -72.862737272597826, 43.267531796744009 ], [ -72.862798669187455, 43.267362121386967 ], [ -72.862643469022174, 43.267331980921789 ], [ -72.862543821186961, 43.267236539220761 ], [ -72.862513889628076, 43.267156502008142 ], [ -72.862645921427088, 43.267012853571664 ], [ -72.862605255552381, 43.266934982836467 ], [ -72.862514899902763, 43.266955409803998 ], [ -72.862574916456154, 43.267039458093954 ], [ -72.862445954039956, 43.267095711338293 ], [ -72.862424236205413, 43.267160815110365 ], [ -72.862506457661198, 43.267375368874532 ], [ -72.862537704609494, 43.267325438217121 ], [ -72.862560537989012, 43.267353247618402 ], [ -72.862540222208565, 43.267430018152751 ], [ -72.862474448509744, 43.267433241153824 ], [ -72.8624026855029, 43.267348361398874 ], [ -72.861830646903357, 43.267207305078884 ], [ -72.8616398154698, 43.266899482596862 ], [ -72.861356951028853, 43.266815023631843 ], [ -72.860897075551662, 43.266403379630468 ], [ -72.860856819215243, 43.266241128934965 ], [ -72.860918608415602, 43.266039666733668 ], [ -72.861290999496603, 43.266042053927016 ], [ -72.861113643739742, 43.26621685726974 ], [ -72.86134843151477, 43.266370331083571 ], [ -72.861468977790679, 43.266368152650585 ], [ -72.861578191663668, 43.266298712894468 ], [ -72.861597593869973, 43.266149448286868 ], [ -72.861471049608667, 43.26598928971034 ], [ -72.861443561377044, 43.265701897670631 ], [ -72.861151738485873, 43.265322463311364 ], [ -72.861158991818129, 43.265253441219933 ], [ -72.861322161015067, 43.265190212412435 ], [ -72.861045595930577, 43.265021020744626 ], [ -72.860812786571913, 43.264971274660041 ], [ -72.860336107559675, 43.264551763647624 ], [ -72.860204698830316, 43.264507810598644 ], [ -72.859926991185077, 43.264530406870215 ], [ -72.859797367635267, 43.264568242402817 ], [ -72.859185991457579, 43.264972447240403 ], [ -72.858083548424887, 43.265809177693839 ], [ -72.857970543811049, 43.265869784826947 ], [ -72.857828699869941, 43.265782306731587 ], [ -72.858238502744044, 43.265551001884518 ], [ -72.858324708397902, 43.265440548670078 ], [ -72.858333519894572, 43.26521558823886 ], [ -72.858235776497381, 43.264878558581181 ], [ -72.858366577741762, 43.26474052583977 ], [ -72.858588647273393, 43.264827828336195 ], [ -72.858659763270026, 43.264966509315222 ], [ -72.858594878820426, 43.265116404821079 ], [ -72.858808134373788, 43.265181447093113 ], [ -72.858972535523833, 43.265060019335095 ], [ -72.858981185811942, 43.26493779032355 ], [ -72.859166938935843, 43.264894898044957 ], [ -72.859458368265962, 43.264716481674697 ], [ -72.860133733381801, 43.264187477679911 ], [ -72.859851067515351, 43.264107057741263 ], [ -72.859347634448412, 43.263741969857449 ], [ -72.8594580485357, 43.263655002628994 ], [ -72.859399892664655, 43.263436839676388 ], [ -72.859509306688281, 43.26339352775171 ], [ -72.859430057652943, 43.263324126773192 ], [ -72.859258843613588, 43.263288705886346 ], [ -72.859276435860451, 43.263111090212497 ], [ -72.859426055970005, 43.263017842914451 ], [ -72.859185726620325, 43.262973183105117 ], [ -72.859236090864684, 43.262868131806059 ], [ -72.859401326014719, 43.26279964421709 ], [ -72.859514132895526, 43.262665820790154 ], [ -72.859633401136165, 43.262725838884727 ], [ -72.859842704868015, 43.262728649800231 ], [ -72.859985754439791, 43.262664634631143 ], [ -72.860237516318918, 43.262673902016843 ], [ -72.860416642392366, 43.262805723859138 ], [ -72.860532536547936, 43.262810774782523 ], [ -72.860632012289543, 43.262943093031815 ], [ -72.861073573750502, 43.263091882817456 ], [ -72.861296515676472, 43.263110043091565 ], [ -72.861655388369414, 43.263252670174502 ], [ -72.86174601344436, 43.263339155170485 ], [ -72.862188677247673, 43.26346954732449 ], [ -72.862255830502122, 43.263538716453148 ], [ -72.862548578378352, 43.263588007722738 ], [ -72.862722113393545, 43.26372863980302 ], [ -72.862988024822997, 43.263785570799861 ], [ -72.863360889376651, 43.264012136421819 ], [ -72.863362732717931, 43.264012876781159 ], [ -72.863388479695146, 43.263721621831181 ], [ -72.863386704443045, 43.263720109837287 ], [ -72.86293435627023, 43.263631586086426 ], [ -72.862679279727047, 43.263424877180974 ], [ -72.862529858454749, 43.263375981832404 ], [ -72.862265201540637, 43.263356593268504 ], [ -72.86204401918458, 43.263162913112097 ], [ -72.861661409588137, 43.263186208315325 ], [ -72.861522595063903, 43.263083071772428 ], [ -72.861700582545183, 43.263065382186156 ], [ -72.861775684467801, 43.262986719223527 ], [ -72.861745593882077, 43.2629082106873 ], [ -72.86148865782198, 43.262862735996841 ], [ -72.861376816978151, 43.262555955789161 ], [ -72.860981938537236, 43.262570920690628 ], [ -72.860972638612196, 43.262309997152194 ], [ -72.860621790577554, 43.262313956286462 ], [ -72.860561702737272, 43.262251850704004 ], [ -72.860306801731056, 43.262222732358595 ], [ -72.8602378953954, 43.262023565060595 ], [ -72.860152694269814, 43.261972690161308 ], [ -72.859974453169841, 43.261973000961902 ], [ -72.859809976717003, 43.261874729105692 ], [ -72.859889440625679, 43.261893871718776 ], [ -72.860087200170028, 43.261824471573838 ], [ -72.86034270374077, 43.261652619039843 ], [ -72.860501872541263, 43.261693162060944 ], [ -72.860552788334644, 43.261526851278916 ], [ -72.86080784107034, 43.261750866642785 ], [ -72.860245015980354, 43.261001292843645 ], [ -72.859995609136618, 43.260880085790248 ], [ -72.859794967637669, 43.260680652172525 ], [ -72.859201670532286, 43.260414306827712 ], [ -72.85912017366033, 43.260314200813831 ], [ -72.858788407263816, 43.260110041692009 ], [ -72.858710120801831, 43.259985130081454 ], [ -72.858291717273787, 43.259847230343148 ], [ -72.857864329424771, 43.259500458299811 ], [ -72.857376650187689, 43.259593098595936 ], [ -72.857331336397962, 43.259581705771204 ], [ -72.857358485781219, 43.259514040317349 ], [ -72.857460590546921, 43.259463532242705 ], [ -72.857344140536341, 43.25945159837417 ], [ -72.857227876053301, 43.259443161748258 ], [ -72.857316654548811, 43.259331962129579 ], [ -72.857481980942794, 43.25926980676725 ], [ -72.857512829637187, 43.258975198327882 ], [ -72.85734397946969, 43.258754772345391 ], [ -72.857125576563647, 43.258628846210783 ] ] ], [ [ [ -72.849906903346067, 43.23447327517848 ], [ -72.84992998481421, 43.234684665287006 ], [ -72.849915344531993, 43.234947411412072 ], [ -72.850738205682063, 43.235281552194785 ], [ -72.850850714465992, 43.235418410580586 ], [ -72.851585070719196, 43.235818499169497 ], [ -72.851911625718742, 43.235866705892413 ], [ -72.852154234243713, 43.236080955735169 ], [ -72.852503361998203, 43.23609931725332 ], [ -72.853532135472435, 43.235788777103885 ], [ -72.853740493919105, 43.235798466647267 ], [ -72.854146754451548, 43.235945315588715 ], [ -72.854801749483386, 43.235905567325133 ], [ -72.854964579314966, 43.23595930480252 ], [ -72.855107137682111, 43.235922552407679 ], [ -72.854875755168607, 43.2358010787298 ], [ -72.855026120400879, 43.23576781187387 ], [ -72.855185082136714, 43.235834745435305 ], [ -72.855327621030227, 43.236019737610071 ], [ -72.855319530327705, 43.236539566384458 ], [ -72.855479628974592, 43.236898679613098 ], [ -72.856090686539559, 43.237360763993529 ], [ -72.85623266358273, 43.237404475759838 ], [ -72.856447624628686, 43.237300752444817 ], [ -72.856648785524172, 43.237392205562095 ], [ -72.856800290892579, 43.2376827627156 ], [ -72.857087455226235, 43.237874814050599 ], [ -72.85708485687114, 43.238106214589678 ], [ -72.857084788609399, 43.238106331821257 ], [ -72.857065689578945, 43.238186721950136 ], [ -72.857287970510654, 43.238271024783103 ], [ -72.857302277578583, 43.238146821649188 ], [ -72.857234453484125, 43.238066011643966 ], [ -72.857234385302235, 43.238065931744202 ], [ -72.857147442783742, 43.237970860119759 ], [ -72.857261548019679, 43.238058614273577 ], [ -72.857261621120983, 43.23805869325782 ], [ -72.857622811018274, 43.238404362573561 ], [ -72.857655108426229, 43.238609105208795 ], [ -72.857572059601083, 43.239095495703239 ], [ -72.857675355048812, 43.239540007794709 ], [ -72.857832688887996, 43.239670367638638 ], [ -72.858174193888175, 43.240306831792914 ], [ -72.858353761076629, 43.240512681014238 ], [ -72.858378591510601, 43.240657231755918 ], [ -72.858514869834835, 43.240756167825673 ], [ -72.858724686130259, 43.240760330336137 ], [ -72.858920689475184, 43.240842356680396 ], [ -72.859127758375209, 43.240742824407953 ], [ -72.859257431162916, 43.240793126750937 ], [ -72.859163195247234, 43.241264004290613 ], [ -72.85899226803798, 43.241548710222105 ], [ -72.859122817609517, 43.242081735340101 ], [ -72.859436155365316, 43.242370443890181 ], [ -72.859601772472288, 43.242425106587682 ], [ -72.859689623429361, 43.242529705913341 ], [ -72.859747860246515, 43.242520504267155 ], [ -72.859921731870273, 43.242644080596826 ], [ -72.85972632793893, 43.242786938321672 ], [ -72.859683356414152, 43.243113662849339 ], [ -72.85983554542635, 43.243253563126899 ], [ -72.859865205790371, 43.243430092015423 ], [ -72.859807090539562, 43.243481434367553 ], [ -72.859952211527258, 43.243739852248218 ], [ -72.859882001606678, 43.243910525750671 ], [ -72.859663998507841, 43.244055791199997 ], [ -72.859638312252684, 43.244176354096268 ], [ -72.859506126408633, 43.244286891097083 ], [ -72.859445799140317, 43.24460722497998 ], [ -72.859540432464712, 43.244799313015285 ], [ -72.859461614839248, 43.244994129870122 ], [ -72.859565648480086, 43.245686099807187 ], [ -72.859451683565325, 43.245871061631007 ], [ -72.859545966110744, 43.246289781967263 ], [ -72.859502187628138, 43.246613018017328 ], [ -72.85965930662752, 43.246931426127048 ], [ -72.859558401499399, 43.24708636055842 ], [ -72.859437286597526, 43.247031449110438 ], [ -72.859449399579475, 43.247127368785591 ], [ -72.859309593394357, 43.247259466223326 ], [ -72.859249389089683, 43.247480482397286 ], [ -72.859290293883234, 43.247590647304499 ], [ -72.859157822243347, 43.247804796360839 ], [ -72.859037421170626, 43.248488807006098 ], [ -72.85887061873197, 43.248904048675193 ], [ -72.858683330773488, 43.249095799859106 ], [ -72.858571751513963, 43.249349742703039 ], [ -72.858724860025731, 43.250659219273686 ], [ -72.8588970575356, 43.250955460866209 ], [ -72.859424693604112, 43.251249808230305 ], [ -72.859494358123001, 43.251545471762562 ], [ -72.85930790268182, 43.25200513902292 ], [ -72.859078274798122, 43.252128954228141 ], [ -72.858973846460458, 43.252108628259371 ], [ -72.858618550146033, 43.252196407249563 ], [ -72.858518790587553, 43.252324338228924 ], [ -72.858594413482507, 43.252435074082257 ], [ -72.858752124509337, 43.252445554100099 ], [ -72.858703192135195, 43.25239796141026 ], [ -72.85874700656592, 43.252272687420039 ], [ -72.858850695448183, 43.252213598342351 ], [ -72.859284823343984, 43.25211546159148 ], [ -72.859517862873332, 43.251832281614902 ], [ -72.859507236041622, 43.251709711402214 ], [ -72.859643960780787, 43.251420621930201 ], [ -72.859543715888393, 43.251261362862074 ], [ -72.859404743308147, 43.251183491859194 ], [ -72.859383562430253, 43.251083596011213 ], [ -72.858953365579211, 43.250899943558601 ], [ -72.858850921761558, 43.250769038891427 ], [ -72.858696731969047, 43.250006483252427 ], [ -72.85872844375136, 43.249591058029644 ], [ -72.858655637399622, 43.249411182574043 ], [ -72.858714826339266, 43.249216016609857 ], [ -72.858981117914382, 43.248842286267269 ], [ -72.85921168160651, 43.248227250602106 ], [ -72.859158750969726, 43.24810935972156 ], [ -72.859204420541161, 43.248057168379852 ], [ -72.859303303599205, 43.248116519177955 ], [ -72.859382489199618, 43.247962169015381 ], [ -72.85935022205787, 43.247742860131218 ], [ -72.859570390605498, 43.24745698564108 ], [ -72.859918251567464, 43.2471511111588 ], [ -72.860008966818313, 43.246949628881531 ], [ -72.859942713612952, 43.246837164007651 ], [ -72.859677176436392, 43.246670708887336 ], [ -72.859780379862485, 43.246590106166984 ], [ -72.859720171979603, 43.246541220715201 ], [ -72.85988145983859, 43.24624276400418 ], [ -72.859856478767327, 43.24620854811203 ], [ -72.859697775535423, 43.246246889174778 ], [ -72.859690884539788, 43.246253523279272 ], [ -72.859759661493527, 43.246354160620569 ], [ -72.859673081572595, 43.246270663034771 ], [ -72.859690884539788, 43.246253523279272 ], [ -72.859687969466336, 43.24624925767462 ], [ -72.859697775535423, 43.246246889174778 ], [ -72.859838421000319, 43.246111475180818 ], [ -72.859692879327412, 43.245890012985988 ], [ -72.859777936013032, 43.245858722143126 ], [ -72.859766636888409, 43.245915156927673 ], [ -72.859884102748254, 43.24592407240047 ], [ -72.859889183191328, 43.245825753793923 ], [ -72.859534286300047, 43.245010040128179 ], [ -72.859625352790957, 43.244797206193553 ], [ -72.859623885935932, 43.2444593022134 ], [ -72.859699559116692, 43.244373567059299 ], [ -72.859651579462607, 43.244318661660948 ], [ -72.859743534091336, 43.244259932639849 ], [ -72.85971775119873, 43.244143281567894 ], [ -72.859922338085553, 43.243983356218862 ], [ -72.860046666616867, 43.243693603674345 ], [ -72.859978539178996, 43.243329985342143 ], [ -72.85978929175063, 43.243088214865878 ], [ -72.859803486376379, 43.242900396165105 ], [ -72.859950515212745, 43.242717663933178 ], [ -72.860099120745502, 43.242697627163508 ], [ -72.860811157476064, 43.242951796142357 ], [ -72.861176156230954, 43.242903636234075 ], [ -72.861303439819324, 43.243036131215014 ], [ -72.861459101463836, 43.243103238312059 ], [ -72.861289461859229, 43.242898540098253 ], [ -72.861326675038512, 43.24286481757435 ], [ -72.861649948876391, 43.242995526371409 ], [ -72.861843741230004, 43.242951125262266 ], [ -72.861935011495987, 43.242978829136256 ], [ -72.862115483607155, 43.242861671651013 ], [ -72.862309747892624, 43.24284779386295 ], [ -72.861904005353821, 43.242775399794958 ], [ -72.861836150515302, 43.242682350758066 ], [ -72.861618960975605, 43.242760049150149 ], [ -72.861528372150929, 43.242670514834877 ], [ -72.861535862402818, 43.242606449679514 ], [ -72.861911480094093, 43.242594375650533 ], [ -72.862056812080127, 43.242535062708235 ], [ -72.862194402284359, 43.242570443800112 ], [ -72.86237581760706, 43.242735276611285 ], [ -72.862289304586952, 43.24265261967227 ], [ -72.862285074954315, 43.242582352701646 ], [ -72.862356144973234, 43.2425851952882 ], [ -72.862785038912108, 43.243255481150179 ], [ -72.862881218165768, 43.243309562651824 ], [ -72.863273303531557, 43.243286929959545 ], [ -72.863364238011727, 43.243259599999128 ], [ -72.863336790403068, 43.243111506764471 ], [ -72.863592545792685, 43.242819399320425 ], [ -72.863697874133791, 43.242775686671415 ], [ -72.86386948618204, 43.242554546809743 ], [ -72.864361706058503, 43.24223898275644 ], [ -72.864572953924849, 43.241945642115006 ], [ -72.864999893191793, 43.241900546400274 ], [ -72.865010870256327, 43.241732933770123 ], [ -72.864323030895548, 43.24181232169817 ], [ -72.863787383413396, 43.242036147144553 ], [ -72.8635504731824, 43.242233431848753 ], [ -72.863455717869599, 43.242402128763224 ], [ -72.863533375948847, 43.242714292393657 ], [ -72.862970955706984, 43.243199632604245 ], [ -72.862869864490094, 43.243188002135298 ], [ -72.862817984694701, 43.243106126879773 ], [ -72.86281407152174, 43.242833256842957 ], [ -72.862695056985672, 43.242807268193005 ], [ -72.862654779373401, 43.242742502871536 ], [ -72.862835049321475, 43.242739352336848 ], [ -72.862648493736515, 43.242734413421289 ], [ -72.862481993900332, 43.242487226621222 ], [ -72.862527308514345, 43.242448201402787 ], [ -72.862478077180498, 43.242346411853795 ], [ -72.862042263257379, 43.242217743970258 ], [ -72.861768491449737, 43.242048651604371 ], [ -72.861821854010955, 43.242016747437006 ], [ -72.861918765519491, 43.242075612598633 ], [ -72.861757419965443, 43.241936702671907 ], [ -72.86119874721561, 43.242067373721916 ], [ -72.861120823861327, 43.242157374674271 ], [ -72.86108232984995, 43.242392595216664 ], [ -72.860655743947831, 43.24254792905824 ], [ -72.860086210572121, 43.242470757369794 ], [ -72.860111706492816, 43.242408245980293 ], [ -72.860258067626461, 43.242411575647829 ], [ -72.859659572008511, 43.242237139101498 ], [ -72.859237659640229, 43.241948374301934 ], [ -72.85913088179619, 43.241638289338617 ], [ -72.859269049941858, 43.241334720100497 ], [ -72.859540361962232, 43.241193178217941 ], [ -72.859459099982516, 43.241118254632632 ], [ -72.859541784431002, 43.24106991640587 ], [ -72.859532073921656, 43.240759236805097 ], [ -72.859308502728155, 43.240610807305458 ], [ -72.859124370431061, 43.24067329997068 ], [ -72.858690449359742, 43.240633607675569 ], [ -72.858316505486414, 43.240219639432077 ], [ -72.858472637180896, 43.240355057342533 ], [ -72.85852003659852, 43.240338598227027 ], [ -72.858109932983012, 43.239703806303616 ], [ -72.85808364846784, 43.239463415585064 ], [ -72.858167368704045, 43.239390527316466 ], [ -72.858248942110151, 43.239416088867472 ], [ -72.858406138726366, 43.23924162328003 ], [ -72.858483535949304, 43.239313626186835 ], [ -72.858442892171055, 43.239397790826324 ], [ -72.858551659862258, 43.239411662315511 ], [ -72.858525729692687, 43.239343060030095 ], [ -72.858603323613337, 43.239372769053993 ], [ -72.858470669568803, 43.239713241446054 ], [ -72.858502280113086, 43.239745838252972 ], [ -72.858575318602547, 43.239618010578539 ], [ -72.858686121572219, 43.239918319709908 ], [ -72.858717475968476, 43.239619486702964 ], [ -72.85878657790812, 43.239552339921595 ], [ -72.858820264873117, 43.239799867886369 ], [ -72.858891839921156, 43.239701381136335 ], [ -72.859182293019444, 43.239875213245107 ], [ -72.859101147546198, 43.239612623773873 ], [ -72.858898315402996, 43.239409686833632 ], [ -72.858714956045048, 43.239037575132166 ], [ -72.858181347046155, 43.238541865369179 ], [ -72.857979877979758, 43.237846542762199 ], [ -72.857979880993483, 43.237846426634384 ], [ -72.857825444652363, 43.237688474818832 ], [ -72.857714316512528, 43.237367563286668 ], [ -72.857748507892794, 43.237207930395734 ], [ -72.857626851025302, 43.237208287378444 ], [ -72.85710246612922, 43.236770559573635 ], [ -72.856838179881706, 43.236691268863837 ], [ -72.856583065642084, 43.236703478163051 ], [ -72.856166152203585, 43.236883442666382 ], [ -72.855984961768897, 43.236851191042241 ], [ -72.855924716253213, 43.236790912315747 ], [ -72.855526513084101, 43.236742871341121 ], [ -72.855499769487054, 43.236060864983756 ], [ -72.85534705035974, 43.235825563259581 ], [ -72.855134877412453, 43.235679965113157 ], [ -72.854836308868968, 43.235685968402542 ], [ -72.854530656414724, 43.235829601305561 ], [ -72.85418256964455, 43.235827774773909 ], [ -72.85372671312625, 43.235678306881866 ], [ -72.853029286047502, 43.235773897886752 ], [ -72.852678599908401, 43.235774708618202 ], [ -72.852367913428154, 43.235667190699886 ], [ -72.8519852917034, 43.235683951885946 ], [ -72.851650763644415, 43.235571742716068 ], [ -72.851642881118963, 43.235473540651327 ], [ -72.851714015209836, 43.235469994144374 ], [ -72.851562058308787, 43.23533815012361 ], [ -72.851179536588575, 43.235186986639668 ], [ -72.850985515488929, 43.235051744206935 ], [ -72.850489872240274, 43.234619460595468 ], [ -72.849906903346067, 43.23447327517848 ] ] ], [ [ [ -72.865956299061764, 43.227294509285493 ], [ -72.865681962449571, 43.22729477804328 ], [ -72.865214988679753, 43.22761554819764 ], [ -72.864866818045058, 43.227635419089118 ], [ -72.864755105829701, 43.227544772564819 ], [ -72.864568121137538, 43.227509238616861 ], [ -72.864349570717934, 43.227694402310199 ], [ -72.864426999738228, 43.227736257219064 ], [ -72.864595596391382, 43.227645339254131 ], [ -72.864665396582794, 43.227911553113941 ], [ -72.864425066613364, 43.228061200069568 ], [ -72.864329769955617, 43.227947292429661 ], [ -72.864340338154591, 43.22779480497779 ], [ -72.864239350622427, 43.227801313249294 ], [ -72.864290806599456, 43.227941235221323 ], [ -72.864164509422608, 43.227965864705844 ], [ -72.864108844185765, 43.227914112581146 ], [ -72.864177943983421, 43.228144658049793 ], [ -72.864078835017565, 43.22802739309931 ], [ -72.863911113916657, 43.228074183353336 ], [ -72.863776270299169, 43.228390172994679 ], [ -72.863887749718572, 43.228509956160757 ], [ -72.864011924714404, 43.228471888286187 ], [ -72.864052372735401, 43.228518655274669 ], [ -72.864175843432022, 43.228500422334974 ], [ -72.864018150948439, 43.228460491555211 ], [ -72.864082499921736, 43.228441287440575 ], [ -72.864198262989433, 43.228500754227369 ], [ -72.86415610593248, 43.228527546192254 ], [ -72.864242823716793, 43.22861426092814 ], [ -72.864523894264877, 43.228762001027057 ], [ -72.864905469609582, 43.228834994193512 ], [ -72.864958168400562, 43.228906961814836 ], [ -72.865172632465175, 43.228997374685846 ], [ -72.865455920131041, 43.229272819611005 ], [ -72.865666938927291, 43.229939522682585 ], [ -72.86562363715656, 43.230032914171467 ], [ -72.865774738443434, 43.230068235260788 ], [ -72.865956299061764, 43.227294509285493 ] ] ], [ [ [ -72.851462935414645, 43.215258910181902 ], [ -72.851095666172085, 43.215361024393545 ], [ -72.851031431171847, 43.215720473402271 ], [ -72.851298109940174, 43.215989254846164 ], [ -72.851169816119622, 43.215984057022666 ], [ -72.851100477852697, 43.216086016943507 ], [ -72.851177318953148, 43.216257978114029 ], [ -72.851344061739368, 43.216332615730508 ], [ -72.851170816828386, 43.216386859364675 ], [ -72.85121071767287, 43.216480574388825 ], [ -72.851479312509241, 43.21654867366825 ], [ -72.851596809368672, 43.21673517120378 ], [ -72.851543766469717, 43.216824325330698 ], [ -72.851806612634718, 43.217000243866657 ], [ -72.851927225874093, 43.216960650841763 ], [ -72.852079045898378, 43.217243615317884 ], [ -72.852132673243744, 43.217237064629671 ], [ -72.852040832152326, 43.217528843284967 ], [ -72.851967156190454, 43.217487404933038 ], [ -72.851785641489343, 43.217539080710857 ], [ -72.851734857768662, 43.217670184659276 ], [ -72.851792198528386, 43.217773634021938 ], [ -72.851942726467229, 43.217819498839539 ], [ -72.851913492346384, 43.217847623808446 ], [ -72.851795699082984, 43.217786947214137 ], [ -72.851798836925624, 43.217839287338229 ], [ -72.851951205643303, 43.217888466220707 ], [ -72.851840170215297, 43.218087400599345 ], [ -72.851851352922949, 43.218314049881855 ], [ -72.851987081572688, 43.218354059697113 ], [ -72.851803425413436, 43.218369162868157 ], [ -72.851778063575864, 43.218554528626449 ], [ -72.851906654604321, 43.218439889367083 ], [ -72.851945895612914, 43.218470663449672 ], [ -72.851801966492999, 43.21861613489903 ], [ -72.851942963966025, 43.218645084675799 ], [ -72.852003427478706, 43.218573762847093 ], [ -72.852032441455847, 43.21868189357081 ], [ -72.851854126204145, 43.218661291416687 ], [ -72.851771264879645, 43.218728409947438 ], [ -72.851825925656257, 43.21878876764567 ], [ -72.851935098307251, 43.218756422672989 ], [ -72.851944578818575, 43.218802805911935 ], [ -72.85174906774219, 43.218929930769946 ], [ -72.851885768557011, 43.219122928241205 ], [ -72.851877981395077, 43.219305090329243 ], [ -72.851942575573148, 43.219324389681944 ], [ -72.851862569491317, 43.219521313961813 ], [ -72.852035642096823, 43.219510137294684 ], [ -72.852116561170959, 43.21955110592117 ], [ -72.852328538490525, 43.219657062000771 ], [ -72.852523508655125, 43.219418978708028 ], [ -72.852592816280961, 43.219225170835578 ], [ -72.852520894035507, 43.218814522867952 ], [ -72.852242393585982, 43.218455616831513 ], [ -72.852242066882113, 43.218357809816816 ], [ -72.852138754930195, 43.218370058396836 ], [ -72.852154663877187, 43.218126641554527 ], [ -72.852106052793118, 43.218178815997639 ], [ -72.852022539506464, 43.218135438444676 ], [ -72.852154264057702, 43.218024658983232 ], [ -72.852077378972169, 43.217934909864724 ], [ -72.85212965045956, 43.217857324754142 ], [ -72.852066293526462, 43.217750754368851 ], [ -72.852129729537452, 43.217751506083189 ], [ -72.852208439156371, 43.217898253078097 ], [ -72.852252600494296, 43.217883677873367 ], [ -72.852270776182309, 43.217668093721684 ], [ -72.852388728943467, 43.217582665785152 ], [ -72.852234760999266, 43.217269694790417 ], [ -72.85222477032417, 43.217199677105704 ], [ -72.852300176389903, 43.217138469041906 ], [ -72.852179047238266, 43.217103192619838 ], [ -72.852101084311499, 43.216884529734848 ], [ -72.852177081433794, 43.216873674988555 ], [ -72.852034262891621, 43.216760673673349 ], [ -72.851790304501989, 43.21668414389066 ], [ -72.851833485752039, 43.216484677392096 ], [ -72.851729085594727, 43.216479007046566 ], [ -72.851770999600987, 43.2163419092712 ], [ -72.851674253094814, 43.216478981184295 ], [ -72.851605886433816, 43.216282594953938 ], [ -72.851555294713492, 43.21628054597489 ], [ -72.851598729272524, 43.216409557329776 ], [ -72.851522636344342, 43.216429790607215 ], [ -72.851515387612267, 43.216346722210332 ], [ -72.851416803892874, 43.216294699595863 ], [ -72.851585246973897, 43.216130951387896 ], [ -72.85160888552474, 43.216232429604517 ], [ -72.851627103183475, 43.216142284304681 ], [ -72.851553019886651, 43.216082087885155 ], [ -72.85142245745098, 43.216161521838949 ], [ -72.85156616780138, 43.215646533440747 ], [ -72.851400683582753, 43.215363628177293 ], [ -72.851462935414645, 43.215258910181902 ] ] ] ] } },
{ "type": "Feature", "properties": { "OBJECT_ID": 216, "County": "Bennington", "RPC": "BCRC", "Municipal_Name": "Landgrove", "GEO_ID": "5000339025", "District_Name": "Rural Residential District", "Abbreviated_District_Name": "Rr", "District_Type": "Primarily Residential", "Bylaw_Date": "2023-09-05T00:00:00", "Elderly_Housing_District": "No", "District_Mapped": "Yes", "Overlay_District": "No", "Base_Density": 0.25, "GIS_ID": null, "Last_Update": "20240301", "Shape_Length": 37920.006149043023, "Shape_Area": 19534036.542439505, "F1F_Allowance": "Permitted", "F1F_Front_Setback": 75.0, "F1F_Side_Setback": 50.0, "F1F_Rear_Setback": 50.0, "F1F_Frontage": 400.0, "F1F_Max_Height": 35.0, "F1F_Max_Stories": 3.0, "F1F_Min_Lot_Size": 4.0, "F1F_Max_Lot_Building_Coverage": 15.0, "F1F_Max_Lot_Impervious_Coverage": null, "F1F_Min_Parking_Spaces": 1.0, "F1F_Elderly_Housing_Only": null, "F1F_Affordable_Housing_Only": null, "F2F_Allowance": "Permitted", "F2F_Front_Setback": 75.0, "F2F_Side_Setback": 50.0, "F2F_Rear_Setback": 50.0, "F2F_Frontage": 400.0, "F2F_Max_Density": 0.25, "F2F_Max_Height": 35.0, "F2F_Max_Stories": 3.0, "F2F_Min_Lot_Size": 4.0, "F2F_Max_Lot_Building_Coverage": 15.0, "F2F_Max_Lot_Impervious_Coverage": null, "F2F_Min_Parking_Spaces_per_1BR": 1.0, "F2F_Min_Parking_Spaces_per_mult_BR": 1.0, "F2F_Elderly_Housing_Only": "No", "F2F_Affordable_Housing_Only": "No", "F3F_Allowance": "Prohibited", "F3F_Front_Setback": null, "F3F_Side_Setback": null, "F3F_Rear_Setback": null, "F3F_Frontage": null, "F3F_Max_Density": null, "F3F_Max_Height": null, "F3F_Max_Stories": null, "F3F_Min_Lot_Size": null, "F3F_Max_Lot_Building_Coverage": null, "F3F_Max_Lot_Impervious_Coverage": null, "F3F_Min_Parking_Spaces_per_1BR": null, "F3F_Min_Parking_Spaces_per_mult_BR": null, "F3F_Affordable_Housing_Only": "No", "F3F_Proximity_to_Public_Transit_Required": "No", "F3F_Connection_to_Sewage/Water_Required": "No", "F4F_Allowance": "Prohibited", "F4F_Front_Setback": null, "F4F_Side_Setback": null, "F4F_Rear_Setback": null, "F4F_Frontage": null, "F1F_Max_Density": null, "F4F_Max_Density": null, "F4F_Max_Height": null, "F4F_Max_Stories": null, "F4F_Min_Lot_Size": null, "F4F_Max_Lot_Building_Coverage": null, "F4F_Max_Lot_Impervious_Coverage": null, "F4F_Min_Parking_Spaces_per_1BR": null, "F4F_Min_Parking_Spaces_per_mult_BR": null, "F3F_Elderly_Housing_Only": "No", "F4F_Elderly_Housing_Only": "No", "F4F_Affordable_Housing_Only": "No", "F4F_Proximity_to_Public_Transit_Required": "No", "F4F_Connection_to_Sewage/Water_Required": "No", "ADU_Allowance": "Allowed/Conditional", "ADU_Elderly_Housing_Only": "No", "ADU_Max_Size_as_Percent_of_Primary_Strcture": 40.0, "ADU_Max_Size_in_sq_ft": 1000.0, "ADU_Min_Lot_Size": null, "ADU_Max_Bedrooms": null, "ADU_Min_Parking_Spaces": 1.0, "ADU_Owner_Occupancy_Required": "No", "ADU_Renter_Occupancy_Prohibited": "No", "ADU_Employee_or_Family_Occupancy_Required": "No", "ADU_Restricted_to_Primary_Structure": "No", "Affordable_Housing_Allowance": "Not Mentioned", "Affordable_Housing_District": "No", "Affordable_Housing_Elderly_Only": "No", "Affordable_Housing_Min_Lot_Size": null, "Affordable_Housing_Max_Density": null, "Affordable_Housing_Min_Parking_Spaces_per_mult_BR": null, "Affordable_Housing_Max_Units_per_Building": null, "Affordable_Housing_Min_Parking_Spaces_per_1BR": null, "PRD_Allowance": "Public Hearing", "PRD_Max_Density": null, "PRD_Max_Units": null, "PRD_Min_Lot_Size": null, "PRD_Mobile_or_Manufactured_Home_Park": "No", "PUD_Allowance": "Yes", "PUD_Required_with_Subdivision": "F", "PUD_Requires_Land_Conservation": "F", "PUD_Threshold_Number": null, "Notes": "Dwelling, Multi-Family: A Building Used As Living Quarters By More Than Two Families Living Independently Of One Another. At A Minimum, Units In Multi-Family Dwellings Must Be Attached By A Common Vertical Wall Or Horizontal Floor.\r\n\r\nDensity, Buildings And Uses On Lots\r\nThere Shall Be Only One Principal Building And One Principal Use On A Lot Except As Allowed In 204.2 Below. (If Lots For Rr District Must Be At Least 4 Acres, And There Can Only Be One Principal Building/Use, Then Presumably The Density Per Acre Is 0.25).  ", "FIPS6": "3020" }, "geometry": { "type": "MultiPolygon", "coordinates": [ [ [ [ -72.858858621868578, 43.237760220326535 ], [ -72.857979877979758, 43.237846542762199 ], [ -72.857261621120983, 43.23805869325782 ], [ -72.857234453484125, 43.238066011643966 ], [ -72.857084788609399, 43.238106331821257 ], [ -72.855817383450088, 43.238483541211998 ], [ -72.854985395320369, 43.238662942754594 ], [ -72.85412577209911, 43.238711450375675 ], [ -72.850955899713597, 43.2387031442167 ], [ -72.849646900455426, 43.238519132625797 ], [ -72.848453653042853, 43.257414020342665 ], [ -72.848453322460713, 43.257419328572063 ], [ -72.848448658980445, 43.257493928334604 ], [ -72.848448651062725, 43.257494051677824 ], [ -72.854338204458571, 43.257498791170327 ], [ -72.854446168246909, 43.259538192093949 ], [ -72.854448970494019, 43.259591114291183 ], [ -72.853188487451035, 43.25994650291905 ], [ -72.852503864763577, 43.260240992422901 ], [ -72.852089086554088, 43.260752551413319 ], [ -72.850429729614419, 43.261825575094321 ], [ -72.849523640088222, 43.26193478414924 ], [ -72.849250993122681, 43.261906431698037 ], [ -72.849109574368569, 43.261822743609393 ], [ -72.848872884421638, 43.261509305566513 ], [ -72.848876199749526, 43.261267237315167 ], [ -72.848739138710542, 43.261123450296665 ], [ -72.848344378303281, 43.260931425676716 ], [ -72.84824553052546, 43.2607436957191 ], [ -72.84823615078497, 43.260893745931732 ], [ -72.848234036644328, 43.26092756158608 ], [ -72.848220956876276, 43.26113680718931 ], [ -72.848199286213926, 43.261483500432504 ], [ -72.848113533648231, 43.262855363128878 ], [ -72.84641709549058, 43.262448058774055 ], [ -72.846241923553464, 43.262406000858533 ], [ -72.837886696677003, 43.260399964200531 ], [ -72.835213389397552, 43.260955779018474 ], [ -72.834283723538945, 43.261364526117283 ], [ -72.830412458957099, 43.261316834190652 ], [ -72.829409057530555, 43.26135247059689 ], [ -72.828066596296907, 43.261657574449913 ], [ -72.827447055471296, 43.261423592372147 ], [ -72.826056319513356, 43.261080479404356 ], [ -72.819676745081608, 43.260908667763232 ], [ -72.820001776983119, 43.289224908168798 ], [ -72.820031707183418, 43.291830695613761 ], [ -72.820029852254947, 43.291937320801701 ], [ -72.819977258624363, 43.294874347676178 ], [ -72.81997725703755, 43.294874515105491 ], [ -72.820392179796883, 43.295050768211134 ], [ -72.821281954781071, 43.295254815353523 ], [ -72.822240264260643, 43.295378207665841 ], [ -72.824481697812928, 43.295382103911017 ], [ -72.826033867432272, 43.294855836828688 ], [ -72.828651805113779, 43.294541372254216 ], [ -72.829954035912408, 43.294435298734825 ], [ -72.831693914235132, 43.294952120054113 ], [ -72.83133396861659, 43.295741060118438 ], [ -72.831316617878286, 43.297705736124776 ], [ -72.832149896, 43.298941441797368 ], [ -72.832841233366665, 43.299724982729494 ], [ -72.85038434139004, 43.300194008071138 ], [ -72.850245817168542, 43.299417501597439 ], [ -72.849233444149036, 43.29799297083575 ], [ -72.84788370575184, 43.296653771879434 ], [ -72.847222900698753, 43.296236250975689 ], [ -72.845817845971112, 43.295503771699146 ], [ -72.843951293549921, 43.294874893678568 ], [ -72.844300263728982, 43.294676184355211 ], [ -72.845519461403129, 43.29414860772733 ], [ -72.846481628638742, 43.29383135706837 ], [ -72.84744428565574, 43.293602111897563 ], [ -72.849301298302535, 43.294246093438389 ], [ -72.850154420355537, 43.294427635277827 ], [ -72.851508943447143, 43.294554455618659 ], [ -72.853804343708518, 43.294593220698829 ], [ -72.854307964313847, 43.294860159973773 ], [ -72.856423686893166, 43.294833940581697 ], [ -72.857158046261262, 43.294694126637644 ], [ -72.858106608577799, 43.294389917665711 ], [ -72.858812830572688, 43.294040621064504 ], [ -72.85945543946778, 43.293547447305322 ], [ -72.859884363082074, 43.29329057493112 ], [ -72.860320500710131, 43.292771972404616 ], [ -72.860875741395702, 43.292272933138022 ], [ -72.861065529129121, 43.289975527731201 ], [ -72.860568332718287, 43.289195570643585 ], [ -72.860089617900243, 43.288588044082147 ], [ -72.85966585553038, 43.288176806049343 ], [ -72.858828334792122, 43.287511336696234 ], [ -72.860020602727403, 43.285988284313284 ], [ -72.861116218284977, 43.284825812377058 ], [ -72.861547804214155, 43.28452253833278 ], [ -72.862248420179455, 43.276596868591959 ], [ -72.862457639555871, 43.274230088854807 ], [ -72.862467709450996, 43.274116177044093 ], [ -72.862483498160884, 43.273937564178297 ], [ -72.862574204649874, 43.272911442911749 ], [ -72.862616133127503, 43.272437134037531 ], [ -72.862679263640928, 43.271722972159218 ], [ -72.862707059599103, 43.271408535423596 ], [ -72.862781197780492, 43.270569853067357 ], [ -72.863360889376651, 43.264012136421819 ], [ -72.863386704443045, 43.263720109837287 ], [ -72.863504135839335, 43.262391665181106 ], [ -72.86383147202983, 43.258688700692815 ], [ -72.862144099173662, 43.258718730554463 ], [ -72.862375579007491, 43.257602565604067 ], [ -72.864076581438198, 43.255914666944996 ], [ -72.86448515557548, 43.24975977404825 ], [ -72.862462611668008, 43.248687316109226 ], [ -72.860142708963139, 43.24843883045039 ], [ -72.860093042780292, 43.247415740824145 ], [ -72.86298079243052, 43.247550503627735 ], [ -72.864557521476826, 43.248655004230756 ], [ -72.864999893191793, 43.241900546400274 ], [ -72.865010870256327, 43.241732933770123 ], [ -72.865242899291076, 43.238190129413859 ], [ -72.864881107410625, 43.238304367948324 ], [ -72.864540933452318, 43.238338196042598 ], [ -72.862722328316153, 43.238291586723008 ], [ -72.859817450592004, 43.237829245109964 ], [ -72.858858621868578, 43.237760220326535 ] ] ], [ [ [ -72.827397806351925, 43.268954838329698 ], [ -72.826100290464765, 43.269318726639085 ], [ -72.823689863929474, 43.269358316238382 ], [ -72.823627373630003, 43.271113567857967 ], [ -72.823268750221104, 43.273666534075744 ], [ -72.823299008650167, 43.275249281770485 ], [ -72.823051572598558, 43.278111872432738 ], [ -72.822315230125398, 43.283709821986982 ], [ -72.822133352564876, 43.286906873004348 ], [ -72.822869392488798, 43.287088163400135 ], [ -72.823970334440787, 43.286770709913498 ], [ -72.825170359020902, 43.286544647447926 ], [ -72.829095309883698, 43.286278019967526 ], [ -72.830206867298358, 43.286274816554545 ], [ -72.831865810127468, 43.286374795751513 ], [ -72.833525688495854, 43.286645015889931 ], [ -72.834405186743098, 43.286825813667562 ], [ -72.835114836070318, 43.287092236263341 ], [ -72.836030648918168, 43.287351350178717 ], [ -72.836291051793594, 43.282550491414071 ], [ -72.836097242678406, 43.282122267926304 ], [ -72.83614938200445, 43.279815567911811 ], [ -72.836259674987474, 43.27949803759666 ], [ -72.836375291610125, 43.277604694075798 ], [ -72.836565435381658, 43.276529727391512 ], [ -72.836786510863007, 43.275986756114555 ], [ -72.836788721609111, 43.273848164095448 ], [ -72.836094606768256, 43.272721883828666 ], [ -72.835919743566819, 43.272215260180531 ], [ -72.835729281903227, 43.270043982221871 ], [ -72.834124404402132, 43.269917704891078 ], [ -72.832724191046452, 43.269522310558862 ], [ -72.832321342571817, 43.269602068127298 ], [ -72.828897044375552, 43.269441695870164 ], [ -72.827397806351925, 43.268954838329698 ] ] ], [ [ [ -72.854820145984647, 43.271905091857242 ], [ -72.854737305533021, 43.273077555892137 ], [ -72.855374805326676, 43.27327859042429 ], [ -72.85580518382389, 43.273233000915582 ], [ -72.855948029448115, 43.273217832067012 ], [ -72.855798271981243, 43.272862577341456 ], [ -72.855702671298573, 43.272635789890963 ], [ -72.854820145984647, 43.271905091857242 ] ] ], [ [ [ -72.847408756255405, 43.279845336960442 ], [ -72.847317141227279, 43.281083320884612 ], [ -72.847420695284441, 43.281953993016266 ], [ -72.847508317648035, 43.284750049704776 ], [ -72.848863689407935, 43.283495111345935 ], [ -72.849702411200127, 43.282811424108708 ], [ -72.849995246134725, 43.28228660010177 ], [ -72.850333537798491, 43.281892718338902 ], [ -72.850761456452091, 43.281485369260963 ], [ -72.850767898948675, 43.281046597252939 ], [ -72.850011820859194, 43.280498816873788 ], [ -72.848934165514805, 43.280141927125626 ], [ -72.847408756255405, 43.279845336960442 ] ] ], [ [ [ -72.85540845078873, 43.22715194959801 ], [ -72.854611861657034, 43.227328375375834 ], [ -72.854011289433629, 43.227524653070802 ], [ -72.852726997026238, 43.228060713318108 ], [ -72.851779169135341, 43.228708280773802 ], [ -72.851291930909412, 43.229149778264009 ], [ -72.850737298928735, 43.230041710623134 ], [ -72.85053063371781, 43.230502055565104 ], [ -72.850340024376024, 43.231248682111534 ], [ -72.850089753524685, 43.231075064358549 ], [ -72.849916018592836, 43.234331925731382 ], [ -72.84989403340613, 43.23467147563894 ], [ -72.84992998481421, 43.234684665287006 ], [ -72.850985515488929, 43.235051744206935 ], [ -72.851149242515319, 43.23510555278358 ], [ -72.853370454384873, 43.235092164567554 ], [ -72.854211430909515, 43.234925843026502 ], [ -72.855338254300733, 43.23462765156053 ], [ -72.857217261181844, 43.234300906736721 ], [ -72.858156470005667, 43.234088407811782 ], [ -72.860210451890083, 43.234156091862452 ], [ -72.860657882563558, 43.234209167800309 ], [ -72.863865656043615, 43.234785785119669 ], [ -72.865464884518616, 43.234801298739711 ], [ -72.865630343142726, 43.232274196971197 ], [ -72.864030752945865, 43.232367172955207 ], [ -72.861816158985008, 43.231968171879537 ], [ -72.861836556518568, 43.230874452824899 ], [ -72.86123849783192, 43.22969755523706 ], [ -72.860850072931726, 43.229135581828608 ], [ -72.859950104046405, 43.228391850300568 ], [ -72.858741892341556, 43.227673637242589 ], [ -72.858278743213489, 43.227439740598783 ], [ -72.8571579282752, 43.227207896305423 ], [ -72.85540845078873, 43.22715194959801 ] ] ], [ [ [ -72.851630440316157, 43.204842259871832 ], [ -72.851624589874945, 43.204929785715102 ], [ -72.851199991400108, 43.211281027326237 ], [ -72.851188417517548, 43.211454172770686 ], [ -72.851121716314509, 43.212451899290272 ], [ -72.851991237927848, 43.21205925678418 ], [ -72.852562803870029, 43.211709589214188 ], [ -72.853620265038984, 43.210713766103765 ], [ -72.85393935442103, 43.210252312842549 ], [ -72.854312439489249, 43.209453016609132 ], [ -72.854362353302292, 43.208409139676299 ], [ -72.85550615481155, 43.207842799243501 ], [ -72.856301655503003, 43.207523114397695 ], [ -72.857291431912486, 43.206936770785049 ], [ -72.858808842583301, 43.205683645951261 ], [ -72.859313654237383, 43.205122066264629 ], [ -72.851630440316157, 43.204842259871832 ] ] ] ] } },
{ "type": "Feature", "properties": { "OBJECT_ID": 217, "County": "Bennington", "RPC": "BCRC", "Municipal_Name": "Landgrove", "GEO_ID": "5000339025", "District_Name": "Utley Flats Scenic Overlay District", "Abbreviated_District_Name": "Ufo", "District_Type": "Primarily Residential", "Bylaw_Date": "2023-09-05T00:00:00", "Elderly_Housing_District": "No", "District_Mapped": "Yes", "Overlay_District": "Yes", "Base_Density": null, "GIS_ID": null, "Last_Update": "20240301", "Shape_Length": 6423.3656211454063, "Shape_Area": 1584089.2639741616, "F1F_Allowance": "Public Hearing", "F1F_Front_Setback": null, "F1F_Side_Setback": null, "F1F_Rear_Setback": null, "F1F_Frontage": null, "F1F_Max_Height": null, "F1F_Max_Stories": null, "F1F_Min_Lot_Size": null, "F1F_Max_Lot_Building_Coverage": null, "F1F_Max_Lot_Impervious_Coverage": null, "F1F_Min_Parking_Spaces": null, "F1F_Elderly_Housing_Only": null, "F1F_Affordable_Housing_Only": null, "F2F_Allowance": "Public Hearing", "F2F_Front_Setback": null, "F2F_Side_Setback": null, "F2F_Rear_Setback": null, "F2F_Frontage": null, "F2F_Max_Density": null, "F2F_Max_Height": null, "F2F_Max_Stories": null, "F2F_Min_Lot_Size": null, "F2F_Max_Lot_Building_Coverage": null, "F2F_Max_Lot_Impervious_Coverage": null, "F2F_Min_Parking_Spaces_per_1BR": null, "F2F_Min_Parking_Spaces_per_mult_BR": null, "F2F_Elderly_Housing_Only": "No", "F2F_Affordable_Housing_Only": "No", "F3F_Allowance": "Prohibited", "F3F_Front_Setback": null, "F3F_Side_Setback": null, "F3F_Rear_Setback": null, "F3F_Frontage": null, "F3F_Max_Density": null, "F3F_Max_Height": null, "F3F_Max_Stories": null, "F3F_Min_Lot_Size": null, "F3F_Max_Lot_Building_Coverage": null, "F3F_Max_Lot_Impervious_Coverage": null, "F3F_Min_Parking_Spaces_per_1BR": null, "F3F_Min_Parking_Spaces_per_mult_BR": null, "F3F_Affordable_Housing_Only": "No", "F3F_Proximity_to_Public_Transit_Required": "No", "F3F_Connection_to_Sewage/Water_Required": "No", "F4F_Allowance": "Prohibited", "F4F_Front_Setback": null, "F4F_Side_Setback": null, "F4F_Rear_Setback": null, "F4F_Frontage": null, "F1F_Max_Density": null, "F4F_Max_Density": null, "F4F_Max_Height": null, "F4F_Max_Stories": null, "F4F_Min_Lot_Size": null, "F4F_Max_Lot_Building_Coverage": null, "F4F_Max_Lot_Impervious_Coverage": null, "F4F_Min_Parking_Spaces_per_1BR": null, "F4F_Min_Parking_Spaces_per_mult_BR": null, "F3F_Elderly_Housing_Only": "No", "F4F_Elderly_Housing_Only": "No", "F4F_Affordable_Housing_Only": "No", "F4F_Proximity_to_Public_Transit_Required": "No", "F4F_Connection_to_Sewage/Water_Required": "No", "ADU_Allowance": "Public Hearing", "ADU_Elderly_Housing_Only": "No", "ADU_Max_Size_as_Percent_of_Primary_Strcture": null, "ADU_Max_Size_in_sq_ft": null, "ADU_Min_Lot_Size": null, "ADU_Max_Bedrooms": null, "ADU_Min_Parking_Spaces": null, "ADU_Owner_Occupancy_Required": "No", "ADU_Renter_Occupancy_Prohibited": "No", "ADU_Employee_or_Family_Occupancy_Required": "No", "ADU_Restricted_to_Primary_Structure": "No", "Affordable_Housing_Allowance": "Not Mentioned", "Affordable_Housing_District": "No", "Affordable_Housing_Elderly_Only": "No", "Affordable_Housing_Min_Lot_Size": null, "Affordable_Housing_Max_Density": null, "Affordable_Housing_Min_Parking_Spaces_per_mult_BR": null, "Affordable_Housing_Max_Units_per_Building": null, "Affordable_Housing_Min_Parking_Spaces_per_1BR": null, "PRD_Allowance": "Not Mentioned", "PRD_Max_Density": null, "PRD_Max_Units": null, "PRD_Min_Lot_Size": null, "PRD_Mobile_or_Manufactured_Home_Park": "No", "PUD_Allowance": null, "PUD_Required_with_Subdivision": null, "PUD_Requires_Land_Conservation": null, "PUD_Threshold_Number": null, "Notes": "Districts And Overlays, Ufso, Permitted Uses:\r\n1. Agricultural And Forestry Uses.\r\n2. Home Occupations.\r\n3. Wildlife Refuge.\r\n4. Installation Of Underground Utility Lines.\r\n5. Landscaping Other Than The Removal Of Trees And Brush Requiring A Permit Under\r\nSection 222 Below.\r\n\r\nDistricts And Overlays, Ufso, Conditionally Permitted Uses:\r\n1. Subdivision Of Land.\r\n2. Construction Of A New Or Addition to An Existing One- Or Two-Family Home, Primitive\r\nCamp, Or Accessory Structure (Note: All Accessory Structures, Regardless Of Size,\r\nRequire Review Under This Section).\r\n3. The Installation Of Above-Ground Power Or Telephone Utility Lines.\r\n4. Removal Of Trees Or Other Vegetation Which Provide Screening Of An Existing\r\nStructure That Has Been Permitted Pursuant to This Section With Conditions That Limit\r\nRemoval Of Such Vegetation.\r\n5. Removal Of Trees Located Within 25 Feet Of The Edge Of A Town Highway Which Have A\r\nDiameter At Breast Height Of Eight Inches Or More And Which Contribute to The Scenic\r\nQualities Afforded By Rural Roadways And Village Streets.  ", "FIPS6": "3020" }, "geometry": { "type": "Polygon", "coordinates": [ [ [ -72.857088245413379, 43.258789408066939 ], [ -72.856867275211101, 43.258541412569215 ], [ -72.855460276370337, 43.258499951907375 ], [ -72.855436032525049, 43.257412927137963 ], [ -72.848453653042853, 43.257414020342665 ], [ -72.848453322460713, 43.257419328572063 ], [ -72.848448658980445, 43.257493928334604 ], [ -72.848448651062725, 43.257494051677824 ], [ -72.848444621850589, 43.257558503135186 ], [ -72.848267358632285, 43.260394460850712 ], [ -72.848248497838497, 43.260696206155458 ], [ -72.848245547337527, 43.260743404022882 ], [ -72.84824553052546, 43.2607436957191 ], [ -72.84823615078497, 43.260893745931732 ], [ -72.848234036644328, 43.26092756158608 ], [ -72.848220956876276, 43.26113680718931 ], [ -72.848199286213926, 43.261483500432504 ], [ -72.848113533648231, 43.262855363128878 ], [ -72.848238400675925, 43.263230746826636 ], [ -72.850138199460119, 43.263244593968047 ], [ -72.850100712769986, 43.264521721630373 ], [ -72.848764893483235, 43.264414473974206 ], [ -72.848974137419333, 43.264963933763511 ], [ -72.85022913170161, 43.265038683920679 ], [ -72.850343649831586, 43.266256407427377 ], [ -72.851582861172773, 43.26669792257843 ], [ -72.85281789204349, 43.266412521726203 ], [ -72.854163179560544, 43.266598280128719 ], [ -72.854437830582327, 43.267599392781619 ], [ -72.85352280173467, 43.268984017681611 ], [ -72.856118779488455, 43.270017222840352 ], [ -72.855798282517426, 43.272862482794274 ], [ -72.855798271981243, 43.272862577341456 ], [ -72.85576088486566, 43.27319449401854 ], [ -72.855805145436619, 43.273232966829788 ], [ -72.85580518382389, 43.273233000915582 ], [ -72.85882385741111, 43.275876474305264 ], [ -72.859787451502271, 43.276652750589498 ], [ -72.862248420179455, 43.276596868591959 ], [ -72.862250261712049, 43.27659682675467 ], [ -72.862459167525444, 43.274233684560201 ], [ -72.862469949657481, 43.274111710667881 ], [ -72.862485194164123, 43.273939376180074 ], [ -72.862577207272494, 43.272898457019977 ], [ -72.862617887179567, 43.272438355363903 ], [ -72.862674547543037, 43.271797359142781 ], [ -72.862709034401405, 43.271407313976646 ], [ -72.862782989430471, 43.27057077632692 ], [ -72.863362732717931, 43.264012876781159 ], [ -72.863388479695146, 43.263721621831181 ], [ -72.86350601540795, 43.262392084973897 ], [ -72.863504135839335, 43.262391665181106 ], [ -72.862578649340605, 43.262184228276361 ], [ -72.861877782538912, 43.261859006871582 ], [ -72.860663234231822, 43.261037696235363 ], [ -72.860165701617646, 43.260240310422027 ], [ -72.85912017366033, 43.260314200813831 ], [ -72.858355713457257, 43.260245994893225 ], [ -72.857467107833514, 43.259986823925459 ], [ -72.857376650187689, 43.259593098595936 ], [ -72.857358485781219, 43.259514040317349 ], [ -72.857344140536341, 43.25945159837417 ], [ -72.857316654548811, 43.259331962129579 ], [ -72.857228051612751, 43.258946312292906 ], [ -72.857088245413379, 43.258789408066939 ] ] ] } },
{ "type": "Feature", "properties": { "OBJECT_ID": 218, "County": "Bennington", "RPC": "BCRC", "Municipal_Name": "Landgrove", "GEO_ID": "5000339025", "District_Name": "Village District", "Abbreviated_District_Name": "V", "District_Type": "Primarily Residential", "Bylaw_Date": "2023-09-05T00:00:00", "Elderly_Housing_District": "No", "District_Mapped": "Yes", "Overlay_District": "No", "Base_Density": 0.25, "GIS_ID": null, "Last_Update": "20240301", "Shape_Length": 1751.0727988300857, "Shape_Area": 187047.55284197765, "F1F_Allowance": "Permitted", "F1F_Front_Setback": 30.0, "F1F_Side_Setback": 15.0, "F1F_Rear_Setback": 15.0, "F1F_Frontage": 100.0, "F1F_Max_Height": 35.0, "F1F_Max_Stories": 3.0, "F1F_Min_Lot_Size": 2.0, "F1F_Max_Lot_Building_Coverage": 25.0, "F1F_Max_Lot_Impervious_Coverage": null, "F1F_Min_Parking_Spaces": 1.0, "F1F_Elderly_Housing_Only": null, "F1F_Affordable_Housing_Only": null, "F2F_Allowance": "Permitted", "F2F_Front_Setback": 30.0, "F2F_Side_Setback": 15.0, "F2F_Rear_Setback": 15.0, "F2F_Frontage": 100.0, "F2F_Max_Density": 0.5, "F2F_Max_Height": 35.0, "F2F_Max_Stories": 3.0, "F2F_Min_Lot_Size": 2.0, "F2F_Max_Lot_Building_Coverage": 25.0, "F2F_Max_Lot_Impervious_Coverage": null, "F2F_Min_Parking_Spaces_per_1BR": 1.0, "F2F_Min_Parking_Spaces_per_mult_BR": 1.0, "F2F_Elderly_Housing_Only": "No", "F2F_Affordable_Housing_Only": "No", "F3F_Allowance": "Prohibited", "F3F_Front_Setback": null, "F3F_Side_Setback": null, "F3F_Rear_Setback": null, "F3F_Frontage": null, "F3F_Max_Density": null, "F3F_Max_Height": null, "F3F_Max_Stories": null, "F3F_Min_Lot_Size": null, "F3F_Max_Lot_Building_Coverage": null, "F3F_Max_Lot_Impervious_Coverage": null, "F3F_Min_Parking_Spaces_per_1BR": null, "F3F_Min_Parking_Spaces_per_mult_BR": null, "F3F_Affordable_Housing_Only": "No", "F3F_Proximity_to_Public_Transit_Required": "No", "F3F_Connection_to_Sewage/Water_Required": "No", "F4F_Allowance": "Prohibited", "F4F_Front_Setback": null, "F4F_Side_Setback": null, "F4F_Rear_Setback": null, "F4F_Frontage": null, "F1F_Max_Density": null, "F4F_Max_Density": null, "F4F_Max_Height": null, "F4F_Max_Stories": null, "F4F_Min_Lot_Size": null, "F4F_Max_Lot_Building_Coverage": null, "F4F_Max_Lot_Impervious_Coverage": null, "F4F_Min_Parking_Spaces_per_1BR": null, "F4F_Min_Parking_Spaces_per_mult_BR": null, "F3F_Elderly_Housing_Only": "No", "F4F_Elderly_Housing_Only": "No", "F4F_Affordable_Housing_Only": "No", "F4F_Proximity_to_Public_Transit_Required": "No", "F4F_Connection_to_Sewage/Water_Required": "No", "ADU_Allowance": "Allowed/Conditional", "ADU_Elderly_Housing_Only": "No", "ADU_Max_Size_as_Percent_of_Primary_Strcture": 40.0, "ADU_Max_Size_in_sq_ft": 1000.0, "ADU_Min_Lot_Size": null, "ADU_Max_Bedrooms": null, "ADU_Min_Parking_Spaces": 1.0, "ADU_Owner_Occupancy_Required": "No", "ADU_Renter_Occupancy_Prohibited": "No", "ADU_Employee_or_Family_Occupancy_Required": "No", "ADU_Restricted_to_Primary_Structure": "No", "Affordable_Housing_Allowance": "Not Mentioned", "Affordable_Housing_District": "No", "Affordable_Housing_Elderly_Only": "No", "Affordable_Housing_Min_Lot_Size": null, "Affordable_Housing_Max_Density": null, "Affordable_Housing_Min_Parking_Spaces_per_mult_BR": null, "Affordable_Housing_Max_Units_per_Building": null, "Affordable_Housing_Min_Parking_Spaces_per_1BR": null, "PRD_Allowance": "Public Hearing", "PRD_Max_Density": null, "PRD_Max_Units": null, "PRD_Min_Lot_Size": null, "PRD_Mobile_or_Manufactured_Home_Park": "No", "PUD_Allowance": "Yes", "PUD_Required_with_Subdivision": "F", "PUD_Requires_Land_Conservation": "F", "PUD_Threshold_Number": null, "Notes": " Neighborhood And Mixed-Use Puds Permitted With Conditional Use (Public Hearing). ", "FIPS6": "3020" }, "geometry": { "type": "Polygon", "coordinates": [ [ [ -72.848448651062725, 43.257494051677824 ], [ -72.848444621850589, 43.257558503135186 ], [ -72.848267358632285, 43.260394460850712 ], [ -72.848248497838497, 43.260696206155458 ], [ -72.848245547337527, 43.260743404022882 ], [ -72.848344538378385, 43.260931418888283 ], [ -72.848739237763311, 43.261123325775536 ], [ -72.848876298802281, 43.261267112793924 ], [ -72.848872983479907, 43.261509181945392 ], [ -72.849109673426881, 43.261822619988081 ], [ -72.849251092180836, 43.26190630807659 ], [ -72.849523739135577, 43.261934658727306 ], [ -72.850429827428087, 43.261825449675385 ], [ -72.852089086554088, 43.260752551413319 ], [ -72.852503864763577, 43.260240992422901 ], [ -72.85318858649805, 43.259946379294185 ], [ -72.854448970494019, 43.259591114291183 ], [ -72.854446272869751, 43.2595381809681 ], [ -72.854338303488888, 43.257498665744187 ], [ -72.848448658980445, 43.257493928334604 ], [ -72.848448651062725, 43.257494051677824 ] ] ] } },
{ "type": "Feature", "properties": { "OBJECT_ID": 894, "County": "Bennington", "RPC": "WRC", "Municipal_Name": "Landgrove", "GEO_ID": null, "District_Name": "Conservation/Agriculture/Resource District", "Abbreviated_District_Name": "Care", "District_Type": "Primarily Residential", "Bylaw_Date": "2023-09-05T00:00:00", "Elderly_Housing_District": "No", "District_Mapped": "Yes", "Overlay_District": "No", "Base_Density": 0.1, "GIS_ID": null, "Last_Update": null, "Shape_Length": 30462.946225879605, "Shape_Area": 7084670.5237694811, "F1F_Allowance": "Public Hearing", "F1F_Front_Setback": 50.0, "F1F_Side_Setback": 50.0, "F1F_Rear_Setback": 50.0, "F1F_Frontage": 400.0, "F1F_Max_Height": 35.0, "F1F_Max_Stories": 3.0, "F1F_Min_Lot_Size": 10.0, "F1F_Max_Lot_Building_Coverage": 10.0, "F1F_Max_Lot_Impervious_Coverage": null, "F1F_Min_Parking_Spaces": 1.0, "F1F_Elderly_Housing_Only": null, "F1F_Affordable_Housing_Only": null, "F2F_Allowance": "Public Hearing", "F2F_Front_Setback": 50.0, "F2F_Side_Setback": 50.0, "F2F_Rear_Setback": 50.0, "F2F_Frontage": 400.0, "F2F_Max_Density": 0.1, "F2F_Max_Height": 35.0, "F2F_Max_Stories": 3.0, "F2F_Min_Lot_Size": 10.0, "F2F_Max_Lot_Building_Coverage": 10.0, "F2F_Max_Lot_Impervious_Coverage": null, "F2F_Min_Parking_Spaces_per_1BR": 1.0, "F2F_Min_Parking_Spaces_per_mult_BR": 1.0, "F2F_Elderly_Housing_Only": "No", "F2F_Affordable_Housing_Only": "No", "F3F_Allowance": "Prohibited", "F3F_Front_Setback": null, "F3F_Side_Setback": null, "F3F_Rear_Setback": null, "F3F_Frontage": null, "F3F_Max_Density": null, "F3F_Max_Height": null, "F3F_Max_Stories": null, "F3F_Min_Lot_Size": null, "F3F_Max_Lot_Building_Coverage": null, "F3F_Max_Lot_Impervious_Coverage": null, "F3F_Min_Parking_Spaces_per_1BR": null, "F3F_Min_Parking_Spaces_per_mult_BR": null, "F3F_Affordable_Housing_Only": "No", "F3F_Proximity_to_Public_Transit_Required": "No", "F3F_Connection_to_Sewage/Water_Required": "No", "F4F_Allowance": "Prohibited", "F4F_Front_Setback": null, "F4F_Side_Setback": null, "F4F_Rear_Setback": null, "F4F_Frontage": null, "F1F_Max_Density": null, "F4F_Max_Density": null, "F4F_Max_Height": null, "F4F_Max_Stories": null, "F4F_Min_Lot_Size": null, "F4F_Max_Lot_Building_Coverage": null, "F4F_Max_Lot_Impervious_Coverage": null, "F4F_Min_Parking_Spaces_per_1BR": null, "F4F_Min_Parking_Spaces_per_mult_BR": null, "F3F_Elderly_Housing_Only": "No", "F4F_Elderly_Housing_Only": "No", "F4F_Affordable_Housing_Only": "No", "F4F_Proximity_to_Public_Transit_Required": "No", "F4F_Connection_to_Sewage/Water_Required": "No", "ADU_Allowance": "Allowed/Conditional", "ADU_Elderly_Housing_Only": "No", "ADU_Max_Size_as_Percent_of_Primary_Strcture": 40.0, "ADU_Max_Size_in_sq_ft": 1000.0, "ADU_Min_Lot_Size": null, "ADU_Max_Bedrooms": null, "ADU_Min_Parking_Spaces": 1.0, "ADU_Owner_Occupancy_Required": "No", "ADU_Renter_Occupancy_Prohibited": "No", "ADU_Employee_or_Family_Occupancy_Required": "No", "ADU_Restricted_to_Primary_Structure": "No", "Affordable_Housing_Allowance": "Not Mentioned", "Affordable_Housing_District": "No", "Affordable_Housing_Elderly_Only": "No", "Affordable_Housing_Min_Lot_Size": null, "Affordable_Housing_Max_Density": null, "Affordable_Housing_Min_Parking_Spaces_per_mult_BR": null, "Affordable_Housing_Max_Units_per_Building": null, "Affordable_Housing_Min_Parking_Spaces_per_1BR": null, "PRD_Allowance": "Public Hearing", "PRD_Max_Density": null, "PRD_Max_Units": null, "PRD_Min_Lot_Size": null, "PRD_Mobile_or_Manufactured_Home_Park": "No", "PUD_Allowance": "Yes", "PUD_Required_with_Subdivision": "F", "PUD_Requires_Land_Conservation": "T", "PUD_Threshold_Number": null, "Notes": "None", "FIPS6": null }, "geometry": { "type": "MultiPolygon", "coordinates": [ [ [ [ -72.82995413506211, 43.294435175130488 ], [ -72.828651904256589, 43.294541246850784 ], [ -72.826033966590614, 43.294855713227726 ], [ -72.8244817982076, 43.295381980307901 ], [ -72.822240363422793, 43.295378083168046 ], [ -72.821282053944955, 43.295254690856531 ], [ -72.820392278962274, 43.295050643714937 ], [ -72.819977258624363, 43.294874347676178 ], [ -72.81997725703755, 43.294874515105491 ], [ -72.8199744724878, 43.295029973290809 ], [ -72.819896714528383, 43.299371949048201 ], [ -72.832841233366665, 43.299724982729494 ], [ -72.83214999515252, 43.298941318191211 ], [ -72.831316717020741, 43.297705610719092 ], [ -72.831334067760707, 43.295740935612812 ], [ -72.831694013382133, 43.294951996448304 ], [ -72.82995413506211, 43.294435175130488 ] ] ], [ [ [ -72.860875741395702, 43.292272933138022 ], [ -72.860320500710131, 43.292771972404616 ], [ -72.859884363082074, 43.29329057493112 ], [ -72.859455538545532, 43.293547321875373 ], [ -72.858812929663131, 43.294040497435368 ], [ -72.858106707664987, 43.29438979313705 ], [ -72.857158145350837, 43.294694002109829 ], [ -72.856423785984489, 43.294833816054513 ], [ -72.854308063409547, 43.294860035448401 ], [ -72.853804442804815, 43.294593096173863 ], [ -72.851509042548045, 43.294554331095675 ], [ -72.850154519459039, 43.294427510756016 ], [ -72.849301397402343, 43.294245968017201 ], [ -72.847444384763449, 43.293601987378068 ], [ -72.846481727753911, 43.293831233449822 ], [ -72.845519560515669, 43.294148483209497 ], [ -72.844300364077156, 43.294676059834742 ], [ -72.843951293549921, 43.294874893678568 ], [ -72.845817945090317, 43.295503648081187 ], [ -72.847222999806021, 43.296236125556291 ], [ -72.847883804868687, 43.296653648259721 ], [ -72.849233543265299, 43.297992847214886 ], [ -72.850245916285061, 43.299417377975743 ], [ -72.850384440507526, 43.300193884449328 ], [ -72.859911750407775, 43.300367184856327 ], [ -72.860580708246985, 43.296778229171039 ], [ -72.860875741395702, 43.292272933138022 ] ] ], [ [ [ -72.861547804214155, 43.28452253833278 ], [ -72.861116324780483, 43.284825694123143 ], [ -72.860020602727403, 43.285988284313284 ], [ -72.858828334792122, 43.287511336696234 ], [ -72.859665954599038, 43.288176680619131 ], [ -72.860089716979317, 43.288587920451832 ], [ -72.860568431792061, 43.289195446112736 ], [ -72.861065628203121, 43.289975403199939 ], [ -72.861547804214155, 43.28452253833278 ] ] ], [ [ [ -72.847408756255405, 43.279845336960442 ], [ -72.847317207285812, 43.281083237871556 ], [ -72.847420761343784, 43.281953910003161 ], [ -72.847508383710263, 43.284749966691642 ], [ -72.848863755466965, 43.283495028332005 ], [ -72.849702411200127, 43.282811424108708 ], [ -72.849995246134725, 43.28228660010177 ], [ -72.850333537798491, 43.281892718338902 ], [ -72.850761522589124, 43.28148530064783 ], [ -72.850767965002461, 43.281046514237914 ], [ -72.85001188691345, 43.280498733859176 ], [ -72.848934231570141, 43.280141844111625 ], [ -72.847408756255405, 43.279845336960442 ] ] ], [ [ [ -72.854820145984647, 43.271905091857242 ], [ -72.854737338558152, 43.273077515283553 ], [ -72.855374838341035, 43.273278548015284 ], [ -72.855805145436619, 43.273232966829788 ], [ -72.855948029448115, 43.273217832067012 ], [ -72.855798282517426, 43.272862482794274 ], [ -72.855702704322837, 43.272635749282095 ], [ -72.854820145984647, 43.271905091857242 ] ] ], [ [ [ -72.827397905460941, 43.268954713827014 ], [ -72.826100389581811, 43.269318603037647 ], [ -72.823689863929474, 43.269358316238382 ], [ -72.823627472750204, 43.271113443358537 ], [ -72.82326884934136, 43.273666408676583 ], [ -72.823299107777686, 43.275249157271446 ], [ -72.823051671731221, 43.278111747933934 ], [ -72.822315330495911, 43.283709696585326 ], [ -72.822133451708837, 43.286906747606366 ], [ -72.822869491636283, 43.287088038901629 ], [ -72.823970433585501, 43.286770585414061 ], [ -72.825170458158013, 43.286544522047357 ], [ -72.829095409022003, 43.286277896363814 ], [ -72.830206966429543, 43.286274692049766 ], [ -72.831865909255399, 43.286374671245277 ], [ -72.833525786393608, 43.286644892285999 ], [ -72.83440528586658, 43.286825689159144 ], [ -72.835114935192763, 43.287092111754347 ], [ -72.836030648918168, 43.287351350178717 ], [ -72.83629115090136, 43.282550366003854 ], [ -72.836097341795792, 43.282122144316496 ], [ -72.836149481118014, 43.279815444301924 ], [ -72.836259774100313, 43.279497913986646 ], [ -72.836375390714707, 43.277604569565526 ], [ -72.836565534479149, 43.276529601980961 ], [ -72.836786609959191, 43.275986630703805 ], [ -72.836788820701841, 43.273848038684669 ], [ -72.836094707097416, 43.272721759314962 ], [ -72.835919842663657, 43.272215135670578 ], [ -72.835729380991992, 43.270043856811917 ], [ -72.834124503503844, 43.269917581282776 ], [ -72.832724290150395, 43.269522186951754 ], [ -72.832321440435123, 43.269601942723845 ], [ -72.828897143487154, 43.269441572266338 ], [ -72.827397905460941, 43.268954713827014 ] ] ], [ [ [ -72.819620563406744, 43.256014382013511 ], [ -72.819676744412902, 43.260908539945348 ], [ -72.826056418607635, 43.26108035400258 ], [ -72.827447154563245, 43.26142346696917 ], [ -72.828066695388003, 43.261657449046417 ], [ -72.829409156623214, 43.261352346092366 ], [ -72.830412558042781, 43.261316708785131 ], [ -72.834283821385128, 43.26136440071204 ], [ -72.835213488482651, 43.26095565540907 ], [ -72.837886500586578, 43.260399917072377 ], [ -72.819620563406744, 43.256014382013511 ] ] ], [ [ [ -72.864076581438198, 43.255914666944996 ], [ -72.862375579007491, 43.257602565604067 ], [ -72.862144198200525, 43.258718606921882 ], [ -72.86383157105324, 43.258688577058813 ], [ -72.864076581438198, 43.255914666944996 ] ] ], [ [ [ -72.860093042780292, 43.247415740824145 ], [ -72.860142807972252, 43.248438705919256 ], [ -72.862462710667444, 43.248687190675966 ], [ -72.864485254572472, 43.249759648613257 ], [ -72.864557521476826, 43.248655004230756 ], [ -72.8629808914324, 43.247550379094157 ], [ -72.860093042780292, 43.247415740824145 ] ] ], [ [ [ -72.859313654237383, 43.205122066264629 ], [ -72.858808842583301, 43.205683645951261 ], [ -72.857291431912486, 43.206936770785049 ], [ -72.856301655503003, 43.207523114397695 ], [ -72.85550615481155, 43.207842799243501 ], [ -72.854362353302292, 43.208409139676299 ], [ -72.854312439489249, 43.209453016609132 ], [ -72.85393935442103, 43.210252312842549 ], [ -72.853620265038984, 43.210713766103765 ], [ -72.852562803870029, 43.211709589214188 ], [ -72.851991237927848, 43.21205925678418 ], [ -72.851121716314509, 43.212451899290272 ], [ -72.850636561102007, 43.219708980615501 ], [ -72.850243240116939, 43.227884661100141 ], [ -72.850214531626548, 43.228481386985813 ], [ -72.850089753524685, 43.231075064358549 ], [ -72.850340024376024, 43.231248682111534 ], [ -72.85053063371781, 43.230502055565104 ], [ -72.850737298928735, 43.230041710623134 ], [ -72.851291930909412, 43.229149778264009 ], [ -72.851779169135341, 43.228708280773802 ], [ -72.852726997026238, 43.228060713318108 ], [ -72.854011289433629, 43.227524653070802 ], [ -72.854611861657034, 43.227328375375834 ], [ -72.85540845078873, 43.22715194959801 ], [ -72.8571579282752, 43.227207896305423 ], [ -72.858278743213489, 43.227439740598783 ], [ -72.858741892341556, 43.227673637242589 ], [ -72.859950104046405, 43.228391850300568 ], [ -72.860850072931726, 43.229135581828608 ], [ -72.86123849783192, 43.22969755523706 ], [ -72.861836556518568, 43.230874452824899 ], [ -72.861816158985008, 43.231968171879537 ], [ -72.864030752945865, 43.232367172955207 ], [ -72.865630343142726, 43.232274196971197 ], [ -72.865774738443434, 43.230068235260788 ], [ -72.865956299061764, 43.227294509285493 ], [ -72.867301726122378, 43.205426111675308 ], [ -72.862137491331595, 43.205224902350999 ], [ -72.859313654237383, 43.205122066264629 ] ] ] ] } }
]
}
