{"type":"FeatureCollection","name":"Caledonia_Stannard","features":[{"type":"Feature","properties":{"OBJECT_ID":575,"County":"Caledonia","RPC":"NVDA","Municipal_Name":"Stannard","GEO_ID":"5000569925","District_Name":"Forest District","Abbreviated_District_Name":"For","District_Type":"Mixed with Residential","Bylaw_Date":null,"Elderly_Housing_District":"No","District_Mapped":"Yes","Overlay_District":"No","Base_Density":null,"FIPS6":null,"GIS_ID":null,"Last_Update":null,"Shape_Length":20309.48581779346,"Shape_Area":16455346.947360983,"F1F_Allowance":"Public Hearing","F1F_Front_Setback":25.0,"F1F_Side_Setback":75.0,"F1F_Rear_Setback":100.0,"F1F_Frontage":300.0,"F1F_Max_Height":39.0,"F1F_Max_Stories":null,"F1F_Min_Lot_Size":25.0,"F1F_Max_Lot_Building_Coverage":null,"F1F_Max_Lot_Impervious_Coverage":null,"F1F_Min_Parking_Spaces":2.0,"F1F_Elderly_Housing_Only":null,"F1F_Affordable_Housing_Only":null,"F2F_Allowance":"Public Hearing","F2F_Front_Setback":25.0,"F2F_Side_Setback":75.0,"F2F_Rear_Setback":100.0,"F2F_Frontage":300.0,"F2F_Max_Density":0.08,"F2F_Max_Height":39.0,"F2F_Max_Stories":null,"F2F_Min_Lot_Size":25.0,"F2F_Max_Lot_Building_Coverage":null,"F2F_Max_Lot_Impervious_Coverage":null,"F2F_Min_Parking_Spaces_per_1BR":2.0,"F2F_Min_Parking_Spaces_per_mult_BR":2.0,"F2F_Elderly_Housing_Only":"No","F2F_Affordable_Housing_Only":"No","F3F_Allowance":"Prohibited","F3F_Front_Setback":null,"F3F_Side_Setback":null,"F3F_Rear_Setback":null,"F3F_Frontage":null,"F3F_Max_Density":null,"F3F_Max_Height":null,"F3F_Max_Stories":null,"F3F_Min_Lot_Size":null,"F3F_Max_Lot_Building_Coverage":null,"F3F_Max_Lot_Impervious_Coverage":null,"F3F_Min_Parking_Spaces_per_1BR":null,"F3F_Min_Parking_Spaces_per_mult_BR":null,"F3F_Affordable_Housing_Only":null,"F3F_Proximity_to_Public_Transit_Required":null,"F3F_Connection_to_Sewage/Water_Required":null,"F4F_Allowance":"Prohibited","F4F_Front_Setback":null,"F4F_Side_Setback":null,"F4F_Rear_Setback":null,"F4F_Frontage":null,"F1F_Max_Density":null,"F4F_Max_Density":null,"F4F_Max_Height":null,"F4F_Max_Stories":null,"F4F_Min_Lot_Size":null,"F4F_Max_Lot_Building_Coverage":null,"F4F_Max_Lot_Impervious_Coverage":null,"F4F_Min_Parking_Spaces_per_1BR":null,"F4F_Min_Parking_Spaces_per_mult_BR":null,"F3F_Elderly_Housing_Only":null,"F4F_Elderly_Housing_Only":null,"F4F_Affordable_Housing_Only":null,"F4F_Proximity_to_Public_Transit_Required":null,"F4F_Connection_to_Sewage/Water_Required":null,"ADU_Allowance":"Allowed/Conditional","ADU_Elderly_Housing_Only":"No","ADU_Max_Size_as_Percent_of_Primary_Strcture":30.0,"ADU_Max_Size_in_sq_ft":null,"ADU_Min_Lot_Size":25.0,"ADU_Max_Bedrooms":null,"ADU_Min_Parking_Spaces":1.0,"ADU_Owner_Occupancy_Required":"Yes","ADU_Renter_Occupancy_Prohibited":"No","ADU_Employee_or_Family_Occupancy_Required":"Yes","ADU_Restricted_to_Primary_Structure":"No","Affordable_Housing_Allowance":"Not Mentioned","Affordable_Housing_District":"No","Affordable_Housing_Elderly_Only":null,"Affordable_Housing_Min_Lot_Size":null,"Affordable_Housing_Max_Density":null,"Affordable_Housing_Min_Parking_Spaces_per_mult_BR":null,"Affordable_Housing_Max_Units_per_Building":null,"Affordable_Housing_Min_Parking_Spaces_per_1BR":null,"PRD_Allowance":"Prohibited","PRD_Max_Density":null,"PRD_Max_Units":null,"PRD_Min_Lot_Size":null,"PRD_Mobile_or_Manufactured_Home_Park":null,"PUD_Allowance":null,"PUD_Required_with_Subdivision":null,"PUD_Requires_Land_Conservation":null,"PUD_Threshold_Number":null,"Notes":"None"},"geometry":{"type":"MultiPolygon","coordinates":[[[[-72.21202382852937,44.5411662028813],[-72.21178378247599,44.54136269626286],[-72.21246684499388,44.54121542066855],[-72.21202382852937,44.5411662028813]]],[[[-72.15125617156417,44.50009994671608],[-72.14602989148722,44.50719268241473],[-72.14594850833161,44.50730329319624],[-72.14583744266373,44.50745425709994],[-72.14559494476514,44.50778385940462],[-72.14126584000105,44.51366794893131],[-72.13775937765355,44.51858594963132],[-72.15196929647753,44.526795875009924],[-72.16618321120302,44.53500403275302],[-72.18504670836964,44.54597579810606],[-72.18563782022302,44.54550666617497],[-72.18608455332958,44.5452746691005],[-72.1883209267844,44.544611780847134],[-72.1893894922583,44.5441633447357],[-72.18999618900517,44.5439839140583],[-72.19071285504135,44.543899447754946],[-72.19226272780872,44.543837136060134],[-72.19436333565368,44.5438875340107],[-72.19545347538195,44.54383422963636],[-72.19723677469037,44.54360659444616],[-72.19828907870499,44.54337564023796],[-72.19954269416161,44.54317088757859],[-72.19956724005452,44.542667306881896],[-72.19983601105035,44.54221379458213],[-72.20031148482174,44.54185744142577],[-72.20093233256871,44.541644207862866],[-72.20164127059597,44.5415725740095],[-72.20234119002231,44.541637691015325],[-72.20294903024177,44.54180565659824],[-72.20451459120875,44.542389943072294],[-72.20635688320935,44.5422340961086],[-72.20765077596265,44.54212309810857],[-72.21109120468189,44.54151431739448],[-72.21122367800132,44.54127988936699],[-72.21146582672517,44.541205743553185],[-72.21186147848388,44.54091561534103],[-72.21224031007384,44.54088711006522],[-72.21315768837255,44.541016567117595],[-72.21352240774398,44.540119734613064],[-72.21379107717456,44.53975207004697],[-72.2143296139404,44.53919093207718],[-72.21483189595598,44.538292062347516],[-72.21522331960432,44.53790106564595],[-72.21610840081483,44.537337841628585],[-72.21534308375111,44.53644863842674],[-72.21363521429687,44.5350217738774],[-72.21279451632365,44.534628637955656],[-72.21219461999866,44.534261408223465],[-72.21125267798394,44.53379158656154],[-72.20995372268395,44.533582153589016],[-72.20861959131344,44.533628024060114],[-72.20829883055063,44.53388230187121],[-72.20799917592493,44.53439731429299],[-72.20758735242747,44.53490673632771],[-72.20736978475514,44.53532031810731],[-72.20698427386228,44.53570396244059],[-72.20666729276135,44.535895145208166],[-72.20616970647028,44.53606609186779],[-72.20576292687706,44.53612356044202],[-72.20521183631388,44.53610076318784],[-72.20442378272587,44.535874263947605],[-72.20238552430197,44.53492170410999],[-72.20151905079554,44.53470139427608],[-72.20082639881892,44.53441156668756],[-72.20046302899445,44.53411435458391],[-72.20019896119503,44.533659443003216],[-72.20016115139326,44.53326554504793],[-72.20028178906126,44.53288026409213],[-72.20047070789397,44.532616270417144],[-72.20073454775633,44.53238749566281],[-72.2010609716389,44.53220463879437],[-72.2014347164636,44.53207624929763],[-72.20183830839649,44.53200833138583],[-72.20225287560866,44.53200405823049],[-72.2031011323546,44.532190606240434],[-72.2036213000431,44.531989255903355],[-72.20430124146895,44.531911328681204],[-72.20540987289249,44.532065509194574],[-72.20607507431724,44.53156599665675],[-72.20669943595762,44.53125154586214],[-72.20755229175727,44.530985578869846],[-72.2084902478027,44.53087420725604],[-72.21022341053933,44.530844266933386],[-72.21245469130031,44.53114068627859],[-72.21296673081812,44.53128811529926],[-72.21391455542393,44.53177779581355],[-72.21421350344558,44.531383812141726],[-72.21464364757671,44.53100763232886],[-72.21536912638989,44.53054971862755],[-72.21592431270602,44.53034243106138],[-72.21602187744855,44.52999036013128],[-72.21635836793735,44.52932735344088],[-72.2166012873568,44.529011086938574],[-72.21697946971116,44.52867598374798],[-72.2175388528148,44.52836518043846],[-72.21844977422712,44.52808479008799],[-72.21887843787833,44.527670622008046],[-72.21922878807221,44.52742151119771],[-72.21985667806722,44.52710464176952],[-72.22027906603984,44.52696567339855],[-72.22084238904405,44.52661961642588],[-72.20440210570472,44.520515562658794],[-72.1907653461287,44.51534655260357],[-72.17694535843552,44.509973804764776],[-72.16409967782783,44.505037596816926],[-72.15125617156417,44.50009994671608]]]]}},{"type":"Feature","properties":{"OBJECT_ID":574,"County":"Caledonia","RPC":"NVDA","Municipal_Name":"Stannard","GEO_ID":"5000569925","District_Name":"Floodplain Overlay District","Abbreviated_District_Name":"Fpo","District_Type":"Nonresidential","Bylaw_Date":null,"Elderly_Housing_District":"No","District_Mapped":"Yes","Overlay_District":"Yes","Base_Density":null,"FIPS6":null,"GIS_ID":null,"Last_Update":null,"Shape_Length":17061.167609998876,"Shape_Area":257763.13022559235,"F1F_Allowance":"Prohibited","F1F_Front_Setback":null,"F1F_Side_Setback":null,"F1F_Rear_Setback":null,"F1F_Frontage":null,"F1F_Max_Height":null,"F1F_Max_Stories":null,"F1F_Min_Lot_Size":null,"F1F_Max_Lot_Building_Coverage":null,"F1F_Max_Lot_Impervious_Coverage":null,"F1F_Min_Parking_Spaces":null,"F1F_Elderly_Housing_Only":null,"F1F_Affordable_Housing_Only":null,"F2F_Allowance":"Prohibited","F2F_Front_Setback":null,"F2F_Side_Setback":null,"F2F_Rear_Setback":null,"F2F_Frontage":null,"F2F_Max_Density":null,"F2F_Max_Height":null,"F2F_Max_Stories":null,"F2F_Min_Lot_Size":null,"F2F_Max_Lot_Building_Coverage":null,"F2F_Max_Lot_Impervious_Coverage":null,"F2F_Min_Parking_Spaces_per_1BR":null,"F2F_Min_Parking_Spaces_per_mult_BR":null,"F2F_Elderly_Housing_Only":null,"F2F_Affordable_Housing_Only":null,"F3F_Allowance":"Prohibited","F3F_Front_Setback":null,"F3F_Side_Setback":null,"F3F_Rear_Setback":null,"F3F_Frontage":null,"F3F_Max_Density":null,"F3F_Max_Height":null,"F3F_Max_Stories":null,"F3F_Min_Lot_Size":null,"F3F_Max_Lot_Building_Coverage":null,"F3F_Max_Lot_Impervious_Coverage":null,"F3F_Min_Parking_Spaces_per_1BR":null,"F3F_Min_Parking_Spaces_per_mult_BR":null,"F3F_Affordable_Housing_Only":null,"F3F_Proximity_to_Public_Transit_Required":null,"F3F_Connection_to_Sewage/Water_Required":null,"F4F_Allowance":"Prohibited","F4F_Front_Setback":null,"F4F_Side_Setback":null,"F4F_Rear_Setback":null,"F4F_Frontage":null,"F1F_Max_Density":null,"F4F_Max_Density":null,"F4F_Max_Height":null,"F4F_Max_Stories":null,"F4F_Min_Lot_Size":null,"F4F_Max_Lot_Building_Coverage":null,"F4F_Max_Lot_Impervious_Coverage":null,"F4F_Min_Parking_Spaces_per_1BR":null,"F4F_Min_Parking_Spaces_per_mult_BR":null,"F3F_Elderly_Housing_Only":null,"F4F_Elderly_Housing_Only":null,"F4F_Affordable_Housing_Only":null,"F4F_Proximity_to_Public_Transit_Required":null,"F4F_Connection_to_Sewage/Water_Required":null,"ADU_Allowance":"Prohibited","ADU_Elderly_Housing_Only":null,"ADU_Max_Size_as_Percent_of_Primary_Strcture":null,"ADU_Max_Size_in_sq_ft":null,"ADU_Min_Lot_Size":null,"ADU_Max_Bedrooms":null,"ADU_Min_Parking_Spaces":null,"ADU_Owner_Occupancy_Required":null,"ADU_Renter_Occupancy_Prohibited":null,"ADU_Employee_or_Family_Occupancy_Required":null,"ADU_Restricted_to_Primary_Structure":null,"Affordable_Housing_Allowance":"Prohibited","Affordable_Housing_District":"No","Affordable_Housing_Elderly_Only":null,"Affordable_Housing_Min_Lot_Size":null,"Affordable_Housing_Max_Density":null,"Affordable_Housing_Min_Parking_Spaces_per_mult_BR":null,"Affordable_Housing_Max_Units_per_Building":null,"Affordable_Housing_Min_Parking_Spaces_per_1BR":null,"PRD_Allowance":"Prohibited","PRD_Max_Density":null,"PRD_Max_Units":null,"PRD_Min_Lot_Size":null,"PRD_Mobile_or_Manufactured_Home_Park":null,"PUD_Allowance":null,"PUD_Required_with_Subdivision":null,"PUD_Requires_Land_Conservation":null,"PUD_Threshold_Number":null,"Notes":"None"},"geometry":{"type":"MultiPolygon","coordinates":[[[[-72.21961861165649,44.54458530826179],[-72.21975482351469,44.54472898269284],[-72.2199551999711,44.54481535243883],[-72.22021789059662,44.544823718585846],[-72.22039449100193,44.54475487391711],[-72.22123440211507,44.545079310421926],[-72.2215406108244,44.5450045940806],[-72.22179217479454,44.54476399257193],[-72.22200168428022,44.54477073656885],[-72.22207065067329,44.54498900588539],[-72.22230451804154,44.545180921081695],[-72.22228562372526,44.54561511258911],[-72.22237670933072,44.54595192472231],[-72.22252044857971,44.546049066698586],[-72.22314164632184,44.54618600832777],[-72.22367772991235,44.546422489654255],[-72.22417231687233,44.54644525482139],[-72.22443757798183,44.54637885434234],[-72.22456447676599,44.546279469965285],[-72.22467889236695,44.54589449197792],[-72.2249960956956,44.54625360911557],[-72.22527251277133,44.54631017658741],[-72.22586067066325,44.54628784227146],[-72.22652689939406,44.54669007224641],[-72.22752070625295,44.54698086809509],[-72.22799878737287,44.54695308637782],[-72.22888975238337,44.547055738415075],[-72.23039251084501,44.54749987745247],[-72.23066277586229,44.54746512780092],[-72.23111613037253,44.54714601301151],[-72.23125863086541,44.547160889567564],[-72.23170396096407,44.54761900701992],[-72.23188624368107,44.54773567713979],[-72.23286829878118,44.548069518366944],[-72.2330713704589,44.548104076425595],[-72.23369891505399,44.548079752740506],[-72.23403144525876,44.548244476162054],[-72.2341903121491,44.548416915606175],[-72.23423361717428,44.54870549812795],[-72.23444391438723,44.548885079068384],[-72.23467658930534,44.54893797629679],[-72.23538355082621,44.54895357889765],[-72.23560547875138,44.54886482458355],[-72.23590892961059,44.548553419767046],[-72.23595306002389,44.54818782911116],[-72.23641103956948,44.547974226965806],[-72.23704530051178,44.547547627953904],[-72.23758770906586,44.5474579881635],[-72.23793173222286,44.547228190943336],[-72.23830869953024,44.54712914343473],[-72.2385692687568,44.5469218818351],[-72.23869116947914,44.54658661767235],[-72.23863585655556,44.54636571058129],[-72.2383991943226,44.54622873028977],[-72.23764021865551,44.54614140992991],[-72.237783283862,44.546019665670535],[-72.23815897277156,44.545884366252395],[-72.23997787763362,44.54545284970424],[-72.24066841648343,44.545604468835045],[-72.24098566527685,44.54560565578956],[-72.2412890497865,44.54546967360801],[-72.24211243022977,44.54451841355534],[-72.24322394962402,44.54455934245168],[-72.24366145708721,44.54452658477264],[-72.24392530924563,44.544433806393144],[-72.2444149614658,44.54411298493416],[-72.24536856073931,44.54383030642005],[-72.2465792382176,44.54388353323759],[-72.2468082593085,44.54378676877198],[-72.24699653253587,44.54352428558617],[-72.2471250487315,44.54356014200496],[-72.24747972074367,44.543540949900866],[-72.2486448786864,44.54301628559366],[-72.24944041186677,44.54306466469698],[-72.24992093256047,44.54291594309235],[-72.25018359733735,44.54290876494509],[-72.25046274875332,44.54303452762562],[-72.2510586123562,44.5431275197968],[-72.25133323655452,44.54313385782835],[-72.2516912302007,44.54305551871063],[-72.25240599146922,44.542653903957735],[-72.25282818681721,44.54208073406362],[-72.25304763470142,44.541928286916665],[-72.25414754259131,44.54198313873366],[-72.25440425322495,44.541874788712306],[-72.25485375003078,44.54137787484868],[-72.25509647515393,44.5412665864434],[-72.25556962876168,44.540924023705095],[-72.2560843516002,44.540909331087626],[-72.25673028592927,44.54056844898137],[-72.25745811991429,44.54063574181615],[-72.25783172829158,44.540595962695114],[-72.25710986114817,44.54032380155662],[-72.25662363001699,44.540304184598924],[-72.25594869676618,44.54065009600431],[-72.2553894194085,44.54068068628849],[-72.25485188626378,44.541054960716394],[-72.2545709372038,44.5411878675664],[-72.25410205903998,44.5416972261386],[-72.25378171196543,44.54171122298361],[-72.25332073969948,44.54164317669362],[-72.25284873205042,44.54169252578447],[-72.25257472308587,44.54185622868048],[-72.25210255723019,44.54248526440645],[-72.25152337923022,44.542807632271916],[-72.2511169096455,44.54285586944125],[-72.25059667925603,44.54277569676491],[-72.25026074592844,44.54263539686994],[-72.24980111224002,44.54265129624934],[-72.24938678343861,44.5427923250625],[-72.24852586509454,44.54275144480684],[-72.24734354099316,44.543282491903454],[-72.24698934464078,44.54322388238157],[-72.24677431527421,44.543265804580386],[-72.24648100751124,44.54361359873157],[-72.24526441141374,44.543565247028255],[-72.24420162195949,44.543883359995455],[-72.24355713143939,44.544260464235464],[-72.24196639531371,44.54425643338521],[-72.24172816814531,44.54440098456156],[-72.24113257197754,44.54514650995983],[-72.24099743945544,44.545288555597075],[-72.2408618306426,44.54534265637534],[-72.24017744158854,44.54518059963194],[-72.23991718570323,44.54518118531096],[-72.23801891580541,44.54562885094892],[-72.23757848977102,44.54578629982095],[-72.23727827823849,44.546046071116365],[-72.23727788852463,44.546299186381965],[-72.23764759277083,44.54644014461073],[-72.2382543115751,44.54648552282783],[-72.23830817087733,44.54656908835808],[-72.2382373916864,44.54678237400504],[-72.2380959857656,44.54689899478377],[-72.23770157858782,44.547007880147035],[-72.23740261074789,44.5472161917057],[-72.23700757370413,44.54725178779692],[-72.23683468048802,44.547318321432016],[-72.23616185738902,44.5477655206553],[-72.23568736293304,44.547981506220886],[-72.23555845520436,44.54817440075492],[-72.23555895047973,44.54843858178442],[-72.23530911402582,44.54868244103899],[-72.234617041284,44.54863690379758],[-72.23455584305725,44.54831222568861],[-72.2343675102392,44.548094230045514],[-72.23387244280353,44.547833533259734],[-72.23309726715885,44.547829825564605],[-72.23207679752704,44.54749548041655],[-72.23164380568534,44.54703958204342],[-72.23137491094624,44.54689761222311],[-72.230954936978,44.54689260999022],[-72.2304173589856,44.54722562199615],[-72.22935774003507,44.54686487116576],[-72.22897553872717,44.546788008432536],[-72.22802655611656,44.546678001430614],[-72.22760599644965,44.54671102040405],[-72.22672623603532,44.54645516466554],[-72.22598708801353,44.54602361107428],[-72.22521017706431,44.54602109029838],[-72.22508063299514,44.545775130059965],[-72.2247758201069,44.54561540775445],[-72.22454473992826,44.5456261223944],[-72.22434858440226,44.54572328238017],[-72.22418204630478,44.546168535232155],[-72.22382225651396,44.546164314447196],[-72.22329337586261,44.5459338502165],[-72.22270942314606,44.545808384933984],[-72.22267413661444,44.54510181657459],[-72.22240446044333,44.54483946074986],[-72.22236241358007,44.544664151656576],[-72.22219813282373,44.544534052408046],[-72.22182451371718,44.544472421619645],[-72.2216837518333,44.544368409578865],[-72.2213522911325,44.54438076838134],[-72.2212488751057,44.544229920600756],[-72.22109946092564,44.544166753752194],[-72.22127034373533,44.54403228925979],[-72.22126526094463,44.54388147622803],[-72.2210684840785,44.54374569572047],[-72.22086075558903,44.54341022358836],[-72.22065292925012,44.54320860025469],[-72.22059582263837,44.543039290405176],[-72.22066108695147,44.54293603557473],[-72.22046560215924,44.542839134448506],[-72.2204648074425,44.542421416792],[-72.2203348273741,44.5420712750209],[-72.22032830068288,44.54171609791121],[-72.22080182732007,44.541249907284524],[-72.22098594853783,44.54095948576477],[-72.22091836954306,44.54072392583241],[-72.22072670909773,44.5404459931447],[-72.22051048485564,44.54026138473026],[-72.22027948250845,44.54017127544488],[-72.21973829322495,44.540127859581645],[-72.21944373869877,44.54003610774529],[-72.21913187813564,44.540009857742106],[-72.21891329369026,44.5398927241035],[-72.21859748116482,44.53983944138974],[-72.21805085867636,44.53964202212383],[-72.21723491868829,44.53908969044577],[-72.21702238188905,44.53883316959237],[-72.21661221834971,44.53866092869417],[-72.21611495656775,44.53852901206299],[-72.21592599466821,44.53855235729112],[-72.2158569844114,44.538657249761734],[-72.21592497300581,44.538762482112084],[-72.2167732257402,44.53904734824638],[-72.21693408185575,44.53926701142799],[-72.2178446902403,44.53987413155822],[-72.21845859450848,44.5400957910009],[-72.2187520267359,44.540144656091655],[-72.21896958673719,44.54026143293774],[-72.21935835687918,44.54030430974329],[-72.21963336879352,44.540396279307345],[-72.22004441941203,44.54040539241665],[-72.22032913716632,44.54052018940851],[-72.22059912453524,44.540928703623806],[-72.21994758849274,44.541658341213925],[-72.2199444214737,44.5420441527412],[-72.22008163443897,44.54243688421146],[-72.22008206562859,44.542662557102084],[-72.22012964650578,44.543041855892],[-72.22037029174736,44.543396106159854],[-72.22082307514818,44.54396600004723],[-72.22071899682872,44.54412651572699],[-72.22075586448335,44.54433065305513],[-72.220973931772,44.54443173324103],[-72.22110247310796,44.54462833961139],[-72.22141469879094,44.54465964095029],[-72.22126635592306,44.54480287474073],[-72.22052988771641,44.544457876074915],[-72.22033970358407,44.54445557108987],[-72.22007527744744,44.544553674294214],[-72.2198157254394,44.544273467999204],[-72.2190895077465,44.54383879924692],[-72.2180514574062,44.543388699216315],[-72.21753524020569,44.54334056761233],[-72.21675727603717,44.543566332244005],[-72.2165211711944,44.54347468456128],[-72.21536390408828,44.54328937477182],[-72.2150724158924,44.54290120529],[-72.21508751568274,44.54256100644107],[-72.2150192349548,44.54228884809109],[-72.21435059540535,44.541871594903334],[-72.21440208887783,44.54149483445196],[-72.21401758526173,44.54136404109208],[-72.21384218820597,44.54137197300004],[-72.21367533699873,44.54146040295515],[-72.21354753917949,44.54174252962112],[-72.21339199549294,44.54177010406127],[-72.21335299537512,44.54169941691137],[-72.21354722493321,44.54135675182067],[-72.21351226423998,44.541231130977515],[-72.21331458468454,44.54106272555589],[-72.21315768837255,44.541016567117595],[-72.21224031007384,44.54088711006522],[-72.21186147848388,44.54091561534103],[-72.21146582672517,44.541205743553185],[-72.21122367800132,44.54127988936699],[-72.21109120468189,44.54151431739448],[-72.21102028544182,44.54167068926864],[-72.21079240979121,44.54189460093005],[-72.2098928910597,44.54238296994364],[-72.20982715489733,44.54224615289808],[-72.20964522315214,44.54213167840148],[-72.20940452817793,44.542126348789765],[-72.20919342859135,44.54223293642],[-72.208684293791,44.54260484199322],[-72.20867066552205,44.54273181715422],[-72.20882523838756,44.54297722728418],[-72.2084487640349,44.542960259718654],[-72.20802073176681,44.54301161733233],[-72.20772900379757,44.54324654579487],[-72.20757678562701,44.54352371743771],[-72.20735524463588,44.54374656386032],[-72.20732358447923,44.54386773573536],[-72.20711523585805,44.543943167125505],[-72.20697418222001,44.54410548512066],[-72.20678360705968,44.54417865856163],[-72.20669969007733,44.54443554965007],[-72.20647284846719,44.54449581073174],[-72.20632502646266,44.54466540360223],[-72.20608051813535,44.54462337665854],[-72.205887040773,44.544735045822556],[-72.20543782359985,44.544622608288456],[-72.2052630505928,44.544664306852155],[-72.20516638687397,44.54474827164933],[-72.20501911444234,44.54458488223979],[-72.20472995582408,44.54458589444695],[-72.20483704555215,44.5444581309386],[-72.20484864638622,44.54429805405835],[-72.20447203551241,44.54390640502082],[-72.20328207619421,44.543427577184914],[-72.20295251151211,44.54342247373599],[-72.20278273262021,44.54361596486708],[-72.20235659257405,44.54365115230266],[-72.20210280690591,44.54377694619446],[-72.20173363373898,44.54348627142001],[-72.20131686589866,44.543413758797804],[-72.20106079428624,44.54353429686898],[-72.20076571570648,44.54398130127751],[-72.19916699203907,44.54413216788511],[-72.19854219618765,44.544329367859426],[-72.19816247062592,44.54451576872532],[-72.19746205541615,44.54467060987387],[-72.1972389716077,44.544801651590426],[-72.19554891651298,44.5449006041202],[-72.19531076095024,44.544960412395326],[-72.19516592772375,44.5448949614101],[-72.1949542721142,44.54488690344297],[-72.1945726370722,44.5450014390078],[-72.19389165200691,44.54501570229481],[-72.19353291823597,44.544975797326124],[-72.19339482263793,44.54480640598293],[-72.19314046748909,44.54475235124654],[-72.1926551457214,44.54493344008626],[-72.19234774481238,44.54496260106869],[-72.19106419449339,44.5449230462934],[-72.19033213349422,44.54500611324179],[-72.1899432762081,44.545101294811985],[-72.1887501977892,44.545606801040655],[-72.1880677398065,44.54571148541266],[-72.1877670008561,44.54592004291049],[-72.18737309927509,44.545857985709034],[-72.18706112478908,44.54587737542526],[-72.18691482756209,44.54594196880758],[-72.18681092198376,44.54610339263053],[-72.18652881183098,44.5461460937401],[-72.1858769684893,44.54646143866603],[-72.18617586097626,44.546636269325035],[-72.18704398009278,44.54632643456975],[-72.18723681310489,44.54612941862031],[-72.18762551099277,44.54619556936742],[-72.18789917324456,44.54617938519249],[-72.18821203467503,44.54596862500684],[-72.18889826146871,44.545860000221694],[-72.18958572698597,44.545549060831796],[-72.19039256269586,44.54527739108892],[-72.19106908111416,44.54519782098168],[-72.19239645302099,44.54523471922459],[-72.19275360350704,44.545201369557425],[-72.19315114687576,44.54503634957037],[-72.19335161515097,44.54522018617392],[-72.19386698704866,44.54528994318703],[-72.19462506364209,44.54527414931472],[-72.19501025557827,44.54515909301571],[-72.1953056608935,44.5452382776414],[-72.19561264561656,44.54517161442817],[-72.19737546164312,44.54506084681605],[-72.19763591361745,44.54491587465706],[-72.19832006084353,44.54476626401049],[-72.19873318067415,44.544569316165465],[-72.19925873870584,44.54440052768021],[-72.19985208145064,44.54437387995776],[-72.20021333242765,44.54428607695501],[-72.2009591514319,44.544220621442996],[-72.20116357712101,44.54406021088605],[-72.20118388692438,44.54395036013302],[-72.20139688822374,44.54368777745025],[-72.20165410369245,44.54378750657842],[-72.20188620090025,44.54401334431757],[-72.20207683837303,44.54408844020918],[-72.20226338874446,44.54405324416525],[-72.20246536132046,44.54391583536467],[-72.20302595697127,44.54385975059574],[-72.20314802136596,44.54370473340326],[-72.20374183402413,44.54390376456764],[-72.20420867250002,44.54410788329421],[-72.20446555177661,44.544359197772906],[-72.20433462555238,44.5446046721607],[-72.2044026653318,44.54475672610187],[-72.2046316966805,44.544856835428064],[-72.20480901260932,44.54486719674555],[-72.2051751129846,44.54510298893848],[-72.20544186220957,44.54507695716902],[-72.2055323054559,44.54491392386414],[-72.20596008339211,44.54503504061489],[-72.20611816718021,44.54500801561143],[-72.20620999236361,44.544931614133986],[-72.20649631138667,44.544953352982695],[-72.20664001359188,44.54488499490154],[-72.20671268309462,44.54471122735408],[-72.20684469745798,44.54472014536788],[-72.20696644572095,44.54466637159341],[-72.20709005939719,44.54439889718026],[-72.20729388708808,44.544361372194565],[-72.20738900003235,44.54417777770904],[-72.20767900903834,44.54403332720858],[-72.20771607566712,44.54384554044577],[-72.20791201254866,44.54366072758155],[-72.20805366440514,44.54339358528606],[-72.20823724903242,44.54324833480302],[-72.20879096671732,44.543286477960336],[-72.20907315742456,44.54319553581572],[-72.20921482642865,44.54298457697121],[-72.2090687834587,44.54269295212887],[-72.2094999329184,44.54242048756302],[-72.20970386654919,44.54264532529973],[-72.21006635687084,44.54263328965594],[-72.21108000804578,44.54207712331736],[-72.21140843596565,44.54173221665839],[-72.21150882012087,44.54147963018364],[-72.21178378247599,44.54136269626286],[-72.21202382852937,44.5411662028813],[-72.21246684499388,44.54121542066855],[-72.21294741402941,44.5412590903153],[-72.2131369914583,44.5413202448881],[-72.21296761645996,44.54176387991126],[-72.21311763561738,44.54197447765899],[-72.21325506552978,44.542033936943255],[-72.2137532727792,44.54198125610037],[-72.21402832366418,44.541659693777085],[-72.21396303425595,44.54187442630156],[-72.21399672033994,44.54198899437199],[-72.21466976352319,44.54241849256954],[-72.21469777937565,44.542970666764454],[-72.21499780475341,44.54342279812376],[-72.215187471235,44.54353699357771],[-72.21642425289782,44.54374081271185],[-72.2165974137305,44.54385153067742],[-72.21675267449972,44.54387301394158],[-72.21758458182771,44.54361446755535],[-72.21793328321483,44.543650697664205],[-72.21886306495348,44.54406589462986],[-72.21948960020234,44.54442057482842],[-72.21961861165649,44.54458530826179]]]]}},{"type":"Feature","properties":{"OBJECT_ID":576,"County":"Caledonia","RPC":"NVDA","Municipal_Name":"Stannard","GEO_ID":"5000569925","District_Name":"Rural District","Abbreviated_District_Name":"Rur","District_Type":"Mixed with Residential","Bylaw_Date":null,"Elderly_Housing_District":"No","District_Mapped":"Yes","Overlay_District":"No","Base_Density":null,"FIPS6":null,"GIS_ID":null,"Last_Update":null,"Shape_Length":35280.08461545512,"Shape_Area":15951325.514482766,"F1F_Allowance":"Permitted","F1F_Front_Setback":25.0,"F1F_Side_Setback":25.0,"F1F_Rear_Setback":50.0,"F1F_Frontage":200.0,"F1F_Max_Height":39.0,"F1F_Max_Stories":null,"F1F_Min_Lot_Size":4.0,"F1F_Max_Lot_Building_Coverage":null,"F1F_Max_Lot_Impervious_Coverage":null,"F1F_Min_Parking_Spaces":2.0,"F1F_Elderly_Housing_Only":null,"F1F_Affordable_Housing_Only":null,"F2F_Allowance":"Permitted","F2F_Front_Setback":25.0,"F2F_Side_Setback":25.0,"F2F_Rear_Setback":50.0,"F2F_Frontage":200.0,"F2F_Max_Density":0.5,"F2F_Max_Height":39.0,"F2F_Max_Stories":null,"F2F_Min_Lot_Size":4.0,"F2F_Max_Lot_Building_Coverage":null,"F2F_Max_Lot_Impervious_Coverage":null,"F2F_Min_Parking_Spaces_per_1BR":2.0,"F2F_Min_Parking_Spaces_per_mult_BR":2.0,"F2F_Elderly_Housing_Only":"No","F2F_Affordable_Housing_Only":"No","F3F_Allowance":"Public Hearing","F3F_Front_Setback":25.0,"F3F_Side_Setback":25.0,"F3F_Rear_Setback":50.0,"F3F_Frontage":200.0,"F3F_Max_Density":0.75,"F3F_Max_Height":39.0,"F3F_Max_Stories":null,"F3F_Min_Lot_Size":4.0,"F3F_Max_Lot_Building_Coverage":null,"F3F_Max_Lot_Impervious_Coverage":null,"F3F_Min_Parking_Spaces_per_1BR":2.0,"F3F_Min_Parking_Spaces_per_mult_BR":2.0,"F3F_Affordable_Housing_Only":"No","F3F_Proximity_to_Public_Transit_Required":"No","F3F_Connection_to_Sewage/Water_Required":"Yes","F4F_Allowance":"Public Hearing","F4F_Front_Setback":25.0,"F4F_Side_Setback":25.0,"F4F_Rear_Setback":50.0,"F4F_Frontage":200.0,"F1F_Max_Density":null,"F4F_Max_Density":1.0,"F4F_Max_Height":39.0,"F4F_Max_Stories":null,"F4F_Min_Lot_Size":4.0,"F4F_Max_Lot_Building_Coverage":null,"F4F_Max_Lot_Impervious_Coverage":null,"F4F_Min_Parking_Spaces_per_1BR":2.0,"F4F_Min_Parking_Spaces_per_mult_BR":2.0,"F3F_Elderly_Housing_Only":"No","F4F_Elderly_Housing_Only":"No","F4F_Affordable_Housing_Only":"No","F4F_Proximity_to_Public_Transit_Required":"No","F4F_Connection_to_Sewage/Water_Required":"Yes","ADU_Allowance":"Allowed/Conditional","ADU_Elderly_Housing_Only":"No","ADU_Max_Size_as_Percent_of_Primary_Strcture":30.0,"ADU_Max_Size_in_sq_ft":null,"ADU_Min_Lot_Size":4.0,"ADU_Max_Bedrooms":null,"ADU_Min_Parking_Spaces":1.0,"ADU_Owner_Occupancy_Required":"Yes","ADU_Renter_Occupancy_Prohibited":"No","ADU_Employee_or_Family_Occupancy_Required":"Yes","ADU_Restricted_to_Primary_Structure":"No","Affordable_Housing_Allowance":"Not Mentioned","Affordable_Housing_District":"No","Affordable_Housing_Elderly_Only":null,"Affordable_Housing_Min_Lot_Size":null,"Affordable_Housing_Max_Density":null,"Affordable_Housing_Min_Parking_Spaces_per_mult_BR":null,"Affordable_Housing_Max_Units_per_Building":null,"Affordable_Housing_Min_Parking_Spaces_per_1BR":null,"PRD_Allowance":"Prohibited","PRD_Max_Density":null,"PRD_Max_Units":null,"PRD_Min_Lot_Size":null,"PRD_Mobile_or_Manufactured_Home_Park":null,"PUD_Allowance":null,"PUD_Required_with_Subdivision":null,"PUD_Requires_Land_Conservation":null,"PUD_Threshold_Number":null,"Notes":"None"},"geometry":{"type":"MultiPolygon","coordinates":[[[[-72.22037029174736,44.543396106159854],[-72.2198157254394,44.544273467999204],[-72.22007527744744,44.544553674294214],[-72.22033970358407,44.54445557108987],[-72.22052988771641,44.544457876074915],[-72.22126635592306,44.54480287474073],[-72.22141469879094,44.54465964095029],[-72.22110247310796,44.54462833961139],[-72.220973931772,44.54443173324103],[-72.22075586448335,44.54433065305513],[-72.22071899682872,44.54412651572699],[-72.22082307514818,44.54396600004723],[-72.22037029174736,44.543396106159854]]],[[[-72.20164127059597,44.5415725740095],[-72.20093233256871,44.541644207862866],[-72.20031148482174,44.54185744142577],[-72.19983601105035,44.54221379458213],[-72.19956724005452,44.542667306881896],[-72.19954269416161,44.54317088757859],[-72.19828907870499,44.54337564023796],[-72.19723677469037,44.54360659444616],[-72.19545347538195,44.54383422963636],[-72.19436333565368,44.5438875340107],[-72.19226272780872,44.543837136060134],[-72.19071285504135,44.543899447754946],[-72.18999618900517,44.5439839140583],[-72.1893894922583,44.5441633447357],[-72.1883209267844,44.544611780847134],[-72.18608455332958,44.5452746691005],[-72.18563782022302,44.54550666617497],[-72.18504670836964,44.54597579810606],[-72.1858769684893,44.54646143866603],[-72.18652881183098,44.5461460937401],[-72.18681092198376,44.54610339263053],[-72.18691482756209,44.54594196880758],[-72.18706112478908,44.54587737542526],[-72.18737309927509,44.545857985709034],[-72.1877670008561,44.54592004291049],[-72.1880677398065,44.54571148541266],[-72.1887501977892,44.545606801040655],[-72.1899432762081,44.545101294811985],[-72.19033213349422,44.54500611324179],[-72.19106419449339,44.5449230462934],[-72.19234774481238,44.54496260106869],[-72.1926551457214,44.54493344008626],[-72.19314046748909,44.54475235124654],[-72.19339482263793,44.54480640598293],[-72.19353291823597,44.544975797326124],[-72.19389165200691,44.54501570229481],[-72.1945726370722,44.5450014390078],[-72.1949542721142,44.54488690344297],[-72.19516592772375,44.5448949614101],[-72.19531076095024,44.544960412395326],[-72.19554891651298,44.5449006041202],[-72.1972389716077,44.544801651590426],[-72.19746205541615,44.54467060987387],[-72.19816247062592,44.54451576872532],[-72.19854219618765,44.544329367859426],[-72.19916699203907,44.54413216788511],[-72.20076571570648,44.54398130127751],[-72.20106079428624,44.54353429686898],[-72.20131686589866,44.543413758797804],[-72.20173363373898,44.54348627142001],[-72.20210280690591,44.54377694619446],[-72.20235659257405,44.54365115230266],[-72.20278273262021,44.54361596486708],[-72.20295251151211,44.54342247373599],[-72.20328207619421,44.543427577184914],[-72.20447203551241,44.54390640502082],[-72.20484864638622,44.54429805405835],[-72.20483704555215,44.5444581309386],[-72.20472995582408,44.54458589444695],[-72.20501911444234,44.54458488223979],[-72.20516638687397,44.54474827164933],[-72.2052630505928,44.544664306852155],[-72.20543782359985,44.544622608288456],[-72.205887040773,44.544735045822556],[-72.20608051813535,44.54462337665854],[-72.20632502646266,44.54466540360223],[-72.20647284846719,44.54449581073174],[-72.20635688320935,44.5422340961086],[-72.20451459120875,44.542389943072294],[-72.20294903024177,44.54180565659824],[-72.20234119002231,44.541637691015325],[-72.20164127059597,44.5415725740095]]],[[[-72.25673028592927,44.54056844898137],[-72.2560843516002,44.540909331087626],[-72.25556962876168,44.540924023705095],[-72.25509647515393,44.5412665864434],[-72.25485375003078,44.54137787484868],[-72.25440425322495,44.541874788712306],[-72.25414754259131,44.54198313873366],[-72.25304763470142,44.541928286916665],[-72.25282818681721,44.54208073406362],[-72.25240599146922,44.542653903957735],[-72.2516912302007,44.54305551871063],[-72.25133323655452,44.54313385782835],[-72.2510586123562,44.5431275197968],[-72.25046274875332,44.54303452762562],[-72.25018359733735,44.54290876494509],[-72.24992093256047,44.54291594309235],[-72.24944041186677,44.54306466469698],[-72.2486448786864,44.54301628559366],[-72.24747972074367,44.543540949900866],[-72.2471250487315,44.54356014200496],[-72.24699653253587,44.54352428558617],[-72.2468082593085,44.54378676877198],[-72.2465792382176,44.54388353323759],[-72.24536856073931,44.54383030642005],[-72.2444149614658,44.54411298493416],[-72.24392530924563,44.544433806393144],[-72.24366145708721,44.54452658477264],[-72.24322394962402,44.54455934245168],[-72.24211243022977,44.54451841355534],[-72.2412890497865,44.54546967360801],[-72.24098566527685,44.54560565578956],[-72.24066841648343,44.545604468835045],[-72.23997787763362,44.54545284970424],[-72.23815897277156,44.545884366252395],[-72.237783283862,44.546019665670535],[-72.23764021865551,44.54614140992991],[-72.2383991943226,44.54622873028977],[-72.23863585655556,44.54636571058129],[-72.23869116947914,44.54658661767235],[-72.2385692687568,44.5469218818351],[-72.23830869953024,44.54712914343473],[-72.23793173222286,44.547228190943336],[-72.23758770906586,44.5474579881635],[-72.23704530051178,44.547547627953904],[-72.23641103956948,44.547974226965806],[-72.23595306002389,44.54818782911116],[-72.23590892961059,44.548553419767046],[-72.23560547875138,44.54886482458355],[-72.23538355082621,44.54895357889765],[-72.23467658930534,44.54893797629679],[-72.23444391438723,44.548885079068384],[-72.23423361717428,44.54870549812795],[-72.2341903121491,44.548416915606175],[-72.23403144525876,44.548244476162054],[-72.23369891505399,44.548079752740506],[-72.2330713704589,44.548104076425595],[-72.23286829878118,44.548069518366944],[-72.23188624368107,44.54773567713979],[-72.23170396096407,44.54761900701992],[-72.23125863086541,44.547160889567564],[-72.23111613037253,44.54714601301151],[-72.23066277586229,44.54746512780092],[-72.23039251084501,44.54749987745247],[-72.22888975238337,44.547055738415075],[-72.22799878737287,44.54695308637782],[-72.22752070625295,44.54698086809509],[-72.22652689939406,44.54669007224641],[-72.22586067066325,44.54628784227146],[-72.22527251277133,44.54631017658741],[-72.2249960956956,44.54625360911557],[-72.22467889236695,44.54589449197792],[-72.22456447676599,44.546279469965285],[-72.22443757798183,44.54637885434234],[-72.22417231687233,44.54644525482139],[-72.22367772991235,44.546422489654255],[-72.22314164632184,44.54618600832777],[-72.22252044857971,44.546049066698586],[-72.22237670933072,44.54595192472231],[-72.22228562372526,44.54561511258911],[-72.22230451804154,44.545180921081695],[-72.22207065067329,44.54498900588539],[-72.22200168428022,44.54477073656885],[-72.22179217479454,44.54476399257193],[-72.2215406108244,44.5450045940806],[-72.22123440211507,44.545079310421926],[-72.22039449100193,44.54475487391711],[-72.22021789059662,44.544823718585846],[-72.2199551999711,44.54481535243883],[-72.21975482351469,44.54472898269284],[-72.21961861165649,44.54458530826179],[-72.21906300950762,44.5454642701054],[-72.21764928631214,44.544817512835884],[-72.21554329432443,44.544123912042295],[-72.21456099527498,44.54368968514405],[-72.20889364866476,44.54473661902768],[-72.20750013596542,44.54491913242956],[-72.20649631138667,44.544953352982695],[-72.20620999236361,44.544931614133986],[-72.20611816718021,44.54500801561143],[-72.20596008339211,44.54503504061489],[-72.2055323054559,44.54491392386414],[-72.20544186220957,44.54507695716902],[-72.2051751129846,44.54510298893848],[-72.20480901260932,44.54486719674555],[-72.2046316966805,44.544856835428064],[-72.2044026653318,44.54475672610187],[-72.20433462555238,44.5446046721607],[-72.20446555177661,44.544359197772906],[-72.20420867250002,44.54410788329421],[-72.20374183402413,44.54390376456764],[-72.20314802136596,44.54370473340326],[-72.20302595697127,44.54385975059574],[-72.20246536132046,44.54391583536467],[-72.20226338874446,44.54405324416525],[-72.20207683837303,44.54408844020918],[-72.20188620090025,44.54401334431757],[-72.20165410369245,44.54378750657842],[-72.20139688822374,44.54368777745025],[-72.20118388692438,44.54395036013302],[-72.20116357712101,44.54406021088605],[-72.2009591514319,44.544220621442996],[-72.20021333242765,44.54428607695501],[-72.19985208145064,44.54437387995776],[-72.19925873870584,44.54440052768021],[-72.19873318067415,44.544569316165465],[-72.19832006084353,44.54476626401049],[-72.19763591361745,44.54491587465706],[-72.19737546164312,44.54506084681605],[-72.19561264561656,44.54517161442817],[-72.1953056608935,44.5452382776414],[-72.19501025557827,44.54515909301571],[-72.19462506364209,44.54527414931472],[-72.19386698704866,44.54528994318703],[-72.19335161515097,44.54522018617392],[-72.19315114687576,44.54503634957037],[-72.19275360350704,44.545201369557425],[-72.19239645302099,44.54523471922459],[-72.19106908111416,44.54519782098168],[-72.19039256269586,44.54527739108892],[-72.18958572698597,44.545549060831796],[-72.18889826146871,44.545860000221694],[-72.18821203467503,44.54596862500684],[-72.18789917324456,44.54617938519249],[-72.18762551099277,44.54619556936742],[-72.18723681310489,44.54612941862031],[-72.18704398009278,44.54632643456975],[-72.18617586097626,44.546636269325035],[-72.19896224854966,44.55412637995061],[-72.21175191898935,44.56161505784662],[-72.22454487326334,44.569102301895654],[-72.23734111233898,44.57658811097991],[-72.23739489854637,44.576515549869605],[-72.24017706247793,44.572762163068155],[-72.24184950061625,44.570505511996416],[-72.2466282895999,44.56405700882896],[-72.24664016434485,44.564040984852326],[-72.25272762552423,44.55582485616905],[-72.25331672080753,44.55502257164027],[-72.25372604722173,44.55446375104834],[-72.25541098290824,44.55215809230375],[-72.25745305510307,44.5494212541182],[-72.25809151306711,44.548566071420055],[-72.25846970737406,44.54805945534474],[-72.25970710432284,44.546402893935834],[-72.26155688754554,44.54392413756649],[-72.2628916347977,44.54250346688513],[-72.25783172829158,44.540595962695114],[-72.25745811991429,44.54063574181615],[-72.25673028592927,44.54056844898137]]],[[[-72.22084238904405,44.52661961642588],[-72.22027906603984,44.52696567339855],[-72.21985667806722,44.52710464176952],[-72.21922878807221,44.52742151119771],[-72.21887843787833,44.527670622008046],[-72.21844977422712,44.52808479008799],[-72.2175388528148,44.52836518043846],[-72.21697946971116,44.52867598374798],[-72.2166012873568,44.529011086938574],[-72.21635836793735,44.52932735344088],[-72.21602187744855,44.52999036013128],[-72.21592431270602,44.53034243106138],[-72.21536912638989,44.53054971862755],[-72.21464364757671,44.53100763232886],[-72.21421350344558,44.531383812141726],[-72.21391455542393,44.53177779581355],[-72.21296673081812,44.53128811529926],[-72.21245469130031,44.53114068627859],[-72.21022341053933,44.530844266933386],[-72.2084902478027,44.53087420725604],[-72.20755229175727,44.530985578869846],[-72.20669943595762,44.53125154586214],[-72.20607507431724,44.53156599665675],[-72.20540987289249,44.532065509194574],[-72.20430124146895,44.531911328681204],[-72.2036213000431,44.531989255903355],[-72.2031011323546,44.532190606240434],[-72.20225287560866,44.53200405823049],[-72.20183830839649,44.53200833138583],[-72.2014347164636,44.53207624929763],[-72.2010609716389,44.53220463879437],[-72.20073454775633,44.53238749566281],[-72.20047070789397,44.532616270417144],[-72.20028178906126,44.53288026409213],[-72.20016115139326,44.53326554504793],[-72.20019896119503,44.533659443003216],[-72.20046302899445,44.53411435458391],[-72.20082639881892,44.53441156668756],[-72.20151905079554,44.53470139427608],[-72.20238552430197,44.53492170410999],[-72.20442378272587,44.535874263947605],[-72.20521183631388,44.53610076318784],[-72.20576292687706,44.53612356044202],[-72.20616970647028,44.53606609186779],[-72.20666729276135,44.535895145208166],[-72.20698427386228,44.53570396244059],[-72.20736978475514,44.53532031810731],[-72.20758735242747,44.53490673632771],[-72.20799917592493,44.53439731429299],[-72.20829883055063,44.53388230187121],[-72.20861959131344,44.533628024060114],[-72.20995372268395,44.533582153589016],[-72.21125267798394,44.53379158656154],[-72.21219461999866,44.534261408223465],[-72.21279451632365,44.534628637955656],[-72.21363521429687,44.5350217738774],[-72.21534308375111,44.53644863842674],[-72.21610840081483,44.537337841628585],[-72.21522331960432,44.53790106564595],[-72.21483189595598,44.538292062347516],[-72.2143296139404,44.53919093207718],[-72.21379107717456,44.53975207004697],[-72.21352240774398,44.540119734613064],[-72.21315768837255,44.541016567117595],[-72.21331458468454,44.54106272555589],[-72.21474522182623,44.5409178889827],[-72.21560581414357,44.54098973793149],[-72.21627348724749,44.541208310372014],[-72.21727972408888,44.541677807328824],[-72.21913575123152,44.54227620468936],[-72.22008206562859,44.542662557102084],[-72.22008163443897,44.54243688421146],[-72.2199444214737,44.5420441527412],[-72.21994758849274,44.541658341213925],[-72.22059912453524,44.540928703623806],[-72.22032913716632,44.54052018940851],[-72.22004441941203,44.54040539241665],[-72.21963336879352,44.540396279307345],[-72.21935835687918,44.54030430974329],[-72.21896958673719,44.54026143293774],[-72.2187520267359,44.540144656091655],[-72.21845859450848,44.5400957910009],[-72.2178446902403,44.53987413155822],[-72.21693408185575,44.53926701142799],[-72.2167732257402,44.53904734824638],[-72.21592497300581,44.538762482112084],[-72.2158569844114,44.538657249761734],[-72.21592599466821,44.53855235729112],[-72.21611495656775,44.53852901206299],[-72.21661221834971,44.53866092869417],[-72.21702238188905,44.53883316959237],[-72.21723491868829,44.53908969044577],[-72.21805085867636,44.53964202212383],[-72.21859748116482,44.53983944138974],[-72.21891329369026,44.5398927241035],[-72.21913187813564,44.540009857742106],[-72.21944373869877,44.54003610774529],[-72.21973829322495,44.540127859581645],[-72.22027948250845,44.54017127544488],[-72.22051048485564,44.54026138473026],[-72.22072670909773,44.5404459931447],[-72.22091836954306,44.54072392583241],[-72.22098594853783,44.54095948576477],[-72.22080182732007,44.541249907284524],[-72.22032830068288,44.54171609791121],[-72.2203348273741,44.5420712750209],[-72.2204648074425,44.542421416792],[-72.22046560215924,44.542839134448506],[-72.22066108695147,44.54293603557473],[-72.22059582263837,44.543039290405176],[-72.22065292925012,44.54320860025469],[-72.22086075558903,44.54341022358836],[-72.2210684840785,44.54374569572047],[-72.22126526094463,44.54388147622803],[-72.22127034373533,44.54403228925979],[-72.22109946092564,44.544166753752194],[-72.2212488751057,44.544229920600756],[-72.2213522911325,44.54438076838134],[-72.2216837518333,44.544368409578865],[-72.22182451371718,44.544472421619645],[-72.22219813282373,44.544534052408046],[-72.22236241358007,44.544664151656576],[-72.22240446044333,44.54483946074986],[-72.22267413661444,44.54510181657459],[-72.22270942314606,44.545808384933984],[-72.22329337586261,44.5459338502165],[-72.22382225651396,44.546164314447196],[-72.22418204630478,44.546168535232155],[-72.22434858440226,44.54572328238017],[-72.22454473992826,44.5456261223944],[-72.2247758201069,44.54561540775445],[-72.22508063299514,44.545775130059965],[-72.22521017706431,44.54602109029838],[-72.22598708801353,44.54602361107428],[-72.22672623603532,44.54645516466554],[-72.22760599644965,44.54671102040405],[-72.22802655611656,44.546678001430614],[-72.22897553872717,44.546788008432536],[-72.22935774003507,44.54686487116576],[-72.2304173589856,44.54722562199615],[-72.230954936978,44.54689260999022],[-72.23137491094624,44.54689761222311],[-72.23164380568534,44.54703958204342],[-72.23207679752704,44.54749548041655],[-72.23309726715885,44.547829825564605],[-72.23387244280353,44.547833533259734],[-72.2343675102392,44.548094230045514],[-72.23455584305725,44.54831222568861],[-72.234617041284,44.54863690379758],[-72.23530911402582,44.54868244103899],[-72.23555895047973,44.54843858178442],[-72.23555845520436,44.54817440075492],[-72.23568736293304,44.547981506220886],[-72.23616185738902,44.5477655206553],[-72.23683468048802,44.547318321432016],[-72.23700757370413,44.54725178779692],[-72.23740261074789,44.5472161917057],[-72.23770157858782,44.547007880147035],[-72.2380959857656,44.54689899478377],[-72.2382373916864,44.54678237400504],[-72.23830817087733,44.54656908835808],[-72.2382543115751,44.54648552282783],[-72.23764759277083,44.54644014461073],[-72.23727788852463,44.546299186381965],[-72.23727827823849,44.546046071116365],[-72.23757848977102,44.54578629982095],[-72.23801891580541,44.54562885094892],[-72.23991718570323,44.54518118531096],[-72.24017744158854,44.54518059963194],[-72.2408618306426,44.54534265637534],[-72.24099743945544,44.545288555597075],[-72.24113257197754,44.54514650995983],[-72.24172816814531,44.54440098456156],[-72.24196639531371,44.54425643338521],[-72.24355713143939,44.544260464235464],[-72.24420162195949,44.543883359995455],[-72.24526441141374,44.543565247028255],[-72.24648100751124,44.54361359873157],[-72.24677431527421,44.543265804580386],[-72.24698934464078,44.54322388238157],[-72.24734354099316,44.543282491903454],[-72.24852586509454,44.54275144480684],[-72.24938678343861,44.5427923250625],[-72.24980111224002,44.54265129624934],[-72.25026074592844,44.54263539686994],[-72.25059667925603,44.54277569676491],[-72.2511169096455,44.54285586944125],[-72.25152337923022,44.542807632271916],[-72.25210255723019,44.54248526440645],[-72.25257472308587,44.54185622868048],[-72.25284873205042,44.54169252578447],[-72.25332073969948,44.54164317669362],[-72.25378171196543,44.54171122298361],[-72.25410205903998,44.5416972261386],[-72.2545709372038,44.5411878675664],[-72.25485188626378,44.541054960716394],[-72.2553894194085,44.54068068628849],[-72.25594869676618,44.54065009600431],[-72.25662363001699,44.540304184598924],[-72.25710986114817,44.54032380155662],[-72.24957682917172,44.53749317618584],[-72.24383211641737,44.535241114737204],[-72.22084238904405,44.52661961642588]]]]}},{"type":"Feature","properties":{"OBJECT_ID":577,"County":"Caledonia","RPC":"NVDA","Municipal_Name":"Stannard","GEO_ID":"5000569925","District_Name":"Village District","Abbreviated_District_Name":"Vil","District_Type":"Mixed with Residential","Bylaw_Date":null,"Elderly_Housing_District":"No","District_Mapped":"Yes","Overlay_District":"No","Base_Density":null,"FIPS6":null,"GIS_ID":null,"Last_Update":null,"Shape_Length":5634.522118206937,"Shape_Area":300400.67155977944,"F1F_Allowance":"Permitted","F1F_Front_Setback":25.0,"F1F_Side_Setback":25.0,"F1F_Rear_Setback":50.0,"F1F_Frontage":180.0,"F1F_Max_Height":39.0,"F1F_Max_Stories":null,"F1F_Min_Lot_Size":3.0,"F1F_Max_Lot_Building_Coverage":null,"F1F_Max_Lot_Impervious_Coverage":null,"F1F_Min_Parking_Spaces":2.0,"F1F_Elderly_Housing_Only":null,"F1F_Affordable_Housing_Only":null,"F2F_Allowance":"Permitted","F2F_Front_Setback":25.0,"F2F_Side_Setback":25.0,"F2F_Rear_Setback":50.0,"F2F_Frontage":180.0,"F2F_Max_Density":0.67,"F2F_Max_Height":39.0,"F2F_Max_Stories":null,"F2F_Min_Lot_Size":3.0,"F2F_Max_Lot_Building_Coverage":null,"F2F_Max_Lot_Impervious_Coverage":null,"F2F_Min_Parking_Spaces_per_1BR":2.0,"F2F_Min_Parking_Spaces_per_mult_BR":2.0,"F2F_Elderly_Housing_Only":"No","F2F_Affordable_Housing_Only":"No","F3F_Allowance":"Permitted","F3F_Front_Setback":25.0,"F3F_Side_Setback":25.0,"F3F_Rear_Setback":50.0,"F3F_Frontage":180.0,"F3F_Max_Density":1.0,"F3F_Max_Height":39.0,"F3F_Max_Stories":null,"F3F_Min_Lot_Size":3.0,"F3F_Max_Lot_Building_Coverage":null,"F3F_Max_Lot_Impervious_Coverage":null,"F3F_Min_Parking_Spaces_per_1BR":2.0,"F3F_Min_Parking_Spaces_per_mult_BR":2.0,"F3F_Affordable_Housing_Only":"No","F3F_Proximity_to_Public_Transit_Required":"No","F3F_Connection_to_Sewage/Water_Required":"Yes","F4F_Allowance":"Public Hearing","F4F_Front_Setback":25.0,"F4F_Side_Setback":25.0,"F4F_Rear_Setback":50.0,"F4F_Frontage":180.0,"F1F_Max_Density":null,"F4F_Max_Density":1.33,"F4F_Max_Height":39.0,"F4F_Max_Stories":null,"F4F_Min_Lot_Size":3.0,"F4F_Max_Lot_Building_Coverage":null,"F4F_Max_Lot_Impervious_Coverage":null,"F4F_Min_Parking_Spaces_per_1BR":2.0,"F4F_Min_Parking_Spaces_per_mult_BR":2.0,"F3F_Elderly_Housing_Only":"No","F4F_Elderly_Housing_Only":"No","F4F_Affordable_Housing_Only":"No","F4F_Proximity_to_Public_Transit_Required":"No","F4F_Connection_to_Sewage/Water_Required":"Yes","ADU_Allowance":"Allowed/Conditional","ADU_Elderly_Housing_Only":"No","ADU_Max_Size_as_Percent_of_Primary_Strcture":30.0,"ADU_Max_Size_in_sq_ft":null,"ADU_Min_Lot_Size":3.0,"ADU_Max_Bedrooms":null,"ADU_Min_Parking_Spaces":1.0,"ADU_Owner_Occupancy_Required":"Yes","ADU_Renter_Occupancy_Prohibited":"No","ADU_Employee_or_Family_Occupancy_Required":"Yes","ADU_Restricted_to_Primary_Structure":"No","Affordable_Housing_Allowance":"Not Mentioned","Affordable_Housing_District":"No","Affordable_Housing_Elderly_Only":null,"Affordable_Housing_Min_Lot_Size":null,"Affordable_Housing_Max_Density":null,"Affordable_Housing_Min_Parking_Spaces_per_mult_BR":null,"Affordable_Housing_Max_Units_per_Building":null,"Affordable_Housing_Min_Parking_Spaces_per_1BR":null,"PRD_Allowance":"Public Hearing","PRD_Max_Density":null,"PRD_Max_Units":null,"PRD_Min_Lot_Size":5.0,"PRD_Mobile_or_Manufactured_Home_Park":"Yes","PUD_Allowance":null,"PUD_Required_with_Subdivision":null,"PUD_Requires_Land_Conservation":null,"PUD_Threshold_Number":null,"Notes":"None"},"geometry":{"type":"MultiPolygon","coordinates":[[[[-72.21109120468189,44.54151431739448],[-72.20765077596265,44.54212309810857],[-72.20635688320935,44.5422340961086],[-72.20647284846719,44.54449581073174],[-72.20669969007733,44.54443554965007],[-72.20678360705968,44.54417865856163],[-72.20697418222001,44.54410548512066],[-72.20711523585805,44.543943167125505],[-72.20732358447923,44.54386773573536],[-72.20735524463588,44.54374656386032],[-72.20757678562701,44.54352371743771],[-72.20772900379757,44.54324654579487],[-72.20802073176681,44.54301161733233],[-72.2084487640349,44.542960259718654],[-72.20882523838756,44.54297722728418],[-72.20867066552205,44.54273181715422],[-72.208684293791,44.54260484199322],[-72.20919342859135,44.54223293642],[-72.20940452817793,44.542126348789765],[-72.20964522315214,44.54213167840148],[-72.20982715489733,44.54224615289808],[-72.2098928910597,44.54238296994364],[-72.21079240979121,44.54189460093005],[-72.21102028544182,44.54167068926864],[-72.21109120468189,44.54151431739448]]],[[[-72.21246684499388,44.54121542066855],[-72.21178378247599,44.54136269626286],[-72.21150882012087,44.54147963018364],[-72.21140843596565,44.54173221665839],[-72.21108000804578,44.54207712331736],[-72.21006635687084,44.54263328965594],[-72.20970386654919,44.54264532529973],[-72.2094999329184,44.54242048756302],[-72.2090687834587,44.54269295212887],[-72.20921482642865,44.54298457697121],[-72.20907315742456,44.54319553581572],[-72.20879096671732,44.543286477960336],[-72.20823724903242,44.54324833480302],[-72.20805366440514,44.54339358528606],[-72.20791201254866,44.54366072758155],[-72.20771607566712,44.54384554044577],[-72.20767900903834,44.54403332720858],[-72.20738900003235,44.54417777770904],[-72.20729388708808,44.544361372194565],[-72.20709005939719,44.54439889718026],[-72.20696644572095,44.54466637159341],[-72.20684469745798,44.54472014536788],[-72.20671268309462,44.54471122735408],[-72.20664001359188,44.54488499490154],[-72.20649631138667,44.544953352982695],[-72.20750013596542,44.54491913242956],[-72.20889364866476,44.54473661902768],[-72.21456099527498,44.54368968514405],[-72.21554329432443,44.544123912042295],[-72.21764928631214,44.544817512835884],[-72.21906300950762,44.5454642701054],[-72.21961861165649,44.54458530826179],[-72.21948960020234,44.54442057482842],[-72.21886306495348,44.54406589462986],[-72.21793328321483,44.543650697664205],[-72.21758458182771,44.54361446755535],[-72.21675267449972,44.54387301394158],[-72.2165974137305,44.54385153067742],[-72.21642425289782,44.54374081271185],[-72.215187471235,44.54353699357771],[-72.21499780475341,44.54342279812376],[-72.21469777937565,44.542970666764454],[-72.21466976352319,44.54241849256954],[-72.21399672033994,44.54198899437199],[-72.21396303425595,44.54187442630156],[-72.21402832366418,44.541659693777085],[-72.2137532727792,44.54198125610037],[-72.21325506552978,44.542033936943255],[-72.21311763561738,44.54197447765899],[-72.21296761645996,44.54176387991126],[-72.2131369914583,44.5413202448881],[-72.21294741402941,44.5412590903153],[-72.21246684499388,44.54121542066855]]],[[[-72.21474522182623,44.5409178889827],[-72.21331458468454,44.54106272555589],[-72.21351226423998,44.541231130977515],[-72.21354722493321,44.54135675182067],[-72.21335299537512,44.54169941691137],[-72.21339199549294,44.54177010406127],[-72.21354753917949,44.54174252962112],[-72.21367533699873,44.54146040295515],[-72.21384218820597,44.54137197300004],[-72.21401758526173,44.54136404109208],[-72.21440208887783,44.54149483445196],[-72.21435059540535,44.541871594903334],[-72.2150192349548,44.54228884809109],[-72.21508751568274,44.54256100644107],[-72.2150724158924,44.54290120529],[-72.21536390408828,44.54328937477182],[-72.2165211711944,44.54347468456128],[-72.21675727603717,44.543566332244005],[-72.21753524020569,44.54334056761233],[-72.2180514574062,44.543388699216315],[-72.2190895077465,44.54383879924692],[-72.2198157254394,44.544273467999204],[-72.22037029174736,44.543396106159854],[-72.22012964650578,44.543041855892],[-72.22008206562859,44.542662557102084],[-72.21913575123152,44.54227620468936],[-72.21727972408888,44.541677807328824],[-72.21627348724749,44.541208310372014],[-72.21560581414357,44.54098973793149],[-72.21474522182623,44.5409178889827]]]]}}]}