{"type":"FeatureCollection","name":"Caledonia_Ryegate","features":[{"type":"Feature","properties":{"OBJECT_ID":1725,"County":"Caledonia","RPC":"NVDA","Municipal_Name":"Ryegate","GEO_ID":"5000561525","District_Name":"Commercial Two","Abbreviated_District_Name":"C2","District_Type":"Mixed with Residential","Bylaw_Date":null,"Elderly_Housing_District":"No","District_Mapped":"Yes","Overlay_District":"No","Base_Density":null,"FIPS6":null,"GIS_ID":null,"Last_Update":null,"Shape_Length":11747.887189408753,"Shape_Area":1007763.9640703012,"F1F_Allowance":"Permitted","F1F_Front_Setback":null,"F1F_Side_Setback":null,"F1F_Rear_Setback":null,"F1F_Frontage":null,"F1F_Max_Height":35.0,"F1F_Max_Stories":null,"F1F_Min_Lot_Size":null,"F1F_Max_Lot_Building_Coverage":30.0,"F1F_Max_Lot_Impervious_Coverage":null,"F1F_Min_Parking_Spaces":2.0,"F1F_Elderly_Housing_Only":null,"F1F_Affordable_Housing_Only":null,"F2F_Allowance":"Permitted","F2F_Front_Setback":null,"F2F_Side_Setback":null,"F2F_Rear_Setback":null,"F2F_Frontage":null,"F2F_Max_Density":null,"F2F_Max_Height":35.0,"F2F_Max_Stories":null,"F2F_Min_Lot_Size":null,"F2F_Max_Lot_Building_Coverage":30.0,"F2F_Max_Lot_Impervious_Coverage":null,"F2F_Min_Parking_Spaces_per_1BR":2.0,"F2F_Min_Parking_Spaces_per_mult_BR":2.0,"F2F_Elderly_Housing_Only":"No","F2F_Affordable_Housing_Only":"No","F3F_Allowance":"Public Hearing","F3F_Front_Setback":null,"F3F_Side_Setback":null,"F3F_Rear_Setback":null,"F3F_Frontage":null,"F3F_Max_Density":null,"F3F_Max_Height":35.0,"F3F_Max_Stories":null,"F3F_Min_Lot_Size":null,"F3F_Max_Lot_Building_Coverage":30.0,"F3F_Max_Lot_Impervious_Coverage":null,"F3F_Min_Parking_Spaces_per_1BR":2.0,"F3F_Min_Parking_Spaces_per_mult_BR":2.0,"F3F_Affordable_Housing_Only":"No","F3F_Proximity_to_Public_Transit_Required":null,"F3F_Connection_to_Sewage/Water_Required":null,"F4F_Allowance":"Public Hearing","F4F_Front_Setback":null,"F4F_Side_Setback":null,"F4F_Rear_Setback":null,"F4F_Frontage":null,"F1F_Max_Density":null,"F4F_Max_Density":null,"F4F_Max_Height":35.0,"F4F_Max_Stories":null,"F4F_Min_Lot_Size":null,"F4F_Max_Lot_Building_Coverage":30.0,"F4F_Max_Lot_Impervious_Coverage":null,"F4F_Min_Parking_Spaces_per_1BR":2.0,"F4F_Min_Parking_Spaces_per_mult_BR":2.0,"F3F_Elderly_Housing_Only":"No","F4F_Elderly_Housing_Only":"No","F4F_Affordable_Housing_Only":"No","F4F_Proximity_to_Public_Transit_Required":null,"F4F_Connection_to_Sewage/Water_Required":null,"ADU_Allowance":"Allowed/Conditional","ADU_Elderly_Housing_Only":"No","ADU_Max_Size_as_Percent_of_Primary_Strcture":30.0,"ADU_Max_Size_in_sq_ft":600.0,"ADU_Min_Lot_Size":null,"ADU_Max_Bedrooms":1.0,"ADU_Min_Parking_Spaces":2.0,"ADU_Owner_Occupancy_Required":"Yes","ADU_Renter_Occupancy_Prohibited":"No","ADU_Employee_or_Family_Occupancy_Required":"No","ADU_Restricted_to_Primary_Structure":"No","Affordable_Housing_Allowance":"Allowed/Conditional","Affordable_Housing_District":"No","Affordable_Housing_Elderly_Only":"No","Affordable_Housing_Min_Lot_Size":null,"Affordable_Housing_Max_Density":null,"Affordable_Housing_Min_Parking_Spaces_per_mult_BR":2.0,"Affordable_Housing_Max_Units_per_Building":null,"Affordable_Housing_Min_Parking_Spaces_per_1BR":2.0,"PRD_Allowance":"Not Mentioned","PRD_Max_Density":null,"PRD_Max_Units":null,"PRD_Min_Lot_Size":null,"PRD_Mobile_or_Manufactured_Home_Park":null,"PUD_Allowance":"No","PUD_Required_with_Subdivision":null,"PUD_Requires_Land_Conservation":null,"PUD_Threshold_Number":null,"Notes":"None"},"geometry":{"type":"MultiPolygon","coordinates":[[[[-72.06484769204395,44.201812890792226],[-72.06703074649148,44.202314128251196],[-72.0685608771478,44.19959766166815],[-72.06881064916632,44.19930110821841],[-72.07014640755308,44.19813606390141],[-72.07046347741627,44.19772072443915],[-72.07070645479003,44.197257971323424],[-72.07090208786191,44.19642406971866],[-72.07091972535993,44.19505319521478],[-72.07072349819299,44.19378637858365],[-72.07069564565471,44.1937026097866],[-72.07017449251292,44.19242599798477],[-72.06990526267874,44.1919635579035],[-72.06901810065538,44.19031745156702],[-72.06826808390797,44.18851510635225],[-72.06783774523237,44.18785834940346],[-72.06754221005316,44.18753264057245],[-72.06680369998546,44.1869330726528],[-72.06498131730923,44.18593966640488],[-72.0647501419434,44.18574375739752],[-72.06440701573682,44.18529482816365],[-72.0617085272397,44.17984537405164],[-72.0612480998961,44.17851749520778],[-72.06100956800753,44.17723987407658],[-72.06061493430241,44.17644615400932],[-72.05991796676359,44.17572941744494],[-72.05939315061069,44.17537606275888],[-72.05820906915929,44.17473767672916],[-72.05773955289213,44.17430700268213],[-72.05754312407866,44.174008906308366],[-72.05736945594732,44.17342511159899],[-72.05739881875083,44.17154730110721],[-72.05751039838957,44.17102962408537],[-72.05790160993263,44.16987794042378],[-72.05796103364348,44.169516885181984],[-72.05793380827143,44.16914447238009],[-72.05783669425293,44.16882079563338],[-72.05764615063781,44.16846418531485],[-72.05725143237132,44.16801141820711],[-72.05492699886132,44.16580610004071],[-72.05433521460525,44.165373704653504],[-72.05328144046386,44.16478978172914],[-72.05284604338974,44.164529298858064],[-72.05229064161306,44.164116389609035],[-72.05112964356127,44.16305587883506],[-72.05019813627175,44.16231036769489],[-72.05005419337411,44.16208959598964],[-72.0498527011235,44.1616165505728],[-72.049131800193,44.15982686388816],[-72.04870972578959,44.159180800373285],[-72.0480019912898,44.15832208893759],[-72.04397223749244,44.15719244644683],[-72.04436167056555,44.157499694301464],[-72.04494818042288,44.157630045806606],[-72.04581861805481,44.158876542587436],[-72.04687127250034,44.16020760357176],[-72.04757470953393,44.16185176156611],[-72.04782857481116,44.162017863831956],[-72.0480863547602,44.16236412433655],[-72.04812660554383,44.16302219182631],[-72.04839237505595,44.16332150876822],[-72.04935426447734,44.16409332984345],[-72.05083411855351,44.1654092075666],[-72.05157740090657,44.16591540621976],[-72.0528036786287,44.166597182800096],[-72.05316629862561,44.16685730281427],[-72.0556132788501,44.169224022658234],[-72.05564873656296,44.16959336574044],[-72.055276482476,44.17067709568763],[-72.05512420001118,44.17137358510878],[-72.0550815255563,44.17336493697005],[-72.05624711780712,44.17526677099793],[-72.05650414951504,44.175834670278824],[-72.05703507367248,44.176184037114204],[-72.05811348345769,44.17676214984001],[-72.05859919648555,44.17722601804263],[-72.05876258848757,44.17755383045198],[-72.0589975525746,44.17881149495268],[-72.05931807805591,44.1798484655836],[-72.06213075485692,44.185604863257154],[-72.0631164623051,44.186511849297545],[-72.06362601917763,44.187125161048215],[-72.06421900415836,44.18758833156161],[-72.06521550241956,44.18811820836129],[-72.0657245921287,44.188533037055954],[-72.06600792596913,44.1888786471134],[-72.06685444508736,44.190852069091854],[-72.06822528823986,44.19340601779165],[-72.06849062863009,44.19413056240533],[-72.0686318963802,44.195051338235544],[-72.06861742833016,44.19633459128734],[-72.06845225207289,44.19691792678755],[-72.06816955722503,44.19730240037164],[-72.06696994966654,44.198322447160685],[-72.06656256796843,44.19879490407955],[-72.06484769204395,44.201812890792226]]]]}},{"type":"Feature","properties":{"OBJECT_ID":1728,"County":"Caledonia","RPC":"NVDA","Municipal_Name":"Ryegate","GEO_ID":"5000561525","District_Name":"Medium Density Residential","Abbreviated_District_Name":"Mdr","District_Type":"Mixed with Residential","Bylaw_Date":null,"Elderly_Housing_District":"No","District_Mapped":"Yes","Overlay_District":"No","Base_Density":null,"FIPS6":null,"GIS_ID":null,"Last_Update":null,"Shape_Length":20540.6954988898,"Shape_Area":2347499.7742026304,"F1F_Allowance":"Permitted","F1F_Front_Setback":null,"F1F_Side_Setback":null,"F1F_Rear_Setback":null,"F1F_Frontage":null,"F1F_Max_Height":35.0,"F1F_Max_Stories":null,"F1F_Min_Lot_Size":null,"F1F_Max_Lot_Building_Coverage":30.0,"F1F_Max_Lot_Impervious_Coverage":null,"F1F_Min_Parking_Spaces":2.0,"F1F_Elderly_Housing_Only":null,"F1F_Affordable_Housing_Only":null,"F2F_Allowance":"Permitted","F2F_Front_Setback":null,"F2F_Side_Setback":null,"F2F_Rear_Setback":null,"F2F_Frontage":null,"F2F_Max_Density":null,"F2F_Max_Height":35.0,"F2F_Max_Stories":null,"F2F_Min_Lot_Size":null,"F2F_Max_Lot_Building_Coverage":30.0,"F2F_Max_Lot_Impervious_Coverage":null,"F2F_Min_Parking_Spaces_per_1BR":2.0,"F2F_Min_Parking_Spaces_per_mult_BR":2.0,"F2F_Elderly_Housing_Only":"No","F2F_Affordable_Housing_Only":"No","F3F_Allowance":"Public Hearing","F3F_Front_Setback":null,"F3F_Side_Setback":null,"F3F_Rear_Setback":null,"F3F_Frontage":null,"F3F_Max_Density":null,"F3F_Max_Height":35.0,"F3F_Max_Stories":null,"F3F_Min_Lot_Size":null,"F3F_Max_Lot_Building_Coverage":30.0,"F3F_Max_Lot_Impervious_Coverage":null,"F3F_Min_Parking_Spaces_per_1BR":2.0,"F3F_Min_Parking_Spaces_per_mult_BR":2.0,"F3F_Affordable_Housing_Only":"No","F3F_Proximity_to_Public_Transit_Required":null,"F3F_Connection_to_Sewage/Water_Required":null,"F4F_Allowance":"Public Hearing","F4F_Front_Setback":null,"F4F_Side_Setback":null,"F4F_Rear_Setback":null,"F4F_Frontage":null,"F1F_Max_Density":null,"F4F_Max_Density":null,"F4F_Max_Height":35.0,"F4F_Max_Stories":null,"F4F_Min_Lot_Size":null,"F4F_Max_Lot_Building_Coverage":30.0,"F4F_Max_Lot_Impervious_Coverage":null,"F4F_Min_Parking_Spaces_per_1BR":2.0,"F4F_Min_Parking_Spaces_per_mult_BR":2.0,"F3F_Elderly_Housing_Only":"No","F4F_Elderly_Housing_Only":"No","F4F_Affordable_Housing_Only":"No","F4F_Proximity_to_Public_Transit_Required":null,"F4F_Connection_to_Sewage/Water_Required":null,"ADU_Allowance":"Allowed/Conditional","ADU_Elderly_Housing_Only":"No","ADU_Max_Size_as_Percent_of_Primary_Strcture":30.0,"ADU_Max_Size_in_sq_ft":600.0,"ADU_Min_Lot_Size":null,"ADU_Max_Bedrooms":1.0,"ADU_Min_Parking_Spaces":2.0,"ADU_Owner_Occupancy_Required":"Yes","ADU_Renter_Occupancy_Prohibited":"No","ADU_Employee_or_Family_Occupancy_Required":"No","ADU_Restricted_to_Primary_Structure":"No","Affordable_Housing_Allowance":"Allowed/Conditional","Affordable_Housing_District":"No","Affordable_Housing_Elderly_Only":"No","Affordable_Housing_Min_Lot_Size":null,"Affordable_Housing_Max_Density":null,"Affordable_Housing_Min_Parking_Spaces_per_mult_BR":2.0,"Affordable_Housing_Max_Units_per_Building":null,"Affordable_Housing_Min_Parking_Spaces_per_1BR":2.0,"PRD_Allowance":"Not Mentioned","PRD_Max_Density":null,"PRD_Max_Units":null,"PRD_Min_Lot_Size":null,"PRD_Mobile_or_Manufactured_Home_Park":null,"PUD_Allowance":"No","PUD_Required_with_Subdivision":null,"PUD_Requires_Land_Conservation":null,"PUD_Threshold_Number":null,"Notes":"None"},"geometry":{"type":"MultiPolygon","coordinates":[[[[-72.0608608528428,44.200897398572835],[-72.06051302481234,44.201305476581425],[-72.05969906594375,44.202870572876684],[-72.0595428441279,44.20330169057442],[-72.05940814262266,44.204231409940604],[-72.05932318841691,44.20564450657052],[-72.05948148744245,44.205601388395486],[-72.06006212378455,44.20544322793661],[-72.06022003760754,44.20527112790233],[-72.06092064683736,44.205192573574784],[-72.06151997814119,44.20483613595967],[-72.06231893522792,44.20482280017106],[-72.06370515578375,44.204841977915805],[-72.06553313047701,44.20487125535682],[-72.06606602060015,44.204095348283836],[-72.06703074649148,44.202314128251196],[-72.06484769204395,44.201812890792226],[-72.0608608528428,44.200897398572835]]],[[[-72.10261789726079,44.199473033153616],[-72.1005989531261,44.2002416297682],[-72.1021839164219,44.207328275440034],[-72.102541979008,44.20930645413475],[-72.10564096383854,44.209115196830076],[-72.10530093029485,44.20748674056274],[-72.1045391131126,44.20755513490534],[-72.10288627950483,44.20004052778213],[-72.10261789726079,44.199473033153616]]],[[[-72.13908724485347,44.18998343671487],[-72.13851135727691,44.19109482919358],[-72.13806768976981,44.19225028534069],[-72.13761029932078,44.194511169584594],[-72.13762968682938,44.19506466484051],[-72.13814649271515,44.19665765108146],[-72.13867088321527,44.197739933273766],[-72.13969713029903,44.19945572283481],[-72.14047904090043,44.200666467320985],[-72.14109669201626,44.20141406713995],[-72.14250507267312,44.20283469761645],[-72.14377524000172,44.203677038874524],[-72.14431069755345,44.20396251296711],[-72.14477872983244,44.20456291730666],[-72.14454688011837,44.20567215225218],[-72.14444839077169,44.20673825203766],[-72.14667783428212,44.20675520215359],[-72.14814543259617,44.205900587782956],[-72.14797833266616,44.20572902898048],[-72.14716082266678,44.204381803679425],[-72.14746714148568,44.2031987615784],[-72.14743677272563,44.202380091338874],[-72.1469638759554,44.201232118342354],[-72.14621684523881,44.200036264611434],[-72.14481606351774,44.198122792010864],[-72.14356256289048,44.197082317413845],[-72.14275303883915,44.195977575436714],[-72.14260591311978,44.195651113981434],[-72.1421344126686,44.19441986128916],[-72.14198266354055,44.19270859642234],[-72.14179913744756,44.1923089519967],[-72.1415807371614,44.192048608439784],[-72.14165297310227,44.19197461268941],[-72.14239046814635,44.19172508332212],[-72.14307939560716,44.191289093636286],[-72.14015028110556,44.19027915541496],[-72.13908724485347,44.18998343671487]]],[[[-72.1385194747158,44.183114702335786],[-72.13829182541859,44.18357859898491],[-72.13826855442646,44.183706529586324],[-72.13833268749404,44.18421306268492],[-72.13853650151245,44.18473355384365],[-72.13420696963279,44.18446918066919],[-72.1336247919859,44.18454065375701],[-72.1306912486542,44.18377068757457],[-72.1298657112063,44.18362711198863],[-72.12863705078267,44.18350432366184],[-72.12855326507595,44.18432505682703],[-72.12746734693998,44.18432207888631],[-72.12231925586687,44.184661221726564],[-72.12148023183853,44.18705688340292],[-72.12260654515299,44.18730814737386],[-72.12417706730152,44.18753922659533],[-72.12482720090433,44.188179153348166],[-72.1254808642226,44.18856609184948],[-72.12619247849292,44.18875373194009],[-72.12728599745225,44.18888021681145],[-72.12856728993712,44.188957897679096],[-72.12936561164854,44.18890334544458],[-72.1322114884659,44.18808998374002],[-72.1334839639829,44.18854544576172],[-72.13404393529026,44.18864932800727],[-72.13486370449188,44.188636637711475],[-72.13588587158823,44.18846058561963],[-72.13740388075381,44.188459776243825],[-72.13859810323295,44.1885167688845],[-72.13931037707307,44.18869179605703],[-72.13987185202012,44.18796784019048],[-72.14056642450804,44.188166512257276],[-72.14094650400283,44.18835824134151],[-72.14076022547138,44.18764512056524],[-72.14073931974913,44.18756463595459],[-72.14070211003585,44.18742138045307],[-72.14051731441249,44.18690666280005],[-72.14178073549168,44.18709465929331],[-72.1405697679822,44.18387854662636],[-72.14062565731274,44.18369213669226],[-72.1385194747158,44.183114702335786]]],[[[-72.09996723379537,44.172559149141264],[-72.10010245693606,44.17293485483969],[-72.09933505776144,44.173956110187625],[-72.09893896765894,44.17475705140001],[-72.09840684653928,44.17556437007716],[-72.09827246038643,44.17591911289038],[-72.09823567731112,44.176109177603585],[-72.09825427180157,44.17664382717221],[-72.09838606910614,44.177303096437804],[-72.09780539480947,44.17946630030004],[-72.09719596275222,44.180622134002306],[-72.09666707487402,44.18146083701335],[-72.09598393669349,44.18294186106179],[-72.0953745468171,44.18390895676948],[-72.09480397789552,44.18466992810625],[-72.0946609342574,44.1848359131121],[-72.09342478034388,44.18600161319405],[-72.09315255418093,44.186363904615895],[-72.09290388150693,44.18691173814003],[-72.09532409020592,44.18692985162482],[-72.09651990438665,44.18579558116679],[-72.09713153250756,44.185064501784055],[-72.09805181275183,44.18364577468469],[-72.09880140655457,44.18205279213319],[-72.09931114030262,44.181248345106745],[-72.09997995154863,44.17997660444623],[-72.10017196245377,44.17944753471552],[-72.10066415799763,44.17745831507213],[-72.1006782551091,44.177085192452886],[-72.10051921870941,44.176241208364864],[-72.10104353961891,44.175404110573105],[-72.10142136340679,44.174631000061886],[-72.10218390406527,44.17361710915437],[-72.10236948919909,44.17321032569013],[-72.10234316960702,44.17320319701779],[-72.09996723379537,44.172559149141264]]],[[[-72.06908814316732,44.16410747668262],[-72.06944977965061,44.164590165421785],[-72.07039464930385,44.165229423147544],[-72.07110450953769,44.16597771917566],[-72.07154671887541,44.16787042481386],[-72.07192886258389,44.168710000008126],[-72.07220279127516,44.1691467067996],[-72.07266400703017,44.16969825735864],[-72.07456894182256,44.17166479295757],[-72.07478818393125,44.172021773295434],[-72.07556900567674,44.172806847323784],[-72.07714351694317,44.174013947170174],[-72.07807110905505,44.17451529265058],[-72.079971254546,44.17521402791181],[-72.08104593186435,44.17376040638701],[-72.07948875991814,44.17320360031329],[-72.07869878427422,44.1728075323424],[-72.07829070343077,44.17251398908768],[-72.07706057360977,44.171528122851505],[-72.07643223102278,44.170669909257605],[-72.07458732292243,44.16880776282357],[-72.07421437481948,44.16836273945176],[-72.07377735227506,44.167507620382985],[-72.07346018360668,44.165968633257414],[-72.07340743812999,44.16575516242726],[-72.07313388136811,44.165214222092914],[-72.07170644070905,44.16482282706535],[-72.06908814316732,44.16410747668262]]]]}},{"type":"Feature","properties":{"OBJECT_ID":1727,"County":"Caledonia","RPC":"NVDA","Municipal_Name":"Ryegate","GEO_ID":"5000561525","District_Name":"Low Density","Abbreviated_District_Name":"Ld","District_Type":"Primarily Residential","Bylaw_Date":null,"Elderly_Housing_District":"No","District_Mapped":"Yes","Overlay_District":"No","Base_Density":null,"FIPS6":null,"GIS_ID":null,"Last_Update":null,"Shape_Length":92360.78235515257,"Shape_Area":56006861.947754756,"F1F_Allowance":"Permitted","F1F_Front_Setback":50.0,"F1F_Side_Setback":50.0,"F1F_Rear_Setback":75.0,"F1F_Frontage":400.0,"F1F_Max_Height":35.0,"F1F_Max_Stories":null,"F1F_Min_Lot_Size":5.0,"F1F_Max_Lot_Building_Coverage":30.0,"F1F_Max_Lot_Impervious_Coverage":null,"F1F_Min_Parking_Spaces":2.0,"F1F_Elderly_Housing_Only":null,"F1F_Affordable_Housing_Only":null,"F2F_Allowance":"Permitted","F2F_Front_Setback":50.0,"F2F_Side_Setback":50.0,"F2F_Rear_Setback":75.0,"F2F_Frontage":400.0,"F2F_Max_Density":null,"F2F_Max_Height":35.0,"F2F_Max_Stories":null,"F2F_Min_Lot_Size":5.0,"F2F_Max_Lot_Building_Coverage":30.0,"F2F_Max_Lot_Impervious_Coverage":null,"F2F_Min_Parking_Spaces_per_1BR":2.0,"F2F_Min_Parking_Spaces_per_mult_BR":2.0,"F2F_Elderly_Housing_Only":"No","F2F_Affordable_Housing_Only":"No","F3F_Allowance":"Prohibited","F3F_Front_Setback":null,"F3F_Side_Setback":null,"F3F_Rear_Setback":null,"F3F_Frontage":null,"F3F_Max_Density":null,"F3F_Max_Height":null,"F3F_Max_Stories":null,"F3F_Min_Lot_Size":null,"F3F_Max_Lot_Building_Coverage":null,"F3F_Max_Lot_Impervious_Coverage":null,"F3F_Min_Parking_Spaces_per_1BR":null,"F3F_Min_Parking_Spaces_per_mult_BR":null,"F3F_Affordable_Housing_Only":null,"F3F_Proximity_to_Public_Transit_Required":null,"F3F_Connection_to_Sewage/Water_Required":null,"F4F_Allowance":"Prohibited","F4F_Front_Setback":null,"F4F_Side_Setback":null,"F4F_Rear_Setback":null,"F4F_Frontage":null,"F1F_Max_Density":null,"F4F_Max_Density":null,"F4F_Max_Height":null,"F4F_Max_Stories":null,"F4F_Min_Lot_Size":null,"F4F_Max_Lot_Building_Coverage":null,"F4F_Max_Lot_Impervious_Coverage":null,"F4F_Min_Parking_Spaces_per_1BR":null,"F4F_Min_Parking_Spaces_per_mult_BR":null,"F3F_Elderly_Housing_Only":null,"F4F_Elderly_Housing_Only":null,"F4F_Affordable_Housing_Only":null,"F4F_Proximity_to_Public_Transit_Required":null,"F4F_Connection_to_Sewage/Water_Required":null,"ADU_Allowance":"Allowed/Conditional","ADU_Elderly_Housing_Only":"No","ADU_Max_Size_as_Percent_of_Primary_Strcture":30.0,"ADU_Max_Size_in_sq_ft":600.0,"ADU_Min_Lot_Size":5.0,"ADU_Max_Bedrooms":1.0,"ADU_Min_Parking_Spaces":2.0,"ADU_Owner_Occupancy_Required":"Yes","ADU_Renter_Occupancy_Prohibited":"No","ADU_Employee_or_Family_Occupancy_Required":"No","ADU_Restricted_to_Primary_Structure":"No","Affordable_Housing_Allowance":"Allowed/Conditional","Affordable_Housing_District":"No","Affordable_Housing_Elderly_Only":"No","Affordable_Housing_Min_Lot_Size":5.0,"Affordable_Housing_Max_Density":null,"Affordable_Housing_Min_Parking_Spaces_per_mult_BR":2.0,"Affordable_Housing_Max_Units_per_Building":null,"Affordable_Housing_Min_Parking_Spaces_per_1BR":2.0,"PRD_Allowance":"Not Mentioned","PRD_Max_Density":null,"PRD_Max_Units":null,"PRD_Min_Lot_Size":null,"PRD_Mobile_or_Manufactured_Home_Park":null,"PUD_Allowance":"Yes","PUD_Required_with_Subdivision":"No","PUD_Requires_Land_Conservation":"Yes","PUD_Threshold_Number":null,"Notes":"None"},"geometry":{"type":"MultiPolygon","coordinates":[[[[-72.04494818042288,44.157630045806606],[-72.04581861805481,44.158876542587436],[-72.04687127250034,44.16020760357176],[-72.04757470953393,44.16185176156611],[-72.04700552978363,44.161496657869684],[-72.04651448147438,44.161360790199154],[-72.04610886435869,44.16141569738191],[-72.04510941170292,44.16179278075013],[-72.04470465909381,44.161734561301984],[-72.0439227151921,44.16180587024407],[-72.0431288418586,44.161802698201825],[-72.04289612396265,44.161938657687585],[-72.04286579533677,44.16212636473042],[-72.04251335395082,44.16214223385171],[-72.04243742710783,44.161904419765555],[-72.04249297054302,44.16178674175132],[-72.04229500546239,44.1617127808608],[-72.04215736611167,44.161549689933665],[-72.04215180972504,44.16141151996996],[-72.04239911650693,44.161086261106036],[-72.04262820657046,44.160497499680346],[-72.04280710556678,44.16035232716864],[-72.04289280972927,44.16014971901604],[-72.04310743370719,44.16000828894936],[-72.04318866418744,44.159672194916624],[-72.04396272041352,44.15847874218935],[-72.04391928114693,44.15837290910813],[-72.04406216412471,44.15791951992493],[-72.0440146430484,44.15764555108166],[-72.04393577964822,44.15743202601232],[-72.0436399344643,44.1570992855654],[-72.04397223749244,44.15719244644683],[-72.04436167056555,44.157499694301464],[-72.04494818042288,44.157630045806606]]],[[[-72.05157740090657,44.16591540621976],[-72.0528036786287,44.166597182800096],[-72.05316629862561,44.16685730281427],[-72.0556132788501,44.169224022658234],[-72.05564873656296,44.16959336574044],[-72.055276482476,44.17067709568763],[-72.05512420001118,44.17137358510878],[-72.0550815255563,44.17336493697005],[-72.05464638926608,44.17253400863139],[-72.05332407241504,44.16855212585591],[-72.05285159193377,44.16760375292815],[-72.05241362792906,44.16700381064728],[-72.05158386845116,44.16626535096069],[-72.0501993432536,44.165628830003016],[-72.04948971342813,44.165408774749935],[-72.04856891538016,44.16469666291845],[-72.04836999580455,44.164204748745924],[-72.04812660554383,44.16302219182631],[-72.04839237505595,44.16332150876822],[-72.04935426447734,44.16409332984345],[-72.05083411855351,44.1654092075666],[-72.05157740090657,44.16591540621976]]],[[[-72.05876258848757,44.17755383045198],[-72.0589975525746,44.17881149495268],[-72.05931807805591,44.1798484655836],[-72.06213075485692,44.185604863257154],[-72.06120960528565,44.18481984512567],[-72.06071288139505,44.18430593095677],[-72.05908157525616,44.18229347040909],[-72.0586845933233,44.18172638070038],[-72.05802353944023,44.180515313597084],[-72.05764138405836,44.179623922352576],[-72.05716313287293,44.17830636822947],[-72.05650414951504,44.175834670278824],[-72.05703507367248,44.176184037114204],[-72.05811348345769,44.17676214984001],[-72.05859919648555,44.17722601804263],[-72.05876258848757,44.17755383045198]]],[[[-72.14076022547138,44.18764512056524],[-72.14073931974913,44.18756463595459],[-72.14107829874914,44.18775620296174],[-72.14102733076648,44.18780543893079],[-72.14076022547138,44.18764512056524]]],[[[-72.06685444508736,44.190852069091854],[-72.06822528823986,44.19340601779165],[-72.06849062863009,44.19413056240533],[-72.0686318963802,44.195051338235544],[-72.06861742833016,44.19633459128734],[-72.06845225207289,44.19691792678755],[-72.06816955722503,44.19730240037164],[-72.06696994966654,44.198322447160685],[-72.06656256796843,44.19879490407955],[-72.06484769204395,44.201812890792226],[-72.0608608528428,44.200897398572835],[-72.06051302481234,44.201305476581425],[-72.05969906594375,44.202870572876684],[-72.0595428441279,44.20330169057442],[-72.05940814262266,44.204231409940604],[-72.05911478086327,44.20414476198011],[-72.05887853343454,44.2041451882631],[-72.05843349924731,44.204001875300754],[-72.05896971192679,44.202277540410925],[-72.05931454160358,44.201534759958164],[-72.05975403400197,44.20078018973654],[-72.06031817642388,44.20011880018489],[-72.060900772328,44.19966564657002],[-72.06184359743403,44.19918705062048],[-72.0624504588915,44.19879941143016],[-72.0627327738667,44.19866954279983],[-72.06311807789233,44.198602527645754],[-72.06356615913745,44.198437562023784],[-72.06444974049141,44.19757181283464],[-72.06452684799174,44.197208962159955],[-72.06448772208091,44.196950154636916],[-72.06438916451489,44.19679470857636],[-72.06439153444748,44.19545553588456],[-72.06470763419979,44.194572404598475],[-72.06489457657263,44.19446304688699],[-72.06500166996908,44.193406775373305],[-72.06542097351709,44.19264040727543],[-72.06559035403625,44.1921112271318],[-72.06612011585906,44.1909493697242],[-72.06618034133314,44.19007156691401],[-72.06559719154185,44.18893230055782],[-72.06505774928786,44.18858798088262],[-72.06505537294093,44.18834983290481],[-72.06421900415836,44.18758833156161],[-72.06521550241956,44.18811820836129],[-72.0657245921287,44.188533037055954],[-72.06600792596913,44.1888786471134],[-72.06685444508736,44.190852069091854]]],[[[-72.06908814316732,44.16410747668262],[-72.06944977965061,44.164590165421785],[-72.07039464930385,44.165229423147544],[-72.07110450953769,44.16597771917566],[-72.07154671887541,44.16787042481386],[-72.07192886258389,44.168710000008126],[-72.07220279127516,44.1691467067996],[-72.07266400703017,44.16969825735864],[-72.07456894182256,44.17166479295757],[-72.07478818393125,44.172021773295434],[-72.07556900567674,44.172806847323784],[-72.07714351694317,44.174013947170174],[-72.07807110905505,44.17451529265058],[-72.079971254546,44.17521402791181],[-72.08104593186435,44.17376040638701],[-72.07948875991814,44.17320360031329],[-72.07869878427422,44.1728075323424],[-72.07829070343077,44.17251398908768],[-72.07706057360977,44.171528122851505],[-72.07643223102278,44.170669909257605],[-72.07458732292243,44.16880776282357],[-72.07421437481948,44.16836273945176],[-72.07377735227506,44.167507620382985],[-72.07346018360668,44.165968633257414],[-72.07340743812999,44.16575516242726],[-72.07313388136811,44.165214222092914],[-72.081673389028,44.16755519791683],[-72.08334196984221,44.16801074638021],[-72.09087175137908,44.17006917685585],[-72.0924101343665,44.17049326911211],[-72.09784226604943,44.17198274217504],[-72.09996723379537,44.172559149141264],[-72.10010245693606,44.17293485483969],[-72.09933505776144,44.173956110187625],[-72.09893896765894,44.17475705140001],[-72.09840684653928,44.17556437007716],[-72.09827246038643,44.17591911289038],[-72.09823567731112,44.176109177603585],[-72.09825427180157,44.17664382717221],[-72.09838606910614,44.177303096437804],[-72.09780539480947,44.17946630030004],[-72.09719596275222,44.180622134002306],[-72.09666707487402,44.18146083701335],[-72.09598393669349,44.18294186106179],[-72.0953745468171,44.18390895676948],[-72.09480397789552,44.18466992810625],[-72.0946609342574,44.1848359131121],[-72.09342478034388,44.18600161319405],[-72.09315255418093,44.186363904615895],[-72.09290388150693,44.18691173814003],[-72.09532409020592,44.18692985162482],[-72.09651990438665,44.18579558116679],[-72.09713153250756,44.185064501784055],[-72.09805181275183,44.18364577468469],[-72.09880140655457,44.18205279213319],[-72.09931114030262,44.181248345106745],[-72.09997995154863,44.17997660444623],[-72.10017196245377,44.17944753471552],[-72.10066415799763,44.17745831507213],[-72.1006782551091,44.177085192452886],[-72.10051921870941,44.176241208364864],[-72.10104353961891,44.175404110573105],[-72.10142136340679,44.174631000061886],[-72.10218390406527,44.17361710915437],[-72.10236948919909,44.17321032569013],[-72.10635562726515,44.17430220908804],[-72.10970436716819,44.1752200439923],[-72.10976892731428,44.17523771993571],[-72.11304132047329,44.176134296404854],[-72.11695189627976,44.17720581944109],[-72.11695877842243,44.17720770190503],[-72.12027324529126,44.17811552583938],[-72.1342139611333,44.18193394624281],[-72.13421402356482,44.18193396264258],[-72.1385194747158,44.183114702335786],[-72.13829182541859,44.18357859898491],[-72.13826855442646,44.183706529586324],[-72.13833268749404,44.18421306268492],[-72.13853650151245,44.18473355384365],[-72.13420696963279,44.18446918066919],[-72.1336247919859,44.18454065375701],[-72.1306912486542,44.18377068757457],[-72.1298657112063,44.18362711198863],[-72.12863705078267,44.18350432366184],[-72.12855326507595,44.18432505682703],[-72.12746734693998,44.18432207888631],[-72.12231925586687,44.184661221726564],[-72.12148023183853,44.18705688340292],[-72.12260654515299,44.18730814737386],[-72.12417706730152,44.18753922659533],[-72.12482720090433,44.188179153348166],[-72.1254808642226,44.18856609184948],[-72.12619247849292,44.18875373194009],[-72.12728599745225,44.18888021681145],[-72.12856728993712,44.188957897679096],[-72.12936561164854,44.18890334544458],[-72.1322114884659,44.18808998374002],[-72.1334839639829,44.18854544576172],[-72.13404393529026,44.18864932800727],[-72.13486370449188,44.188636637711475],[-72.13588587158823,44.18846058561963],[-72.13740388075381,44.188459776243825],[-72.13859810323295,44.1885167688845],[-72.13931037707307,44.18869179605703],[-72.13972759597782,44.188814332591],[-72.13908724485347,44.18998343671487],[-72.13851135727691,44.19109482919358],[-72.13806768976981,44.19225028534069],[-72.13761029932078,44.194511169584594],[-72.13762968682938,44.19506466484051],[-72.13814649271515,44.19665765108146],[-72.13867088321527,44.197739933273766],[-72.13969713029903,44.19945572283481],[-72.14047904090043,44.200666467320985],[-72.14109669201626,44.20141406713995],[-72.14250507267312,44.20283469761645],[-72.14377524000172,44.203677038874524],[-72.14431069755345,44.20396251296711],[-72.14477872983244,44.20456291730666],[-72.14454688011837,44.20567215225218],[-72.14444839077169,44.20673825203766],[-72.14667783428212,44.20675520215359],[-72.14814543259617,44.205900587782956],[-72.14797833266616,44.20572902898048],[-72.14716082266678,44.204381803679425],[-72.14746714148568,44.2031987615784],[-72.14743677272563,44.202380091338874],[-72.1469638759554,44.201232118342354],[-72.14621684523881,44.200036264611434],[-72.14481606351774,44.198122792010864],[-72.14356256289048,44.197082317413845],[-72.14275303883915,44.195977575436714],[-72.14260591311978,44.195651113981434],[-72.1421344126686,44.19441986128916],[-72.14198266354055,44.19270859642234],[-72.14179913744756,44.1923089519967],[-72.1415807371614,44.192048608439784],[-72.14165297310227,44.19197461268941],[-72.14239046814635,44.19172508332212],[-72.14307939560716,44.191289093636286],[-72.14342158505045,44.190896755742536],[-72.14422542723544,44.190307946176674],[-72.14363773457839,44.189951726178315],[-72.1442184093615,44.189220578449],[-72.1449252942305,44.18957612473912],[-72.14514366712285,44.189503624856876],[-72.1448697281723,44.189151517274],[-72.14470958037761,44.18872240228225],[-72.14430839854263,44.18826953840833],[-72.14340211109977,44.18773564707212],[-72.1427756047457,44.187547607207655],[-72.14156981737075,44.187352651224856],[-72.14127939975145,44.18774624978482],[-72.14070211003585,44.18742138045307],[-72.14051731441249,44.18690666280005],[-72.14178073549168,44.18709465929331],[-72.1405697679822,44.18387854662636],[-72.14062565731274,44.18369213669226],[-72.14317435528486,44.18439064762062],[-72.16633407324815,44.19078436668429],[-72.16740810803265,44.195800544690606],[-72.16807492919804,44.198418330130245],[-72.17117805577284,44.21058642499072],[-72.1780247808264,44.23684541832342],[-72.18245040469155,44.25554561010253],[-72.18507443971393,44.26581905272244],[-72.18812520268617,44.276604458361206],[-72.17734263674446,44.27507198003143],[-72.16771287228448,44.27360897307606],[-72.15911324581526,44.2723609654104],[-72.14128813556356,44.26943942279212],[-72.14168907873967,44.26868875493571],[-72.1426052213173,44.267818545053615],[-72.14248718864549,44.267279292679255],[-72.14247144938655,44.266807690574744],[-72.14256396041344,44.266252617405755],[-72.14283317195854,44.265445986038586],[-72.14330268983652,44.26448390488298],[-72.14365639870822,44.2640339815838],[-72.14425488304877,44.26342700262286],[-72.1445549858018,44.262928784815976],[-72.14472537932099,44.2627161813527],[-72.14520872451067,44.26224756220534],[-72.14545045189831,44.26156751109966],[-72.14588569942727,44.260826031837404],[-72.14632985723429,44.26032462057503],[-72.14698647795169,44.25979285183715],[-72.14763993518501,44.259407794424874],[-72.14971661283798,44.25848830873285],[-72.15068599040274,44.25817759740757],[-72.15162684425465,44.25800357910133],[-72.15247820168064,44.25760464622255],[-72.15322106845127,44.256593809272886],[-72.15352865593628,44.25627075892551],[-72.1541285661883,44.255829540829644],[-72.15486722793914,44.25545510262961],[-72.15548573334681,44.255245401777174],[-72.15609897237866,44.255116308432],[-72.1572816591632,44.25505840655879],[-72.15978318844998,44.255394934691054],[-72.16319693380318,44.25596066811981],[-72.16374573599187,44.25544601182517],[-72.16483179769872,44.25478640340489],[-72.1650718202511,44.25455488221589],[-72.16477970614203,44.253037949842216],[-72.1642816430596,44.25186579769684],[-72.16302533383418,44.24763177443826],[-72.16206765655284,44.24678577330876],[-72.16142866401665,44.24584770016267],[-72.16103028841991,44.24471468820451],[-72.16098433471679,44.24404512210281],[-72.1607828503931,44.243205512844774],[-72.16075640047077,44.24263752892109],[-72.16014314400066,44.24185733481285],[-72.15974865851275,44.241092184377734],[-72.1590481046312,44.23845734229204],[-72.15835563157795,44.23668899684127],[-72.15778528368047,44.23444236513795],[-72.15695357161798,44.232181691056915],[-72.15650758970817,44.230715823391265],[-72.15567628041076,44.22715974128357],[-72.15480328027255,44.2257893984119],[-72.15364762479005,44.22432001772464],[-72.15209932891334,44.222193419137135],[-72.15172430104852,44.221549790582735],[-72.15058035488705,44.21921907196289],[-72.14916039855582,44.219260810112296],[-72.14638910707295,44.21911425506352],[-72.1454474206677,44.21899831401006],[-72.14442024617287,44.21869724518961],[-72.14369949360328,44.21833951589865],[-72.14320590046155,44.21800910618957],[-72.14250711083555,44.21738064766939],[-72.14161265814103,44.21671995545298],[-72.14072795559947,44.21689741721302],[-72.13992403033214,44.21696960402258],[-72.13927927457948,44.21697382307011],[-72.13841142856288,44.21689838469354],[-72.1377300475185,44.21676116289743],[-72.13706176495936,44.21655984727863],[-72.13657324534829,44.21635297084481],[-72.1359552246796,44.215973878212],[-72.13482313736499,44.21701240740177],[-72.13280474378465,44.2186644869938],[-72.13154078744823,44.2193397335865],[-72.13019086070153,44.21978320107148],[-72.12876316882223,44.22001174559425],[-72.12720064951642,44.22007993872415],[-72.12608365554017,44.22007214456628],[-72.12489253713194,44.219919148584324],[-72.12317909654527,44.22010138289132],[-72.12204635742746,44.22012928443217],[-72.12050863030909,44.2199882010906],[-72.11903924712777,44.22004926243945],[-72.11793207585212,44.21992910825687],[-72.11701964433912,44.21967063465218],[-72.11626613399628,44.21932832642634],[-72.11520563598717,44.21865186794004],[-72.11450880575634,44.21809750019119],[-72.11266199067167,44.21628155159808],[-72.1113144332264,44.21461706736836],[-72.11033669000533,44.213687158567154],[-72.10995105451683,44.21320551041593],[-72.10955794912056,44.21256414136266],[-72.10787720822415,44.21107975842152],[-72.10932649893793,44.21764325064653],[-72.1094461627547,44.21865216300447],[-72.1093954250061,44.21915845503127],[-72.10847149991925,44.22358197982439],[-72.10811847766622,44.22498075323517],[-72.10800653832304,44.22587248927993],[-72.10891145416552,44.227363403836144],[-72.10962968307464,44.228930970177124],[-72.11046597447427,44.22941842611527],[-72.11348232140118,44.23085870108181],[-72.10890678183587,44.23526251240948],[-72.1058729132138,44.23380062680446],[-72.10428736985419,44.23286006134715],[-72.10363700948761,44.23236016134647],[-72.09423671699663,44.22855531980331],[-72.09417887286158,44.228641753314236],[-72.08723804279005,44.226368660685],[-72.08772390640519,44.225675702826734],[-72.08701872420623,44.22204243326452],[-72.0869845601957,44.22133950328806],[-72.0870687741765,44.2204526864171],[-72.08747377564043,44.218708456931665],[-72.08836087799668,44.21709916641591],[-72.08889909404611,44.2162616720378],[-72.08834151222173,44.2134357882667],[-72.08831450232393,44.212305449001704],[-72.08728129417781,44.2118265519587],[-72.08637988218831,44.21124867041308],[-72.08584860219423,44.21073169892978],[-72.08541201576513,44.21008498598584],[-72.08463558286469,44.20992081098713],[-72.08406889440084,44.2097342540351],[-72.0829763106232,44.209203022876544],[-72.08131292591328,44.208598619382194],[-72.07968302524472,44.20775612897743],[-72.07692181732581,44.20578798618091],[-72.07625797790418,44.20511846941898],[-72.07563814804493,44.20427070717841],[-72.07483973231352,44.20346743576379],[-72.07299352538455,44.20278270958074],[-72.07194032569026,44.20224181128203],[-72.07165508340984,44.20206558957068],[-72.07091042911415,44.20150595021325],[-72.06890420485625,44.20785697957623],[-72.06844059009012,44.20950823242654],[-72.06795649148944,44.21205607971367],[-72.06779360197052,44.21395154086421],[-72.06765478444996,44.22401307680236],[-72.0676964576444,44.22533241456891],[-72.06798889875823,44.22672536734076],[-72.068267244385,44.227497168957186],[-72.0691108157996,44.229301659400875],[-72.06949028581583,44.230422223663794],[-72.06966594293728,44.2317566762655],[-72.06952874361194,44.23330305556616],[-72.06926590862868,44.234226793578785],[-72.06897194259534,44.234933883228116],[-72.06214718782931,44.24718038328584],[-72.061743031861,44.24829075914416],[-72.06156019013657,44.249074228083785],[-72.06145191342625,44.250488056389244],[-72.06148406906702,44.25115955525302],[-72.06173552515125,44.2524375010408],[-72.06200883355953,44.2532705794208],[-72.06221490387914,44.2537501572332],[-72.06285867560798,44.25487895209332],[-72.0642443622344,44.25666502624349],[-72.05910341747108,44.255812517903315],[-72.05916043356858,44.25571297404889],[-72.05878966758408,44.25489030902779],[-72.05824488632153,44.254481859870445],[-72.05765465206272,44.253857240854614],[-72.0575919457819,44.25358610155872],[-72.0569487258797,44.25214590028507],[-72.05581222681614,44.250558584718185],[-72.05533170369972,44.24895825744387],[-72.05485448230012,44.24798603615509],[-72.05435579617122,44.24768646556247],[-72.05395999831053,44.246911026105195],[-72.05348761165546,44.246397179211655],[-72.05321326353841,44.2462854985674],[-72.05292516820572,44.246302731086644],[-72.05267083093527,44.24616070801171],[-72.05252621703029,44.2459469373483],[-72.05185468749798,44.24549485313127],[-72.05102158826199,44.24506894773894],[-72.05093166852362,44.244907859016216],[-72.05020030045164,44.24429380177658],[-72.05012227986947,44.24408316924317],[-72.04992501552573,44.24387998585851],[-72.04955322961482,44.24321775231408],[-72.04935482548517,44.242639541007506],[-72.04937257633193,44.24247887298989],[-72.04907001105177,44.241983586905505],[-72.04872821984179,44.241199341902636],[-72.04831894838999,44.24056377368189],[-72.04794985407995,44.23957107180239],[-72.04789918453648,44.238618417649],[-72.04820416670573,44.237714777849504],[-72.04893631885498,44.23635383317352],[-72.04973302428678,44.23540209478653],[-72.05001362194552,44.23496562585271],[-72.05033824282387,44.234204978393564],[-72.05050345854835,44.23325344496682],[-72.05087088678069,44.23229343468651],[-72.05107629663986,44.23196385826126],[-72.05141078654101,44.230971047993165],[-72.05204507746772,44.22975909600368],[-72.052316794905,44.229414834722625],[-72.05238480205983,44.22886431061468],[-72.05363657776002,44.2256845158058],[-72.05378309764588,44.224911189633524],[-72.0539224397771,44.224557499919705],[-72.05400005019365,44.224141109927885],[-72.05400084165011,44.223489251563784],[-72.05391158152345,44.22269709531677],[-72.052880768412,44.219993371563845],[-72.05266791333447,44.21967700261385],[-72.05244456220896,44.21911066645274],[-72.05248573726799,44.218336934590425],[-72.05761339676897,44.218311522076554],[-72.05855345423187,44.21562020468335],[-72.0584393381975,44.21559388178678],[-72.05974867036339,44.212037863227316],[-72.05953736295841,44.21198832959737],[-72.0598216295399,44.20994092341739],[-72.05987638201151,44.20988846790868],[-72.05974559979701,44.20967367834577],[-72.05984229744752,44.209716160555885],[-72.05999553165624,44.2082749058881],[-72.06027090100145,44.20826927565795],[-72.06026812425488,44.20775183312588],[-72.0600734253115,44.20774481058816],[-72.06008925384192,44.20718035489578],[-72.0599061871483,44.206782396172024],[-72.05992977104155,44.206347599405454],[-72.05948148744245,44.205601388395486],[-72.06006212378455,44.20544322793661],[-72.06022003760754,44.20527112790233],[-72.06092064683736,44.205192573574784],[-72.06151997814119,44.20483613595967],[-72.06231893522792,44.20482280017106],[-72.06245307424219,44.20582846503282],[-72.06390641228734,44.204953714230996],[-72.06370515578375,44.204841977915805],[-72.06553313047701,44.20487125535682],[-72.06606602060015,44.204095348283836],[-72.06703074649148,44.202314128251196],[-72.0685608771478,44.19959766166815],[-72.06881064916632,44.19930110821841],[-72.07014640755308,44.19813606390141],[-72.07046347741627,44.19772072443915],[-72.07070645479003,44.197257971323424],[-72.07090208786191,44.19642406971866],[-72.07091972535993,44.19505319521478],[-72.07072349819299,44.19378637858365],[-72.07069564565471,44.1937026097866],[-72.07017449251292,44.19242599798477],[-72.06990526267874,44.1919635579035],[-72.06901810065538,44.19031745156702],[-72.06826808390797,44.18851510635225],[-72.06783774523237,44.18785834940346],[-72.06754221005316,44.18753264057245],[-72.06680369998546,44.1869330726528],[-72.06498131730923,44.18593966640488],[-72.0647501419434,44.18574375739752],[-72.06440701573682,44.18529482816365],[-72.0617085272397,44.17984537405164],[-72.0612480998961,44.17851749520778],[-72.06100956800753,44.17723987407658],[-72.06061493430241,44.17644615400932],[-72.05991796676359,44.17572941744494],[-72.05939315061069,44.17537606275888],[-72.05820906915929,44.17473767672916],[-72.05773955289213,44.17430700268213],[-72.05754312407866,44.174008906308366],[-72.05736945594732,44.17342511159899],[-72.05739881875083,44.17154730110721],[-72.05751039838957,44.17102962408537],[-72.05790160993263,44.16987794042378],[-72.05796103364348,44.169516885181984],[-72.05793380827143,44.16914447238009],[-72.05783669425293,44.16882079563338],[-72.05764615063781,44.16846418531485],[-72.05725143237132,44.16801141820711],[-72.05492699886132,44.16580610004071],[-72.05433521460525,44.165373704653504],[-72.05328144046386,44.16478978172914],[-72.05284604338974,44.164529298858064],[-72.05229064161306,44.164116389609035],[-72.05112964356127,44.16305587883506],[-72.05019813627175,44.16231036769489],[-72.05005419337411,44.16208959598964],[-72.0498527011235,44.1616165505728],[-72.049131800193,44.15982686388816],[-72.04870972578959,44.159180800373285],[-72.0480019912898,44.15832208893759],[-72.04965466959771,44.15877913813334],[-72.04965482679253,44.15877918105286],[-72.05942712162872,44.1614672959038],[-72.06908814316732,44.16410747668262]],[[-72.10564096383854,44.209115196830076],[-72.10530093029485,44.20748674056274],[-72.1045391131126,44.20755513490534],[-72.10288627950483,44.20004052778213],[-72.10261789726079,44.199473033153616],[-72.1005989531261,44.2002416297682],[-72.1021839164219,44.207328275440034],[-72.102541979008,44.20930645413475],[-72.10564096383854,44.209115196830076]]]]}},{"type":"Feature","properties":{"OBJECT_ID":1730,"County":"Caledonia","RPC":"NVDA","Municipal_Name":"Ryegate","GEO_ID":"5000561525","District_Name":"Shoreland","Abbreviated_District_Name":"S","District_Type":"Mixed with Residential","Bylaw_Date":null,"Elderly_Housing_District":"No","District_Mapped":"Yes","Overlay_District":"No","Base_Density":null,"FIPS6":null,"GIS_ID":null,"Last_Update":null,"Shape_Length":21951.383596115083,"Shape_Area":1984686.2255963883,"F1F_Allowance":"Public Hearing","F1F_Front_Setback":200.0,"F1F_Side_Setback":15.0,"F1F_Rear_Setback":15.0,"F1F_Frontage":200.0,"F1F_Max_Height":35.0,"F1F_Max_Stories":null,"F1F_Min_Lot_Size":0.92,"F1F_Max_Lot_Building_Coverage":30.0,"F1F_Max_Lot_Impervious_Coverage":null,"F1F_Min_Parking_Spaces":2.0,"F1F_Elderly_Housing_Only":null,"F1F_Affordable_Housing_Only":null,"F2F_Allowance":"Public Hearing","F2F_Front_Setback":200.0,"F2F_Side_Setback":15.0,"F2F_Rear_Setback":15.0,"F2F_Frontage":200.0,"F2F_Max_Density":null,"F2F_Max_Height":35.0,"F2F_Max_Stories":null,"F2F_Min_Lot_Size":0.92,"F2F_Max_Lot_Building_Coverage":30.0,"F2F_Max_Lot_Impervious_Coverage":null,"F2F_Min_Parking_Spaces_per_1BR":2.0,"F2F_Min_Parking_Spaces_per_mult_BR":2.0,"F2F_Elderly_Housing_Only":"No","F2F_Affordable_Housing_Only":"No","F3F_Allowance":"Prohibited","F3F_Front_Setback":null,"F3F_Side_Setback":null,"F3F_Rear_Setback":null,"F3F_Frontage":null,"F3F_Max_Density":null,"F3F_Max_Height":null,"F3F_Max_Stories":null,"F3F_Min_Lot_Size":null,"F3F_Max_Lot_Building_Coverage":null,"F3F_Max_Lot_Impervious_Coverage":null,"F3F_Min_Parking_Spaces_per_1BR":null,"F3F_Min_Parking_Spaces_per_mult_BR":null,"F3F_Affordable_Housing_Only":null,"F3F_Proximity_to_Public_Transit_Required":null,"F3F_Connection_to_Sewage/Water_Required":null,"F4F_Allowance":"Prohibited","F4F_Front_Setback":null,"F4F_Side_Setback":null,"F4F_Rear_Setback":null,"F4F_Frontage":null,"F1F_Max_Density":null,"F4F_Max_Density":null,"F4F_Max_Height":null,"F4F_Max_Stories":null,"F4F_Min_Lot_Size":null,"F4F_Max_Lot_Building_Coverage":null,"F4F_Max_Lot_Impervious_Coverage":null,"F4F_Min_Parking_Spaces_per_1BR":null,"F4F_Min_Parking_Spaces_per_mult_BR":null,"F3F_Elderly_Housing_Only":null,"F4F_Elderly_Housing_Only":null,"F4F_Affordable_Housing_Only":null,"F4F_Proximity_to_Public_Transit_Required":null,"F4F_Connection_to_Sewage/Water_Required":null,"ADU_Allowance":"Public Hearing","ADU_Elderly_Housing_Only":"No","ADU_Max_Size_as_Percent_of_Primary_Strcture":30.0,"ADU_Max_Size_in_sq_ft":600.0,"ADU_Min_Lot_Size":0.92,"ADU_Max_Bedrooms":1.0,"ADU_Min_Parking_Spaces":2.0,"ADU_Owner_Occupancy_Required":"Yes","ADU_Renter_Occupancy_Prohibited":"No","ADU_Employee_or_Family_Occupancy_Required":"No","ADU_Restricted_to_Primary_Structure":"No","Affordable_Housing_Allowance":"Allowed/Conditional","Affordable_Housing_District":"No","Affordable_Housing_Elderly_Only":"No","Affordable_Housing_Min_Lot_Size":0.92,"Affordable_Housing_Max_Density":null,"Affordable_Housing_Min_Parking_Spaces_per_mult_BR":2.0,"Affordable_Housing_Max_Units_per_Building":null,"Affordable_Housing_Min_Parking_Spaces_per_1BR":2.0,"PRD_Allowance":"Not Mentioned","PRD_Max_Density":null,"PRD_Max_Units":null,"PRD_Min_Lot_Size":null,"PRD_Mobile_or_Manufactured_Home_Park":null,"PUD_Allowance":"No","PUD_Required_with_Subdivision":null,"PUD_Requires_Land_Conservation":null,"PUD_Threshold_Number":null,"Notes":"  Front Yards Considered Shoreland Side Towards Water, Back Yards Considered Side Towards Primary Road. Protective Strip Of Vegetation At Least 50' In Depth Required Along All Surface Waters"},"geometry":{"type":"MultiPolygon","coordinates":[[[[-72.10131451388607,44.18265379766935],[-72.10114608893444,44.18310519013252],[-72.10146959622611,44.18363290083317],[-72.10151928378586,44.1842008673925],[-72.1017350121188,44.1845288968377],[-72.10178776060567,44.18473387688859],[-72.10221028465291,44.184984905336115],[-72.10240625551246,44.185363005092434],[-72.10235072609194,44.1857871252853],[-72.10177157617544,44.186803869420025],[-72.10101294653454,44.18858619074338],[-72.10090411342959,44.18929111409581],[-72.10091498296669,44.18947723092436],[-72.10175779326418,44.19051091991051],[-72.10192291105216,44.190985625747814],[-72.10191521871755,44.19125836589901],[-72.10180309589991,44.191528838597435],[-72.10162097547254,44.191720661581186],[-72.10143027739164,44.19184407293881],[-72.10095216875142,44.192025653977915],[-72.1008340732422,44.19220403923434],[-72.10081426428182,44.19250296358314],[-72.1005519721908,44.19300570658933],[-72.10028935535624,44.19320605413075],[-72.09988034119004,44.19339754278169],[-72.09929316384354,44.193499188083386],[-72.0984912599401,44.19338312744507],[-72.0980836401603,44.19326958210478],[-72.09752829866993,44.19293566314234],[-72.09698974828201,44.19282762759022],[-72.09636836602458,44.19255595101779],[-72.09610520558512,44.19236121303571],[-72.09591575347801,44.192037403618386],[-72.0958509489617,44.191627116361246],[-72.09599632882605,44.190844953239555],[-72.09635327855037,44.190340506620906],[-72.096500825402,44.18988901836812],[-72.09667926767457,44.188605514829284],[-72.09664630030774,44.18837460701657],[-72.09683830708198,44.18769018061113],[-72.09691287458567,44.18664295643637],[-72.09708912440048,44.18632852483769],[-72.09727899862807,44.185641432243166],[-72.09747888257988,44.18539073441547],[-72.09754208107536,44.18514564683508],[-72.09791282894977,44.18451082991197],[-72.09802551270366,44.1840362225825],[-72.09832943102468,44.183407004569844],[-72.0984840311511,44.18277350440382],[-72.09867630894075,44.18241325379559],[-72.09897168278141,44.18204910242139],[-72.0993395707983,44.181803697774775],[-72.09981239637254,44.18167221358881],[-72.10029845314642,44.18166602316713],[-72.10079202520703,44.18184421255619],[-72.1012545792238,44.18229009996509],[-72.10131451388607,44.18265379766935]],[[-72.09945351028416,44.182838150415456],[-72.09933573778719,44.1831461571122],[-72.09924815173537,44.1837237411036],[-72.0990346436566,44.18398453721108],[-72.09886320102424,44.18445894283597],[-72.09884421681109,44.184731663238736],[-72.09843175562303,44.185391539951596],[-72.09844213245782,44.18557714241257],[-72.09833387898746,44.18575154501187],[-72.09818548132304,44.18585317687149],[-72.09817555113587,44.18604474056815],[-72.0980468475909,44.18622870357442],[-72.0980383999546,44.186680749328794],[-72.09789602928966,44.18670309282337],[-72.09785263962515,44.18675711696776],[-72.09789021360962,44.18709952643289],[-72.09777698531869,44.18752735702935],[-72.09780489043459,44.18780157238115],[-72.09768761802069,44.18801474303366],[-72.09759743596851,44.18841851403725],[-72.09769768086107,44.18861253471791],[-72.09754723928884,44.1890129551434],[-72.09755984532417,44.18932981223222],[-72.09744467848918,44.19005928236863],[-72.09729337651063,44.19058489276053],[-72.09691982171215,44.19101468605078],[-72.09680922486382,44.19155067943789],[-72.09682449917872,44.19182369376689],[-72.09690779522957,44.19199058074629],[-72.09709281782142,44.19202454664907],[-72.0973980339865,44.192207963788036],[-72.09795328823611,44.19230153394129],[-72.09841549068699,44.19250314057305],[-72.09857925828568,44.19268378834571],[-72.09893470634086,44.19272877368816],[-72.099322683396,44.19280933530324],[-72.09974915563222,44.19263588443663],[-72.09989258779389,44.192328127898676],[-72.0998396443684,44.19207486738561],[-72.10026065980067,44.19144930870326],[-72.10046939610197,44.19143536903023],[-72.10053125100818,44.191314826181184],[-72.10075153200246,44.191332966983786],[-72.10089350792234,44.191277563656826],[-72.10098124240668,44.191121543275564],[-72.10088702465914,44.19095895634587],[-72.10086799678795,44.19075673989681],[-72.10066098892956,44.19049672957462],[-72.10045313987222,44.19037927921817],[-72.10041973333715,44.190233270010424],[-72.10000345593201,44.18971540657183],[-72.09994900509861,44.18920372855797],[-72.10002540486916,44.1890039484213],[-72.10004384509692,44.18847814728596],[-72.10079837623964,44.186839272424805],[-72.10086754104023,44.18654378990587],[-72.1012474298231,44.185962811131944],[-72.10145968241389,44.18544282207487],[-72.10141953972062,44.18536771079578],[-72.10126872957544,44.18536411195137],[-72.10093704600904,44.185158656253606],[-72.10082601053219,44.18495010440306],[-72.100835818235,44.1847562981262],[-72.1005488750239,44.18442731331701],[-72.1005582181873,44.18383992211885],[-72.10017515374403,44.18315217058754],[-72.1002178232554,44.18287106383552],[-72.10036388657383,44.18254091094119],[-72.10008925208768,44.18233511944179],[-72.09986460286291,44.18237608622322],[-72.09973988298074,44.18245494955658],[-72.09945351028416,44.182838150415456]]],[[[-72.10123632367697,44.24520416040391],[-72.10110855897985,44.24525096528784],[-72.1009155003911,44.24510268015948],[-72.1008893931644,44.245019072256156],[-72.10109010991286,44.24473790920962],[-72.10122083148056,44.244736023856895],[-72.10129343284633,44.24488674826815],[-72.10121076029637,44.245059066682856],[-72.10123632367697,44.24520416040391]]],[[[-72.10126331731587,44.23940490130447],[-72.10141950405976,44.2395752743662],[-72.10239038700733,44.23997834001556],[-72.10271338537581,44.240240444010254],[-72.10303173414086,44.240642248114156],[-72.10338890282488,44.241280884682716],[-72.10353948390328,44.241758198382776],[-72.10400574854563,44.24249222460275],[-72.10421181832776,44.242990191692314],[-72.10465322823698,44.24365353875378],[-72.10491930234748,44.24446069098868],[-72.10554968402074,44.24542544258823],[-72.1058686644465,44.24635471201393],[-72.10583220639818,44.2466926263448],[-72.10568732643223,44.24690985755634],[-72.10598831415899,44.247169267853884],[-72.10629908451583,44.247627983586575],[-72.10731293524901,44.24823944707598],[-72.1080372892528,44.248776478023075],[-72.10877267171094,44.24910279124718],[-72.10900653946538,44.24933275735557],[-72.10912638312743,44.24959248321435],[-72.1103018342686,44.250061761602],[-72.1107760894906,44.250081039746576],[-72.11147550356708,44.25028415917274],[-72.11223062325763,44.250779697772366],[-72.11263937406123,44.25095865836673],[-72.11336898284885,44.25167889607795],[-72.11361839807967,44.25241598971328],[-72.11361576540251,44.25302883566159],[-72.1134865888457,44.25332948872081],[-72.11320789212006,44.253703331411884],[-72.11275332175823,44.254239631641404],[-72.1123889775316,44.25451006822925],[-72.11174111178049,44.2547829395969],[-72.1112350200571,44.254823153951],[-72.11069524126252,44.25465566585257],[-72.11031992191425,44.254405036170525],[-72.1099194711271,44.25432272322845],[-72.10957270666628,44.254170941847036],[-72.10905268400705,44.25393714878847],[-72.1088581777424,44.25379162359145],[-72.10837328952506,44.25323692127061],[-72.10810974277001,44.252775760986374],[-72.1080320882476,44.252479880875526],[-72.10803811447268,44.25210477618306],[-72.10842565357633,44.251369311877575],[-72.1081560532092,44.25128606509517],[-72.1076531803818,44.25101782623636],[-72.10704566765578,44.250506453960334],[-72.10683558173994,44.250220842392416],[-72.10633218285166,44.25009642304475],[-72.10578473727026,44.24978004420052],[-72.10531531497799,44.24958951685463],[-72.10469790834773,44.249126343183995],[-72.10428942890347,44.24892191343824],[-72.1040312064099,44.248673194790456],[-72.10393228709556,44.24844397983191],[-72.10351940413634,44.248216975761096],[-72.10308485240309,44.24787082530845],[-72.10266001310052,44.24729550369161],[-72.1022016086998,44.247039738595454],[-72.10176697868197,44.24671039808076],[-72.10147114013203,44.24678143525953],[-72.10108942501289,44.24678191190974],[-72.10077681326186,44.24689623462027],[-72.10046621994374,44.246924160619244],[-72.10023161325967,44.247067490199974],[-72.09988521882309,44.24718709033645],[-72.09921127979558,44.247260966334714],[-72.09827245367333,44.247010429696324],[-72.09786032436554,44.2468489265684],[-72.09759415418593,44.24669491377212],[-72.0973541889403,44.24644621095373],[-72.09727062136511,44.24606121299394],[-72.0973466180423,44.24583171057243],[-72.0975517312124,44.24560273683746],[-72.09763291258562,44.245241086262716],[-72.09753261483019,44.244901026873514],[-72.09757891667077,44.2446612651098],[-72.09787744055573,44.24427914641573],[-72.09839874398398,44.243994887094814],[-72.09835174026816,44.24375894224578],[-72.09839606813061,44.243564323559056],[-72.09851561216601,44.243386823224036],[-72.09879206392348,44.2431730978954],[-72.09889166815356,44.24275650484226],[-72.09893701324044,44.24226122456727],[-72.09907183955073,44.241911846970844],[-72.0991837165695,44.2411370641704],[-72.09911215824043,44.24016273829257],[-72.0989275487297,44.239748009192525],[-72.0989506104202,44.23947292975942],[-72.09922625539016,44.23910271915901],[-72.0997795268941,44.23882155336731],[-72.10038438912345,44.2387465097824],[-72.10091035120101,44.23891540094219],[-72.10112869208443,44.239108577554255],[-72.10126331731587,44.23940490130447]],[[-72.09998697156368,44.23975155463074],[-72.09995599597273,44.23981533426769],[-72.10007020672728,44.24004983725485],[-72.10014032550012,44.24111961706106],[-72.1001109559239,44.241537277992855],[-72.09976907779291,44.24302915630996],[-72.09978862368509,44.2433969537747],[-72.09960078403867,44.24362462958779],[-72.09930557687576,44.24377128456555],[-72.09943947385892,44.243983424072695],[-72.09933768529167,44.24411394097328],[-72.09945747463368,44.24421001764214],[-72.09936582769345,44.24435755101743],[-72.09908123564908,44.24454475179653],[-72.09865381598276,44.24469092657748],[-72.09848580388709,44.24487412996513],[-72.09868184407601,44.24515335661644],[-72.09862508553795,44.24545392366592],[-72.09850888383829,44.2455120169627],[-72.0985046199812,44.24556772086697],[-72.0986521666815,44.2455041479065],[-72.0987177600959,44.24552390618622],[-72.09871887342817,44.24535958387258],[-72.09887484261836,44.24519857916929],[-72.09900483410901,44.24519337644919],[-72.0990935604809,44.24525516305646],[-72.09906460179293,44.24550012608844],[-72.09892425792812,44.2456472298565],[-72.09875423560284,44.245554724654305],[-72.0987751941263,44.245933617588925],[-72.09848799625618,44.24606076077825],[-72.09824363565384,44.246073756889494],[-72.09821581753364,44.24615168132983],[-72.09833081644706,44.24625235471337],[-72.0984794248257,44.246160906025516],[-72.09864235905316,44.246136372658064],[-72.0985981719734,44.24630054180332],[-72.09867894134823,44.246390004955025],[-72.09888869408219,44.246273745584396],[-72.09886272620524,44.24617053338228],[-72.0992892605277,44.246174907610865],[-72.09938901356949,44.24621701221666],[-72.09939982157418,44.24635916112478],[-72.09924809070321,44.2464671498504],[-72.09927868903544,44.24657041240225],[-72.09974419893625,44.24647717983476],[-72.09981484520854,44.24632434733951],[-72.09976137565167,44.24625170143652],[-72.09982324954534,44.24622968140917],[-72.09990595758181,44.24627462559876],[-72.1000075443211,44.24617463137854],[-72.09990445681917,44.24592361233718],[-72.10007259318807,44.245684533645466],[-72.10000891163276,44.245400281230886],[-72.10012675543409,44.24521134891957],[-72.10008832243791,44.2450997891923],[-72.10017025877822,44.24503591436071],[-72.10011461358583,44.24493375592353],[-72.09989398284003,44.2449194782265],[-72.09983260942673,44.24486769417989],[-72.09983760983485,44.24468393860175],[-72.09997361996481,44.244603498313225],[-72.09997827934286,44.24448939757717],[-72.10008765442794,44.24440337667638],[-72.10014563372678,44.24438414718247],[-72.10021489384133,44.24445413024053],[-72.10031653286383,44.244345685947266],[-72.1004667809699,44.24445493498423],[-72.10086114517844,44.24456772707726],[-72.10088781413764,44.24467913655678],[-72.10074843509469,44.244943332951465],[-72.10078263031482,44.245088350746535],[-72.10093622145864,44.24527816388016],[-72.10081842217936,44.24546161627964],[-72.10070242205778,44.2454891166667],[-72.10065099736444,44.24555849484534],[-72.10057368374804,44.24554994829246],[-72.10040926855183,44.24579453334467],[-72.10034210446914,44.246005886340285],[-72.10041403212107,44.246237347347694],[-72.10056138460452,44.24620167884044],[-72.10066383214216,44.245993141821124],[-72.10062631931513,44.24574498778791],[-72.1007940341387,44.24558679978673],[-72.10100801602489,44.24552916002456],[-72.10107362675294,44.245565558610494],[-72.1010729862239,44.24566015005878],[-72.10100336681779,44.245643332816435],[-72.10095216174403,44.24569896194537],[-72.10117063410092,44.24579189403373],[-72.101206031701,44.246000632919646],[-72.10115579906311,44.246022577344405],[-72.10127492285444,44.24610661067226],[-72.1015299957151,44.245990602718656],[-72.1015650588688,44.24589593604274],[-72.10132744446629,44.24550515400791],[-72.10142075852661,44.2454805446805],[-72.10166035585407,44.24557868034816],[-72.10176061798671,44.245693331447065],[-72.10207706337255,44.24586992019405],[-72.102097135525,44.2460120201284],[-72.10231786325112,44.246012774351954],[-72.10243702127589,44.24622208970494],[-72.10263716879824,44.246359211897264],[-72.10274580803441,44.24636516874135],[-72.10281070922166,44.24650749462182],[-72.10293063887345,44.246583155571685],[-72.10303436598734,44.2466309416014],[-72.10332594145325,44.24655950217555],[-72.10344419592263,44.246774296020796],[-72.10334759313487,44.246821402363565],[-72.10348257585406,44.24689429894869],[-72.10355124861516,44.24705331328067],[-72.10377130930188,44.24713480619746],[-72.10376980059463,44.24734089987139],[-72.10385273657992,44.247463742749915],[-72.10436136421842,44.24783038120846],[-72.10462827036885,44.247928763587936],[-72.104887861376,44.248202623084936],[-72.10487892942697,44.248358567392636],[-72.10497164780767,44.248442495598006],[-72.1054084712775,44.24863335458566],[-72.10585123396724,44.2490221557899],[-72.10626101998504,44.24915720925176],[-72.1066411284355,44.24942301929662],[-72.1069119393543,44.24953816564574],[-72.1070477133864,44.249494178105614],[-72.10754663678753,44.249668593696114],[-72.1075765431321,44.24974653866999],[-72.10776600505204,44.24985600360858],[-72.10776471585648,44.25005092830454],[-72.10806329124499,44.25034156762267],[-72.10844880370597,44.25060749723925],[-72.1087040262243,44.25071429614334],[-72.1093309604804,44.2508277553859],[-72.10943783741837,44.250986885021],[-72.10941727324584,44.251502147575735],[-72.1092807977895,44.25167150581632],[-72.10916582410267,44.25199709975616],[-72.10902187513257,44.25212186676046],[-72.10897447598494,44.25230278463592],[-72.10902816425927,44.252589893661344],[-72.10920838984259,44.25290522705725],[-72.10945099532236,44.253123315228216],[-72.10963552761162,44.25339410901264],[-72.10997601821431,44.25350399441867],[-72.11027696328193,44.25368601339159],[-72.11057962685105,44.253703154344166],[-72.11086320214267,44.25380502131742],[-72.1112408363222,44.254093128784724],[-72.11136484494565,44.254143771555846],[-72.11148124917081,44.254075937149096],[-72.11162528735986,44.25406940257846],[-72.11198131449457,44.25383661431981],[-72.11204017042458,44.25368372540751],[-72.11218427753005,44.25355318088258],[-72.11213490549058,44.253444401573375],[-72.11230940145985,44.25343382063019],[-72.11238363549752,44.2533422824277],[-72.11208985829892,44.253154707141874],[-72.11209413954967,44.25309335457068],[-72.11255170141635,44.2531478209672],[-72.11259430012468,44.25308659473157],[-72.11268085133005,44.252891955599075],[-72.11256983405191,44.25265479011503],[-72.11266804298258,44.25247701568979],[-72.11256800907842,44.25232339411926],[-72.1124860123355,44.25193873698642],[-72.11212262384186,44.25173140225348],[-72.11198120059542,44.25145517174927],[-72.11157278340787,44.25133678779298],[-72.11143857864889,44.25116074293434],[-72.11095999010575,44.25086123501949],[-72.11052641221737,44.25074274902073],[-72.11017408741805,44.25077773736978],[-72.10959641906729,44.25056129869014],[-72.10934863748841,44.25052156065249],[-72.10884259742022,44.25024678228658],[-72.10819222274672,44.250138701055846],[-72.10806149291619,44.25002674740423],[-72.1081894845001,44.24972092584321],[-72.10811279551557,44.249598088690504],[-72.10761008056248,44.249409797407054],[-72.10709242699123,44.24911553530961],[-72.10675364598045,44.24886641341758],[-72.1066878862015,44.24875755095315],[-72.10630804095233,44.24858353483137],[-72.10620784069751,44.248457930696276],[-72.10556701885376,44.24808528763315],[-72.10508078007946,44.247440114202654],[-72.10425963724344,44.246905283283255],[-72.10403601390964,44.246403227448674],[-72.10388100206288,44.24640528739131],[-72.10374673769803,44.24624338088608],[-72.10380986514356,44.24605414969247],[-72.10371753343746,44.245931329958516],[-72.10387684400966,44.24586780816068],[-72.10386975532151,44.245748004754084],[-72.10409099250593,44.2456539917364],[-72.10405717360756,44.2455815212351],[-72.1041966591865,44.245542935418655],[-72.10418363894613,44.24572955412245],[-72.10438141001796,44.24575534515741],[-72.10447789015124,44.245856019324584],[-72.10478303702956,44.246561689703],[-72.10491080984316,44.246514784449786],[-72.10490808271722,44.24634216896936],[-72.10464199151342,44.245636545874305],[-72.10398751011046,44.24465653923361],[-72.10373542082054,44.243845140446794],[-72.10333640720864,44.243269930326875],[-72.10313233034526,44.2427679177788],[-72.10301341745655,44.24265331191093],[-72.10257492798227,44.24188022268065],[-72.10247670966008,44.24148154428287],[-72.10217821210938,44.24094852079793],[-72.10194065814085,44.240791726874996],[-72.10193381539324,44.240635738424274],[-72.1016637504595,44.24043698494563],[-72.10058181650417,44.240054411764824],[-72.10055580585586,44.239864959563235],[-72.10028139060492,44.239607504082265],[-72.10031439181881,44.23946579097179],[-72.10020656728742,44.23943479258902],[-72.0999381963624,44.23955913541257],[-72.09987184961619,44.23965089497085],[-72.09998697156368,44.23975155463074]]],[[[-72.08705533829107,44.24982744938036],[-72.08756693773624,44.24989099233822],[-72.08788041935203,44.25001988618355],[-72.0881647038024,44.24999206157728],[-72.08844747153213,44.25002692541163],[-72.08897191553822,44.25023720556742],[-72.0891730717819,44.250389474593014],[-72.08930068687954,44.250578365585035],[-72.08934281343637,44.25078613227542],[-72.08929549386835,44.25099334519902],[-72.08902277043124,44.25133015129279],[-72.08871161442025,44.25152396589466],[-72.08820202288467,44.25172476743636],[-72.08799213789945,44.25207172343861],[-72.08800307791584,44.252297707129244],[-72.08814750121029,44.252522809565136],[-72.08818094222826,44.2527625657764],[-72.08795831112137,44.25348991897604],[-72.08760226674156,44.25392352635416],[-72.08693034591155,44.25420034878519],[-72.08715241510444,44.25448031076819],[-72.0871844083942,44.25478231282532],[-72.08702666938947,44.255142370939794],[-72.08667156239768,44.255398804603786],[-72.08651818239134,44.255578580742956],[-72.08669987970002,44.25598470357792],[-72.0867348033852,44.25621976932494],[-72.0866848345555,44.25649057400628],[-72.08653256876197,44.25674808109737],[-72.08607775281095,44.25714793840071],[-72.08540748212071,44.257575914125226],[-72.08513856579098,44.25790124869742],[-72.08473550012245,44.25806505771631],[-72.08427257867608,44.25807297496502],[-72.08370724543119,44.25789767959441],[-72.08327758002785,44.25765706615078],[-72.08306551137575,44.25743615409698],[-72.0829903469659,44.257217353357944],[-72.08301317271821,44.25691953459694],[-72.08345457602202,44.256260182984725],[-72.08359701686601,44.255744258427455],[-72.08386263351346,44.255391213892494],[-72.0839295505343,44.254984006934485],[-72.08443605489525,44.254222314718454],[-72.0845560123554,44.25351972714021],[-72.08480808402234,44.25297439565202],[-72.08474851825432,44.252054984666614],[-72.08481009318514,44.25154817084938],[-72.0844280459838,44.25134460412762],[-72.08418463226823,44.25106736695375],[-72.08412149564539,44.25073201592305],[-72.08420033609637,44.25039135971579],[-72.08458618105622,44.24992542756232],[-72.0852575925466,44.24963088989105],[-72.08549849702449,44.24945999441049],[-72.0859344167819,44.24934235906366],[-72.0863714600441,44.24937377861264],[-72.08682563601502,44.249573330288655],[-72.08705533829107,44.24982744938036]],[[-72.08577930007095,44.250392717618226],[-72.08571761092979,44.25026236628681],[-72.08562758631105,44.25026211536733],[-72.08553541224417,44.250460959792676],[-72.08554440425539,44.250749535918544],[-72.08538586595085,44.25080573693045],[-72.08525662804067,44.250719951216844],[-72.08530326311633,44.250533197684845],[-72.08541686886723,44.250403550817595],[-72.08536599583645,44.25039123440733],[-72.08523048586873,44.25043140099693],[-72.0851333989624,44.25054481078129],[-72.08507558693704,44.25073548537134],[-72.0850975452835,44.25085356907386],[-72.08527218209917,44.250947624140004],[-72.08554989614773,44.2508591737509],[-72.08563969313626,44.25089197538429],[-72.08558747808712,44.25107070975263],[-72.08573624313046,44.251282571587815],[-72.08577366826073,44.25153459806615],[-72.08570261885113,44.252058754009276],[-72.08578147615938,44.252420563883874],[-72.08576638630655,44.253018003960214],[-72.08569632858845,44.25329397521051],[-72.08549028720881,44.2536589689032],[-72.08557995972723,44.25381778924588],[-72.08540876292153,44.254016319738106],[-72.0854088145707,44.254455427578925],[-72.08515836559157,44.254669715798],[-72.08480918094968,44.255249740278835],[-72.08488009049988,44.25563590940051],[-72.08451002605996,44.25594353594027],[-72.08432488869704,44.2565565466096],[-72.08393679803157,44.25709151575746],[-72.0839417981398,44.25716470069061],[-72.08418425485195,44.257303733405585],[-72.08438979764539,44.25734957409137],[-72.08448095420239,44.25740418630527],[-72.08448176925967,44.25728880440523],[-72.08455788075366,44.25725633359252],[-72.08458683061673,44.25714673199018],[-72.08502383835419,44.256884173868016],[-72.08512127533248,44.25672196855842],[-72.08539325213044,44.256670145071126],[-72.08546835520634,44.25644289680179],[-72.08572864638757,44.25637868325558],[-72.08577566763812,44.25615537924868],[-72.08570217994057,44.256134769558585],[-72.08566888827602,44.25597211206545],[-72.08556766070608,44.255906690564984],[-72.08559149661514,44.25574018586385],[-72.08524980380119,44.25568197782616],[-72.085115590105,44.25553532707059],[-72.08522953806806,44.25534062114215],[-72.08545597663682,44.255316970775446],[-72.08572300579235,44.255183942046926],[-72.08592294368854,44.25490430991831],[-72.08621721169409,44.25477929679999],[-72.08623525649881,44.25466956433215],[-72.0857384287277,44.25420049922183],[-72.08575038606398,44.25406633542369],[-72.08598322790462,44.25389655819639],[-72.08591643314688,44.25381494869081],[-72.08597390264899,44.253672968782716],[-72.08670966217272,44.25353335035479],[-72.08697673475285,44.2533921982675],[-72.08722705224014,44.252746906624374],[-72.08703635371106,44.25247794610283],[-72.08699515676305,44.25199413391838],[-72.08710401730445,44.25175477656294],[-72.08734899228796,44.25140621016897],[-72.08761139020856,44.25116335690433],[-72.08817238944542,44.250958105707554],[-72.08838874733071,44.25077997341126],[-72.08814617696335,44.250677573857686],[-72.0879752508431,44.25082320559485],[-72.08758529035983,44.25086653925397],[-72.0872596422725,44.250540285719076],[-72.08718622463483,44.25052776806392],[-72.08696477813955,44.250628585564606],[-72.0868349249082,44.25061181999417],[-72.0867505940542,44.25047749940602],[-72.08668879987324,44.250469103101295],[-72.08625873180316,44.25053656595256],[-72.08616036415164,44.25006487779232],[-72.08604170653693,44.25002378213873],[-72.08597945605057,44.250080335564896],[-72.08602800424968,44.25040568703241],[-72.08577930007095,44.250392717618226]]]]}},{"type":"Feature","properties":{"OBJECT_ID":1724,"County":"Caledonia","RPC":"NVDA","Municipal_Name":"Ryegate","GEO_ID":"5000561525","District_Name":"Commercial One","Abbreviated_District_Name":"C1","District_Type":"Mixed with Residential","Bylaw_Date":null,"Elderly_Housing_District":"No","District_Mapped":"Yes","Overlay_District":"No","Base_Density":null,"FIPS6":null,"GIS_ID":null,"Last_Update":null,"Shape_Length":1593.8349921047286,"Shape_Area":82220.47636577298,"F1F_Allowance":"Public Hearing","F1F_Front_Setback":null,"F1F_Side_Setback":10.0,"F1F_Rear_Setback":null,"F1F_Frontage":null,"F1F_Max_Height":35.0,"F1F_Max_Stories":null,"F1F_Min_Lot_Size":null,"F1F_Max_Lot_Building_Coverage":30.0,"F1F_Max_Lot_Impervious_Coverage":null,"F1F_Min_Parking_Spaces":2.0,"F1F_Elderly_Housing_Only":null,"F1F_Affordable_Housing_Only":null,"F2F_Allowance":"Public Hearing","F2F_Front_Setback":null,"F2F_Side_Setback":10.0,"F2F_Rear_Setback":null,"F2F_Frontage":null,"F2F_Max_Density":null,"F2F_Max_Height":35.0,"F2F_Max_Stories":null,"F2F_Min_Lot_Size":null,"F2F_Max_Lot_Building_Coverage":30.0,"F2F_Max_Lot_Impervious_Coverage":null,"F2F_Min_Parking_Spaces_per_1BR":2.0,"F2F_Min_Parking_Spaces_per_mult_BR":2.0,"F2F_Elderly_Housing_Only":"No","F2F_Affordable_Housing_Only":"No","F3F_Allowance":"Prohibited","F3F_Front_Setback":null,"F3F_Side_Setback":null,"F3F_Rear_Setback":null,"F3F_Frontage":null,"F3F_Max_Density":null,"F3F_Max_Height":null,"F3F_Max_Stories":null,"F3F_Min_Lot_Size":null,"F3F_Max_Lot_Building_Coverage":null,"F3F_Max_Lot_Impervious_Coverage":null,"F3F_Min_Parking_Spaces_per_1BR":null,"F3F_Min_Parking_Spaces_per_mult_BR":null,"F3F_Affordable_Housing_Only":null,"F3F_Proximity_to_Public_Transit_Required":null,"F3F_Connection_to_Sewage/Water_Required":null,"F4F_Allowance":"Prohibited","F4F_Front_Setback":null,"F4F_Side_Setback":null,"F4F_Rear_Setback":null,"F4F_Frontage":null,"F1F_Max_Density":null,"F4F_Max_Density":null,"F4F_Max_Height":null,"F4F_Max_Stories":null,"F4F_Min_Lot_Size":null,"F4F_Max_Lot_Building_Coverage":null,"F4F_Max_Lot_Impervious_Coverage":null,"F4F_Min_Parking_Spaces_per_1BR":null,"F4F_Min_Parking_Spaces_per_mult_BR":null,"F3F_Elderly_Housing_Only":null,"F4F_Elderly_Housing_Only":null,"F4F_Affordable_Housing_Only":null,"F4F_Proximity_to_Public_Transit_Required":null,"F4F_Connection_to_Sewage/Water_Required":null,"ADU_Allowance":"Allowed/Conditional","ADU_Elderly_Housing_Only":"No","ADU_Max_Size_as_Percent_of_Primary_Strcture":30.0,"ADU_Max_Size_in_sq_ft":600.0,"ADU_Min_Lot_Size":null,"ADU_Max_Bedrooms":1.0,"ADU_Min_Parking_Spaces":2.0,"ADU_Owner_Occupancy_Required":"Yes","ADU_Renter_Occupancy_Prohibited":"No","ADU_Employee_or_Family_Occupancy_Required":"No","ADU_Restricted_to_Primary_Structure":"No","Affordable_Housing_Allowance":"Allowed/Conditional","Affordable_Housing_District":"No","Affordable_Housing_Elderly_Only":"No","Affordable_Housing_Min_Lot_Size":null,"Affordable_Housing_Max_Density":null,"Affordable_Housing_Min_Parking_Spaces_per_mult_BR":2.0,"Affordable_Housing_Max_Units_per_Building":null,"Affordable_Housing_Min_Parking_Spaces_per_1BR":2.0,"PRD_Allowance":"Not Mentioned","PRD_Max_Density":null,"PRD_Max_Units":null,"PRD_Min_Lot_Size":null,"PRD_Mobile_or_Manufactured_Home_Park":null,"PUD_Allowance":"No","PUD_Required_with_Subdivision":null,"PUD_Requires_Land_Conservation":null,"PUD_Threshold_Number":null,"Notes":"None"},"geometry":{"type":"MultiPolygon","coordinates":[[[[-72.06231893522792,44.20482280017106],[-72.06245307424219,44.20582846503282],[-72.06390641228734,44.204953714230996],[-72.06370515578375,44.204841977915805],[-72.06231893522792,44.20482280017106]]],[[[-72.13987185202012,44.18796784019048],[-72.13931037707307,44.18869179605703],[-72.13972759597782,44.188814332591],[-72.13908724485347,44.18998343671487],[-72.14015028110556,44.19027915541496],[-72.14307939560716,44.191289093636286],[-72.14342158505045,44.190896755742536],[-72.14422542723544,44.190307946176674],[-72.14363773457839,44.189951726178315],[-72.14282190996056,44.18939946559747],[-72.14094650400283,44.18835824134151],[-72.14056642450804,44.188166512257276],[-72.13987185202012,44.18796784019048]]]]}},{"type":"Feature","properties":{"OBJECT_ID":1726,"County":"Caledonia","RPC":"NVDA","Municipal_Name":"Ryegate","GEO_ID":"5000561525","District_Name":"Industrial","Abbreviated_District_Name":"I","District_Type":"Mixed with Residential","Bylaw_Date":null,"Elderly_Housing_District":"No","District_Mapped":"No","Overlay_District":"No","Base_Density":null,"FIPS6":null,"GIS_ID":null,"Last_Update":null,"Shape_Length":5242.389536787617,"Shape_Area":388397.924889738,"F1F_Allowance":"Permitted","F1F_Front_Setback":null,"F1F_Side_Setback":null,"F1F_Rear_Setback":20.0,"F1F_Frontage":null,"F1F_Max_Height":35.0,"F1F_Max_Stories":null,"F1F_Min_Lot_Size":null,"F1F_Max_Lot_Building_Coverage":30.0,"F1F_Max_Lot_Impervious_Coverage":null,"F1F_Min_Parking_Spaces":2.0,"F1F_Elderly_Housing_Only":null,"F1F_Affordable_Housing_Only":null,"F2F_Allowance":"Permitted","F2F_Front_Setback":null,"F2F_Side_Setback":null,"F2F_Rear_Setback":20.0,"F2F_Frontage":null,"F2F_Max_Density":null,"F2F_Max_Height":35.0,"F2F_Max_Stories":null,"F2F_Min_Lot_Size":null,"F2F_Max_Lot_Building_Coverage":30.0,"F2F_Max_Lot_Impervious_Coverage":null,"F2F_Min_Parking_Spaces_per_1BR":2.0,"F2F_Min_Parking_Spaces_per_mult_BR":2.0,"F2F_Elderly_Housing_Only":"No","F2F_Affordable_Housing_Only":"No","F3F_Allowance":"Prohibited","F3F_Front_Setback":null,"F3F_Side_Setback":null,"F3F_Rear_Setback":null,"F3F_Frontage":null,"F3F_Max_Density":null,"F3F_Max_Height":null,"F3F_Max_Stories":null,"F3F_Min_Lot_Size":null,"F3F_Max_Lot_Building_Coverage":null,"F3F_Max_Lot_Impervious_Coverage":null,"F3F_Min_Parking_Spaces_per_1BR":null,"F3F_Min_Parking_Spaces_per_mult_BR":null,"F3F_Affordable_Housing_Only":null,"F3F_Proximity_to_Public_Transit_Required":null,"F3F_Connection_to_Sewage/Water_Required":null,"F4F_Allowance":"Prohibited","F4F_Front_Setback":null,"F4F_Side_Setback":null,"F4F_Rear_Setback":null,"F4F_Frontage":null,"F1F_Max_Density":null,"F4F_Max_Density":null,"F4F_Max_Height":null,"F4F_Max_Stories":null,"F4F_Min_Lot_Size":null,"F4F_Max_Lot_Building_Coverage":null,"F4F_Max_Lot_Impervious_Coverage":null,"F4F_Min_Parking_Spaces_per_1BR":null,"F4F_Min_Parking_Spaces_per_mult_BR":null,"F3F_Elderly_Housing_Only":null,"F4F_Elderly_Housing_Only":null,"F4F_Affordable_Housing_Only":null,"F4F_Proximity_to_Public_Transit_Required":null,"F4F_Connection_to_Sewage/Water_Required":null,"ADU_Allowance":"Allowed/Conditional","ADU_Elderly_Housing_Only":"No","ADU_Max_Size_as_Percent_of_Primary_Strcture":30.0,"ADU_Max_Size_in_sq_ft":600.0,"ADU_Min_Lot_Size":null,"ADU_Max_Bedrooms":1.0,"ADU_Min_Parking_Spaces":2.0,"ADU_Owner_Occupancy_Required":"Yes","ADU_Renter_Occupancy_Prohibited":"No","ADU_Employee_or_Family_Occupancy_Required":"No","ADU_Restricted_to_Primary_Structure":"No","Affordable_Housing_Allowance":"Allowed/Conditional","Affordable_Housing_District":"No","Affordable_Housing_Elderly_Only":"No","Affordable_Housing_Min_Lot_Size":null,"Affordable_Housing_Max_Density":null,"Affordable_Housing_Min_Parking_Spaces_per_mult_BR":2.0,"Affordable_Housing_Max_Units_per_Building":null,"Affordable_Housing_Min_Parking_Spaces_per_1BR":2.0,"PRD_Allowance":"Not Mentioned","PRD_Max_Density":null,"PRD_Max_Units":null,"PRD_Min_Lot_Size":null,"PRD_Mobile_or_Manufactured_Home_Park":null,"PUD_Allowance":"No","PUD_Required_with_Subdivision":null,"PUD_Requires_Land_Conservation":null,"PUD_Threshold_Number":null,"Notes":"None"},"geometry":{"type":"MultiPolygon","coordinates":[[[[-72.0598216295399,44.20994092341739],[-72.05969260124552,44.21011986871304],[-72.05974163103919,44.21020645573391],[-72.05957523008257,44.210321824721674],[-72.05963194192971,44.21048574956519],[-72.05927892092002,44.21119582860262],[-72.05874551495235,44.21169677602674],[-72.0582185193399,44.21189120501101],[-72.0575017494812,44.211995620436],[-72.05675958829477,44.212198299822184],[-72.05618653327117,44.212442941864126],[-72.05536383695568,44.21303688703544],[-72.05397715712036,44.21512215284522],[-72.05380907121524,44.21527503716214],[-72.05370863187737,44.21560025877806],[-72.05342760287603,44.21609334496272],[-72.05328258108135,44.21620596766833],[-72.05311693967792,44.21668144233136],[-72.05278976568819,44.217251652596765],[-72.05248573726799,44.218336934590425],[-72.05761339676897,44.218311522076554],[-72.05855345423187,44.21562020468335],[-72.0584393381975,44.21559388178678],[-72.05974867036339,44.212037863227316],[-72.05953736295841,44.21198832959737],[-72.0598216295399,44.20994092341739]]],[[[-72.05843349924731,44.204001875300754],[-72.05817846356062,44.204628946376246],[-72.05776044743517,44.20519882073481],[-72.05774926842238,44.206124419694596],[-72.05821092923158,44.20714868155634],[-72.05800539551231,44.20731087733275],[-72.05801205649838,44.20740747198413],[-72.05809764596346,44.20747323143777],[-72.05827314769938,44.20746203032553],[-72.05814478170093,44.20757826164164],[-72.05820601811713,44.20758795016775],[-72.05824618719775,44.207520246296035],[-72.0583818946241,44.20752680001911],[-72.05877810598875,44.20766638758399],[-72.05878716713914,44.20777685309285],[-72.05838738605792,44.208114602582974],[-72.05829855097882,44.20838218778808],[-72.05917271250925,44.2093470229824],[-72.05974559979701,44.20967367834577],[-72.05984229744752,44.209716160555885],[-72.05999553165624,44.2082749058881],[-72.06027090100145,44.20826927565795],[-72.06026812425488,44.20775183312588],[-72.0600734253115,44.20774481058816],[-72.06008925384192,44.20718035489578],[-72.0599061871483,44.206782396172024],[-72.05992977104155,44.206347599405454],[-72.05948148744245,44.205601388395486],[-72.05932318841691,44.20564450657052],[-72.05940814262266,44.204231409940604],[-72.05911478086327,44.20414476198011],[-72.05887853343454,44.2041451882631],[-72.05843349924731,44.204001875300754]]],[[[-72.14156981737075,44.187352651224856],[-72.14127939975145,44.18774624978482],[-72.14070211003585,44.18742138045307],[-72.14073931974913,44.18756463595459],[-72.14107829874914,44.18775620296174],[-72.14102733076648,44.18780543893079],[-72.14076022547138,44.18764512056524],[-72.14094650400283,44.18835824134151],[-72.14282190996056,44.18939946559747],[-72.14363773457839,44.189951726178315],[-72.1442184093615,44.189220578449],[-72.1449252942305,44.18957612473912],[-72.14514366712285,44.189503624856876],[-72.1448697281723,44.189151517274],[-72.14470958037761,44.18872240228225],[-72.14430839854263,44.18826953840833],[-72.14340211109977,44.18773564707212],[-72.1427756047457,44.187547607207655],[-72.14156981737075,44.187352651224856]]]]}},{"type":"Feature","properties":{"OBJECT_ID":1729,"County":"Caledonia","RPC":"NVDA","Municipal_Name":"Ryegate","GEO_ID":"5000561525","District_Name":"Rural Land","Abbreviated_District_Name":"Rl","District_Type":"Mixed with Residential","Bylaw_Date":null,"Elderly_Housing_District":"No","District_Mapped":"Yes","Overlay_District":"No","Base_Density":null,"FIPS6":null,"GIS_ID":null,"Last_Update":null,"Shape_Length":32423.109218452482,"Shape_Area":35919830.19229912,"F1F_Allowance":"Permitted","F1F_Front_Setback":50.0,"F1F_Side_Setback":50.0,"F1F_Rear_Setback":100.0,"F1F_Frontage":400.0,"F1F_Max_Height":35.0,"F1F_Max_Stories":null,"F1F_Min_Lot_Size":10.0,"F1F_Max_Lot_Building_Coverage":30.0,"F1F_Max_Lot_Impervious_Coverage":null,"F1F_Min_Parking_Spaces":2.0,"F1F_Elderly_Housing_Only":null,"F1F_Affordable_Housing_Only":null,"F2F_Allowance":"Permitted","F2F_Front_Setback":50.0,"F2F_Side_Setback":50.0,"F2F_Rear_Setback":100.0,"F2F_Frontage":400.0,"F2F_Max_Density":null,"F2F_Max_Height":35.0,"F2F_Max_Stories":null,"F2F_Min_Lot_Size":null,"F2F_Max_Lot_Building_Coverage":30.0,"F2F_Max_Lot_Impervious_Coverage":null,"F2F_Min_Parking_Spaces_per_1BR":2.0,"F2F_Min_Parking_Spaces_per_mult_BR":2.0,"F2F_Elderly_Housing_Only":"No","F2F_Affordable_Housing_Only":"No","F3F_Allowance":"Prohibited","F3F_Front_Setback":null,"F3F_Side_Setback":null,"F3F_Rear_Setback":null,"F3F_Frontage":null,"F3F_Max_Density":null,"F3F_Max_Height":null,"F3F_Max_Stories":null,"F3F_Min_Lot_Size":null,"F3F_Max_Lot_Building_Coverage":null,"F3F_Max_Lot_Impervious_Coverage":null,"F3F_Min_Parking_Spaces_per_1BR":null,"F3F_Min_Parking_Spaces_per_mult_BR":null,"F3F_Affordable_Housing_Only":null,"F3F_Proximity_to_Public_Transit_Required":null,"F3F_Connection_to_Sewage/Water_Required":null,"F4F_Allowance":"Prohibited","F4F_Front_Setback":null,"F4F_Side_Setback":null,"F4F_Rear_Setback":null,"F4F_Frontage":null,"F1F_Max_Density":null,"F4F_Max_Density":null,"F4F_Max_Height":null,"F4F_Max_Stories":null,"F4F_Min_Lot_Size":null,"F4F_Max_Lot_Building_Coverage":null,"F4F_Max_Lot_Impervious_Coverage":null,"F4F_Min_Parking_Spaces_per_1BR":null,"F4F_Min_Parking_Spaces_per_mult_BR":null,"F3F_Elderly_Housing_Only":null,"F4F_Elderly_Housing_Only":null,"F4F_Affordable_Housing_Only":null,"F4F_Proximity_to_Public_Transit_Required":null,"F4F_Connection_to_Sewage/Water_Required":null,"ADU_Allowance":"Allowed/Conditional","ADU_Elderly_Housing_Only":"No","ADU_Max_Size_as_Percent_of_Primary_Strcture":30.0,"ADU_Max_Size_in_sq_ft":600.0,"ADU_Min_Lot_Size":10.0,"ADU_Max_Bedrooms":1.0,"ADU_Min_Parking_Spaces":2.0,"ADU_Owner_Occupancy_Required":"Yes","ADU_Renter_Occupancy_Prohibited":"No","ADU_Employee_or_Family_Occupancy_Required":"No","ADU_Restricted_to_Primary_Structure":"No","Affordable_Housing_Allowance":"Allowed/Conditional","Affordable_Housing_District":"No","Affordable_Housing_Elderly_Only":"No","Affordable_Housing_Min_Lot_Size":null,"Affordable_Housing_Max_Density":null,"Affordable_Housing_Min_Parking_Spaces_per_mult_BR":2.0,"Affordable_Housing_Max_Units_per_Building":null,"Affordable_Housing_Min_Parking_Spaces_per_1BR":2.0,"PRD_Allowance":"Not Mentioned","PRD_Max_Density":null,"PRD_Max_Units":null,"PRD_Min_Lot_Size":null,"PRD_Mobile_or_Manufactured_Home_Park":null,"PUD_Allowance":"Yes","PUD_Required_with_Subdivision":"No","PUD_Requires_Land_Conservation":"Yes","PUD_Threshold_Number":null,"Notes":"None"},"geometry":{"type":"MultiPolygon","coordinates":[[[[-72.13863115550257,44.26900498807442],[-72.14128813556356,44.26943942279212],[-72.14168907873967,44.26868875493571],[-72.1426052213173,44.267818545053615],[-72.14248718864549,44.267279292679255],[-72.14247144938655,44.266807690574744],[-72.14256396041344,44.266252617405755],[-72.14283317195854,44.265445986038586],[-72.14330268983652,44.26448390488298],[-72.14365639870822,44.2640339815838],[-72.14425488304877,44.26342700262286],[-72.1445549858018,44.262928784815976],[-72.14472537932099,44.2627161813527],[-72.14520872451067,44.26224756220534],[-72.14545045189831,44.26156751109966],[-72.14588569942727,44.260826031837404],[-72.14632985723429,44.26032462057503],[-72.14698647795169,44.25979285183715],[-72.14763993518501,44.259407794424874],[-72.14971661283798,44.25848830873285],[-72.15068599040274,44.25817759740757],[-72.15162684425465,44.25800357910133],[-72.15247820168064,44.25760464622255],[-72.15322106845127,44.256593809272886],[-72.15352865593628,44.25627075892551],[-72.1541285661883,44.255829540829644],[-72.15486722793914,44.25545510262961],[-72.15548573334681,44.255245401777174],[-72.15609897237866,44.255116308432],[-72.1572816591632,44.25505840655879],[-72.15978318844998,44.255394934691054],[-72.16319693380318,44.25596066811981],[-72.16374573599187,44.25544601182517],[-72.16483179769872,44.25478640340489],[-72.1650718202511,44.25455488221589],[-72.16477970614203,44.253037949842216],[-72.1642816430596,44.25186579769684],[-72.16302533383418,44.24763177443826],[-72.16206765655284,44.24678577330876],[-72.16142866401665,44.24584770016267],[-72.16103028841991,44.24471468820451],[-72.16098433471679,44.24404512210281],[-72.1607828503931,44.243205512844774],[-72.16075640047077,44.24263752892109],[-72.16014314400066,44.24185733481285],[-72.15974865851275,44.241092184377734],[-72.1590481046312,44.23845734229204],[-72.15835563157795,44.23668899684127],[-72.15778528368047,44.23444236513795],[-72.15695357161798,44.232181691056915],[-72.15650758970817,44.230715823391265],[-72.15567628041076,44.22715974128357],[-72.15480328027255,44.2257893984119],[-72.15364762479005,44.22432001772464],[-72.15209932891334,44.222193419137135],[-72.15172430104852,44.221549790582735],[-72.15058035488705,44.21921907196289],[-72.14916039855582,44.219260810112296],[-72.14638910707295,44.21911425506352],[-72.1454474206677,44.21899831401006],[-72.14442024617287,44.21869724518961],[-72.14369949360328,44.21833951589865],[-72.14320590046155,44.21800910618957],[-72.14250711083555,44.21738064766939],[-72.14161265814103,44.21671995545298],[-72.14072795559947,44.21689741721302],[-72.13992403033214,44.21696960402258],[-72.13927927457948,44.21697382307011],[-72.13841142856288,44.21689838469354],[-72.1377300475185,44.21676116289743],[-72.13706176495936,44.21655984727863],[-72.13657324534829,44.21635297084481],[-72.1359552246796,44.215973878212],[-72.13482313736499,44.21701240740177],[-72.13280474378465,44.2186644869938],[-72.13154078744823,44.2193397335865],[-72.13019086070153,44.21978320107148],[-72.12876316882223,44.22001174559425],[-72.12720064951642,44.22007993872415],[-72.12608365554017,44.22007214456628],[-72.12489253713194,44.219919148584324],[-72.12317909654527,44.22010138289132],[-72.12204635742746,44.22012928443217],[-72.12050863030909,44.2199882010906],[-72.11903924712777,44.22004926243945],[-72.11793207585212,44.21992910825687],[-72.11701964433912,44.21967063465218],[-72.11626613399628,44.21932832642634],[-72.11520563598717,44.21865186794004],[-72.11450880575634,44.21809750019119],[-72.11266199067167,44.21628155159808],[-72.1113144332264,44.21461706736836],[-72.11033669000533,44.213687158567154],[-72.10995105451683,44.21320551041593],[-72.10955794912056,44.21256414136266],[-72.10787720822415,44.21107975842152],[-72.10932649893793,44.21764325064653],[-72.1094461627547,44.21865216300447],[-72.1093954250061,44.21915845503127],[-72.10847149991925,44.22358197982439],[-72.10811847766622,44.22498075323517],[-72.10800653832304,44.22587248927993],[-72.10891145416552,44.227363403836144],[-72.10962968307464,44.228930970177124],[-72.11046597447427,44.22941842611527],[-72.11348232140118,44.23085870108181],[-72.10890678183587,44.23526251240948],[-72.1058729132138,44.23380062680446],[-72.10428736985419,44.23286006134715],[-72.10363700948761,44.23236016134647],[-72.09423671699663,44.22855531980331],[-72.09417887286158,44.228641753314236],[-72.08723804279005,44.226368660685],[-72.08772390640519,44.225675702826734],[-72.08701872420623,44.22204243326452],[-72.0869845601957,44.22133950328806],[-72.0870687741765,44.2204526864171],[-72.08747377564043,44.218708456931665],[-72.08836087799668,44.21709916641591],[-72.08889909404611,44.2162616720378],[-72.08834151222173,44.2134357882667],[-72.08831450232393,44.212305449001704],[-72.08728129417781,44.2118265519587],[-72.08637988218831,44.21124867041308],[-72.08584860219423,44.21073169892978],[-72.08541201576513,44.21008498598584],[-72.08463558286469,44.20992081098713],[-72.08406889440084,44.2097342540351],[-72.0829763106232,44.209203022876544],[-72.08131292591328,44.208598619382194],[-72.07968302524472,44.20775612897743],[-72.07692181732581,44.20578798618091],[-72.07625797790418,44.20511846941898],[-72.07563814804493,44.20427070717841],[-72.07483973231352,44.20346743576379],[-72.07299352538455,44.20278270958074],[-72.07194032569026,44.20224181128203],[-72.07165508340984,44.20206558957068],[-72.07091042911415,44.20150595021325],[-72.06890420485625,44.20785697957623],[-72.06844059009012,44.20950823242654],[-72.06795649148944,44.21205607971367],[-72.06779360197052,44.21395154086421],[-72.06765478444996,44.22401307680236],[-72.0676964576444,44.22533241456891],[-72.06798889875823,44.22672536734076],[-72.068267244385,44.227497168957186],[-72.0691108157996,44.229301659400875],[-72.06949028581583,44.230422223663794],[-72.06966594293728,44.2317566762655],[-72.06952874361194,44.23330305556616],[-72.06926590862868,44.234226793578785],[-72.06897194259534,44.234933883228116],[-72.06214718782931,44.24718038328584],[-72.061743031861,44.24829075914416],[-72.06156019013657,44.249074228083785],[-72.06145191342625,44.250488056389244],[-72.06148406906702,44.25115955525302],[-72.06173552515125,44.2524375010408],[-72.06200883355953,44.2532705794208],[-72.06221490387914,44.2537501572332],[-72.06285867560798,44.25487895209332],[-72.0642443622344,44.25666502624349],[-72.0650772317893,44.256803121041614],[-72.07617024266396,44.25866187721765],[-72.08163311830678,44.25961166791968],[-72.10077481689532,44.26277841297132],[-72.11991859138969,44.26594195594938],[-72.12692542229978,44.267036920325765],[-72.13863115550257,44.26900498807442]]]]}}]}