{"type":"FeatureCollection","name":"Caledonia_Groton","features":[{"type":"Feature","properties":{"OBJECT_ID":166,"County":"Caledonia","RPC":"NVDA","Municipal_Name":"Groton","GEO_ID":"5000530550","District_Name":"Shoreland District","Abbreviated_District_Name":"Sl","District_Type":"Primarily Residential","Bylaw_Date":null,"Elderly_Housing_District":"No","District_Mapped":"Yes","Overlay_District":"No","Base_Density":null,"FIPS6":null,"GIS_ID":null,"Last_Update":null,"Shape_Length":43767.03639455945,"Shape_Area":8380256.128610248,"F1F_Allowance":"Permitted","F1F_Front_Setback":40.0,"F1F_Side_Setback":null,"F1F_Rear_Setback":25.0,"F1F_Frontage":null,"F1F_Max_Height":35.0,"F1F_Max_Stories":2.0,"F1F_Min_Lot_Size":null,"F1F_Max_Lot_Building_Coverage":null,"F1F_Max_Lot_Impervious_Coverage":null,"F1F_Min_Parking_Spaces":2.0,"F1F_Elderly_Housing_Only":null,"F1F_Affordable_Housing_Only":null,"F2F_Allowance":"Permitted","F2F_Front_Setback":40.0,"F2F_Side_Setback":null,"F2F_Rear_Setback":25.0,"F2F_Frontage":null,"F2F_Max_Density":null,"F2F_Max_Height":35.0,"F2F_Max_Stories":2.0,"F2F_Min_Lot_Size":null,"F2F_Max_Lot_Building_Coverage":null,"F2F_Max_Lot_Impervious_Coverage":null,"F2F_Min_Parking_Spaces_per_1BR":2.0,"F2F_Min_Parking_Spaces_per_mult_BR":2.0,"F2F_Elderly_Housing_Only":"No","F2F_Affordable_Housing_Only":"No","F3F_Allowance":"Prohibited","F3F_Front_Setback":null,"F3F_Side_Setback":null,"F3F_Rear_Setback":null,"F3F_Frontage":null,"F3F_Max_Density":null,"F3F_Max_Height":null,"F3F_Max_Stories":null,"F3F_Min_Lot_Size":null,"F3F_Max_Lot_Building_Coverage":null,"F3F_Max_Lot_Impervious_Coverage":null,"F3F_Min_Parking_Spaces_per_1BR":null,"F3F_Min_Parking_Spaces_per_mult_BR":null,"F3F_Affordable_Housing_Only":null,"F3F_Proximity_to_Public_Transit_Required":null,"F3F_Connection_to_Sewage/Water_Required":null,"F4F_Allowance":"Prohibited","F4F_Front_Setback":null,"F4F_Side_Setback":null,"F4F_Rear_Setback":null,"F4F_Frontage":null,"F1F_Max_Density":null,"F4F_Max_Density":null,"F4F_Max_Height":null,"F4F_Max_Stories":null,"F4F_Min_Lot_Size":null,"F4F_Max_Lot_Building_Coverage":null,"F4F_Max_Lot_Impervious_Coverage":null,"F4F_Min_Parking_Spaces_per_1BR":null,"F4F_Min_Parking_Spaces_per_mult_BR":null,"F3F_Elderly_Housing_Only":null,"F4F_Elderly_Housing_Only":null,"F4F_Affordable_Housing_Only":null,"F4F_Proximity_to_Public_Transit_Required":null,"F4F_Connection_to_Sewage/Water_Required":null,"ADU_Allowance":"Allowed/Conditional","ADU_Elderly_Housing_Only":"No","ADU_Max_Size_as_Percent_of_Primary_Strcture":30.0,"ADU_Max_Size_in_sq_ft":900.0,"ADU_Min_Lot_Size":0.92,"ADU_Max_Bedrooms":null,"ADU_Min_Parking_Spaces":2.0,"ADU_Owner_Occupancy_Required":"Yes","ADU_Renter_Occupancy_Prohibited":"No","ADU_Employee_or_Family_Occupancy_Required":"No","ADU_Restricted_to_Primary_Structure":"No","Affordable_Housing_Allowance":"Not Mentioned","Affordable_Housing_District":"No","Affordable_Housing_Elderly_Only":null,"Affordable_Housing_Min_Lot_Size":null,"Affordable_Housing_Max_Density":null,"Affordable_Housing_Min_Parking_Spaces_per_mult_BR":null,"Affordable_Housing_Max_Units_per_Building":null,"Affordable_Housing_Min_Parking_Spaces_per_1BR":null,"PRD_Allowance":"Public Hearing","PRD_Max_Density":null,"PRD_Max_Units":null,"PRD_Min_Lot_Size":10.0,"PRD_Mobile_or_Manufactured_Home_Park":"No","PUD_Allowance":"Yes","PUD_Required_with_Subdivision":"Yes","PUD_Requires_Land_Conservation":"No","PUD_Threshold_Number":null,"Notes":"None"},"geometry":{"type":"MultiPolygon","coordinates":[[[[-72.31002648944259,44.22525912906231],[-72.31069454144708,44.22545416101659],[-72.31257672271745,44.22547469271656],[-72.31353791998588,44.22535030969951],[-72.31405687362916,44.225348925389895],[-72.31460144124112,44.2254494831631],[-72.31506344265969,44.22564595855393],[-72.31599916418587,44.226415126248284],[-72.3165289763174,44.22704506578555],[-72.31672227230915,44.22736679744426],[-72.31679480436043,44.22787867340056],[-72.31695148288132,44.22826864140251],[-72.31696197556447,44.22861188981177],[-72.31692297223596,44.22880474759156],[-72.316642722189,44.22928706633742],[-72.31638873745501,44.229514180447076],[-72.31607371401141,44.22969756977182],[-72.31532339190352,44.22992964842333],[-72.3145809478166,44.229942975174914],[-72.31407401370714,44.230202407586724],[-72.31343840306846,44.23036237265165],[-72.31215500598995,44.230365591171456],[-72.31022313684934,44.230061251020075],[-72.30803819537357,44.22997735943536],[-72.30735680917171,44.22987798969288],[-72.30684818922657,44.22973247421152],[-72.30624907408605,44.229866901365945],[-72.30558569019571,44.22987088625534],[-72.30498646756125,44.22975605440246],[-72.30454346850577,44.22956430574329],[-72.30419046079875,44.22931512579342],[-72.30390040033318,44.22898649128259],[-72.30352984634047,44.22869721803263],[-72.303338955234,44.22844562224947],[-72.30320441841793,44.22810119058171],[-72.30320210091764,44.22731064882843],[-72.3033658336065,44.22694946356436],[-72.30375323130555,44.226565947710334],[-72.30418028145318,44.22634230472048],[-72.30444726812198,44.22608164606471],[-72.3056212689571,44.225297777155305],[-72.30597326389699,44.22514758174913],[-72.30636162756541,44.22505469330474],[-72.30676855231118,44.22502332297519],[-72.30809123372134,44.22508924198931],[-72.3087681979121,44.22507496041911],[-72.31002648944259,44.22525912906231]],[[-72.30612285360073,44.226832941250294],[-72.305872027432,44.22699361928611],[-72.30570910270386,44.227204737574745],[-72.30578300268854,44.22730918973438],[-72.30571706869945,44.22736890965995],[-72.30555902012021,44.22739709745247],[-72.30537444468177,44.22750728265289],[-72.3050801413708,44.22755098374077],[-72.30510509109334,44.22792353001743],[-72.30531556375533,44.228053202618206],[-72.3056182183559,44.22805382959463],[-72.30562607903963,44.228400952616596],[-72.3057396661616,44.22849592344135],[-72.30584950039778,44.22851194092731],[-72.30626672556606,44.22842094238256],[-72.30671546171061,44.22814415103648],[-72.30687357881408,44.22813793944419],[-72.30711468484432,44.228198286818575],[-72.30757068528267,44.228461123916475],[-72.30807914643128,44.22859760817781],[-72.30886054027295,44.22859891644119],[-72.30904504573246,44.22864027789772],[-72.30936987767772,44.22859356029547],[-72.309773628842,44.22867945307292],[-72.31061639588285,44.2287030136815],[-72.31121293233831,44.22882071494253],[-72.31170076049916,44.2286921010611],[-72.31181480358958,44.228723807419065],[-72.31203783914583,44.22895455862989],[-72.31236702203063,44.22900253357697],[-72.31310908068711,44.22901012727332],[-72.3132449159492,44.22896599896492],[-72.31342601670077,44.22869494255535],[-72.31318455903289,44.22862199821526],[-72.31310150010583,44.228561752236885],[-72.3130666905097,44.22841030669092],[-72.31310230795675,44.228306055586906],[-72.31321228041064,44.22823693375965],[-72.31335695841557,44.228284532935795],[-72.31364603335601,44.2285059309385],[-72.31426713418597,44.228531528268896],[-72.31466688492554,44.22849635081667],[-72.31489237587958,44.2285931077066],[-72.31505961770155,44.22851138707162],[-72.31505709002482,44.228440028420295],[-72.31474489105533,44.228090944143396],[-72.3148113175994,44.227857499830066],[-72.31489921814259,44.22777251072009],[-72.31483816161803,44.22767773944283],[-72.31474632998506,44.22763655205568],[-72.31463632125124,44.22767110140792],[-72.31454915757097,44.22752571283983],[-72.31463263692609,44.22748470271903],[-72.31458010709194,44.227389955934285],[-72.31425106413344,44.22731688424017],[-72.31426008192044,44.22726956138307],[-72.31444451663104,44.22720981666645],[-72.31398451583783,44.22698172463613],[-72.31387106937602,44.22671649274598],[-72.31262377853382,44.22685954516598],[-72.31058109397704,44.22683520407677],[-72.31017902828357,44.22680636171165],[-72.30951241485624,44.226579802636124],[-72.30853388335302,44.226436147023314],[-72.3080729354812,44.22650494524964],[-72.3079722250816,44.22645727018414],[-72.3074673794084,44.22644067428493],[-72.30727824149209,44.226484703134055],[-72.30676500888711,44.22639538721715],[-72.30660211951295,44.22656240209113],[-72.30654004442665,44.22678956534],[-72.30612285360073,44.226832941250294]]],[[[-72.24353803553467,44.2416483671737],[-72.24442736747153,44.24202328779495],[-72.245497695292,44.24275557560592],[-72.24594737973149,44.24278229720446],[-72.24630779421653,44.242861508412965],[-72.2469856531613,44.24318197165098],[-72.24735412081341,44.24351439900107],[-72.24768040940427,44.244023292712264],[-72.24784671997051,44.244171393249204],[-72.24844229151331,44.244581253241236],[-72.2491186785024,44.2448123662589],[-72.24959429409085,44.245178468563694],[-72.24985459484317,44.24560590399713],[-72.2499855531368,44.24623000829787],[-72.24997116505027,44.24639816130756],[-72.24985157775325,44.246723193288524],[-72.25029364805003,44.24688195462262],[-72.2507896853956,44.247225322367846],[-72.25127796971641,44.24786934212229],[-72.25141289204474,44.24815928835006],[-72.2514225943076,44.24870629880331],[-72.2511805051097,44.249168345300255],[-72.25077256064246,44.24951635981599],[-72.25029273498949,44.24973379465819],[-72.25020079687313,44.250266124611734],[-72.25005518974143,44.250649522997946],[-72.2493940012875,44.251393079623554],[-72.24936192414106,44.251616876452125],[-72.24917629643464,44.25202756239685],[-72.2486965406429,44.25248234400206],[-72.24828921049502,44.252725944675035],[-72.2476749879343,44.252901682868746],[-72.24717993152005,44.252928664180985],[-72.24639469575413,44.25282688244953],[-72.24595388907107,44.25265727860369],[-72.24565293651376,44.252468243396955],[-72.24512134843452,44.25187949656951],[-72.24355080905717,44.25083778541],[-72.24312558204107,44.25034589095926],[-72.2429799586372,44.250041009959006],[-72.24263994754995,44.24994980873617],[-72.24222863546873,44.24974940544709],[-72.24066044341168,44.24848804278075],[-72.23960158936364,44.247260865174624],[-72.23944950749801,44.24687682831203],[-72.23941441672157,44.24642873990051],[-72.2393043068792,44.246273794939675],[-72.23892476554468,44.24591962956786],[-72.2383554582055,44.245081086297596],[-72.23792300394103,44.244674964433976],[-72.23743803540145,44.24398447998752],[-72.23726611007503,44.24351204832615],[-72.23720470211653,44.24289005384809],[-72.23720856207026,44.242676829405326],[-72.23720945637015,44.24255411497549],[-72.23694518994436,44.24230212577191],[-72.23673689342189,44.24196028988406],[-72.23665353638783,44.24145225801809],[-72.23675926353692,44.24107460621533],[-72.23696180558755,44.2407696539289],[-72.23747777613863,44.240354817431225],[-72.23859807310428,44.239922115035036],[-72.23937655491443,44.23985153494458],[-72.24017499881259,44.23999654494521],[-72.24151911718504,44.24055361943866],[-72.24319565892895,44.241415101382124],[-72.24353803553467,44.2416483671737]]],[[[-72.33249949540857,44.24278888318264],[-72.33300350388782,44.243226363795394],[-72.33326527243446,44.243650348176416],[-72.33404008898142,44.2443767306862],[-72.3343864084303,44.244838562556666],[-72.33461892353064,44.24535683225211],[-72.33462237953111,44.246005986845034],[-72.33437257113965,44.24652355677729],[-72.333239975001,44.24766563838163],[-72.3327419341942,44.24851703743338],[-72.33244054706542,44.2488435166481],[-72.33214276702891,44.24906189521466],[-72.33197256128268,44.249414321571976],[-72.33131965079522,44.25010620088837],[-72.33085426532594,44.25041687193822],[-72.33056773199634,44.2505344054497],[-72.33009372839298,44.25090117365695],[-72.32956674268834,44.25114478272403],[-72.32921394253148,44.25124739571515],[-72.32876613528758,44.251478371155926],[-72.32780386855936,44.251794062622174],[-72.32645560501867,44.25214941467252],[-72.32587256185273,44.25224789098824],[-72.32523805612917,44.2522338030188],[-72.32466451731057,44.252078685958395],[-72.32355510024846,44.251548245768035],[-72.32274891572101,44.25092693804694],[-72.32218601245964,44.250304820025946],[-72.32198847035788,44.24979326506249],[-72.32200571831024,44.249246365630206],[-72.32227810688752,44.24869413315983],[-72.3231253303909,44.24776503944972],[-72.32435314307236,44.24691749757207],[-72.32478651474734,44.24643422188137],[-72.32545665148811,44.24587899457755],[-72.32650583842909,44.24420747794841],[-72.32732428641,44.243238858724965],[-72.32865712808237,44.24234621877655],[-72.32914067497339,44.24218417537748],[-72.32963243172075,44.24211459130375],[-72.33012096046788,44.242118312169225],[-72.33055755554528,44.242184765661825],[-72.33197682425369,44.24255241774491],[-72.33249949540857,44.24278888318264]],[[-72.3270453194023,44.24669312988621],[-72.3267975445888,44.2468562905813],[-72.32665890257809,44.24704534422278],[-72.32629662955047,44.247272402582695],[-72.32577644879316,44.24785677455405],[-72.32531718561413,44.24811419396437],[-72.32489739728604,44.248481356647574],[-72.32455087994487,44.2486767640356],[-72.32435086437421,44.24899171645033],[-72.32401108331783,44.249268207563574],[-72.32387714349893,44.24959776142486],[-72.32394311348088,44.24976993996525],[-72.32426106816357,44.250090365571324],[-72.32476510686688,44.25048767795905],[-72.32558243389073,44.25088456057075],[-72.32574184943232,44.250842761133065],[-72.32603117007487,44.25080711996507],[-72.32785643460032,44.25027269663339],[-72.32843567230253,44.24997738255419],[-72.32890135761699,44.24982993829663],[-72.32924776995233,44.24950546445145],[-72.32982020005521,44.24925332874876],[-72.33028006071916,44.24878090227437],[-72.33036069868513,44.24847052316792],[-72.33106710395901,44.247859941894454],[-72.33157195065345,44.246897088967216],[-72.33189453663715,44.24669074059755],[-72.33215020614605,44.24634470728036],[-72.33269466881671,44.24587014605504],[-72.33273495360532,44.245574105753924],[-72.33251026841091,44.24519641676739],[-72.33210585128133,44.24490421921039],[-72.3319402597896,44.24466998699952],[-72.33154928263949,44.24430634485654],[-72.33141050039421,44.24398116205548],[-72.33123908221498,44.2438175635732],[-72.33002295301843,44.243501403159286],[-72.32978349633927,44.24348187064581],[-72.32885145957252,44.24406816435606],[-72.32825790367981,44.24475055339944],[-72.32798405857993,44.24528030141829],[-72.3270453194023,44.24669312988621]]],[[[-72.23041659644949,44.262337377711894],[-72.23073662126035,44.262752261605925],[-72.23085859515481,44.26311615318376],[-72.23086408773318,44.26330372131483],[-72.23094730460126,44.2638416947983],[-72.2309404949293,44.26434097657487],[-72.23070089787574,44.26508075166942],[-72.23026963249333,44.265761248312494],[-72.23032030932342,44.26663823272032],[-72.2301293453967,44.267909456126624],[-72.22985735971156,44.26858179433334],[-72.22943041568713,44.26903799281456],[-72.22887416094942,44.26941507605719],[-72.22852285213813,44.26955147970287],[-72.22805353561859,44.26965666007673],[-72.22773368378218,44.269804024131695],[-72.22656759698121,44.27016928491599],[-72.22605787253238,44.27021603443864],[-72.22544219222158,44.270138694309274],[-72.22508648157836,44.270020247413214],[-72.22461340986172,44.26974082238158],[-72.2240927673936,44.26921555708115],[-72.22390519655137,44.26886937735812],[-72.22383161201229,44.268401555287234],[-72.22386912383695,44.268135153663614],[-72.22424481909384,44.267485550781096],[-72.22411428320233,44.26622342672865],[-72.22427829537922,44.26550919835277],[-72.22454198353552,44.26504593484166],[-72.22507168874937,44.26433532144179],[-72.22525584491788,44.26389833679389],[-72.2254922804194,44.263545867790526],[-72.22589770217732,44.263215415125686],[-72.22625283494676,44.263039958574964],[-72.22714914924998,44.26221723135921],[-72.22760753607882,44.26197379404898],[-72.2283556646779,44.261782955175384],[-72.22883271987871,44.261757648932594],[-72.22935216321316,44.26183301406031],[-72.22990315547855,44.26200530472585],[-72.23041659644949,44.262337377711894]],[[-72.22806451969429,44.26357278341236],[-72.2278325021328,44.26380543307855],[-72.22779176140382,44.2639254762866],[-72.2276105192797,44.26408612828309],[-72.22752907460608,44.26434315044307],[-72.22740173054355,44.26438722739899],[-72.22723522755558,44.264242733984965],[-72.22710795351978,44.26427600470877],[-72.2267594707781,44.26504555813667],[-72.22660528418676,44.26515579868735],[-72.2265981249043,44.26523993066882],[-72.22639642479064,44.265441311670116],[-72.22610345463103,44.265910565197764],[-72.22602162377743,44.26631968112059],[-72.22616472245632,44.26714270467092],[-72.22614563367082,44.26761262156635],[-72.22603239660329,44.26823380367283],[-72.22574030384547,44.26843020118837],[-72.22576006010326,44.26854561080563],[-72.22598028786155,44.268668710316305],[-72.22607303155736,44.26884452611447],[-72.22612100022982,44.268630542102855],[-72.22618605793305,44.268514678889886],[-72.22627539851611,44.268501134999184],[-72.22666279707298,44.268607902106226],[-72.22687386506017,44.26857950767884],[-72.22709840953407,44.26844773910913],[-72.22779505974013,44.26828373195772],[-72.22815782519922,44.26794682143441],[-72.22841159836828,44.266633734183074],[-72.2284075986567,44.26606754229065],[-72.22828562469154,44.26570428367158],[-72.22828969491131,44.265507199345066],[-72.2288588617519,44.264701995088515],[-72.22903838456989,44.26422768195431],[-72.22895908049566,44.26325037078253],[-72.22885907265399,44.263153947959324],[-72.22861164973492,44.263148570723985],[-72.22838012335919,44.26327537499633],[-72.2282186362486,44.263500988790405],[-72.22806451969429,44.26357278341236]]],[[[-72.25659238032729,44.24941452335107],[-72.25704287126956,44.24964029100501],[-72.25744900900001,44.25003054357193],[-72.25766142917625,44.250529427662244],[-72.2576280935285,44.251048214385186],[-72.25739504421982,44.25145435729418],[-72.25826528280741,44.251970105068516],[-72.25879420087993,44.25247206543952],[-72.25901361996823,44.25280799627388],[-72.25913050769117,44.25336085659],[-72.25907601397603,44.25369650726761],[-72.25949127205925,44.25391483073103],[-72.2599244679047,44.2542939182892],[-72.2603653714079,44.25515377035787],[-72.2609370680137,44.2551552642775],[-72.2616398059643,44.25531360420205],[-72.26226903173152,44.255678220328015],[-72.26275966661925,44.25578575143696],[-72.26351725167426,44.256066334803585],[-72.26399772763315,44.25636330205244],[-72.2643030840265,44.25670626057516],[-72.26444134421553,44.256902292809905],[-72.26494827395031,44.256960099775725],[-72.26555258418125,44.25716834472837],[-72.26642752965819,44.25775854900763],[-72.26672869315972,44.258195341626106],[-72.26680541408496,44.25874213566731],[-72.26770117171026,44.25977013270544],[-72.26785725349839,44.26003133402548],[-72.26791585545642,44.26021630935893],[-72.26816345314717,44.26060810078277],[-72.26832487043546,44.261111016728925],[-72.26861787305964,44.261567374761384],[-72.26891361773596,44.26178749060478],[-72.26916837235713,44.262081264638375],[-72.26960514051619,44.26293620083669],[-72.26991836214798,44.26329741324476],[-72.27040068001273,44.26403519110624],[-72.27086176778651,44.264964466322446],[-72.27091024629027,44.265583340081896],[-72.2707418353681,44.26621468171049],[-72.27097056580267,44.26668879141671],[-72.27137345681034,44.26718411627035],[-72.27147978040331,44.267690543828905],[-72.27138126490175,44.26820128908042],[-72.27092865097757,44.26898275158529],[-72.27116370337546,44.269228394442145],[-72.27143705817005,44.26966218773311],[-72.27151180055448,44.269950996027625],[-72.27147971069296,44.27031794737301],[-72.27135852568169,44.27068434240446],[-72.27093031827955,44.27126169745103],[-72.27161501982049,44.27200779103778],[-72.27208123084262,44.27279040957621],[-72.27225156104122,44.27340437528602],[-72.27219836371168,44.27415426185463],[-72.27216320143442,44.27433359185859],[-72.27204887729145,44.27459225190033],[-72.2715374696046,44.275270104568804],[-72.27126468044966,44.27576092401783],[-72.27171488571189,44.2764491252682],[-72.27188828721475,44.27714160244268],[-72.27192353588816,44.278051387842716],[-72.27200733144555,44.27836039189167],[-72.27213318327205,44.27882577369069],[-72.27261411419721,44.2798224334235],[-72.27269084023027,44.28016526740024],[-72.27316412109923,44.28099903935406],[-72.27321767078888,44.28129591808157],[-72.27374802698807,44.28251497436031],[-72.27379231496967,44.28295362956314],[-72.27433791582689,44.28420019736646],[-72.27440534193624,44.28505751183033],[-72.27454279149701,44.28534873072897],[-72.2745878814451,44.285714405092264],[-72.27448169823643,44.286487797452594],[-72.27420434329981,44.286949847955505],[-72.27385722926199,44.28723028280395],[-72.27341040489584,44.28743907323205],[-72.27290527712356,44.28755201000969],[-72.27232384687343,44.28758000742309],[-72.2715537349029,44.287520612181275],[-72.27077362012369,44.287307863409225],[-72.26993332868324,44.286990742822425],[-72.26943288572247,44.286607078660886],[-72.26915903995429,44.28620123057167],[-72.26851502502704,44.286149559191095],[-72.26786292152403,44.2859267180817],[-72.26731994921886,44.285568407732946],[-72.26690693459454,44.2849960672075],[-72.26621803941366,44.284808819409704],[-72.26544036546322,44.28472476655692],[-72.26474573229574,44.28441296994138],[-72.26443593458234,44.2841358519848],[-72.2641623012839,44.283756614435156],[-72.26361027654004,44.28348158940545],[-72.26255944383072,44.282587537061175],[-72.26193398782854,44.28225295715511],[-72.2611102922992,44.28157693240792],[-72.26086515004089,44.2812739619467],[-72.26054616837855,44.28067657831183],[-72.26032024896334,44.28016274324117],[-72.26030845882316,44.27949730757215],[-72.26048559549177,44.27890712114207],[-72.26053977553576,44.27826366793908],[-72.26072364880338,44.27788691795181],[-72.26109674798448,44.2774377597324],[-72.26109708140207,44.27735485165897],[-72.26088357291974,44.276925236407074],[-72.26066813465806,44.27601911187428],[-72.26044071405691,44.275580717847625],[-72.26040209844281,44.27525618529845],[-72.2604780507626,44.27476864122275],[-72.26084099115387,44.27428727362146],[-72.26093629672302,44.27382558738903],[-72.26097356230058,44.27366599368362],[-72.26100882912078,44.27355570566594],[-72.2613256955568,44.272584253228615],[-72.2608735543343,44.27168160610878],[-72.26082735882133,44.27141069642256],[-72.26088185382307,44.27104922912832],[-72.26112469363778,44.270630896351406],[-72.2619340237903,44.26993242738546],[-72.26214453069886,44.269668368890805],[-72.26227378576691,44.26916552644933],[-72.26198878203287,44.26886339636495],[-72.26160603298575,44.268221277582725],[-72.26123881194792,44.267319179199085],[-72.26080154984949,44.26702742939211],[-72.26035372520559,44.26662405992603],[-72.2601268997854,44.266301262041104],[-72.26003510345238,44.266007749295895],[-72.25991607784464,44.265800953596155],[-72.25949099168065,44.26534558345071],[-72.25919240711097,44.264627663256775],[-72.25860855537215,44.26412580841458],[-72.25820626033196,44.26347108437222],[-72.25798657647584,44.262583098991755],[-72.25805281790468,44.2619784895803],[-72.25737103741238,44.26046746840964],[-72.25716056573765,44.25975249055261],[-72.25644696723822,44.258386707643986],[-72.25489654024788,44.25741688997516],[-72.25460170039588,44.25721142193598],[-72.25427063963096,44.256823831304985],[-72.2538074637644,44.256472176630375],[-72.25350231666319,44.25604155290978],[-72.2531237581959,44.255315678951476],[-72.25235739014921,44.25462696177335],[-72.25187440129598,44.254035421583545],[-72.25141864683623,44.253251260331844],[-72.25135558910645,44.25245859184373],[-72.25143577045367,44.25217830733436],[-72.25161080174749,44.25189806973385],[-72.25180639561977,44.25166864097509],[-72.25176211122891,44.251309063590405],[-72.25188192776695,44.250475939423865],[-72.25200315397757,44.25021058968404],[-72.25222205987025,44.249942972257045],[-72.25235647303182,44.249595851225195],[-72.25286942579638,44.24908851369695],[-72.25318888939829,44.248921411424554],[-72.25358730618842,44.24879618472423],[-72.25426097300718,44.248724208003665],[-72.25493288376423,44.2487988488659],[-72.25559354871646,44.2490546302018],[-72.25598250976951,44.24927879081964],[-72.25659238032729,44.24941452335107]],[[-72.2537460907575,44.25076893974852],[-72.25372257976073,44.25097147799031],[-72.2538375698725,44.250992414648955],[-72.2538543437564,44.25110818683315],[-72.25366878545711,44.251376626233046],[-72.25373794880484,44.251426267224396],[-72.25405313162115,44.2512753827731],[-72.25419268566935,44.251317006769895],[-72.25387466246222,44.251641294234105],[-72.25383058727152,44.25218012892583],[-72.25364162543778,44.252368887202145],[-72.25343445197241,44.252385099815655],[-72.2532552796488,44.25259132744463],[-72.25328268511245,44.25295534423338],[-72.25346599896163,44.25310469075993],[-72.2535742878752,44.25340687675583],[-72.25384385236364,44.25362649664921],[-72.25400333786176,44.25393302693693],[-72.25437670051905,44.254128214898884],[-72.25458229542126,44.254434567189406],[-72.25493846319917,44.254604972234226],[-72.25489144291429,44.254794954887146],[-72.25510928399845,44.25505191712607],[-72.25514286434148,44.255221540423],[-72.25525231202027,44.25525489342193],[-72.25520009718475,44.25531679573788],[-72.25523427537311,44.25546555778672],[-72.25540590352237,44.25572249240214],[-72.25574473567849,44.25581422720999],[-72.25577322956356,44.25592174513535],[-72.25600847625314,44.2560835255814],[-72.25607630627557,44.25633997912241],[-72.25639250624428,44.25642354493072],[-72.25643236806278,44.256539280361075],[-72.25659848734537,44.25667200563232],[-72.25676544693094,44.256721969175125],[-72.2573619147769,44.25717402525975],[-72.25780408900097,44.25738573942415],[-72.25791511541111,44.257394887285464],[-72.2581635553426,44.2576168046208],[-72.25833030533171,44.25814786797249],[-72.25849000186435,44.25844178435532],[-72.25873072279501,44.258711221147536],[-72.25881009690787,44.259021419952774],[-72.25901579680726,44.2593403630742],[-72.25906629182639,44.259704414155216],[-72.25922542782644,44.26014312811861],[-72.25939673915227,44.26044939916173],[-72.25948895570384,44.26050333036014],[-72.25944783026817,44.26069754081825],[-72.25965935629593,44.26103313741683],[-72.25974409982211,44.261347595557396],[-72.25995081749528,44.26151750206205],[-72.26001306722686,44.26172452691171],[-72.25988940818993,44.26247674786873],[-72.26003064767556,44.26306843140663],[-72.26016834249583,44.26317633943835],[-72.26020199407391,44.263370716942994],[-72.26039688680946,44.2635571529131],[-72.26083979809137,44.26359535016266],[-72.26112718818696,44.26376128072461],[-72.26119529898817,44.26395168545277],[-72.261091080459,44.26407979585541],[-72.2610614642816,44.264344331068074],[-72.26117645540997,44.26436930931069],[-72.26127976199326,44.26446879675578],[-72.26124930336348,44.26481198408267],[-72.26149605926867,44.26495722998404],[-72.26158771515718,44.26514775739278],[-72.26185135041241,44.26540047837205],[-72.26195486635724,44.26563254181588],[-72.2619300579934,44.265851361872016],[-72.26238879521793,44.26622859086997],[-72.26284900656566,44.26633719569658],[-72.26303888095993,44.26633759781601],[-72.26317657508079,44.26644956917302],[-72.26325602066157,44.26675158559502],[-72.26314046775558,44.266767819308974],[-72.26311071100321,44.267069608438504],[-72.26314474948438,44.26717308499971],[-72.26336866014307,44.267334807572524],[-72.26336153757975,44.26767815522584],[-72.26369851165613,44.2682535785529],[-72.26403769526125,44.26841140456446],[-72.26406022345861,44.26853548460494],[-72.2641808647124,44.26862669743713],[-72.26416805543708,44.26888731792535],[-72.2643171556353,44.26899923490671],[-72.26406124061003,44.269664498584326],[-72.2641167193109,44.27026023087638],[-72.26375914682758,44.270408151591454],[-72.26360825785824,44.27073876844626],[-72.26314667870258,44.27099834758145],[-72.26292104695216,44.271283280308715],[-72.26273640070247,44.27138197665084],[-72.2629140642925,44.27158916631975],[-72.2631076941984,44.272094174172665],[-72.26339946946254,44.272545508579825],[-72.26312113344022,44.27305359943217],[-72.26314323958763,44.273285205554124],[-72.26291146692718,44.27367341697947],[-72.26294543510907,44.27381828879766],[-72.26283563761687,44.273966929225665],[-72.26274759530733,44.27433061444686],[-72.2627754569755,44.274595355387135],[-72.26243974645652,44.2750661425837],[-72.26230710523318,44.27516091259436],[-72.26231766666012,44.275330478088705],[-72.2625127348378,44.27550873591559],[-72.26273847200366,44.27660088614599],[-72.26280710805673,44.27675409173882],[-72.26294452299985,44.276853557383724],[-72.26299593047601,44.27702736362406],[-72.26303982822934,44.27751137164327],[-72.26323521201294,44.277582170428545],[-72.26247781964767,44.27842820011395],[-72.26237928564623,44.27863056694022],[-72.26250961156961,44.279085770958105],[-72.26240567426525,44.27923449861546],[-72.26233647580737,44.27924273887142],[-72.26234173877224,44.2793666696961],[-72.26223183665456,44.2795317760907],[-72.26220709753203,44.27995363640513],[-72.26238967333816,44.28030967166895],[-72.26264772764628,44.280566622836375],[-72.26262983121813,44.28074855771219],[-72.26325556424797,44.28118399955653],[-72.26330686668804,44.281299937593964],[-72.26407664481108,44.28165297515751],[-72.2642196388427,44.281917960327476],[-72.26480551013437,44.282249992905044],[-72.26496541646027,44.2825149993338],[-72.26542576768368,44.282627542876334],[-72.2654770706118,44.282706324310396],[-72.265747335995,44.28278957604693],[-72.26576947903204,44.28301694874481],[-72.265941772715,44.283100025188176],[-72.26594128210363,44.28322422386835],[-72.26606153617226,44.283418761978],[-72.26622242591336,44.28341494335078],[-72.26615428047685,44.28325768569008],[-72.26649385064704,44.28327079821181],[-72.26724068066784,44.283640328822536],[-72.26828149857182,44.28386995927755],[-72.26853962350165,44.28414334872018],[-72.26873942810231,44.284602831251966],[-72.26885410434058,44.28475192059927],[-72.2689973780426,44.28482248519119],[-72.269930468739,44.28479954958156],[-72.27022385932405,44.284742174324236],[-72.270281934223,44.28462654496412],[-72.27037443144766,44.28458946644759],[-72.27051802215946,44.28461468798356],[-72.27063287351058,44.28468934682344],[-72.27065571698547,44.28477616315882],[-72.27052311026488,44.284854362323635],[-72.27052851504915,44.28497858272887],[-72.2707812709062,44.28509077113676],[-72.27075769056557,44.285198185673764],[-72.27089478784234,44.28547556298737],[-72.27086566312296,44.285549919235336],[-72.27106585462234,44.285881152437256],[-72.27151452011044,44.28600192955494],[-72.27156606843154,44.286060007412566],[-72.2719057088009,44.286089572674506],[-72.27207768743361,44.2862013313799],[-72.2723411812495,44.286160360635996],[-72.27240602831193,44.286209721332455],[-72.27261909718119,44.286186108139105],[-72.27261369373534,44.28609512403798],[-72.2725331607621,44.28605355033136],[-72.2726547490469,44.28587615387544],[-72.27267857552444,44.28571058738612],[-72.27266752317311,44.2856156330364],[-72.27252965238748,44.285532560624695],[-72.27240686976582,44.28530615164113],[-72.2725148442181,44.28489156601684],[-72.27245325965706,44.28441995392238],[-72.2720728807457,44.28355268234389],[-72.27186665264477,44.28323673474499],[-72.27187230234173,44.28277714066564],[-72.27168348151855,44.28252854042971],[-72.27157578881614,44.28202389809565],[-72.27128429271554,44.28156836497134],[-72.2713079078518,44.281324431696405],[-72.27122762076445,44.28125820981748],[-72.27110241828476,44.280918760716354],[-72.27089163063508,44.280869119228235],[-72.2709134214189,44.28070750788475],[-72.27079920261096,44.28047977498875],[-72.27078842928678,44.28022352676288],[-72.27073705620239,44.280124143427535],[-72.27058795750017,44.280036916957364],[-72.2705430424497,44.279697811976874],[-72.27024368589356,44.27907260612133],[-72.27003068640276,44.278278315159305],[-72.27000808794983,44.27746253229899],[-72.26989021904217,44.276852376385065],[-72.26969869563143,44.276688192416806],[-72.26960110910096,44.276434288798704],[-72.2692956824082,44.27631236057521],[-72.26914103846042,44.27613016144817],[-72.2691887617487,44.27565470881628],[-72.26959409177891,44.27508493563418],[-72.26973929547125,44.274729571826214],[-72.26995306593116,44.274510935807285],[-72.27015638019238,44.27406451510938],[-72.27029446157648,44.27405235423217],[-72.27024329930254,44.27396956841577],[-72.27034316744,44.273444626604636],[-72.27024557982794,44.27334533090777],[-72.2702804247214,44.273250105731556],[-72.27022613956852,44.27313153942108],[-72.26992229146207,44.27264179063712],[-72.26954570041406,44.27224080869027],[-72.26918170851327,44.27195452457637],[-72.26896969117587,44.27139476563064],[-72.26897228878093,44.2707703503127],[-72.26907064691122,44.27062996869311],[-72.2694512022496,44.27039918056899],[-72.26960788195261,44.2700521817117],[-72.26947046711116,44.269861568564345],[-72.26905089060833,44.26975739344063],[-72.26891898573268,44.269666157584595],[-72.26885712180223,44.26927741732252],[-72.26903260997912,44.26853754558109],[-72.26925466074067,44.268325319032186],[-72.26957100073241,44.267686698686354],[-72.26955991315837,44.26761217142558],[-72.26922708078918,44.2673717212954],[-72.26918205994892,44.26716069556741],[-72.26905594384071,44.26699510341909],[-72.26905650491578,44.26685436016763],[-72.26880908240823,44.266866346030625],[-72.26858513577837,44.266679794565086],[-72.26854583444904,44.26641916420579],[-72.26841424506475,44.26624520031625],[-72.26840926229322,44.26608392624713],[-72.26848446114454,44.26596815933855],[-72.2688646655585,44.265849224591946],[-72.26898046459058,44.265675587020965],[-72.2690108527893,44.265299359235335],[-72.268879052889,44.265150320395485],[-72.26876465750115,44.26477949200297],[-72.26822682650214,44.263932687990646],[-72.26783770920049,44.26358494608295],[-72.26786679922793,44.26351058844916],[-72.26746147001704,44.2626951027801],[-72.2667498003059,44.26223879137129],[-72.26677955758211,44.261936902938615],[-72.26653318779513,44.261688288282826],[-72.26635141833476,44.26103874102315],[-72.26609406573444,44.26069073143876],[-72.26603171031253,44.260434195351],[-72.26588804990294,44.26034716708561],[-72.26568227900928,44.2600364971781],[-72.26499492765552,44.259298996363206],[-72.26483551172085,44.25883140036914],[-72.26489414699003,44.25857510808358],[-72.26466426953104,44.258500316030236],[-72.26441207506464,44.258276417060756],[-72.26374441020532,44.258266741253465],[-72.26331893813122,44.258191522005234],[-72.26307656807332,44.258012482939776],[-72.26284374306539,44.2576446253129],[-72.26261983078761,44.25742896640344],[-72.26256301969556,44.25726774341848],[-72.26238507641477,44.25717206530858],[-72.26197700980251,44.25703486757319],[-72.2616436849488,44.25703418876801],[-72.26147626875328,44.25709593900355],[-72.26149872676987,44.25723655412164],[-72.2614351777685,44.25728601404789],[-72.26122817922729,44.25728558697435],[-72.261119714162,44.2570123991949],[-72.26101651393502,44.25697897309881],[-72.26101742619028,44.256759919315584],[-72.26074210635933,44.25652372313722],[-72.26058676102585,44.25651510343611],[-72.26048875320843,44.25656448881893],[-72.26048829765374,44.25667610187335],[-72.26023452343216,44.256820287574776],[-72.25995271193476,44.25682797738086],[-72.25899305827306,44.256449757887],[-72.25886729449599,44.256304591728195],[-72.25894252787482,44.256213763188484],[-72.25883311556447,44.256151509070015],[-72.25879925468226,44.25600674470668],[-72.25867878790098,44.25591548766232],[-72.25863387183674,44.25572108475593],[-72.25847284175656,44.25566280083436],[-72.2583582722239,44.25553439743735],[-72.2584049074106,44.25543099988544],[-72.25830184662479,44.255244739288194],[-72.25833114720795,44.25510009758167],[-72.25816527586342,44.25490119329798],[-72.25801585914984,44.25487613456728],[-72.2576483931053,44.254685096553395],[-72.25753392728174,44.2545360064266],[-72.25726390718144,44.2543658771541],[-72.25673972618212,44.25451361207338],[-72.25630888518317,44.25441332941905],[-72.25629190221417,44.25425219898754],[-72.25645296638405,44.254273160187445],[-72.25655111526852,44.25422377314803],[-72.25655743136096,44.25408322640686],[-72.25686966614023,44.25373233470173],[-72.25692788157878,44.25355471378426],[-72.25705487273102,44.25343080429562],[-72.25721035917998,44.25340637363363],[-72.25719383098425,44.253220308448725],[-72.25692823190039,44.253108511132226],[-72.25692454693873,44.25296316055332],[-72.25676428845266,44.25284294441317],[-72.25652827031689,44.25283829541018],[-72.25647707378289,44.25265215080953],[-72.2563442912759,44.25275527661433],[-72.2560851145484,44.25277948025023],[-72.2559708245794,44.2526178683208],[-72.25599440448548,44.25248993481082],[-72.25569027622802,44.25230730823454],[-72.25477385422697,44.25130448967448],[-72.25467753093804,44.25091972544084],[-72.25471272649045,44.25082881181281],[-72.25483354227019,44.25077120224058],[-72.25497727306116,44.25080460659942],[-72.25509780906012,44.25090818764598],[-72.25536825124827,44.25090471898038],[-72.25545471404085,44.25080556125369],[-72.25574838595578,44.250760720584246],[-72.25573747194471,44.25064075107876],[-72.2554263954897,44.25074347828302],[-72.25517911381083,44.25074709842237],[-72.25510433632631,44.250655932734226],[-72.25485157964992,44.25055612244913],[-72.25461742015924,44.25023315928892],[-72.25431283553176,44.25009599605414],[-72.25414601565987,44.25010795972673],[-72.25409302844336,44.250318794572486],[-72.25416717626051,44.2505919136949],[-72.2537460907575,44.25076893974852]]],[[[-72.31680092197665,44.29279549926217],[-72.31680770235279,44.29397882819191],[-72.31681899756421,44.295949833250845],[-72.31683527392973,44.298790098971],[-72.3128255958545,44.29806721230549],[-72.31363500816299,44.29790406599252],[-72.31409885999894,44.29789012609348],[-72.31451826398323,44.29771960183696],[-72.31507554823368,44.29721275240462],[-72.31557807825087,44.29692314794571],[-72.3157528647823,44.296651198929275],[-72.3158362733633,44.2962249130368],[-72.31599547982839,44.296085321395914],[-72.31618244111425,44.296004800034034],[-72.31633136491521,44.29585789796538],[-72.3166427929154,44.295814373229696],[-72.31681852610544,44.29587334441598],[-72.3168090169177,44.29421176401918],[-72.31640326573529,44.29413716784485],[-72.31427808365954,44.294148922270665],[-72.31380499406865,44.294213949417404],[-72.31323207177566,44.29409889082505],[-72.31298110554148,44.294102180930764],[-72.31256079188769,44.29427427941973],[-72.31157446961011,44.29444195583028],[-72.31084195722076,44.29467229745136],[-72.31065211792422,44.29478961525497],[-72.31043101329087,44.29507975641844],[-72.31005168510083,44.295211516415016],[-72.30976625905097,44.295545733632345],[-72.30954076865532,44.295648332281665],[-72.30891612310063,44.295647201813814],[-72.30831744524261,44.295521171402704],[-72.30814869517756,44.295542945634736],[-72.30776540286755,44.29607534998003],[-72.30781091436937,44.29633670223786],[-72.30799640245304,44.29662852002192],[-72.30837258158228,44.29693524344774],[-72.30927165668119,44.29731883473769],[-72.30986471596458,44.29742269334981],[-72.31041962705716,44.29763345131818],[-72.306042451546,44.29684430927321],[-72.30586690533936,44.296223607148214],[-72.30588574743709,44.29583310890182],[-72.30603649706754,44.29546238756026],[-72.30648074167055,44.294841581358114],[-72.30686173487389,44.29452963735021],[-72.30728789172231,44.29431866011599],[-72.30776363022473,44.2941969461024],[-72.30826587987637,44.29414952536574],[-72.30877944579719,44.29419373177026],[-72.30971097377787,44.29356516333417],[-72.31072438565508,44.293213778949394],[-72.31175817158353,44.29301156506249],[-72.31229221031465,44.29282302214778],[-72.31292573287506,44.292731243194254],[-72.31347524916465,44.292738515422364],[-72.31385682202301,44.292802224399345],[-72.31637894853502,44.292765717406596],[-72.31680092197665,44.29279549926217]]]]}},{"type":"Feature","properties":{"OBJECT_ID":165,"County":"Caledonia","RPC":"NVDA","Municipal_Name":"Groton","GEO_ID":"5000530550","District_Name":"Rural Residential District","Abbreviated_District_Name":"Rr","District_Type":"Primarily Residential","Bylaw_Date":null,"Elderly_Housing_District":"No","District_Mapped":"Yes","Overlay_District":"No","Base_Density":null,"FIPS6":null,"GIS_ID":null,"Last_Update":null,"Shape_Length":109086.26791419685,"Shape_Area":81797581.24189623,"F1F_Allowance":"Permitted","F1F_Front_Setback":35.0,"F1F_Side_Setback":25.0,"F1F_Rear_Setback":25.0,"F1F_Frontage":100.0,"F1F_Max_Height":50.0,"F1F_Max_Stories":2.0,"F1F_Min_Lot_Size":0.92,"F1F_Max_Lot_Building_Coverage":null,"F1F_Max_Lot_Impervious_Coverage":null,"F1F_Min_Parking_Spaces":2.0,"F1F_Elderly_Housing_Only":null,"F1F_Affordable_Housing_Only":null,"F2F_Allowance":"Permitted","F2F_Front_Setback":35.0,"F2F_Side_Setback":25.0,"F2F_Rear_Setback":25.0,"F2F_Frontage":100.0,"F2F_Max_Density":null,"F2F_Max_Height":50.0,"F2F_Max_Stories":2.0,"F2F_Min_Lot_Size":0.92,"F2F_Max_Lot_Building_Coverage":null,"F2F_Max_Lot_Impervious_Coverage":null,"F2F_Min_Parking_Spaces_per_1BR":2.0,"F2F_Min_Parking_Spaces_per_mult_BR":2.0,"F2F_Elderly_Housing_Only":"No","F2F_Affordable_Housing_Only":"No","F3F_Allowance":"Public Hearing","F3F_Front_Setback":35.0,"F3F_Side_Setback":25.0,"F3F_Rear_Setback":25.0,"F3F_Frontage":100.0,"F3F_Max_Density":null,"F3F_Max_Height":50.0,"F3F_Max_Stories":2.0,"F3F_Min_Lot_Size":0.92,"F3F_Max_Lot_Building_Coverage":null,"F3F_Max_Lot_Impervious_Coverage":null,"F3F_Min_Parking_Spaces_per_1BR":2.0,"F3F_Min_Parking_Spaces_per_mult_BR":2.0,"F3F_Affordable_Housing_Only":"No","F3F_Proximity_to_Public_Transit_Required":"No","F3F_Connection_to_Sewage/Water_Required":"No","F4F_Allowance":"Public Hearing","F4F_Front_Setback":35.0,"F4F_Side_Setback":25.0,"F4F_Rear_Setback":25.0,"F4F_Frontage":100.0,"F1F_Max_Density":null,"F4F_Max_Density":null,"F4F_Max_Height":50.0,"F4F_Max_Stories":2.0,"F4F_Min_Lot_Size":0.92,"F4F_Max_Lot_Building_Coverage":null,"F4F_Max_Lot_Impervious_Coverage":null,"F4F_Min_Parking_Spaces_per_1BR":2.0,"F4F_Min_Parking_Spaces_per_mult_BR":2.0,"F3F_Elderly_Housing_Only":"No","F4F_Elderly_Housing_Only":"No","F4F_Affordable_Housing_Only":"No","F4F_Proximity_to_Public_Transit_Required":null,"F4F_Connection_to_Sewage/Water_Required":null,"ADU_Allowance":"Allowed/Conditional","ADU_Elderly_Housing_Only":"No","ADU_Max_Size_as_Percent_of_Primary_Strcture":30.0,"ADU_Max_Size_in_sq_ft":900.0,"ADU_Min_Lot_Size":0.92,"ADU_Max_Bedrooms":null,"ADU_Min_Parking_Spaces":2.0,"ADU_Owner_Occupancy_Required":"Yes","ADU_Renter_Occupancy_Prohibited":"No","ADU_Employee_or_Family_Occupancy_Required":"No","ADU_Restricted_to_Primary_Structure":"No","Affordable_Housing_Allowance":"Not Mentioned","Affordable_Housing_District":"No","Affordable_Housing_Elderly_Only":null,"Affordable_Housing_Min_Lot_Size":null,"Affordable_Housing_Max_Density":null,"Affordable_Housing_Min_Parking_Spaces_per_mult_BR":null,"Affordable_Housing_Max_Units_per_Building":null,"Affordable_Housing_Min_Parking_Spaces_per_1BR":null,"PRD_Allowance":"Public Hearing","PRD_Max_Density":null,"PRD_Max_Units":null,"PRD_Min_Lot_Size":10.0,"PRD_Mobile_or_Manufactured_Home_Park":"Yes","PUD_Allowance":"Yes","PUD_Required_with_Subdivision":"Yes","PUD_Requires_Land_Conservation":"No","PUD_Threshold_Number":null,"Notes":"None"},"geometry":{"type":"MultiPolygon","coordinates":[[[[-72.33845493991718,44.2128427748408],[-72.34948509471198,44.197664758445924],[-72.36888140280871,44.20389734479615],[-72.36328301140794,44.21135710208234],[-72.35740333065999,44.21918775129617],[-72.33845493991718,44.2128427748408]]],[[[-72.29598343594323,44.186409094977066],[-72.29515677530125,44.18676846540407],[-72.29535742273556,44.187788588565624],[-72.31358451954907,44.19095915742657],[-72.31263995603516,44.195792757590716],[-72.29803756019191,44.19366471134246],[-72.29847948912514,44.1991949448521],[-72.29875754539621,44.203797247050666],[-72.29876358154245,44.208551568423644],[-72.29335930212824,44.208094736561534],[-72.29149206921795,44.207810202220365],[-72.29127808870413,44.213067174122266],[-72.28771282977382,44.21301440726274],[-72.2875333771923,44.21698372875633],[-72.28860932039537,44.21715298404604],[-72.28796800794885,44.222659284953494],[-72.28721679135128,44.22258560388515],[-72.28703228535801,44.22508431403851],[-72.28533313647233,44.225001131226236],[-72.28435214708571,44.225181026184096],[-72.2836332856915,44.22553492882952],[-72.28147578386128,44.22572880228731],[-72.28142153551327,44.2259688429984],[-72.27673520686996,44.2250225056632],[-72.2759627260833,44.22445158841319],[-72.27635721197535,44.225461301206316],[-72.27658417692284,44.22587801730927],[-72.27715165977442,44.22656876428665],[-72.27781964124925,44.22698154937355],[-72.27845351450428,44.22772458479758],[-72.27860679004557,44.22808591529323],[-72.27875262630387,44.22825347928713],[-72.27985376322292,44.22876703126853],[-72.28072141100566,44.22933172269015],[-72.28115393547161,44.229442507064284],[-72.28175735041481,44.22944929624382],[-72.28205211019173,44.22949943294065],[-72.28282795973627,44.22982942541547],[-72.28322588515438,44.23006170364412],[-72.28351439836096,44.241090984235775],[-72.27378648719244,44.239410608183356],[-72.2739203215788,44.244077339750746],[-72.2615414661092,44.242475983972966],[-72.25133379820161,44.24039020089326],[-72.25127302151874,44.242206900175425],[-72.2445919413664,44.24110682166503],[-72.24151911718504,44.24055361943866],[-72.24017499881259,44.23999654494521],[-72.23937655491443,44.23985153494458],[-72.23859807310428,44.239922115035036],[-72.23747777613863,44.240354817431225],[-72.23696180558755,44.2407696539289],[-72.23675926353692,44.24107460621533],[-72.23665353638783,44.24145225801809],[-72.23673689342189,44.24196028988406],[-72.23694518994436,44.24230212577191],[-72.23720945637015,44.24255411497549],[-72.23720856207026,44.242676829405326],[-72.23720470211653,44.24289005384809],[-72.23726611007503,44.24351204832615],[-72.23743803540145,44.24398447998752],[-72.23792300394103,44.244674964433976],[-72.2383554582055,44.245081086297596],[-72.23892476554468,44.24591962956786],[-72.2393043068792,44.246273794939675],[-72.23931925151994,44.24708335103199],[-72.2289391490763,44.245544418071034],[-72.22942978312895,44.250268373211256],[-72.23940992600093,44.2520016738783],[-72.2392843725974,44.256971408303585],[-72.23438083403342,44.25601214794029],[-72.23434090149127,44.260836590405184],[-72.239165274142,44.261681478638835],[-72.23915397564511,44.26213065608787],[-72.26003510345238,44.266007749295895],[-72.2601268997854,44.266301262041104],[-72.26035372520559,44.26662405992603],[-72.26080154984949,44.26702742939211],[-72.26123881194792,44.267319179199085],[-72.26160603298575,44.268221277582725],[-72.26198878203287,44.26886339636495],[-72.26227378576691,44.26916552644933],[-72.26214453069886,44.269668368890805],[-72.2619340237903,44.26993242738546],[-72.26112469363778,44.270630896351406],[-72.26088185382307,44.27104922912832],[-72.26082735882133,44.27141069642256],[-72.2608735543343,44.27168160610878],[-72.2613256955568,44.272584253228615],[-72.26100882912078,44.27355570566594],[-72.26097356230058,44.27366599368362],[-72.26093629672302,44.27382558738903],[-72.26084099115387,44.27428727362146],[-72.2604780507626,44.27476864122275],[-72.26040209844281,44.27525618529845],[-72.25133737723054,44.27380803801782],[-72.25123294788995,44.26923146021252],[-72.23923798183105,44.26668688143589],[-72.23949807228756,44.28078051363388],[-72.22938170926231,44.279073435730886],[-72.22933633017884,44.283518648142184],[-72.22242905255648,44.28240741906754],[-72.2005338009348,44.278747362603355],[-72.19418294621221,44.27771948292493],[-72.18812520268617,44.276604458361206],[-72.18507443971393,44.26581905272244],[-72.18245040469155,44.25554561010253],[-72.1780247808264,44.23684541832342],[-72.17117805577284,44.21058642499072],[-72.16807492919804,44.198418330130245],[-72.17066017270184,44.200588176024525],[-72.17212618117712,44.20212949182058],[-72.17284848304436,44.20264382467989],[-72.17355864370754,44.202966117841314],[-72.1743514067436,44.203165298356474],[-72.1751861373751,44.203231053896694],[-72.18119074347567,44.202974681180336],[-72.18199509893999,44.20973978975315],[-72.20485777412603,44.21693580184681],[-72.20718313227775,44.21502313787172],[-72.20837179769136,44.215838411992834],[-72.20920709855655,44.21734507194283],[-72.20960739618631,44.21769651597525],[-72.21086315638819,44.21848549718273],[-72.21273285140602,44.21953407523499],[-72.21397119200726,44.22014256393793],[-72.21428474473456,44.22024683729382],[-72.21678066378456,44.220893883419905],[-72.21955391580615,44.22097033203158],[-72.22562463444508,44.22100392404573],[-72.22887072842471,44.22098719192245],[-72.22948002634404,44.22090962013832],[-72.22881696421274,44.219660022994425],[-72.22860557751532,44.219370812011576],[-72.22774072763079,44.21847804119351],[-72.22723494411125,44.218170571345794],[-72.22605262010913,44.2176803220257],[-72.2254538813161,44.21752097090201],[-72.22395497123674,44.21734074326897],[-72.22045126013984,44.21778881527662],[-72.21924927244982,44.21742586596485],[-72.21883415503119,44.21705474187176],[-72.21744070394213,44.214051527059205],[-72.21711146120656,44.21363811857926],[-72.21602684825385,44.212789303777036],[-72.2156533504971,44.21256408843294],[-72.21289530455034,44.21129564736254],[-72.21497840311484,44.209979142584935],[-72.2062348288153,44.205502472353615],[-72.18082643050232,44.19995434215279],[-72.181039221059,44.20181665596246],[-72.1747072943866,44.20066671389075],[-72.17474121594185,44.19264133419493],[-72.18772549109498,44.191671288122905],[-72.18769959944052,44.19347908495187],[-72.19883555060308,44.19511060581234],[-72.1987679660071,44.19619504017749],[-72.20281445585022,44.198328428695106],[-72.20311097034143,44.1981139361105],[-72.20434987229845,44.198896882692736],[-72.20344987333479,44.20012116963996],[-72.2035491091733,44.20042943835492],[-72.2039393850247,44.2004135396095],[-72.20553578994794,44.200181344156455],[-72.20610109614348,44.19973380598484],[-72.20651565511969,44.19964087665672],[-72.20693645965719,44.1993752202243],[-72.20747481704636,44.19917240369083],[-72.20798320722406,44.198774115395054],[-72.20720595336087,44.19851962439198],[-72.2060890250368,44.19827464240546],[-72.20646308903756,44.197679715299486],[-72.20709527835419,44.197206597780784],[-72.20763047834254,44.19659435172765],[-72.20824336808239,44.19613823321254],[-72.20853728605505,44.19578163721626],[-72.20869498188263,44.195276904597485],[-72.20866241802399,44.193883849905525],[-72.20405427104875,44.19308156465615],[-72.20020590218172,44.192280978179575],[-72.2002313078458,44.192089660567184],[-72.20830421438058,44.19140998283975],[-72.20926632426537,44.1918473189379],[-72.2094843759445,44.19136242939914],[-72.20949420230775,44.190640321933586],[-72.20957814556492,44.190082128598014],[-72.23199760277727,44.18846699266279],[-72.25441585486416,44.186847453675895],[-72.27619601087677,44.185230455516944],[-72.29797499113695,44.183609302238025],[-72.2973718942235,44.184482571886036],[-72.29694540526665,44.185448382701345],[-72.29665892730785,44.18585697695506],[-72.29598343594323,44.186409094977066]],[[-72.22544219222158,44.270138694309274],[-72.22605787253238,44.27021603443864],[-72.22656759698121,44.27016928491599],[-72.22773368378218,44.269804024131695],[-72.22805353561859,44.26965666007673],[-72.22852285213813,44.26955147970287],[-72.22943771381723,44.269709425976934],[-72.22943041568713,44.26903799281456],[-72.22985735971156,44.26858179433334],[-72.2301293453967,44.267909456126624],[-72.23032030932342,44.26663823272032],[-72.23026963249333,44.265761248312494],[-72.23070089787574,44.26508075166942],[-72.2309404949293,44.26434097657487],[-72.23094730460126,44.2638416947983],[-72.23086408773318,44.26330372131483],[-72.23085859515481,44.26311615318376],[-72.23073662126035,44.262752261605925],[-72.23041659644949,44.262337377711894],[-72.22990315547855,44.26200530472585],[-72.22935216321316,44.26183301406031],[-72.22933503904551,44.2602535040166],[-72.22895037825428,44.26019927075137],[-72.22893058580335,44.25992579493722],[-72.21837018822121,44.25832009673927],[-72.2186000303021,44.262671656802056],[-72.21861511924902,44.27005617705191],[-72.2254494739562,44.271231445086876],[-72.22544219222158,44.270138694309274]]],[[[-72.28831659562049,44.2371905139081],[-72.28994837165075,44.237504874999075],[-72.28996591605932,44.232499652411185],[-72.29351215694034,44.23313008043645],[-72.29336035571527,44.242869099857685],[-72.28828368147622,44.24198829405292],[-72.28831659562049,44.2371905139081]]],[[[-72.25235647303182,44.249595851225195],[-72.25222205987025,44.249942972257045],[-72.25200315397757,44.25021058968404],[-72.25188192776695,44.250475939423865],[-72.25176211122891,44.251309063590405],[-72.25180639561977,44.25166864097509],[-72.25161080174749,44.25189806973385],[-72.25115343367474,44.2518098470824],[-72.2511805051097,44.249168345300255],[-72.2514225943076,44.24870629880331],[-72.25141289204474,44.24815928835006],[-72.25358421722497,44.248530196013526],[-72.25358730618842,44.24879618472423],[-72.25318888939829,44.248921411424554],[-72.25286942579638,44.24908851369695],[-72.25235647303182,44.249595851225195]]],[[[-72.33309083524642,44.25009786584754],[-72.32975726498903,44.254634958924626],[-72.32783067152975,44.25720751113042],[-72.32237371014263,44.264505356937654],[-72.31482531826212,44.26191026463147],[-72.31438219670149,44.25359387242403],[-72.3042478672109,44.251806529306656],[-72.30441531747624,44.24482227104393],[-72.31440977687188,44.24652662340603],[-72.31439216253789,44.241959686147126],[-72.31730726569613,44.238338282568186],[-72.32590554684651,44.24201760601871],[-72.32945192628696,44.237165927432116],[-72.34026832510429,44.241771447138774],[-72.33687028611524,44.24622356904916],[-72.3350950434896,44.247524197062155],[-72.3331725694173,44.2499904336109],[-72.33309083524642,44.25009786584754]],[[-72.32545665148811,44.24587899457755],[-72.32478651474734,44.24643422188137],[-72.32435314307236,44.24691749757207],[-72.3231253303909,44.24776503944972],[-72.32227810688752,44.24869413315983],[-72.32200571831024,44.249246365630206],[-72.32198847035788,44.24979326506249],[-72.32218601245964,44.250304820025946],[-72.32274891572101,44.25092693804694],[-72.32355510024846,44.251548245768035],[-72.32466451731057,44.252078685958395],[-72.32523805612917,44.2522338030188],[-72.32587256185273,44.25224789098824],[-72.32645560501867,44.25214941467252],[-72.32780386855936,44.251794062622174],[-72.32876613528758,44.251478371155926],[-72.32921394253148,44.25124739571515],[-72.32956674268834,44.25114478272403],[-72.33009372839298,44.25090117365695],[-72.33056773199634,44.2505344054497],[-72.33085426532594,44.25041687193822],[-72.33131965079522,44.25010620088837],[-72.33197256128268,44.249414321571976],[-72.33214276702891,44.24906189521466],[-72.33244054706542,44.2488435166481],[-72.3327419341942,44.24851703743338],[-72.333239975001,44.24766563838163],[-72.33437257113965,44.24652355677729],[-72.33462237953111,44.246005986845034],[-72.33461892353064,44.24535683225211],[-72.3343864084303,44.244838562556666],[-72.33404008898142,44.2443767306862],[-72.33326527243446,44.243650348176416],[-72.33300350388782,44.243226363795394],[-72.33249949540857,44.24278888318264],[-72.33197682425369,44.24255241774491],[-72.33055755554528,44.242184765661825],[-72.33012096046788,44.242118312169225],[-72.32963243172075,44.24211459130375],[-72.32914067497339,44.24218417537748],[-72.32865712808237,44.24234621877655],[-72.32732428641,44.243238858724965],[-72.32650583842909,44.24420747794841],[-72.32545665148811,44.24587899457755]]],[[[-72.26268667852693,44.25237678019973],[-72.26356927353301,44.253738794047756],[-72.26459440583018,44.254853062964514],[-72.26591598038304,44.25594549643771],[-72.26552135446225,44.256345508689485],[-72.26487386504752,44.256304643403894],[-72.264782068405,44.256335204125136],[-72.26461012621519,44.25655878357177],[-72.2643030840265,44.25670626057516],[-72.26399772763315,44.25636330205244],[-72.26351725167426,44.256066334803585],[-72.26275966661925,44.25578575143696],[-72.26226903173152,44.255678220328015],[-72.2616398059643,44.25531360420205],[-72.2609370680137,44.2551552642775],[-72.2603653714079,44.25515377035787],[-72.2599244679047,44.2542939182892],[-72.25949127205925,44.25391483073103],[-72.25907601397603,44.25369650726761],[-72.25913050769117,44.25336085659],[-72.25901361996823,44.25280799627388],[-72.25879420087993,44.25247206543952],[-72.25826528280741,44.251970105068516],[-72.2582369294098,44.25182000168747],[-72.2583256382082,44.25162681722074],[-72.258417645076,44.251550960555775],[-72.25879886786547,44.251465602627704],[-72.25897572302542,44.251318967257134],[-72.2591591070714,44.251319318927536],[-72.25924318316441,44.251456352990935],[-72.25951113380485,44.2514721379061],[-72.25960987859442,44.25147233943966],[-72.25964552987219,44.25137104575292],[-72.2598430896612,44.25134611232376],[-72.2600421932403,44.25094606609652],[-72.26034670690962,44.25064253619108],[-72.26056574161194,44.250541642969196],[-72.26123442520036,44.25034493641373],[-72.26169053044141,44.250399528714176],[-72.26165452782467,44.24749171924502],[-72.2737951189538,44.2496170157274],[-72.27383792817805,44.25374794300774],[-72.26252217426958,44.25169729402127],[-72.26268667852693,44.25237678019973]]],[[[-72.2538074637644,44.256472176630375],[-72.25427063963096,44.256823831304985],[-72.25460170039588,44.25721142193598],[-72.25489654024788,44.25741688997516],[-72.25127547713774,44.25685258264088],[-72.25146405345932,44.2544427860047],[-72.25235739014921,44.25462696177335],[-72.2531237581959,44.255315678951476],[-72.25350231666319,44.25604155290978],[-72.2538074637644,44.256472176630375]]],[[[-72.27886287957666,44.27377261117259],[-72.27378445137951,44.2729176953299],[-72.2735712411623,44.27742499719194],[-72.27188828721475,44.27714160244268],[-72.27171488571189,44.2764491252682],[-72.27126468044966,44.27576092401783],[-72.2715374696046,44.275270104568804],[-72.27204887729145,44.27459225190033],[-72.27216320143442,44.27433359185859],[-72.27219836371168,44.27415426185463],[-72.27225156104122,44.27340437528602],[-72.27208123084262,44.27279040957621],[-72.27161501982049,44.27200779103778],[-72.27093031827955,44.27126169745103],[-72.27135852568169,44.27068434240446],[-72.27147971069296,44.27031794737301],[-72.27710849919382,44.27126028990061],[-72.27752649543056,44.271653514907236],[-72.27792954505436,44.272148597829926],[-72.27886287957666,44.27377261117259]]],[[[-72.26361027654004,44.28348158940545],[-72.2641623012839,44.283756614435156],[-72.26443593458234,44.2841358519848],[-72.26474573229574,44.28441296994138],[-72.26544036546322,44.28472476655692],[-72.26621803941366,44.284808819409704],[-72.26690693459454,44.2849960672075],[-72.26731994921886,44.285568407732946],[-72.26786292152403,44.2859267180817],[-72.26531740883631,44.28540055398452],[-72.26401527177848,44.28444859097515],[-72.26358751956413,44.28426435580928],[-72.26263193631326,44.283982450424745],[-72.26233044022227,44.2841196596745],[-72.26179074958279,44.28426350129585],[-72.26179180209174,44.28345551400754],[-72.26143156336904,44.28290892729876],[-72.26063950114563,44.28113287672072],[-72.26054616837855,44.28067657831183],[-72.26086515004089,44.2812739619467],[-72.2611102922992,44.28157693240792],[-72.26193398782854,44.28225295715511],[-72.26255944383072,44.282587537061175],[-72.26361027654004,44.28348158940545]]],[[[-72.27420434329981,44.286949847955505],[-72.28373996060579,44.28846986291016],[-72.28392085748717,44.29296740375697],[-72.27391204254548,44.29122509584943],[-72.27385722926199,44.28723028280395],[-72.27420434329981,44.286949847955505]]]]}},{"type":"Feature","properties":{"OBJECT_ID":163,"County":"Caledonia","RPC":"NVDA","Municipal_Name":"Groton","GEO_ID":"5000530550","District_Name":"Commercial/Industrial","Abbreviated_District_Name":"C/I","District_Type":"Mixed with Residential","Bylaw_Date":null,"Elderly_Housing_District":"No","District_Mapped":"Yes","Overlay_District":"No","Base_Density":null,"FIPS6":null,"GIS_ID":null,"Last_Update":null,"Shape_Length":4593.290316687508,"Shape_Area":908269.7454798822,"F1F_Allowance":"Permitted","F1F_Front_Setback":35.0,"F1F_Side_Setback":25.0,"F1F_Rear_Setback":25.0,"F1F_Frontage":100.0,"F1F_Max_Height":50.0,"F1F_Max_Stories":2.0,"F1F_Min_Lot_Size":0.92,"F1F_Max_Lot_Building_Coverage":null,"F1F_Max_Lot_Impervious_Coverage":null,"F1F_Min_Parking_Spaces":2.0,"F1F_Elderly_Housing_Only":null,"F1F_Affordable_Housing_Only":null,"F2F_Allowance":"Permitted","F2F_Front_Setback":35.0,"F2F_Side_Setback":25.0,"F2F_Rear_Setback":25.0,"F2F_Frontage":100.0,"F2F_Max_Density":null,"F2F_Max_Height":50.0,"F2F_Max_Stories":2.0,"F2F_Min_Lot_Size":0.92,"F2F_Max_Lot_Building_Coverage":null,"F2F_Max_Lot_Impervious_Coverage":null,"F2F_Min_Parking_Spaces_per_1BR":2.0,"F2F_Min_Parking_Spaces_per_mult_BR":2.0,"F2F_Elderly_Housing_Only":"No","F2F_Affordable_Housing_Only":"No","F3F_Allowance":"Public Hearing","F3F_Front_Setback":35.0,"F3F_Side_Setback":50.0,"F3F_Rear_Setback":50.0,"F3F_Frontage":150.0,"F3F_Max_Density":null,"F3F_Max_Height":50.0,"F3F_Max_Stories":null,"F3F_Min_Lot_Size":1.84,"F3F_Max_Lot_Building_Coverage":null,"F3F_Max_Lot_Impervious_Coverage":null,"F3F_Min_Parking_Spaces_per_1BR":2.0,"F3F_Min_Parking_Spaces_per_mult_BR":2.0,"F3F_Affordable_Housing_Only":"No","F3F_Proximity_to_Public_Transit_Required":"No","F3F_Connection_to_Sewage/Water_Required":"No","F4F_Allowance":"Public Hearing","F4F_Front_Setback":35.0,"F4F_Side_Setback":50.0,"F4F_Rear_Setback":50.0,"F4F_Frontage":150.0,"F1F_Max_Density":null,"F4F_Max_Density":null,"F4F_Max_Height":50.0,"F4F_Max_Stories":null,"F4F_Min_Lot_Size":1.84,"F4F_Max_Lot_Building_Coverage":null,"F4F_Max_Lot_Impervious_Coverage":null,"F4F_Min_Parking_Spaces_per_1BR":2.0,"F4F_Min_Parking_Spaces_per_mult_BR":2.0,"F3F_Elderly_Housing_Only":"No","F4F_Elderly_Housing_Only":"No","F4F_Affordable_Housing_Only":"No","F4F_Proximity_to_Public_Transit_Required":"No","F4F_Connection_to_Sewage/Water_Required":"No","ADU_Allowance":"Allowed/Conditional","ADU_Elderly_Housing_Only":"No","ADU_Max_Size_as_Percent_of_Primary_Strcture":30.0,"ADU_Max_Size_in_sq_ft":900.0,"ADU_Min_Lot_Size":0.92,"ADU_Max_Bedrooms":null,"ADU_Min_Parking_Spaces":2.0,"ADU_Owner_Occupancy_Required":"Yes","ADU_Renter_Occupancy_Prohibited":"No","ADU_Employee_or_Family_Occupancy_Required":"No","ADU_Restricted_to_Primary_Structure":"No","Affordable_Housing_Allowance":"Not Mentioned","Affordable_Housing_District":"No","Affordable_Housing_Elderly_Only":null,"Affordable_Housing_Min_Lot_Size":null,"Affordable_Housing_Max_Density":null,"Affordable_Housing_Min_Parking_Spaces_per_mult_BR":null,"Affordable_Housing_Max_Units_per_Building":null,"Affordable_Housing_Min_Parking_Spaces_per_1BR":null,"PRD_Allowance":"Public Hearing","PRD_Max_Density":null,"PRD_Max_Units":null,"PRD_Min_Lot_Size":10.0,"PRD_Mobile_or_Manufactured_Home_Park":"Yes","PUD_Allowance":"Yes","PUD_Required_with_Subdivision":"Yes","PUD_Requires_Land_Conservation":"No","PUD_Threshold_Number":null,"Notes":"None"},"geometry":{"type":"MultiPolygon","coordinates":[[[[-72.20718313227775,44.21502313787172],[-72.20837179769136,44.215838411992834],[-72.20920709855655,44.21734507194283],[-72.20960739618631,44.21769651597525],[-72.21086315638819,44.21848549718273],[-72.21273285140602,44.21953407523499],[-72.21397119200726,44.22014256393793],[-72.21428474473456,44.22024683729382],[-72.21678066378456,44.220893883419905],[-72.21955391580615,44.22097033203158],[-72.22562463444508,44.22100392404573],[-72.22887072842471,44.22098719192245],[-72.22948002634404,44.22090962013832],[-72.22881696421274,44.219660022994425],[-72.22860557751532,44.219370812011576],[-72.22774072763079,44.21847804119351],[-72.22723494411125,44.218170571345794],[-72.22605262010913,44.2176803220257],[-72.2254538813161,44.21752097090201],[-72.22395497123674,44.21734074326897],[-72.22045126013984,44.21778881527662],[-72.21924927244982,44.21742586596485],[-72.21883415503119,44.21705474187176],[-72.21744070394213,44.214051527059205],[-72.21711146120656,44.21363811857926],[-72.21602684825385,44.212789303777036],[-72.2156533504971,44.21256408843294],[-72.21289530455034,44.21129564736254],[-72.20993472011568,44.21315508100442],[-72.20894376694568,44.213644319997094],[-72.20845135627424,44.213979857363306],[-72.20718313227775,44.21502313787172]]]]}},{"type":"Feature","properties":{"OBJECT_ID":164,"County":"Caledonia","RPC":"NVDA","Municipal_Name":"Groton","GEO_ID":"5000530550","District_Name":"Conservation District","Abbreviated_District_Name":"Con","District_Type":"Nonresidential","Bylaw_Date":null,"Elderly_Housing_District":"No","District_Mapped":"Yes","Overlay_District":"No","Base_Density":25.0,"FIPS6":null,"GIS_ID":null,"Last_Update":null,"Shape_Length":94999.18073274402,"Shape_Area":56263356.01319433,"F1F_Allowance":"Permitted","F1F_Front_Setback":100.0,"F1F_Side_Setback":200.0,"F1F_Rear_Setback":200.0,"F1F_Frontage":500.0,"F1F_Max_Height":50.0,"F1F_Max_Stories":2.0,"F1F_Min_Lot_Size":25.0,"F1F_Max_Lot_Building_Coverage":null,"F1F_Max_Lot_Impervious_Coverage":null,"F1F_Min_Parking_Spaces":2.0,"F1F_Elderly_Housing_Only":null,"F1F_Affordable_Housing_Only":null,"F2F_Allowance":"Prohibited","F2F_Front_Setback":null,"F2F_Side_Setback":null,"F2F_Rear_Setback":null,"F2F_Frontage":null,"F2F_Max_Density":null,"F2F_Max_Height":null,"F2F_Max_Stories":null,"F2F_Min_Lot_Size":null,"F2F_Max_Lot_Building_Coverage":null,"F2F_Max_Lot_Impervious_Coverage":null,"F2F_Min_Parking_Spaces_per_1BR":null,"F2F_Min_Parking_Spaces_per_mult_BR":null,"F2F_Elderly_Housing_Only":null,"F2F_Affordable_Housing_Only":null,"F3F_Allowance":"Prohibited","F3F_Front_Setback":null,"F3F_Side_Setback":null,"F3F_Rear_Setback":null,"F3F_Frontage":null,"F3F_Max_Density":null,"F3F_Max_Height":null,"F3F_Max_Stories":null,"F3F_Min_Lot_Size":null,"F3F_Max_Lot_Building_Coverage":null,"F3F_Max_Lot_Impervious_Coverage":null,"F3F_Min_Parking_Spaces_per_1BR":null,"F3F_Min_Parking_Spaces_per_mult_BR":null,"F3F_Affordable_Housing_Only":null,"F3F_Proximity_to_Public_Transit_Required":null,"F3F_Connection_to_Sewage/Water_Required":null,"F4F_Allowance":"Prohibited","F4F_Front_Setback":null,"F4F_Side_Setback":null,"F4F_Rear_Setback":null,"F4F_Frontage":null,"F1F_Max_Density":null,"F4F_Max_Density":null,"F4F_Max_Height":null,"F4F_Max_Stories":null,"F4F_Min_Lot_Size":null,"F4F_Max_Lot_Building_Coverage":null,"F4F_Max_Lot_Impervious_Coverage":null,"F4F_Min_Parking_Spaces_per_1BR":null,"F4F_Min_Parking_Spaces_per_mult_BR":null,"F3F_Elderly_Housing_Only":null,"F4F_Elderly_Housing_Only":null,"F4F_Affordable_Housing_Only":null,"F4F_Proximity_to_Public_Transit_Required":null,"F4F_Connection_to_Sewage/Water_Required":null,"ADU_Allowance":"Allowed/Conditional","ADU_Elderly_Housing_Only":"No","ADU_Max_Size_as_Percent_of_Primary_Strcture":30.0,"ADU_Max_Size_in_sq_ft":900.0,"ADU_Min_Lot_Size":25.0,"ADU_Max_Bedrooms":null,"ADU_Min_Parking_Spaces":2.0,"ADU_Owner_Occupancy_Required":"Yes","ADU_Renter_Occupancy_Prohibited":"No","ADU_Employee_or_Family_Occupancy_Required":"No","ADU_Restricted_to_Primary_Structure":"No","Affordable_Housing_Allowance":"Not Mentioned","Affordable_Housing_District":"No","Affordable_Housing_Elderly_Only":null,"Affordable_Housing_Min_Lot_Size":null,"Affordable_Housing_Max_Density":null,"Affordable_Housing_Min_Parking_Spaces_per_mult_BR":null,"Affordable_Housing_Max_Units_per_Building":null,"Affordable_Housing_Min_Parking_Spaces_per_1BR":null,"PRD_Allowance":"Public Hearing","PRD_Max_Density":null,"PRD_Max_Units":null,"PRD_Min_Lot_Size":50.0,"PRD_Mobile_or_Manufactured_Home_Park":"No","PUD_Allowance":"Yes","PUD_Required_with_Subdivision":"Yes","PUD_Requires_Land_Conservation":"No","PUD_Threshold_Number":null,"Notes":"None"},"geometry":{"type":"MultiPolygon","coordinates":[[[[-72.20926632426537,44.1918473189379],[-72.20830421438058,44.19140998283975],[-72.2002313078458,44.192089660567184],[-72.20020590218172,44.192280978179575],[-72.20405427104875,44.19308156465615],[-72.20866241802399,44.193883849905525],[-72.20869498188263,44.195276904597485],[-72.20853728605505,44.19578163721626],[-72.20824336808239,44.19613823321254],[-72.20763047834254,44.19659435172765],[-72.20709527835419,44.197206597780784],[-72.20646308903756,44.197679715299486],[-72.2060890250368,44.19827464240546],[-72.20720595336087,44.19851962439198],[-72.20798320722406,44.198774115395054],[-72.20747481704636,44.19917240369083],[-72.20693645965719,44.1993752202243],[-72.20651565511969,44.19964087665672],[-72.20610109614348,44.19973380598484],[-72.20553578994794,44.200181344156455],[-72.2039393850247,44.2004135396095],[-72.2035491091733,44.20042943835492],[-72.20344987333479,44.20012116963996],[-72.20434987229845,44.198896882692736],[-72.20311097034143,44.1981139361105],[-72.20281445585022,44.198328428695106],[-72.1987679660071,44.19619504017749],[-72.19883555060308,44.19511060581234],[-72.18769959944052,44.19347908495187],[-72.18772549109498,44.191671288122905],[-72.20957814556492,44.190082128598014],[-72.20949420230775,44.190640321933586],[-72.2094843759445,44.19136242939914],[-72.20926632426537,44.1918473189379]]],[[[-72.1747072943866,44.20066671389075],[-72.181039221059,44.20181665596246],[-72.183810315349,44.20231981142052],[-72.18381112201415,44.20296570367096],[-72.18313291220332,44.202924215050515],[-72.18119074347567,44.202974681180336],[-72.1751861373751,44.203231053896694],[-72.1743514067436,44.203165298356474],[-72.17355864370754,44.202966117841314],[-72.17284848304436,44.20264382467989],[-72.17212618117712,44.20212949182058],[-72.17066017270184,44.200588176024525],[-72.16807492919804,44.198418330130245],[-72.16740810803265,44.195800544690606],[-72.16633407324815,44.19078436668429],[-72.17069198522698,44.19198122181946],[-72.17436575584068,44.19266962684241],[-72.17474121594185,44.19264133419493],[-72.1747072943866,44.20066671389075]]],[[[-72.35740333065999,44.21918775129617],[-72.35702797069712,44.21968766307723],[-72.34643074718524,44.23369741877616],[-72.34026832510429,44.241771447138774],[-72.32945192628696,44.237165927432116],[-72.32590554684651,44.24201760601871],[-72.31730726569613,44.238338282568186],[-72.31439216253789,44.241959686147126],[-72.31440977687188,44.24652662340603],[-72.30441531747624,44.24482227104393],[-72.3042478672109,44.251806529306656],[-72.31438219670149,44.25359387242403],[-72.31482531826212,44.26191026463147],[-72.32237371014263,44.264505356937654],[-72.31665271858014,44.27223731016606],[-72.31667771286006,44.278173866094946],[-72.31668158351948,44.27857965483332],[-72.31668248115884,44.27865839993217],[-72.3166903574028,44.27934967105744],[-72.31680092197665,44.29279549926217],[-72.31637894853502,44.292765717406596],[-72.31385682202301,44.292802224399345],[-72.31347524916465,44.292738515422364],[-72.31292573287506,44.292731243194254],[-72.31229221031465,44.29282302214778],[-72.31175817158353,44.29301156506249],[-72.31072438565508,44.293213778949394],[-72.30971097377787,44.29356516333417],[-72.30877944579719,44.29419373177026],[-72.30826587987637,44.29414952536574],[-72.30776363022473,44.2941969461024],[-72.30728789172231,44.29431866011599],[-72.30686173487389,44.29452963735021],[-72.30648074167055,44.294841581358114],[-72.30603649706754,44.29546238756026],[-72.30588574743709,44.29583310890182],[-72.30586690533936,44.296223607148214],[-72.306042451546,44.29684430927321],[-72.28392085748717,44.29296740375697],[-72.28373996060579,44.28846986291016],[-72.27420434329981,44.286949847955505],[-72.27448169823643,44.286487797452594],[-72.2745878814451,44.285714405092264],[-72.27454279149701,44.28534873072897],[-72.27440534193624,44.28505751183033],[-72.27433791582689,44.28420019736646],[-72.27379231496967,44.28295362956314],[-72.27374802698807,44.28251497436031],[-72.27321767078888,44.28129591808157],[-72.27316412109923,44.28099903935406],[-72.27269084023027,44.28016526740024],[-72.27261411419721,44.2798224334235],[-72.27213318327205,44.27882577369069],[-72.27200733144555,44.27836039189167],[-72.27192353588816,44.278051387842716],[-72.27188828721475,44.27714160244268],[-72.2735712411623,44.27742499719194],[-72.27378445137951,44.2729176953299],[-72.27886287957666,44.27377261117259],[-72.27792954505436,44.272148597829926],[-72.27752649543056,44.271653514907236],[-72.27710849919382,44.27126028990061],[-72.27147971069296,44.27031794737301],[-72.27151180055448,44.269950996027625],[-72.27143705817005,44.26966218773311],[-72.27116370337546,44.269228394442145],[-72.27092865097757,44.26898275158529],[-72.27138126490175,44.26820128908042],[-72.27147978040331,44.267690543828905],[-72.27137345681034,44.26718411627035],[-72.27097056580267,44.26668879141671],[-72.2707418353681,44.26621468171049],[-72.27091024629027,44.265583340081896],[-72.27086176778651,44.264964466322446],[-72.27040068001273,44.26403519110624],[-72.26991836214798,44.26329741324476],[-72.26960514051619,44.26293620083669],[-72.26916837235713,44.262081264638375],[-72.26891361773596,44.26178749060478],[-72.26861787305964,44.261567374761384],[-72.26832487043546,44.261111016728925],[-72.26816345314717,44.26060810078277],[-72.26791585545642,44.26021630935893],[-72.26785725349839,44.26003133402548],[-72.26770117171026,44.25977013270544],[-72.26680541408496,44.25874213566731],[-72.26672869315972,44.258195341626106],[-72.26642752965819,44.25775854900763],[-72.26555258418125,44.25716834472837],[-72.26494827395031,44.256960099775725],[-72.26444134421553,44.256902292809905],[-72.2643030840265,44.25670626057516],[-72.26461012621519,44.25655878357177],[-72.264782068405,44.256335204125136],[-72.26487386504752,44.256304643403894],[-72.26552135446225,44.256345508689485],[-72.26591598038304,44.25594549643771],[-72.26459440583018,44.254853062964514],[-72.26356927353301,44.253738794047756],[-72.26268667852693,44.25237678019973],[-72.26252217426958,44.25169729402127],[-72.27383792817805,44.25374794300774],[-72.2737951189538,44.2496170157274],[-72.26165452782467,44.24749171924502],[-72.26169053044141,44.250399528714176],[-72.26123442520036,44.25034493641373],[-72.26056574161194,44.250541642969196],[-72.26034670690962,44.25064253619108],[-72.2600421932403,44.25094606609652],[-72.2598430896612,44.25134611232376],[-72.25964552987219,44.25137104575292],[-72.25960987859442,44.25147233943966],[-72.25951113380485,44.2514721379061],[-72.25924318316441,44.251456352990935],[-72.2591591070714,44.251319318927536],[-72.25897572302542,44.251318967257134],[-72.25879886786547,44.251465602627704],[-72.258417645076,44.251550960555775],[-72.2583256382082,44.25162681722074],[-72.2582369294098,44.25182000168747],[-72.25826528280741,44.251970105068516],[-72.25739504421982,44.25145435729418],[-72.2576280935285,44.251048214385186],[-72.25766142917625,44.250529427662244],[-72.25744900900001,44.25003054357193],[-72.25704287126956,44.24964029100501],[-72.25659238032729,44.24941452335107],[-72.25598250976951,44.24927879081964],[-72.25559354871646,44.2490546302018],[-72.25493288376423,44.2487988488659],[-72.25426097300718,44.248724208003665],[-72.25358730618842,44.24879618472423],[-72.25358421722497,44.248530196013526],[-72.25141289204474,44.24815928835006],[-72.25127796971641,44.24786934212229],[-72.2507896853956,44.247225322367846],[-72.25029364805003,44.24688195462262],[-72.24985157775325,44.246723193288524],[-72.24997116505027,44.24639816130756],[-72.2499855531368,44.24623000829787],[-72.24985459484317,44.24560590399713],[-72.24959429409085,44.245178468563694],[-72.2491186785024,44.2448123662589],[-72.24844229151331,44.244581253241236],[-72.24784671997051,44.244171393249204],[-72.24768040940427,44.244023292712264],[-72.24735412081341,44.24351439900107],[-72.2469856531613,44.24318197165098],[-72.24630779421653,44.242861508412965],[-72.24594737973149,44.24278229720446],[-72.245497695292,44.24275557560592],[-72.24442736747153,44.24202328779495],[-72.24353803553467,44.2416483671737],[-72.24319565892895,44.241415101382124],[-72.24151911718504,44.24055361943866],[-72.2445919413664,44.24110682166503],[-72.25127302151874,44.242206900175425],[-72.25133379820161,44.24039020089326],[-72.2615414661092,44.242475983972966],[-72.2739203215788,44.244077339750746],[-72.27378648719244,44.239410608183356],[-72.28351439836096,44.241090984235775],[-72.28322588515438,44.23006170364412],[-72.28282795973627,44.22982942541547],[-72.28205211019173,44.22949943294065],[-72.28175735041481,44.22944929624382],[-72.28115393547161,44.229442507064284],[-72.28072141100566,44.22933172269015],[-72.27985376322292,44.22876703126853],[-72.27875262630387,44.22825347928713],[-72.27860679004557,44.22808591529323],[-72.27845351450428,44.22772458479758],[-72.27781964124925,44.22698154937355],[-72.27715165977442,44.22656876428665],[-72.27658417692284,44.22587801730927],[-72.27635721197535,44.225461301206316],[-72.2759627260833,44.22445158841319],[-72.27673520686996,44.2250225056632],[-72.28142153551327,44.2259688429984],[-72.28147578386128,44.22572880228731],[-72.2836332856915,44.22553492882952],[-72.28435214708571,44.225181026184096],[-72.28533313647233,44.225001131226236],[-72.28703228535801,44.22508431403851],[-72.28721679135128,44.22258560388515],[-72.28796800794885,44.222659284953494],[-72.28860932039537,44.21715298404604],[-72.2875333771923,44.21698372875633],[-72.28771282977382,44.21301440726274],[-72.29127808870413,44.213067174122266],[-72.29149206921795,44.207810202220365],[-72.29335930212824,44.208094736561534],[-72.29876358154245,44.208551568423644],[-72.29875754539621,44.203797247050666],[-72.29847948912514,44.1991949448521],[-72.29803756019191,44.19366471134246],[-72.31263995603516,44.195792757590716],[-72.31358451954907,44.19095915742657],[-72.29535742273556,44.187788588565624],[-72.29515677530125,44.18676846540407],[-72.29598343594323,44.186409094977066],[-72.29665892730785,44.18585697695506],[-72.29694540526665,44.185448382701345],[-72.2973718942235,44.184482571886036],[-72.29797499113695,44.183609302238025],[-72.3052020547677,44.18309561560895],[-72.32734084230269,44.190382332982345],[-72.34948509471198,44.197664758445924],[-72.33845493991718,44.2128427748408],[-72.35740333065999,44.21918775129617]],[[-72.30444726812198,44.22608164606471],[-72.30418028145318,44.22634230472048],[-72.30375323130555,44.226565947710334],[-72.3033658336065,44.22694946356436],[-72.30320210091764,44.22731064882843],[-72.30320441841793,44.22810119058171],[-72.303338955234,44.22844562224947],[-72.30352984634047,44.22869721803263],[-72.30390040033318,44.22898649128259],[-72.30419046079875,44.22931512579342],[-72.30454346850577,44.22956430574329],[-72.30498646756125,44.22975605440246],[-72.30558569019571,44.22987088625534],[-72.30624907408605,44.229866901365945],[-72.30684818922657,44.22973247421152],[-72.30735680917171,44.22987798969288],[-72.30803819537357,44.22997735943536],[-72.31022313684934,44.230061251020075],[-72.31215500598995,44.230365591171456],[-72.31343840306846,44.23036237265165],[-72.31407401370714,44.230202407586724],[-72.3145809478166,44.229942975174914],[-72.31532339190352,44.22992964842333],[-72.31607371401141,44.22969756977182],[-72.31638873745501,44.229514180447076],[-72.316642722189,44.22928706633742],[-72.31692297223596,44.22880474759156],[-72.31696197556447,44.22861188981177],[-72.31695148288132,44.22826864140251],[-72.31679480436043,44.22787867340056],[-72.31672227230915,44.22736679744426],[-72.3165289763174,44.22704506578555],[-72.31599916418587,44.226415126248284],[-72.31506344265969,44.22564595855393],[-72.31460144124112,44.2254494831631],[-72.31405687362916,44.225348925389895],[-72.31353791998588,44.22535030969951],[-72.31257672271745,44.22547469271656],[-72.31069454144708,44.22545416101659],[-72.31002648944259,44.22525912906231],[-72.3087681979121,44.22507496041911],[-72.30809123372134,44.22508924198931],[-72.30676855231118,44.22502332297519],[-72.30636162756541,44.22505469330474],[-72.30597326389699,44.22514758174913],[-72.3056212689571,44.225297777155305],[-72.30444726812198,44.22608164606471]],[[-72.29336035571527,44.242869099857685],[-72.29351215694034,44.23313008043645],[-72.28996591605932,44.232499652411185],[-72.28994837165075,44.237504874999075],[-72.28831659562049,44.2371905139081],[-72.28828368147622,44.24198829405292],[-72.29336035571527,44.242869099857685]]],[[[-72.23944950749801,44.24687682831203],[-72.23960158936364,44.247260865174624],[-72.24066044341168,44.24848804278075],[-72.24222863546873,44.24974940544709],[-72.24263994754995,44.24994980873617],[-72.2429799586372,44.250041009959006],[-72.24312558204107,44.25034589095926],[-72.24355080905717,44.25083778541],[-72.24512134843452,44.25187949656951],[-72.24565293651376,44.252468243396955],[-72.24595388907107,44.25265727860369],[-72.24639469575413,44.25282688244953],[-72.24717993152005,44.252928664180985],[-72.2476749879343,44.252901682868746],[-72.24828921049502,44.252725944675035],[-72.2486965406429,44.25248234400206],[-72.24917629643464,44.25202756239685],[-72.24936192414106,44.251616876452125],[-72.2493940012875,44.251393079623554],[-72.25005518974143,44.250649522997946],[-72.25020079687313,44.250266124611734],[-72.25029273498949,44.24973379465819],[-72.25077256064246,44.24951635981599],[-72.2511805051097,44.249168345300255],[-72.25115343367474,44.2518098470824],[-72.25161080174749,44.25189806973385],[-72.25143577045367,44.25217830733436],[-72.25135558910645,44.25245859184373],[-72.25141864683623,44.253251260331844],[-72.25187440129598,44.254035421583545],[-72.25235739014921,44.25462696177335],[-72.25146405345932,44.2544427860047],[-72.25127547713774,44.25685258264088],[-72.25489654024788,44.25741688997516],[-72.25644696723822,44.258386707643986],[-72.25716056573765,44.25975249055261],[-72.25737103741238,44.26046746840964],[-72.25805281790468,44.2619784895803],[-72.25798657647584,44.262583098991755],[-72.25820626033196,44.26347108437222],[-72.25860855537215,44.26412580841458],[-72.25919240711097,44.264627663256775],[-72.25949099168065,44.26534558345071],[-72.25991607784464,44.265800953596155],[-72.26003510345238,44.266007749295895],[-72.23915397564511,44.26213065608787],[-72.239165274142,44.261681478638835],[-72.23434090149127,44.260836590405184],[-72.23438083403342,44.25601214794029],[-72.2392843725974,44.256971408303585],[-72.23940992600093,44.2520016738783],[-72.22942978312895,44.250268373211256],[-72.2289391490763,44.245544418071034],[-72.23931925151994,44.24708335103199],[-72.2393043068792,44.246273794939675],[-72.23941441672157,44.24642873990051],[-72.23944950749801,44.24687682831203]]],[[[-72.22935216321316,44.26183301406031],[-72.22883271987871,44.261757648932594],[-72.2283556646779,44.261782955175384],[-72.22760753607882,44.26197379404898],[-72.22714914924998,44.26221723135921],[-72.22625283494676,44.263039958574964],[-72.22589770217732,44.263215415125686],[-72.2254922804194,44.263545867790526],[-72.22525584491788,44.26389833679389],[-72.22507168874937,44.26433532144179],[-72.22454198353552,44.26504593484166],[-72.22427829537922,44.26550919835277],[-72.22411428320233,44.26622342672865],[-72.22424481909384,44.267485550781096],[-72.22386912383695,44.268135153663614],[-72.22383161201229,44.268401555287234],[-72.22390519655137,44.26886937735812],[-72.2240927673936,44.26921555708115],[-72.22461340986172,44.26974082238158],[-72.22508648157836,44.270020247413214],[-72.22544219222158,44.270138694309274],[-72.2254494739562,44.271231445086876],[-72.21861511924902,44.27005617705191],[-72.2186000303021,44.262671656802056],[-72.21837018822121,44.25832009673927],[-72.22893058580335,44.25992579493722],[-72.22895037825428,44.26019927075137],[-72.22933503904551,44.2602535040166],[-72.22935216321316,44.26183301406031]]],[[[-72.22943041568713,44.26903799281456],[-72.22943771381723,44.269709425976934],[-72.22852285213813,44.26955147970287],[-72.22887416094942,44.26941507605719],[-72.22943041568713,44.26903799281456]]],[[[-72.26044071405691,44.275580717847625],[-72.26066813465806,44.27601911187428],[-72.26088357291974,44.276925236407074],[-72.26109708140207,44.27735485165897],[-72.26109674798448,44.2774377597324],[-72.26072364880338,44.27788691795181],[-72.26053977553576,44.27826366793908],[-72.26048559549177,44.27890712114207],[-72.26030845882316,44.27949730757215],[-72.26032024896334,44.28016274324117],[-72.26054616837855,44.28067657831183],[-72.26063950114563,44.28113287672072],[-72.26143156336904,44.28290892729876],[-72.26179180209174,44.28345551400754],[-72.26179074958279,44.28426350129585],[-72.26233044022227,44.2841196596745],[-72.26263193631326,44.283982450424745],[-72.26358751956413,44.28426435580928],[-72.26401527177848,44.28444859097515],[-72.26531740883631,44.28540055398452],[-72.26786292152403,44.2859267180817],[-72.26851502502704,44.286149559191095],[-72.26915903995429,44.28620123057167],[-72.26943288572247,44.286607078660886],[-72.26993332868324,44.286990742822425],[-72.27077362012369,44.287307863409225],[-72.2715537349029,44.287520612181275],[-72.27232384687343,44.28758000742309],[-72.27290527712356,44.28755201000969],[-72.27341040489584,44.28743907323205],[-72.27385722926199,44.28723028280395],[-72.27391204254548,44.29122509584943],[-72.25802782221349,44.28842919520393],[-72.24214511839124,44.28563108801409],[-72.22933633017884,44.283518648142184],[-72.22938170926231,44.279073435730886],[-72.23949807228756,44.28078051363388],[-72.23923798183105,44.26668688143589],[-72.25123294788995,44.26923146021252],[-72.25133737723054,44.27380803801782],[-72.26040209844281,44.27525618529845],[-72.26044071405691,44.275580717847625]]]]}},{"type":"Feature","properties":{"OBJECT_ID":167,"County":"Caledonia","RPC":"NVDA","Municipal_Name":"Groton","GEO_ID":"5000530550","District_Name":"Village District","Abbreviated_District_Name":"V","District_Type":"Mixed with Residential","Bylaw_Date":null,"Elderly_Housing_District":"No","District_Mapped":"Yes","Overlay_District":"No","Base_Density":null,"FIPS6":null,"GIS_ID":null,"Last_Update":null,"Shape_Length":7568.854881020675,"Shape_Area":2710481.401282677,"F1F_Allowance":"Permitted","F1F_Front_Setback":35.0,"F1F_Side_Setback":25.0,"F1F_Rear_Setback":25.0,"F1F_Frontage":100.0,"F1F_Max_Height":50.0,"F1F_Max_Stories":3.0,"F1F_Min_Lot_Size":0.92,"F1F_Max_Lot_Building_Coverage":null,"F1F_Max_Lot_Impervious_Coverage":null,"F1F_Min_Parking_Spaces":2.0,"F1F_Elderly_Housing_Only":null,"F1F_Affordable_Housing_Only":null,"F2F_Allowance":"Permitted","F2F_Front_Setback":35.0,"F2F_Side_Setback":25.0,"F2F_Rear_Setback":25.0,"F2F_Frontage":100.0,"F2F_Max_Density":null,"F2F_Max_Height":50.0,"F2F_Max_Stories":3.0,"F2F_Min_Lot_Size":0.92,"F2F_Max_Lot_Building_Coverage":null,"F2F_Max_Lot_Impervious_Coverage":null,"F2F_Min_Parking_Spaces_per_1BR":2.0,"F2F_Min_Parking_Spaces_per_mult_BR":2.0,"F2F_Elderly_Housing_Only":"No","F2F_Affordable_Housing_Only":"No","F3F_Allowance":"Public Hearing","F3F_Front_Setback":35.0,"F3F_Side_Setback":25.0,"F3F_Rear_Setback":25.0,"F3F_Frontage":100.0,"F3F_Max_Density":null,"F3F_Max_Height":50.0,"F3F_Max_Stories":3.0,"F3F_Min_Lot_Size":0.92,"F3F_Max_Lot_Building_Coverage":null,"F3F_Max_Lot_Impervious_Coverage":null,"F3F_Min_Parking_Spaces_per_1BR":2.0,"F3F_Min_Parking_Spaces_per_mult_BR":2.0,"F3F_Affordable_Housing_Only":"No","F3F_Proximity_to_Public_Transit_Required":"No","F3F_Connection_to_Sewage/Water_Required":"No","F4F_Allowance":"Public Hearing","F4F_Front_Setback":35.0,"F4F_Side_Setback":25.0,"F4F_Rear_Setback":25.0,"F4F_Frontage":100.0,"F1F_Max_Density":null,"F4F_Max_Density":null,"F4F_Max_Height":50.0,"F4F_Max_Stories":3.0,"F4F_Min_Lot_Size":0.92,"F4F_Max_Lot_Building_Coverage":null,"F4F_Max_Lot_Impervious_Coverage":null,"F4F_Min_Parking_Spaces_per_1BR":2.0,"F4F_Min_Parking_Spaces_per_mult_BR":2.0,"F3F_Elderly_Housing_Only":"No","F4F_Elderly_Housing_Only":"No","F4F_Affordable_Housing_Only":"No","F4F_Proximity_to_Public_Transit_Required":null,"F4F_Connection_to_Sewage/Water_Required":null,"ADU_Allowance":"Allowed/Conditional","ADU_Elderly_Housing_Only":"No","ADU_Max_Size_as_Percent_of_Primary_Strcture":30.0,"ADU_Max_Size_in_sq_ft":900.0,"ADU_Min_Lot_Size":0.92,"ADU_Max_Bedrooms":null,"ADU_Min_Parking_Spaces":2.0,"ADU_Owner_Occupancy_Required":"Yes","ADU_Renter_Occupancy_Prohibited":"No","ADU_Employee_or_Family_Occupancy_Required":"No","ADU_Restricted_to_Primary_Structure":"No","Affordable_Housing_Allowance":"Not Mentioned","Affordable_Housing_District":"No","Affordable_Housing_Elderly_Only":null,"Affordable_Housing_Min_Lot_Size":null,"Affordable_Housing_Max_Density":null,"Affordable_Housing_Min_Parking_Spaces_per_mult_BR":null,"Affordable_Housing_Max_Units_per_Building":null,"Affordable_Housing_Min_Parking_Spaces_per_1BR":null,"PRD_Allowance":"Public Hearing","PRD_Max_Density":null,"PRD_Max_Units":null,"PRD_Min_Lot_Size":10.0,"PRD_Mobile_or_Manufactured_Home_Park":"No","PUD_Allowance":"Yes","PUD_Required_with_Subdivision":"Yes","PUD_Requires_Land_Conservation":"No","PUD_Threshold_Number":null,"Notes":"None"},"geometry":{"type":"MultiPolygon","coordinates":[[[[-72.18119074347567,44.202974681180336],[-72.18199509893999,44.20973978975315],[-72.20485777412603,44.21693580184681],[-72.20718313227775,44.21502313787172],[-72.20845135627424,44.213979857363306],[-72.20894376694568,44.213644319997094],[-72.20993472011568,44.21315508100442],[-72.21289530455034,44.21129564736254],[-72.21497840311484,44.209979142584935],[-72.2062348288153,44.205502472353615],[-72.18082643050232,44.19995434215279],[-72.181039221059,44.20181665596246],[-72.183810315349,44.20231981142052],[-72.18381112201415,44.20296570367096],[-72.18313291220332,44.202924215050515],[-72.18119074347567,44.202974681180336]]]]}}]}