{"type":"FeatureCollection","features":[{"type":"Feature","id":5,"geometry":{"type":"MultiPolygon","coordinates":[[[[-72.303792416655668,44.515610318793556,0],[-72.300216381172319,44.517735728854021,0],[-72.296729459236474,44.520926977361668,0],[-72.298603136396665,44.522482901811181,0],[-72.300590119339446,44.521399837792991,0],[-72.301754059449195,44.520647666920929,0],[-72.30253572226836,44.520222235782342,0],[-72.302935221693076,44.520074481426605,0],[-72.302668336787264,44.51974166890826,0],[-72.303688287735369,44.519283240843833,0],[-72.303777235141098,44.519398437631651,0],[-72.304081353455047,44.519283913049968,0],[-72.304045920445958,44.519194373841145,0],[-72.303706967089468,44.519040399591617,0],[-72.303640407864208,44.51893071467407,0],[-72.303707692886434,44.51882309479592,0],[-72.303850840314894,44.518759426008423,0],[-72.304118922863566,44.518734318756024,0],[-72.304279082592984,44.518926333838465,0],[-72.304135595154762,44.519092264666689,0],[-72.304242410840473,44.519207491735891,0],[-72.305634072021249,44.518718634756013,0],[-72.304990554245478,44.517497047654366,0],[-72.304849868682027,44.517275509126989,0],[-72.303792416655668,44.515610318793556,0]]],[[[-72.371189196601335,44.507019611099686,0],[-72.370613616313449,44.507265861667562,0],[-72.371415519150617,44.508707003207711,0],[-72.371529135338363,44.509344951860697,0],[-72.371297308780953,44.51016768555634,0],[-72.372303499328311,44.510251109235881,0],[-72.372158925820898,44.510621295390457,0],[-72.372099850547499,44.511341349560368,0],[-72.371694283076465,44.512719413411212,0],[-72.371577780796031,44.513398252678677,0],[-72.371576835702058,44.513830323599457,0],[-72.371633402131664,44.514262458237049,0],[-72.372092413131142,44.514756766698369,0],[-72.372460817723251,44.514926799664359,0],[-72.373298954606398,44.515313624734596,0],[-72.373269176480036,44.515786813362674,0],[-72.373383935261856,44.515910389210298,0],[-72.374137671949754,44.516397166355524,0],[-72.3742451688112,44.516590305091384,0],[-72.374173766169207,44.517173673723839,0],[-72.374157489862171,44.51724860290269,0],[-72.374301273561514,44.517248761228146,0],[-72.37438772083928,44.51716655580055,0],[-72.374949792650497,44.517004207584371,0],[-72.375509761113349,44.516920880853789,0],[-72.375595768469523,44.517044415914675,0],[-72.375911704065302,44.517229938707573,0],[-72.376199231597667,44.517250827875024,0],[-72.376889568759026,44.517169265407816,0],[-72.377634260592203,44.517174619345781,0],[-72.378195444022992,44.517245450595432,0],[-72.378806002664291,44.517518493392032,0],[-72.378370112332874,44.518018195772676,0],[-72.378463498620007,44.518070135390438,0],[-72.379029900751462,44.518385152707047,0],[-72.380033853021231,44.517346496935083,0],[-72.379881623065174,44.517313786968174,0],[-72.379532308627986,44.51723873115111,0],[-72.379186529178014,44.517164453753288,0],[-72.378153662033995,44.516717337560003,0],[-72.377848726407521,44.516592084692292,0],[-72.376288143687134,44.515995853362178,0],[-72.375792976375109,44.515862383810436,0],[-72.375368465362769,44.515747959995522,0],[-72.374219364640936,44.515211761596703,0],[-72.37376121539306,44.514305966125683,0],[-72.373844882554124,44.51393840085376,0],[-72.37392376361349,44.513882067898912,0],[-72.374165070434472,44.513709738657752,0],[-72.374166252276837,44.513017304866871,0],[-72.374725462783132,44.511916598405747,0],[-72.374571904180115,44.511714422568524,0],[-72.373617018764122,44.511954717366429,0],[-72.373537062912689,44.511569264640478,0],[-72.373108151802654,44.510457749923205,0],[-72.372709635515633,44.509636191834048,0],[-72.372678765522579,44.509572554891726,0],[-72.372878729667832,44.509352166611109,0],[-72.374297167798986,44.507698004859471,0],[-72.374379379339658,44.507619815582444,0],[-72.37432218252674,44.507475729413692,0],[-72.374092430021847,44.507352027623021,0],[-72.373804778113325,44.507413436352955,0],[-72.373402426324702,44.507330694033293,0],[-72.372942259426495,44.507391911050085,0],[-72.372423428721106,44.507988007394118,0],[-72.372022015306101,44.507473188834652,0],[-72.371849277823301,44.507575870322292,0],[-72.371390235878096,44.507122710116128,0],[-72.371303844541572,44.507184338089743,0],[-72.371189196601335,44.507019611099686,0]]],[[[-72.353634442236128,44.502106697030882,0],[-72.353619568996152,44.50213422344622,0],[-72.353619171237767,44.502296202892921,0],[-72.35398740358788,44.502385586847545,0],[-72.354221077483331,44.502502363227478,0],[-72.354656016800973,44.502842918896818,0],[-72.354931450130636,44.503163692143829,0],[-72.355117054171416,44.503414104812983,0],[-72.355166278762724,44.503622645439144,0],[-72.355386402517126,44.504121994253659,0],[-72.355689053729122,44.504259319618022,0],[-72.356662280182434,44.504066534415323,0],[-72.356981575805975,44.503918575400633,0],[-72.357253251644906,44.503679259427138,0],[-72.35763007286883,44.503578666995224,0],[-72.357763875172168,44.503542948451781,0],[-72.358635902809908,44.503737095912015,0],[-72.358721408102923,44.503754693006051,0],[-72.358933844717257,44.503799012301833,0],[-72.358965847578091,44.503805704203927,0],[-72.359086537721836,44.503830939986322,0],[-72.359532989366883,44.503944548892655,0],[-72.360154339437031,44.504184960855262,0],[-72.360393839227797,44.504059719840825,0],[-72.360841698939936,44.503489659950951,0],[-72.36125687610442,44.503250508279166,0],[-72.361692877064385,44.5032398912603,0],[-72.36245238139297,44.503457365408224,0],[-72.36299650649255,44.503706383958537,0],[-72.363041579307051,44.50381184298498,0],[-72.36320107305535,44.503800621037456,0],[-72.363564488988516,44.504116054797379,0],[-72.363801712473062,44.503937946641933,0],[-72.364076480394758,44.503731648748335,0],[-72.363728159560964,44.503436061261013,0],[-72.36331469142668,44.50294485142588,0],[-72.362821045515602,44.502647548226662,0],[-72.362279189956084,44.502509954449742,0],[-72.361657203721592,44.502543442946752,0],[-72.361066786551874,44.502713910875194,0],[-72.360683396406642,44.502998747590311,0],[-72.359981454990105,44.503123427776394,0],[-72.359757659612796,44.503351395079491,0],[-72.360028506067778,44.503454435159931,0],[-72.359645515469381,44.503568087905407,0],[-72.359071384821377,44.503590208927108,0],[-72.357318147428003,44.503222856796548,0],[-72.353634442236128,44.502106697030882,0]]],[[[-72.379536371496727,44.485034490180887,0],[-72.376603244819236,44.488522279707986,0],[-72.376078809518305,44.489272201909628,0],[-72.375451426981996,44.490383564322478,0],[-72.375449046755477,44.491517952854274,0],[-72.375388687852606,44.491808702553129,0],[-72.37475739898251,44.492875309323004,0],[-72.374351968711977,44.493320126286513,0],[-72.373687571330947,44.493146373642588,0],[-72.373548362581928,44.493259897974447,0],[-72.373182299411482,44.493558417872329,0],[-72.373071975484905,44.493667771838922,0],[-72.373046258375808,44.49397272021406,0],[-72.373032711855132,44.494133359728934,0],[-72.372312788913433,44.494385421915311,0],[-72.372151796780585,44.4944884538073,0],[-72.37161005435263,44.49523945125744,0],[-72.371081712180469,44.495934754590202,0],[-72.370641790127877,44.49668712295562,0],[-72.370281452522164,44.497170273366294,0],[-72.370204812294915,44.497165965561457,0],[-72.370193977960511,44.497307437114884,0],[-72.370455952406729,44.497869535620275,0],[-72.371016824586803,44.498029562204131,0],[-72.371404138980608,44.498201894585158,0],[-72.371142239664337,44.498562905445091,0],[-72.371490043071219,44.498725257553424,0],[-72.371660231724874,44.498213132245318,0],[-72.372154382701353,44.498145791016789,0],[-72.372867978543951,44.498048403586651,0],[-72.373547327668234,44.498265392729365,0],[-72.373607729448423,44.498179261120143,0],[-72.373990364322182,44.497970011265267,0],[-72.374226609028838,44.497717219898625,0],[-72.373442776093867,44.496661457202649,0],[-72.373378459954409,44.496498434761889,0],[-72.373311418421025,44.496402101450514,0],[-72.373372189393876,44.496300350008802,0],[-72.373859388589466,44.495840743804429,0],[-72.37520475628331,44.495254293175364,0],[-72.375646419111305,44.495061763719676,0],[-72.376059590815217,44.494724821687868,0],[-72.376590512015625,44.494430166043081,0],[-72.379420800692898,44.493463166182771,0],[-72.379578253366176,44.493236537136966,0],[-72.379425575731318,44.493044646364901,0],[-72.38003928403748,44.492333137154496,0],[-72.382265722037417,44.488802121938818,0],[-72.383224902795419,44.487488372948086,0],[-72.383913937201541,44.486707070787702,0],[-72.381851792089705,44.485924022657528,0],[-72.381285017494818,44.485707459586671,0],[-72.379536371496727,44.485034490180887,0]]]]},"properties":{"OBJECTID":5,"OBJECTID_1":182,"Jurisdiction_District_Name":"Hardwick Highway Mixed-Use","County":"Caledonia","Jurisdiction":"Hardwick ","Abbreviated_District_Name":"HM","District_Name":"Highway Mixed-Use","District_Mapped":"Yes","Overlay_District":"No","Extinct_District":"No","District_Type":"Mixed with Residential","Affordable_Housing_District":"No","Elderly_Housing_District":"No","F1F_Allowance":"Permitted","F2F_Allowance":"Permitted","F3F_Allowance":"\bPermitted","F4F_Allowance":"Permitted","F5F_Allowance":"Permitted","ADU_Allowance":"Permitted","Affordable_Housing_Allowance":"Permitted","PRD_Allowance":"Not Mentioned","NOTES":"  20' Setback For Accessory Structure Mnzxside + Rear","F1F_Min_Lot":5000,"F1F_Front_Setback":"20","F1F_Side_Setback":"20","F1F_Rear_Setback":"20","F1F_Frontage":"65","F1F_Max_Lot_Building_Coverage":"","F1F_Max_Lot_Impervious_Coverage":"","F1F_Min_Parking_Spaces":"\b1","F1F_Max_Stories":"","F1F_Max_Height":"35","F1F_Floor_to_Area_Ratio":"","F1F_Min_Unit_Size":"","F2F_Affordable_Housing_Only":"No","F2F_Elderly_Housing_Only":"No","F2F_Min_Lot_Size":"0.11","F2F_Max_Density":"","F2F_Front_Setback":"20","F2F_Side_Setback":"20","F2F_Rear_Setback":"20","F2F_Frontage":"65","F2F_Max_Lot_Building_Coverage":"","F2F_Max_Lot_Impervious_Coverage":"","F2F_Min_Parking_Spaces_per_1BR":"1","F2F_Min_Parking_Spaces_per_mult_BR":"1","F2F_Max_Stories":"","F2F_Max_Height":"35","F2F_Floor_to_Area_Ratio":"","F2F_Min_Unit_Size":"","F3F_Affordable_Housing_Only":"No","F3F_Elderly_Housing_Only":"No","F3F_Min_Lot_Size":"0.11","F3F_Max_Density":"","F3F_Front_Setback":"20","F3F_Side_Setback":"20","F3F_Rear_Setback":"20","F3F_Frontage":"65","F3F_Max_Lot_Building_Coverage":"","F3F_Max_Lot_Impervious_Coverage":"","F3F_Min_Parking_Spaces_per_1BR":"1","F3F_Min_Parking_Spaces_per_mult_BR":"1","F3F_Connection_to_Sewage_Water_Required":"","F3F_Proximity_to_Public_Transit_Required":"","F3F_Max_Stories":"","F3F_Max_Height":"35","F3F_Floor_to_Area_Ratio":"","F3F_Min_Unit_Size":"","F3F_Max_Bedrooms":"","F4F_Affordable_Housing_Only":"No","F4F_Elderly_Housing_Only":"No","F4F_Min_Lot_Size":"0.11","F4F_Max_Density":"","F4F_Front_Setback":"20","F4F_Side_Setback":"20","F4F_Rear_Setback":"20","F4F_Frontage":"65","F4F_Max_Lot_Building_Coverage":"","F4F_Max_Lot_Impervious_Coverage":"","F4F_Min_Parking_Spaces_per_1BR":"1","F4F_Min_Parking_Spaces_per__mult_BR":"1","F4F_Connection_to_Sewage_Water_Required":"","F4F_Proximity_to_Public_Transit_Required":"","F4F_Max_Stories":"","F4F_Max_Height":"35","F4F_Floor_to_Area_Ratio":"","F4F_Min_Unit_Size":"","F4F_Max_Bedrooms":"","F4F_Max_Units_per_Building":"","F5F_Affordable_Housing_Only":"No","F5F_Elderly_Housing_Only":"No","F5F_Min_Lot_Size":"0.11","F5F_Max_Density":"","F5F_Front_Setback":"20","F5F_Side_Setback":"20","F5F_Rear_Setback":"20","F5F_Frontage":"65","F5F_Max_Lot_Building_Coverage":"","F5F_Max__Lot_Impervious_Coverage":"","F5F_Min_Parking_Spaces_per_1BR":"1","F5F_Min_Parking_Spaces_per_mult_BR":"1","F5F_Connection_to_Sewage_Water_Required":"","F5F_Proximity_to_Public_Transit_Required":"","F5F_Max_Stories":"","F5F_Max_Height":"35","F5F_Floor_to_Area_Ratio":"","F5F_Min_Unit_Size":"","F5F_Max_Bedrooms":"","F5F_Max_Units_per_Building":"","Affordable_Housing_Definition":"","Affordable_Housing_Elderly_Only":"No","Affordable_Housing_Min_Lot_Size":"","Affordable_Housing_Max_Density":"","Affordable_Housing_Min_Parking_Spaces_per_1BR":"1.5","Affordable_Housing_Min_Parking_Spaces_per_mult_BR":"1.5","Affordable_Housing_Min_Unit_Size":"","Affordable_Housing_Max_Bedrooms":"","Affordable_Housing_Max_Units_per_Building":"","ADU_Employee_or_Family_Occupancy_Required":"No","ADU_Renter_Occupancy_Prohibited":"No","ADU_Owner_Occupancy_Required":"Yes","ADU_Elderly_Housing_Only":"No","ADU_Min_Lot_Size":0,"ADU_Min_Parking_Spaces":"1","ADU_Restricted_to_Primary_Structure":"No","ADU_Max_Size_as_Percent_of_Primary_Strcture":30,"ADU_Max_Size_in_sq_ft":900,"ADU_Max_Bedrooms":0,"PRD_Mobile_or_Manufactured_Home_Park":"","PRD_Min_Lot_Size":"","PRD_Max_Density":"","PRD_Max_Units":"","PUD_Required_with_Subdivision":"No","PUD_Threshold_Number":"","PUD_Allowance":"Yes","PUD_Requires_Land_Conservation":"Yes","Base_Density":"","CONDITIONAL_1F_Min_Lot":"","CONDITIONAL_1F_Front_Setback":"","CONDITIONAL_1F_Side_Setback":"","CONDITIONAL_1F_Rear_Setback":"","CONDITIONAL_1F_Frontage":"","CONDITIONAL_1F_Max_Lot_Building_Coverage":"","CONDITIONAL_1F_Max_Lot_Impervious_Coverage":"","CONDITIONAL_1F_Min_Parking_Spaces":"","CONDITIONAL_1F_Max_Stories":"","CONDITIONAL_1F_Max_Height":"","CONDITIONAL_1F_Floor_to_Area_Ratio":"","CONDITIONAL_1F_Min_Unit_Size":"Class 1, 1 per 1,250 sq feet; class 2 and 3, 1 per 10,000 sq ft ","CONDITIONAL_2F_Affordable_Housing_Only":"","CONDITIONAL_2F_Elderly_Housing_Only":"","CONDITIONAL_2F_Min_Lot_Size":"\b","CONDITIONAL_2F_Max_Density":"","CONDITIONAL_2F_Front_Setback":"","CONDITIONAL_2F_Side_Setback":"","CONDITIONAL_2F_Rear_Setback":"","CONDITIONAL_2F_Frontage":"","CONDITIONAL_2F_Max_Lot_Building_Coverage":"","CONDITIONAL_2F_Max_Lot_Impervious_Coverage":"","CONDITIONAL_2F_Min_Parking_Spaces_per_1BR":"","CONDITIONAL_2F_Min_Parking_Spaces_per_mult_BR":"","CONDITIONAL_2F_Max_Stories":"","CONDITIONAL_2F_Max_Height":"","CONDITIONAL_2F_Floor_to_Area_Ratio":"","CONDITIONAL_2F_Min_Unit_Size":"Class 1, 1 per 1,250 sq feet; class 2 and 3, 1 per 10,000 sq ft ","CONDITIONAL_3F_Affordable_Housing_Only":"","CONDITIONAL_3F_Elderly_Housing_Only":"","CONDITIONAL_3F_Min_Lot_Size":"","CONDITIONAL_3F_Max_Density":"","CONDITIONAL_3F_Front_Setback":"","CONDITIONAL_3F_Side_Setback":"","CONDITIONAL_3F_Rear_Setback":"","CONDITIONAL_3F_Frontage":"","CONDITIONAL_3F_Max_Lot_Building_Coverage":"","CONDITIONAL_3F_Max_Lot_Impervious_Coverage":"","CONDITIONAL_3F_Min_Parking_Spaces_per_1BR":"","CONDITIONAL_3F_Min_Parking_Spaces_per_mult_BR":"","CONDITIONAL_3F_Connection_to_Sewage_Water_Required":"","CONDITIONAL_3F_Proximity_to_Public_Transit_Required":"","CONDITIONAL_3F_Max_Stories":"","CONDITIONAL_3F_Max_Height":"","CONDITIONAL_3F_Floor_to_Area_Ratio":"","CONDITIONAL_3F_Min_Unit_Size":"Class 1, 1 per 1,250 sq feet; class 2 and 3, 1 per 10,000 sq ft ","CONDITIONAL_3F_Max_Bedrooms":"","CONDITIONAL_4F_Affordable_Housing_Only":"","CONDITIONAL_4F_Elderly_Housing_Only":"","CONDITIONAL_4F_Min_Lot_Size":"","CONDITIONAL_4F_Max_Density":"","CONDITIONAL_4F_Front_Setback":"","CONDITIONAL_4F_Side_Setback":"","CONDITIONAL_4F_Rear_Setback":"","CONDITIONAL_4F_Frontage":"","CONDITIONAL_4F_Max_Lot_Building_Coverage":"","CONDITIONAL_4F_Max_Lot_Impervious_Coverage":"","CONDITIONAL_4F_Min_Parking_Spaces_per_1BR":"","CONDITIONAL_4F_Min_Parking_Spaces_per__mult_BR":"","CONDITIONAL_4F_Connection_to_Sewage_Water_Required":"","CONDITIONAL_4F_Proximity_to_Public_Transit_Required":"","CONDITIONAL_4F_Max_Stories":"","CONDITIONAL_4F_Max_Height":"","CONDITIONAL_4F_Floor_to_Area_Ratio":"","CONDITIONAL_4F_Min_Unit_Size":"Class 1, 1 per 1,250 sq feet; class 2 and 3, 1 per 10,000 sq ft ","CONDITIONAL_4F_Max_Bedrooms":"","CONDITIONAL_4F_Max_Units_per_Building":"","CONDITIONAL_5F_Affordable_Housing_Only":"","CONDITIONAL_5F_Elderly_Housing_Only":"","CONDITIONAL_5F_Min_Lot_Size":"\b","CONDITIONAL_5F_Max_Density":"","CONDITIONAL_5F_Front_Setback":"","CONDITIONAL_5F_Side_Setback":"","CONDITIONAL_5F_Rear_Setback":"","CONDITIONAL_5F_Frontage":"","CONDITIONAL_5F_Max_Lot_Building_Coverage":"","CONDITIONAL_5F_Max__Lot_Impervious_Coverage":"","CONDITIONAL_5F_Min_Parking_Spaces_per_1BR":"","CONDITIONAL_5F_Min_Parking_Spaces_per_mult_BR":"","CONDITIONAL_5F_Connection_to_Sewage_Water_Required":"","CONDITIONAL_5F_Proximity_to_Public_Transit_Required":"","CONDITIONAL_5F_Max_Stories":"","CONDITIONAL_5F_Max_Height":"","CONDITIONAL_5F_Floor_to_Area_Ratio":"","CONDITIONAL_5F_Min_Unit_Size":"Class 1, 1 per 1,250 sq feet; class 2 and 3, 1 per 10,000 sq ft ","CONDITIONAL_5F_Max_Bedrooms":"","CONDITIONAL_5F_Max_Units_per_Building":"","CONDITIONAL_Affordable_Housing_Definition":"","CONDITIONAL_Affordable_Housing_Elderly_Only":"","CONDITIONAL_Affordable_Housing_Min_Lot_Size":".46 Acres; .11 Acres/Unit For Municipal Water + Sewer; .23 Acres/Unit For Municipal Water Or Sewer Or Neither","CONDITIONAL_Affordable_Housing_Max_Density":"","CONDITIONAL_Affordable_Housing_Min_Parking_Spaces_per_1BR":"","CONDITIONAL_Affordable_Housing_Min_Parking_Spaces_per_mult_BR":"","CONDITIONAL_Affordable_Housing_Min_Unit_Size":"","CONDITIONAL_Affordable_Housing_Max_Bedrooms":"","CONDITIONAL_Affordable_Housing_Max_Units_per_Building":"","CONDITIONAL_ADU_Employee_or_Family_Occupancy_Required":"","CONDITIONAL_ADU_Renter_Occupancy_Prohibited":"","CONDITIONAL_ADU_Owner_Occupancy_Required":"","CONDITIONAL_ADU_Elderly_Housing_Only":"","CONDITIONAL_ADU_Min_Lot_Size":"","CONDITIONAL_ADU_Min_Parking_Spaces":"","CONDITIONAL_ADU_Restricted_to_Primary_Structure":"","CONDITIONAL_ADU_Max_Size_as_Percent_of_Primary_Strcture":"","CONDITIONAL_ADU_Max_Size_in_sq_ft":"","CONDITIONAL_ADU_Max_Bedrooms":"","CONDITIONAL_PRD_Mobile_or_Manufactured_Home_Park":"","CONDITIONAL_PRD_Min_Lot_Size":"","CONDITIONAL_PRD_Max_Density":"","CONDITIONAL_PRD_Max_Units":"","CONDITIONAL_PUD_Required_with_Subdivision":"","CONDITIONAL_PUD_Threshold_Number":"","CONDITIONAL_PUD_Allowance":"","CONDITIONAL_PUD_Requires_Land_Conservation":"","Bylaw_Date":"09-05-2024","RPC":"NVDA","Version":1,"Acres":251.89862087864523,"Shape_Length":12586.759246394919,"Shape_Area":1019399.1253865572}}]}