{"type": "FeatureCollection", "name": "Caledonia_Burke", "features": [{"type": "Feature", "properties": {"OBJECT_ID": 1031, "County": "Caledonia", "RPC": "NVDA", "Municipal_Name": "Burke ", "GEO_ID": "5000510450", "District_Name": "Village Residential", "Abbreviated_District_Name": "Vr", "District_Type": "Primarily Residential", "Bylaw_Date": null, "Elderly_Housing_District": "No", "District_Mapped": "Yes", "Overlay_District": "No", "Base_Density": null, "GIS_ID": null, "Last_Update": null, "Shape_Length": 1613.3982055712454, "Shape_Area": 118907.22959848616, "F1F_Allowance": "Permitted", "F1F_Front_Setback": 40.0, "F1F_Side_Setback": 15.0, "F1F_Rear_Setback": 25.0, "F1F_Frontage": null, "F1F_Max_Height": null, "F1F_Max_Stories": null, "F1F_Min_Lot_Size": null, "F1F_Max_Lot_Building_Coverage": null, "F1F_Max_Lot_Impervious_Coverage": null, "F1F_Min_Parking_Spaces": 2.0, "F1F_Elderly_Housing_Only": null, "F1F_Affordable_Housing_Only": null, "F2F_Allowance": "Permitted", "F2F_Front_Setback": 40.0, "F2F_Side_Setback": 15.0, "F2F_Rear_Setback": 25.0, "F2F_Frontage": null, "F2F_Max_Density": null, "F2F_Max_Height": null, "F2F_Max_Stories": null, "F2F_Min_Lot_Size": null, "F2F_Max_Lot_Building_Coverage": null, "F2F_Max_Lot_Impervious_Coverage": null, "F2F_Min_Parking_Spaces_per_1BR": 2.0, "F2F_Min_Parking_Spaces_per_mult_BR": 2.0, "F2F_Elderly_Housing_Only": "No", "F2F_Affordable_Housing_Only": "No", "F3F_Allowance": "Prohibited", "F3F_Front_Setback": null, "F3F_Side_Setback": null, "F3F_Rear_Setback": null, "F3F_Frontage": null, "F3F_Max_Density": null, "F3F_Max_Height": null, "F3F_Max_Stories": null, "F3F_Min_Lot_Size": null, "F3F_Max_Lot_Building_Coverage": null, "F3F_Max_Lot_Impervious_Coverage": null, "F3F_Min_Parking_Spaces_per_1BR": null, "F3F_Min_Parking_Spaces_per_mult_BR": null, "F3F_Affordable_Housing_Only": null, "F3F_Proximity_to_Public_Transit_Required": null, "F3F_Connection_to_Sewage/Water_Required": null, "F4F_Allowance": "Prohibited", "F4F_Front_Setback": null, "F4F_Side_Setback": null, "F4F_Rear_Setback": null, "F4F_Frontage": null, "F1F_Max_Density": null, "F4F_Max_Density": null, "F4F_Max_Height": null, "F4F_Max_Stories": null, "F4F_Min_Lot_Size": null, "F4F_Max_Lot_Building_Coverage": null, "F4F_Max_Lot_Impervious_Coverage": null, "F4F_Min_Parking_Spaces_per_1BR": null, "F4F_Min_Parking_Spaces_per_mult_BR": null, "F3F_Elderly_Housing_Only": null, "F4F_Elderly_Housing_Only": null, "F4F_Affordable_Housing_Only": null, "F4F_Proximity_to_Public_Transit_Required": null, "F4F_Connection_to_Sewage/Water_Required": null, "ADU_Allowance": "Allowed/Conditional", "ADU_Elderly_Housing_Only": "No", "ADU_Max_Size_as_Percent_of_Primary_Strcture": 30.0, "ADU_Max_Size_in_sq_ft": null, "ADU_Min_Lot_Size": null, "ADU_Max_Bedrooms": 1.0, "ADU_Min_Parking_Spaces": 1.0, "ADU_Owner_Occupancy_Required": "No", "ADU_Renter_Occupancy_Prohibited": "No", "ADU_Employee_or_Family_Occupancy_Required": "No", "ADU_Restricted_to_Primary_Structure": "No", "Affordable_Housing_Allowance": "Not Mentioned", "Affordable_Housing_District": "No", "Affordable_Housing_Elderly_Only": null, "Affordable_Housing_Min_Lot_Size": null, "Affordable_Housing_Max_Density": null, "Affordable_Housing_Min_Parking_Spaces_per_mult_BR": null, "Affordable_Housing_Max_Units_per_Building": null, "Affordable_Housing_Min_Parking_Spaces_per_1BR": null, "PRD_Allowance": "Public Hearing", "PRD_Max_Density": null, "PRD_Max_Units": null, "PRD_Min_Lot_Size": null, "PRD_Mobile_or_Manufactured_Home_Park": "No", "PUD_Allowance": "Yes", "PUD_Required_with_Subdivision": "No", "PUD_Requires_Land_Conservation": "Yes", "PUD_Threshold_Number": null, "Notes": "None", "FIPS6": null}, "geometry": {"type": "MultiPolygon", "coordinates": [[[[-71.94937481195088, 44.6202164481932], [-71.94887903919938, 44.621011340361754], [-71.94843909100139, 44.62147914525919], [-71.94838749402322, 44.621523606098705], [-71.94817610647112, 44.621475200320894], [-71.94589340806318, 44.62342539943574], [-71.94714760323164, 44.6241010226769], [-71.94804557606257, 44.62373967834158], [-71.94960127720417, 44.624084531680204], [-71.95012939958453, 44.62441880370997], [-71.95063426596533, 44.62444377912149], [-71.95139243406499, 44.624316060770525], [-71.951197883758, 44.62331421277061], [-71.95061002694733, 44.62249212985177], [-71.9510176630915, 44.62213080686571], [-71.95107957849868, 44.62174134822048], [-71.95208729834836, 44.62115475697274], [-71.9511748723205, 44.620797590373286], [-71.94976740695462, 44.620427120062935], [-71.94937481195088, 44.6202164481932]]]]}}, {"type": "Feature", "properties": {"OBJECT_ID": 1027, "County": "Caledonia", "RPC": "NVDA", "Municipal_Name": "Burke ", "GEO_ID": "5000510450", "District_Name": "Agricultural-Residential Ii", "Abbreviated_District_Name": "Ar Ii", "District_Type": "Primarily Residential", "Bylaw_Date": null, "Elderly_Housing_District": "No", "District_Mapped": "Yes", "Overlay_District": "No", "Base_Density": null, "GIS_ID": null, "Last_Update": null, "Shape_Length": 61371.71173408243, "Shape_Area": 65248186.772380956, "F1F_Allowance": "Permitted", "F1F_Front_Setback": 75.0, "F1F_Side_Setback": 50.0, "F1F_Rear_Setback": 100.0, "F1F_Frontage": 300.0, "F1F_Max_Height": null, "F1F_Max_Stories": null, "F1F_Min_Lot_Size": 5.0, "F1F_Max_Lot_Building_Coverage": null, "F1F_Max_Lot_Impervious_Coverage": null, "F1F_Min_Parking_Spaces": 2.0, "F1F_Elderly_Housing_Only": null, "F1F_Affordable_Housing_Only": null, "F2F_Allowance": "Prohibited", "F2F_Front_Setback": null, "F2F_Side_Setback": null, "F2F_Rear_Setback": null, "F2F_Frontage": null, "F2F_Max_Density": null, "F2F_Max_Height": null, "F2F_Max_Stories": null, "F2F_Min_Lot_Size": null, "F2F_Max_Lot_Building_Coverage": null, "F2F_Max_Lot_Impervious_Coverage": null, "F2F_Min_Parking_Spaces_per_1BR": null, "F2F_Min_Parking_Spaces_per_mult_BR": null, "F2F_Elderly_Housing_Only": null, "F2F_Affordable_Housing_Only": null, "F3F_Allowance": "Prohibited", "F3F_Front_Setback": null, "F3F_Side_Setback": null, "F3F_Rear_Setback": null, "F3F_Frontage": null, "F3F_Max_Density": null, "F3F_Max_Height": null, "F3F_Max_Stories": null, "F3F_Min_Lot_Size": null, "F3F_Max_Lot_Building_Coverage": null, "F3F_Max_Lot_Impervious_Coverage": null, "F3F_Min_Parking_Spaces_per_1BR": null, "F3F_Min_Parking_Spaces_per_mult_BR": null, "F3F_Affordable_Housing_Only": null, "F3F_Proximity_to_Public_Transit_Required": null, "F3F_Connection_to_Sewage/Water_Required": null, "F4F_Allowance": "Prohibited", "F4F_Front_Setback": null, "F4F_Side_Setback": null, "F4F_Rear_Setback": null, "F4F_Frontage": null, "F1F_Max_Density": null, "F4F_Max_Density": null, "F4F_Max_Height": null, "F4F_Max_Stories": null, "F4F_Min_Lot_Size": null, "F4F_Max_Lot_Building_Coverage": null, "F4F_Max_Lot_Impervious_Coverage": null, "F4F_Min_Parking_Spaces_per_1BR": null, "F4F_Min_Parking_Spaces_per_mult_BR": null, "F3F_Elderly_Housing_Only": null, "F4F_Elderly_Housing_Only": null, "F4F_Affordable_Housing_Only": null, "F4F_Proximity_to_Public_Transit_Required": null, "F4F_Connection_to_Sewage/Water_Required": null, "ADU_Allowance": "Allowed/Conditional", "ADU_Elderly_Housing_Only": "No", "ADU_Max_Size_as_Percent_of_Primary_Strcture": 30.0, "ADU_Max_Size_in_sq_ft": null, "ADU_Min_Lot_Size": null, "ADU_Max_Bedrooms": 1.0, "ADU_Min_Parking_Spaces": 1.0, "ADU_Owner_Occupancy_Required": "No", "ADU_Renter_Occupancy_Prohibited": "No", "ADU_Employee_or_Family_Occupancy_Required": "No", "ADU_Restricted_to_Primary_Structure": "No", "Affordable_Housing_Allowance": "Not Mentioned", "Affordable_Housing_District": "No", "Affordable_Housing_Elderly_Only": null, "Affordable_Housing_Min_Lot_Size": null, "Affordable_Housing_Max_Density": null, "Affordable_Housing_Min_Parking_Spaces_per_mult_BR": null, "Affordable_Housing_Max_Units_per_Building": null, "Affordable_Housing_Min_Parking_Spaces_per_1BR": null, "PRD_Allowance": "Public Hearing", "PRD_Max_Density": null, "PRD_Max_Units": null, "PRD_Min_Lot_Size": null, "PRD_Mobile_or_Manufactured_Home_Park": "No", "PUD_Allowance": "Yes", "PUD_Required_with_Subdivision": "No", "PUD_Requires_Land_Conservation": "Yes", "PUD_Threshold_Number": null, "Notes": "None", "FIPS6": null}, "geometry": {"type": "MultiPolygon", "coordinates": [[[[-71.91406281567195, 44.5662080041517], [-71.92057453753144, 44.56966996776063], [-71.92120932979832, 44.569133227114605], [-71.92401461946402, 44.570623298029915], [-71.92561429154739, 44.56926345819182], [-71.92814358949067, 44.569515510875526], [-71.9277800610158, 44.57085594166673], [-71.9337073608426, 44.572048665037535], [-71.93299377395014, 44.57527408032759], [-71.93155223079411, 44.58018962727059], [-71.93184806663889, 44.58023216585821], [-71.93202109930066, 44.580577037570954], [-71.93221422953197, 44.58131091027939], [-71.93224554122736, 44.58141136858731], [-71.9322857559942, 44.58156806369634], [-71.93233235616525, 44.58179090301146], [-71.93237169183399, 44.582115637704916], [-71.93242359002772, 44.58236140741902], [-71.93270570935876, 44.58329661988524], [-71.93278193355862, 44.584521889675756], [-71.93294675447325, 44.585261620777], [-71.93282782389927, 44.58532607535316], [-71.93249342092751, 44.58521524911292], [-71.93228083335754, 44.58522515821798], [-71.92853740927885, 44.58918475430287], [-71.92885257921218, 44.589208533913244], [-71.92677205622071, 44.58909319590175], [-71.92660638046382, 44.588996586572584], [-71.92738796978831, 44.5881662554214], [-71.92186551554431, 44.5855746399955], [-71.92305696777821, 44.58447600105684], [-71.92133852620293, 44.583399750851996], [-71.92173771761115, 44.58250775327918], [-71.9182031988045, 44.580383679447515], [-71.92064345012702, 44.57825976655659], [-71.91742775230051, 44.576278304172334], [-71.9127701249567, 44.57354667635871], [-71.90849164218302, 44.571125954575706], [-71.893432800671, 44.56278511457439], [-71.89827427739213, 44.55789152099752], [-71.91339892761765, 44.565870675294356], [-71.91406281567195, 44.5662080041517]]], [[[-71.88220518359584, 44.58250905940901], [-71.88533994596993, 44.58432165225551], [-71.88484130030054, 44.584754712645065], [-71.88710581640598, 44.58606257380766], [-71.88529522487164, 44.58766469415046], [-71.88816478677333, 44.58932669705574], [-71.888274334545, 44.58953876539994], [-71.88823637412465, 44.590230815359945], [-71.8882881036623, 44.590550984774794], [-71.88821806480837, 44.59083182389646], [-71.88658299429314, 44.590887792717986], [-71.88579884305919, 44.59111315109201], [-71.88561471148718, 44.591254885815616], [-71.885550205923, 44.591625909690826], [-71.8856253926294, 44.59255857636458], [-71.88549603052229, 44.593106139365624], [-71.88514293609009, 44.59352339956628], [-71.88372213302671, 44.59456374062351], [-71.88327892922935, 44.595373418217086], [-71.88304180417923, 44.595848382157854], [-71.88311483934629, 44.59608977200171], [-71.88333788501744, 44.59628656959136], [-71.88450053549694, 44.59687078584853], [-71.88526483978032, 44.59726663912042], [-71.88612512249959, 44.597483077013926], [-71.88583821169848, 44.59813716607175], [-71.8854029285643, 44.59871910432554], [-71.88517530982803, 44.598887288773994], [-71.88549879615071, 44.599077648274296], [-71.89129491714269, 44.60246395106146], [-71.88985906308173, 44.60382021223835], [-71.88623152746601, 44.60727390393717], [-71.88613459085485, 44.60737103304785], [-71.8984222914653, 44.61419626240681], [-71.89729160299754, 44.61520396233711], [-71.89815820267471, 44.61521600531371], [-71.89987031682598, 44.61538091060629], [-71.90054189395721, 44.615305077675], [-71.90159355448715, 44.615321806771426], [-71.90209785434602, 44.61521461213627], [-71.90245698505382, 44.6150546491609], [-71.9048477684129, 44.6136551150578], [-71.90591864346096, 44.613222322438205], [-71.90559662168232, 44.61295361564355], [-71.91753479358397, 44.601994442211726], [-71.92234834264524, 44.59748816588201], [-71.92701834433424, 44.59326392298003], [-71.93148709671547, 44.595357082071494], [-71.93607391108478, 44.59770975224425], [-71.93817561512445, 44.5980007906838], [-71.9383295928024, 44.59777785026056], [-71.9385745319882, 44.59760161129685], [-71.93927576602111, 44.5980274301926], [-71.93975876444061, 44.597573526261655], [-71.94029135872202, 44.597201827859145], [-71.94114063705955, 44.597049336304536], [-71.9412669335872, 44.59684971665127], [-71.94147271388357, 44.59673502842712], [-71.94234710594102, 44.597081242339655], [-71.94273383109362, 44.59625929978962], [-71.94457716102004, 44.59692982256568], [-71.94507409584126, 44.59574899915427], [-71.9469697187453, 44.596819258724636], [-71.94817905642034, 44.59529877421296], [-71.94883028400908, 44.59469360238237], [-71.94964877734229, 44.59496344319059], [-71.95286278995633, 44.591524264689056], [-71.95336746107873, 44.59033852659359], [-71.95359125882919, 44.59031203808695], [-71.95373991028598, 44.58872898442206], [-71.95314316256393, 44.58773171833309], [-71.95418082037003, 44.58334198263764], [-71.96022092046414, 44.58429804086811], [-71.97898323188227, 44.58726656917995], [-71.98248986132769, 44.58775411494125], [-71.98265340423328, 44.587776101406014], [-71.99981888471989, 44.59017640783351], [-71.99750646006488, 44.59801885523929], [-71.99517825033458, 44.60615644029557], [-71.99451982640427, 44.60835401855995], [-71.99034880320431, 44.62307140615232], [-71.98893943524641, 44.627530895886586], [-71.98827598408339, 44.62755825167602], [-71.98545141410672, 44.627997533076886], [-71.98493973297654, 44.62790278472186], [-71.98326042803319, 44.627823344659916], [-71.98214724440223, 44.62767642611522], [-71.98001731686972, 44.627523340431004], [-71.97950820734668, 44.627560251724404], [-71.97929484259855, 44.62763829511037], [-71.97840473573275, 44.627647581097364], [-71.97733990578466, 44.62738202503482], [-71.97648960449682, 44.62708185691987], [-71.97513946493441, 44.626753402097066], [-71.97457864977937, 44.62684150961057], [-71.97389150817035, 44.627143453656075], [-71.97253695622673, 44.626257820425394], [-71.97056962835771, 44.62826284860404], [-71.96995764188942, 44.628435211560166], [-71.96884762582003, 44.62852511616674], [-71.96757705292926, 44.62853960128135], [-71.96699749971717, 44.62861397014183], [-71.96649219715215, 44.628743329865365], [-71.96611995829419, 44.628709966205506], [-71.96561460072331, 44.628503441681616], [-71.96552635971, 44.62850878377393], [-71.96461071824854, 44.63180832886429], [-71.96457743442728, 44.63191672959579], [-71.9641094157074, 44.63270239419986], [-71.96406231594099, 44.632856427998476], [-71.96400680233059, 44.63349623459226], [-71.96381442804903, 44.63394346321435], [-71.96379753316432, 44.634065569042214], [-71.96333277708804, 44.63483633377337], [-71.96317334333969, 44.63495566559021], [-71.96284793082255, 44.635048204412094], [-71.95993512692856, 44.63791731512982], [-71.95383204813632, 44.64369121869048], [-71.95356792024631, 44.643871661858775], [-71.95343827269986, 44.64381509161119], [-71.95345680234236, 44.644105512700435], [-71.95357968832475, 44.6444441432975], [-71.95362426164809, 44.644645569794285], [-71.95366172856129, 44.64476906514811], [-71.95375940266393, 44.64510546908967], [-71.95411614995876, 44.64638223604427], [-71.95438284588393, 44.64768376558947], [-71.95474897209678, 44.64838222594519], [-71.9558143168087, 44.649637627066625], [-71.95651282727765, 44.650182188390964], [-71.95739028116213, 44.650975204990935], [-71.95809615982422, 44.65200306357358], [-71.95908704367677, 44.65321075600374], [-71.96103598549487, 44.65270511626709], [-71.96415163247921, 44.65154536413125], [-71.97192665464749, 44.65560605091895], [-71.97846619369058, 44.657365503883184], [-71.97960506900344, 44.65794981003379], [-71.97722031743866, 44.66566844815658], [-71.9749322962407, 44.67294632737387], [-71.9732495062306, 44.67955997694917], [-71.96937747544584, 44.67720155277304], [-71.94901096159553, 44.66679101091843], [-71.94006787448284, 44.66233024960719], [-71.92850946529494, 44.6563374776435], [-71.91337580366802, 44.648480953953026], [-71.8958121812424, 44.639383260876095], [-71.87560460238596, 44.62863189641624], [-71.87194396692443, 44.62668654419641], [-71.86121676542801, 44.62114849278884], [-71.84237299588928, 44.61087617074969], [-71.8551903754036, 44.59871898442026], [-71.86800239750346, 44.586560303221034], [-71.87805469831049, 44.577309489671705], [-71.88445943880565, 44.580590325395804], [-71.88220518359584, 44.58250905940901]], [[-71.94843909100139, 44.62147914525919], [-71.94838749402322, 44.621523606098705], [-71.94817610647112, 44.621475200320894], [-71.94589340806318, 44.62342539943574], [-71.94714760323164, 44.6241010226769], [-71.94804557606257, 44.62373967834158], [-71.94960127720417, 44.624084531680204], [-71.95012939958453, 44.62441880370997], [-71.95063426596533, 44.62444377912149], [-71.95139243406499, 44.624316060770525], [-71.951197883758, 44.62331421277061], [-71.95061002694733, 44.62249212985177], [-71.9510176630915, 44.62213080686571], [-71.95107957849868, 44.62174134822048], [-71.95208729834836, 44.62115475697274], [-71.9511748723205, 44.620797590373286], [-71.94976740695462, 44.620427120062935], [-71.94937481195088, 44.6202164481932], [-71.94887903919938, 44.621011340361754], [-71.94843909100139, 44.62147914525919]]]]}}, {"type": "Feature", "properties": {"OBJECT_ID": 1028, "County": "Caledonia", "RPC": "NVDA", "Municipal_Name": "Burke ", "GEO_ID": "5000510450", "District_Name": "Resort", "Abbreviated_District_Name": "R", "District_Type": "Mixed with Residential", "Bylaw_Date": null, "Elderly_Housing_District": "No", "District_Mapped": "Yes", "Overlay_District": "No", "Base_Density": null, "GIS_ID": null, "Last_Update": null, "Shape_Length": 17126.42039504369, "Shape_Area": 13187471.454475703, "F1F_Allowance": "Permitted", "F1F_Front_Setback": 75.0, "F1F_Side_Setback": 50.0, "F1F_Rear_Setback": 100.0, "F1F_Frontage": 200.0, "F1F_Max_Height": null, "F1F_Max_Stories": null, "F1F_Min_Lot_Size": 2.0, "F1F_Max_Lot_Building_Coverage": null, "F1F_Max_Lot_Impervious_Coverage": null, "F1F_Min_Parking_Spaces": 2.0, "F1F_Elderly_Housing_Only": null, "F1F_Affordable_Housing_Only": null, "F2F_Allowance": "Permitted", "F2F_Front_Setback": 75.0, "F2F_Side_Setback": 50.0, "F2F_Rear_Setback": 100.0, "F2F_Frontage": 200.0, "F2F_Max_Density": null, "F2F_Max_Height": null, "F2F_Max_Stories": null, "F2F_Min_Lot_Size": 2.0, "F2F_Max_Lot_Building_Coverage": null, "F2F_Max_Lot_Impervious_Coverage": null, "F2F_Min_Parking_Spaces_per_1BR": 2.0, "F2F_Min_Parking_Spaces_per_mult_BR": 2.0, "F2F_Elderly_Housing_Only": "No", "F2F_Affordable_Housing_Only": "No", "F3F_Allowance": "Public Hearing", "F3F_Front_Setback": 75.0, "F3F_Side_Setback": 50.0, "F3F_Rear_Setback": 100.0, "F3F_Frontage": 200.0, "F3F_Max_Density": null, "F3F_Max_Height": null, "F3F_Max_Stories": null, "F3F_Min_Lot_Size": 2.0, "F3F_Max_Lot_Building_Coverage": null, "F3F_Max_Lot_Impervious_Coverage": null, "F3F_Min_Parking_Spaces_per_1BR": 2.0, "F3F_Min_Parking_Spaces_per_mult_BR": 2.0, "F3F_Affordable_Housing_Only": "No", "F3F_Proximity_to_Public_Transit_Required": "No", "F3F_Connection_to_Sewage/Water_Required": "No", "F4F_Allowance": "Public Hearing", "F4F_Front_Setback": 75.0, "F4F_Side_Setback": 50.0, "F4F_Rear_Setback": 100.0, "F4F_Frontage": 200.0, "F1F_Max_Density": null, "F4F_Max_Density": null, "F4F_Max_Height": null, "F4F_Max_Stories": null, "F4F_Min_Lot_Size": 2.0, "F4F_Max_Lot_Building_Coverage": null, "F4F_Max_Lot_Impervious_Coverage": null, "F4F_Min_Parking_Spaces_per_1BR": 2.0, "F4F_Min_Parking_Spaces_per_mult_BR": 2.0, "F3F_Elderly_Housing_Only": "No", "F4F_Elderly_Housing_Only": "No", "F4F_Affordable_Housing_Only": "No", "F4F_Proximity_to_Public_Transit_Required": "No", "F4F_Connection_to_Sewage/Water_Required": "No", "ADU_Allowance": "Allowed/Conditional", "ADU_Elderly_Housing_Only": "No", "ADU_Max_Size_as_Percent_of_Primary_Strcture": 30.0, "ADU_Max_Size_in_sq_ft": null, "ADU_Min_Lot_Size": null, "ADU_Max_Bedrooms": 1.0, "ADU_Min_Parking_Spaces": 1.0, "ADU_Owner_Occupancy_Required": "No", "ADU_Renter_Occupancy_Prohibited": "No", "ADU_Employee_or_Family_Occupancy_Required": "No", "ADU_Restricted_to_Primary_Structure": "No", "Affordable_Housing_Allowance": "Not Mentioned", "Affordable_Housing_District": "No", "Affordable_Housing_Elderly_Only": null, "Affordable_Housing_Min_Lot_Size": null, "Affordable_Housing_Max_Density": null, "Affordable_Housing_Min_Parking_Spaces_per_mult_BR": null, "Affordable_Housing_Max_Units_per_Building": null, "Affordable_Housing_Min_Parking_Spaces_per_1BR": null, "PRD_Allowance": "Public Hearing", "PRD_Max_Density": null, "PRD_Max_Units": null, "PRD_Min_Lot_Size": null, "PRD_Mobile_or_Manufactured_Home_Park": "No", "PUD_Allowance": "Yes", "PUD_Required_with_Subdivision": "No", "PUD_Requires_Land_Conservation": "Yes", "PUD_Threshold_Number": null, "Notes": "None", "FIPS6": null}, "geometry": {"type": "MultiPolygon", "coordinates": [[[[-71.88658299429314, 44.590887792717986], [-71.88579884305919, 44.59111315109201], [-71.88561471148718, 44.591254885815616], [-71.885550205923, 44.591625909690826], [-71.8856253926294, 44.59255857636458], [-71.88549603052229, 44.593106139365624], [-71.88514293609009, 44.59352339956628], [-71.88372213302671, 44.59456374062351], [-71.88327892922935, 44.595373418217086], [-71.88304180417923, 44.595848382157854], [-71.88311483934629, 44.59608977200171], [-71.88333788501744, 44.59628656959136], [-71.88450053549694, 44.59687078584853], [-71.88526483978032, 44.59726663912042], [-71.88612512249959, 44.597483077013926], [-71.88583821169848, 44.59813716607175], [-71.8854029285643, 44.59871910432554], [-71.88517530982803, 44.598887288773994], [-71.88549879615071, 44.599077648274296], [-71.89129491714269, 44.60246395106146], [-71.88985906308173, 44.60382021223835], [-71.88623152746601, 44.60727390393717], [-71.88613459085485, 44.60737103304785], [-71.8984222914653, 44.61419626240681], [-71.89729160299754, 44.61520396233711], [-71.89815820267471, 44.61521600531371], [-71.89987031682598, 44.61538091060629], [-71.90054189395721, 44.615305077675], [-71.90159355448715, 44.615321806771426], [-71.90209785434602, 44.61521461213627], [-71.90245698505382, 44.6150546491609], [-71.9048477684129, 44.6136551150578], [-71.90591864346096, 44.613222322438205], [-71.90559662168232, 44.61295361564355], [-71.91753479358397, 44.601994442211726], [-71.92234834264524, 44.59748816588201], [-71.92701834433424, 44.59326392298003], [-71.93074458000001, 44.58989544385597], [-71.92952943620499, 44.58922513313731], [-71.92885257921218, 44.589208533913244], [-71.92677205622071, 44.58909319590175], [-71.92660638046382, 44.588996586572584], [-71.92738796978831, 44.5881662554214], [-71.92186551554431, 44.5855746399955], [-71.92305696777821, 44.58447600105684], [-71.92133852620293, 44.583399750851996], [-71.92173771761115, 44.58250775327918], [-71.9182031988045, 44.580383679447515], [-71.92064345012702, 44.57825976655659], [-71.91742775230051, 44.576278304172334], [-71.9127701249567, 44.57354667635871], [-71.90849164218302, 44.571125954575706], [-71.893432800671, 44.56278511457439], [-71.89080781045557, 44.565437929181314], [-71.87805469831049, 44.577309489671705], [-71.88445943880565, 44.580590325395804], [-71.88220518359584, 44.58250905940901], [-71.88533994596993, 44.58432165225551], [-71.88484130030054, 44.584754712645065], [-71.88710581640598, 44.58606257380766], [-71.88529522487164, 44.58766469415046], [-71.88816478677333, 44.58932669705574], [-71.888274334545, 44.58953876539994], [-71.88823637412465, 44.590230815359945], [-71.8882881036623, 44.590550984774794], [-71.88821806480837, 44.59083182389646], [-71.88658299429314, 44.590887792717986]]]]}}, {"type": "Feature", "properties": {"OBJECT_ID": 1029, "County": "Caledonia", "RPC": "NVDA", "Municipal_Name": "Burke ", "GEO_ID": "5000510450", "District_Name": "Scenic And Conservation Overlay", "Abbreviated_District_Name": "Sco", "District_Type": "Overlay not Affecting Use", "Bylaw_Date": null, "Elderly_Housing_District": "No", "District_Mapped": "Yes", "Overlay_District": "Yes", "Base_Density": null, "GIS_ID": null, "Last_Update": null, "Shape_Length": 41422.95252187408, "Shape_Area": 20323273.667388983, "F1F_Allowance": "Public Hearing", "F1F_Front_Setback": null, "F1F_Side_Setback": null, "F1F_Rear_Setback": null, "F1F_Frontage": null, "F1F_Max_Height": null, "F1F_Max_Stories": null, "F1F_Min_Lot_Size": null, "F1F_Max_Lot_Building_Coverage": null, "F1F_Max_Lot_Impervious_Coverage": null, "F1F_Min_Parking_Spaces": null, "F1F_Elderly_Housing_Only": null, "F1F_Affordable_Housing_Only": null, "F2F_Allowance": "Public Hearing", "F2F_Front_Setback": null, "F2F_Side_Setback": null, "F2F_Rear_Setback": null, "F2F_Frontage": null, "F2F_Max_Density": null, "F2F_Max_Height": null, "F2F_Max_Stories": null, "F2F_Min_Lot_Size": null, "F2F_Max_Lot_Building_Coverage": null, "F2F_Max_Lot_Impervious_Coverage": null, "F2F_Min_Parking_Spaces_per_1BR": null, "F2F_Min_Parking_Spaces_per_mult_BR": null, "F2F_Elderly_Housing_Only": null, "F2F_Affordable_Housing_Only": null, "F3F_Allowance": "Public Hearing", "F3F_Front_Setback": null, "F3F_Side_Setback": null, "F3F_Rear_Setback": null, "F3F_Frontage": null, "F3F_Max_Density": null, "F3F_Max_Height": null, "F3F_Max_Stories": null, "F3F_Min_Lot_Size": null, "F3F_Max_Lot_Building_Coverage": null, "F3F_Max_Lot_Impervious_Coverage": null, "F3F_Min_Parking_Spaces_per_1BR": null, "F3F_Min_Parking_Spaces_per_mult_BR": null, "F3F_Affordable_Housing_Only": null, "F3F_Proximity_to_Public_Transit_Required": null, "F3F_Connection_to_Sewage/Water_Required": null, "F4F_Allowance": "Public Hearing", "F4F_Front_Setback": null, "F4F_Side_Setback": null, "F4F_Rear_Setback": null, "F4F_Frontage": null, "F1F_Max_Density": null, "F4F_Max_Density": null, "F4F_Max_Height": null, "F4F_Max_Stories": null, "F4F_Min_Lot_Size": null, "F4F_Max_Lot_Building_Coverage": null, "F4F_Max_Lot_Impervious_Coverage": null, "F4F_Min_Parking_Spaces_per_1BR": null, "F4F_Min_Parking_Spaces_per_mult_BR": null, "F3F_Elderly_Housing_Only": null, "F4F_Elderly_Housing_Only": null, "F4F_Affordable_Housing_Only": null, "F4F_Proximity_to_Public_Transit_Required": null, "F4F_Connection_to_Sewage/Water_Required": null, "ADU_Allowance": "Public Hearing", "ADU_Elderly_Housing_Only": null, "ADU_Max_Size_as_Percent_of_Primary_Strcture": null, "ADU_Max_Size_in_sq_ft": null, "ADU_Min_Lot_Size": null, "ADU_Max_Bedrooms": null, "ADU_Min_Parking_Spaces": null, "ADU_Owner_Occupancy_Required": null, "ADU_Renter_Occupancy_Prohibited": null, "ADU_Employee_or_Family_Occupancy_Required": null, "ADU_Restricted_to_Primary_Structure": null, "Affordable_Housing_Allowance": "Not Mentioned", "Affordable_Housing_District": "No", "Affordable_Housing_Elderly_Only": null, "Affordable_Housing_Min_Lot_Size": null, "Affordable_Housing_Max_Density": null, "Affordable_Housing_Min_Parking_Spaces_per_mult_BR": null, "Affordable_Housing_Max_Units_per_Building": null, "Affordable_Housing_Min_Parking_Spaces_per_1BR": null, "PRD_Allowance": "Public Hearing", "PRD_Max_Density": null, "PRD_Max_Units": null, "PRD_Min_Lot_Size": null, "PRD_Mobile_or_Manufactured_Home_Park": null, "PUD_Allowance": "Yes", "PUD_Required_with_Subdivision": "No", "PUD_Requires_Land_Conservation": "Yes", "PUD_Threshold_Number": null, "Notes": "  \"Proposed Development In The Scenic Conservation\nOverlay That Involves The Creation Of Two Or More Lots Over A Five-Year Period Shall\nBe Reviewed As A Planned Unit Development In Accordance With Article 7 Of This\nBylaw [\u2026] All Other Pplicable Proposed Development Located In The Sco\nShall Be Subjected to Conditional Use Review\" (Page 14).", "FIPS6": null}, "geometry": {"type": "MultiPolygon", "coordinates": [[[[-71.95946506917, 44.65716827539868], [-71.95921900168202, 44.65722552603436], [-71.9588488147847, 44.657428232280346], [-71.95851016680672, 44.65775960242627], [-71.95816982600878, 44.65827205501132], [-71.95807288967808, 44.65901348870785], [-71.95839509910186, 44.659569976089735], [-71.95818744058192, 44.6598961239991], [-71.9577915906271, 44.66021553774501], [-71.95742738462548, 44.66065193320421], [-71.95717606906027, 44.66126995728736], [-71.95686003307924, 44.66180588843697], [-71.95611967331205, 44.66412734930272], [-71.956346067351, 44.66530260260173], [-71.95608664408753, 44.665908901561835], [-71.95523482051446, 44.66596325789186], [-71.95326489819281, 44.665661760977535], [-71.95202062153078, 44.66566748119595], [-71.9496421326295, 44.66615842655753], [-71.94909088957509, 44.666453695398275], [-71.94901096159553, 44.66679101091843], [-71.96937747544584, 44.67720155277304], [-71.9732495062306, 44.67955997694917], [-71.9749322962407, 44.67294632737387], [-71.97722031743866, 44.66566844815658], [-71.97639165159364, 44.664686502937464], [-71.97618036303861, 44.66451612457563], [-71.97539906392522, 44.66401599811907], [-71.97410217464935, 44.66350764920671], [-71.97333648401084, 44.66309520541741], [-71.9732351052053, 44.662539776574356], [-71.97341127095049, 44.662067414867124], [-71.97343366882176, 44.66140156805837], [-71.97330805399076, 44.66081097916113], [-71.97300897974166, 44.66039484076297], [-71.97247192254086, 44.66004770257941], [-71.97221261381962, 44.659760263039814], [-71.9720076825997, 44.659794365823835], [-71.97187795072335, 44.659659407291954], [-71.9715436602193, 44.659517660898786], [-71.97141371774306, 44.659406067237654], [-71.9711993808341, 44.65957448374146], [-71.97116558267382, 44.6596911609346], [-71.97164013831234, 44.66061049998674], [-71.97155091565601, 44.661422079641106], [-71.97137691318986, 44.66165494078409], [-71.9710654670986, 44.66170023243354], [-71.97057443449319, 44.661692115869045], [-71.9696629320983, 44.661477586801354], [-71.96931232009972, 44.661329915861074], [-71.96894656781679, 44.66104781567854], [-71.968476499552, 44.66053740290333], [-71.9679802833314, 44.66020211821327], [-71.96787607401056, 44.65996212399365], [-71.96789372699705, 44.65982200618238], [-71.96737976046684, 44.65963851804719], [-71.96698171776953, 44.65930952723874], [-71.96649220597506, 44.65913783286354], [-71.96592748264324, 44.65913519342573], [-71.96520822159046, 44.659026677597616], [-71.9649730747732, 44.65896423871444], [-71.96446790177994, 44.658716520870406], [-71.96402697020318, 44.6586034601043], [-71.96342116866404, 44.65861813959814], [-71.96273595150436, 44.658369568939385], [-71.96179654139311, 44.65817237069472], [-71.960989004921, 44.65787647757198], [-71.96063209422283, 44.65753013544078], [-71.96024993097564, 44.65725961156529], [-71.95946506917, 44.65716827539868]]], [[[-71.912863755909, 44.64333026740784], [-71.91245435627013, 44.64366153757853], [-71.912351090783, 44.6438349429377], [-71.91224767834022, 44.64402284066304], [-71.91222327905669, 44.644428564867184], [-71.91226124889329, 44.644689663429624], [-71.9128199142265, 44.645663677206365], [-71.91281815963181, 44.64583760298566], [-71.91309538150202, 44.64653476979799], [-71.91337580366802, 44.648480953953026], [-71.92850946529494, 44.6563374776435], [-71.9283326855949, 44.655917597041636], [-71.92829563366476, 44.655555046669924], [-71.92779767413897, 44.65456691939755], [-71.92717704217677, 44.6536651436545], [-71.92687859867877, 44.653040378562906], [-71.92629717900417, 44.65228373918216], [-71.92581272159211, 44.651991412635084], [-71.92496378550275, 44.65159578712558], [-71.9239298245292, 44.65143113589845], [-71.9222703136747, 44.65087195740926], [-71.92152380428531, 44.65038985611562], [-71.92130305203305, 44.65012783485894], [-71.92098034856427, 44.64990878044623], [-71.92067924933444, 44.64955938323922], [-71.91983717592989, 44.648482506840956], [-71.91943876744133, 44.64771226738287], [-71.91889651026365, 44.647115230264795], [-71.91821142199097, 44.64658993627289], [-71.91744397242333, 44.646180174568165], [-71.91703922387522, 44.64604765774035], [-71.91653398062242, 44.64581316369311], [-71.9162316208593, 44.645594198733804], [-71.91546288967446, 44.64531486955991], [-71.91516010090523, 44.64513938370486], [-71.91371526124829, 44.6434505992751], [-71.912863755909, 44.64333026740784]]], [[[-71.921962675176, 44.63146802258995], [-71.92177364619448, 44.63148863865065], [-71.92124142127228, 44.6318419062591], [-71.92103476446788, 44.632115921932396], [-71.92086549432055, 44.6324278794536], [-71.92079927790795, 44.633010029220095], [-71.92112066685362, 44.63411190902333], [-71.92150677770246, 44.634782644349194], [-71.9218050990182, 44.63516708536037], [-71.92230007407494, 44.63552555341364], [-71.92259704352293, 44.635826586107925], [-71.92310714220739, 44.63564289444885], [-71.92313129726907, 44.63549200055867], [-71.92331497710032, 44.635250227329216], [-71.92327313042534, 44.63489944599733], [-71.92336395899403, 44.63411786421626], [-71.92302736878126, 44.63302130716066], [-71.92294811805267, 44.63187211618374], [-71.92262656030186, 44.631546887866655], [-71.921962675176, 44.63146802258995]]], [[[-71.89827427739213, 44.55789152099752], [-71.89080781045557, 44.565437929181314], [-71.87805469831049, 44.577309489671705], [-71.86800239750346, 44.586560303221034], [-71.8551903754036, 44.59871898442026], [-71.84237299588928, 44.61087617074969], [-71.86121676542801, 44.62114849278884], [-71.87194396692443, 44.62668654419641], [-71.87560460238596, 44.62863189641624], [-71.87598669378586, 44.628600009960465], [-71.87625018541925, 44.628514906450434], [-71.87693096141624, 44.62812917905383], [-71.87724733323972, 44.62782079113873], [-71.87762660491605, 44.62729638740576], [-71.87853096480215, 44.625830078917936], [-71.87893681540419, 44.62565198791645], [-71.87941258135264, 44.625546396160146], [-71.88073589839276, 44.62551030729156], [-71.88179781105706, 44.62536461041721], [-71.88247690808092, 44.62513028967187], [-71.8841325774172, 44.62422331471793], [-71.88492318630108, 44.623946309621466], [-71.88577551452873, 44.623561452957674], [-71.88611178238303, 44.623274783197516], [-71.88635800373306, 44.62290829765967], [-71.88647374795097, 44.62246538571958], [-71.88630801552685, 44.62190196542005], [-71.88603182178143, 44.62128025331845], [-71.88569345258898, 44.6208096579062], [-71.88541422603896, 44.62047640669497], [-71.88439443906061, 44.61951172556796], [-71.8825518971481, 44.61805578575281], [-71.88177872410772, 44.61764773491999], [-71.88138625224101, 44.61752300671177], [-71.88106530119515, 44.61731933281133], [-71.88090436674115, 44.61726076456226], [-71.88019805705633, 44.61721366344971], [-71.87944944254515, 44.617346624426645], [-71.87850058190459, 44.61731982974273], [-71.87697937097144, 44.61699421539022], [-71.87522456306277, 44.61679711815018], [-71.87444874984322, 44.61664142127772], [-71.87197858411417, 44.616303326622045], [-71.87082052079037, 44.6160156874196], [-71.86903953678065, 44.61544333058762], [-71.86865751519888, 44.615289768331735], [-71.86812569329473, 44.614983925015316], [-71.86806988723107, 44.61454368787822], [-71.86818903836034, 44.61379791137779], [-71.86876934079383, 44.612423637810316], [-71.86910914024789, 44.61181249965022], [-71.86929343943879, 44.611575524170654], [-71.86964881613798, 44.61138997497115], [-71.87116519060424, 44.61121082397273], [-71.8715197826863, 44.61109738465922], [-71.8717230949297, 44.61096868811862], [-71.87235787635852, 44.61015001614292], [-71.87256413256705, 44.609747279846616], [-71.87265895087799, 44.6093799911105], [-71.87263441061678, 44.6088461723184], [-71.87258626312456, 44.60862954941241], [-71.87201930609794, 44.60784032992801], [-71.87139109559283, 44.607115677578996], [-71.87067002213549, 44.60657802317027], [-71.86936432571564, 44.60595780356556], [-71.86850172620996, 44.60544098892942], [-71.86751297713622, 44.605201128931306], [-71.867080711111, 44.60503285975056], [-71.86620718730788, 44.60459529659894], [-71.86576765986545, 44.60416735238396], [-71.86548642971208, 44.60403597585241], [-71.8653817514772, 44.603451224767724], [-71.86559914737771, 44.60295480720203], [-71.86566073198868, 44.60286139398869], [-71.86591434243573, 44.602747410988684], [-71.86653533696133, 44.60226765568034], [-71.86836775853301, 44.60178018007785], [-71.8693524161603, 44.601273571968605], [-71.86986946677922, 44.60106727832301], [-71.87071774249817, 44.601035896245094], [-71.87160476073126, 44.60115617159088], [-71.87302272658795, 44.60165437819995], [-71.87565430014102, 44.602887616178634], [-71.87619629970847, 44.60317905572729], [-71.87694774319725, 44.60370963013202], [-71.87750986884035, 44.604008386114195], [-71.87872164475039, 44.604541456878046], [-71.88006663735263, 44.605269961344504], [-71.88186654064783, 44.60594321773105], [-71.8828101792239, 44.60644594624142], [-71.88424825583745, 44.606972968863936], [-71.88509379462177, 44.60720830693866], [-71.88597107037468, 44.60730678300657], [-71.88623152746601, 44.60727390393717], [-71.88678998024773, 44.60719579160296], [-71.8874985224824, 44.60701929438856], [-71.8884213242509, 44.60662758272059], [-71.88921995338549, 44.60652367638284], [-71.88998588094653, 44.606650373222685], [-71.89091709371816, 44.60738375082507], [-71.89146090252338, 44.60809342116393], [-71.89206963610633, 44.60877458641064], [-71.89243985320032, 44.6090938829928], [-71.89297733783947, 44.609832359386736], [-71.89313758831777, 44.60995581421621], [-71.89391133899274, 44.610306096607644], [-71.89475913904187, 44.61033222864028], [-71.89568089839806, 44.61004142019638], [-71.89608778242798, 44.60974788199486], [-71.89642444223495, 44.609410700084], [-71.89693180194531, 44.608187348902696], [-71.89734157490992, 44.607612555745916], [-71.8975792767179, 44.60708012471684], [-71.89761463020547, 44.60658989811172], [-71.89755741593946, 44.606265059451395], [-71.8967270649219, 44.6045586533084], [-71.89643701056984, 44.60429749014679], [-71.89612535150458, 44.60417324025931], [-71.89566444543375, 44.603839050581236], [-71.89543343401593, 44.60372604443582], [-71.89484938110392, 44.60358592297781], [-71.89439828168649, 44.603280629976375], [-71.8941768059647, 44.60322175925115], [-71.89391592796945, 44.60306892461238], [-71.89334483415278, 44.6026548112465], [-71.89242015056539, 44.60226766074047], [-71.89179243348576, 44.60244461910433], [-71.89128222790148, 44.60296837441086], [-71.89072440536448, 44.603217818633006], [-71.88985906308173, 44.60382021223835], [-71.8892508346262, 44.60415471368397], [-71.88849549116175, 44.60398479555564], [-71.88703838775518, 44.60239035485972], [-71.88619701107193, 44.60176560720775], [-71.88561267419198, 44.60069870087566], [-71.88549879615071, 44.599077648274296], [-71.8854029285643, 44.59871910432554], [-71.88450053549694, 44.59687078584853], [-71.88442177134591, 44.59666079962677], [-71.88380247348461, 44.596044443427445], [-71.88327892922935, 44.595373418217086], [-71.8830976950763, 44.59492278311002], [-71.88221548406817, 44.594355480966335], [-71.88254448470079, 44.59378751461053], [-71.88247922106636, 44.593278718393776], [-71.8822707147906, 44.59295305141261], [-71.88189071689202, 44.592619244905336], [-71.88162433800443, 44.59204084519904], [-71.88124297921892, 44.59088486319475], [-71.88136974692011, 44.590351864202084], [-71.88204828340493, 44.590131966436296], [-71.88282498662169, 44.59017222556247], [-71.88444607259301, 44.5905343610433], [-71.88532340068974, 44.59060399359076], [-71.88606900226853, 44.59072339558757], [-71.88658299429314, 44.590887792717986], [-71.88748774986672, 44.59113488511945], [-71.88863599247343, 44.59135739744337], [-71.89048128871848, 44.591518711263596], [-71.89321284388431, 44.59186500717013], [-71.89418503376253, 44.591938681598755], [-71.89531552647136, 44.591930248571494], [-71.89664965701749, 44.59174979343253], [-71.89815765574059, 44.59134666704892], [-71.90019361601313, 44.59063618010167], [-71.90134017318833, 44.590043601802506], [-71.90206953477119, 44.58978058016549], [-71.90281164156451, 44.5892579882495], [-71.90394389330066, 44.588084744675974], [-71.90429194641267, 44.58760335795035], [-71.90584335781, 44.58589498944169], [-71.9062362304446, 44.58521549963726], [-71.90655272641474, 44.58485654545152], [-71.90696836917913, 44.584671192341204], [-71.90774604507686, 44.58461032031974], [-71.90862558039125, 44.584456213975066], [-71.9094656957204, 44.5842081414314], [-71.91017622424675, 44.583800729572715], [-71.91043061299003, 44.58359289571302], [-71.91094135003911, 44.58298251309485], [-71.9113386759937, 44.58260953828492], [-71.91201070006986, 44.582014405152954], [-71.91253950682454, 44.581631284867214], [-71.91271177309632, 44.58156005130236], [-71.913315105975, 44.58177229957285], [-71.91359735317268, 44.58180259726726], [-71.9142954172561, 44.581625880048875], [-71.9148650474453, 44.58117444481005], [-71.91516034869433, 44.58090911357293], [-71.91558949566506, 44.58037762271867], [-71.916552443059, 44.578937508450906], [-71.9167076151819, 44.57855606533116], [-71.91703503857995, 44.57810338176662], [-71.91715907200224, 44.57780832269356], [-71.917239353221, 44.57684232610344], [-71.91742775230051, 44.576278304172334], [-71.91758548959787, 44.575524295806744], [-71.91824912431449, 44.57373189182302], [-71.91849095140482, 44.572752291406076], [-71.91895626914477, 44.5716187701602], [-71.9188964194875, 44.570536664564266], [-71.91883710774925, 44.570413759617225], [-71.91888963398651, 44.57020487905439], [-71.91889805329008, 44.56877873801224], [-71.91406281567195, 44.5662080041517], [-71.91339892761765, 44.565870675294356], [-71.89827427739213, 44.55789152099752]]]]}}, {"type": "Feature", "properties": {"OBJECT_ID": 1030, "County": "Caledonia", "RPC": "NVDA", "Municipal_Name": "Burke ", "GEO_ID": "5000510450", "District_Name": "Village Mixed Use", "Abbreviated_District_Name": "Vmu", "District_Type": "Mixed with Residential", "Bylaw_Date": null, "Elderly_Housing_District": "No", "District_Mapped": "Yes", "Overlay_District": "No", "Base_Density": null, "GIS_ID": null, "Last_Update": null, "Shape_Length": 10005.628774510187, "Shape_Area": 2175395.9543949505, "F1F_Allowance": "Permitted", "F1F_Front_Setback": null, "F1F_Side_Setback": null, "F1F_Rear_Setback": null, "F1F_Frontage": null, "F1F_Max_Height": null, "F1F_Max_Stories": null, "F1F_Min_Lot_Size": null, "F1F_Max_Lot_Building_Coverage": null, "F1F_Max_Lot_Impervious_Coverage": null, "F1F_Min_Parking_Spaces": 2.0, "F1F_Elderly_Housing_Only": null, "F1F_Affordable_Housing_Only": null, "F2F_Allowance": "Permitted", "F2F_Front_Setback": null, "F2F_Side_Setback": null, "F2F_Rear_Setback": null, "F2F_Frontage": null, "F2F_Max_Density": null, "F2F_Max_Height": null, "F2F_Max_Stories": null, "F2F_Min_Lot_Size": null, "F2F_Max_Lot_Building_Coverage": null, "F2F_Max_Lot_Impervious_Coverage": null, "F2F_Min_Parking_Spaces_per_1BR": 2.0, "F2F_Min_Parking_Spaces_per_mult_BR": 2.0, "F2F_Elderly_Housing_Only": "No", "F2F_Affordable_Housing_Only": "No", "F3F_Allowance": "Public Hearing", "F3F_Front_Setback": null, "F3F_Side_Setback": null, "F3F_Rear_Setback": null, "F3F_Frontage": null, "F3F_Max_Density": null, "F3F_Max_Height": null, "F3F_Max_Stories": null, "F3F_Min_Lot_Size": null, "F3F_Max_Lot_Building_Coverage": null, "F3F_Max_Lot_Impervious_Coverage": null, "F3F_Min_Parking_Spaces_per_1BR": 2.0, "F3F_Min_Parking_Spaces_per_mult_BR": 2.0, "F3F_Affordable_Housing_Only": "No", "F3F_Proximity_to_Public_Transit_Required": "No", "F3F_Connection_to_Sewage/Water_Required": "No", "F4F_Allowance": "Public Hearing", "F4F_Front_Setback": null, "F4F_Side_Setback": null, "F4F_Rear_Setback": null, "F4F_Frontage": null, "F1F_Max_Density": null, "F4F_Max_Density": null, "F4F_Max_Height": null, "F4F_Max_Stories": null, "F4F_Min_Lot_Size": null, "F4F_Max_Lot_Building_Coverage": null, "F4F_Max_Lot_Impervious_Coverage": null, "F4F_Min_Parking_Spaces_per_1BR": 2.0, "F4F_Min_Parking_Spaces_per_mult_BR": 2.0, "F3F_Elderly_Housing_Only": "No", "F4F_Elderly_Housing_Only": "No", "F4F_Affordable_Housing_Only": "No", "F4F_Proximity_to_Public_Transit_Required": "No", "F4F_Connection_to_Sewage/Water_Required": "No", "ADU_Allowance": "Allowed/Conditional", "ADU_Elderly_Housing_Only": "No", "ADU_Max_Size_as_Percent_of_Primary_Strcture": 30.0, "ADU_Max_Size_in_sq_ft": null, "ADU_Min_Lot_Size": null, "ADU_Max_Bedrooms": 1.0, "ADU_Min_Parking_Spaces": 1.0, "ADU_Owner_Occupancy_Required": "No", "ADU_Renter_Occupancy_Prohibited": "No", "ADU_Employee_or_Family_Occupancy_Required": "No", "ADU_Restricted_to_Primary_Structure": "No", "Affordable_Housing_Allowance": "Not Mentioned", "Affordable_Housing_District": "No", "Affordable_Housing_Elderly_Only": null, "Affordable_Housing_Min_Lot_Size": null, "Affordable_Housing_Max_Density": null, "Affordable_Housing_Min_Parking_Spaces_per_mult_BR": null, "Affordable_Housing_Max_Units_per_Building": null, "Affordable_Housing_Min_Parking_Spaces_per_1BR": null, "PRD_Allowance": "Public Hearing", "PRD_Max_Density": null, "PRD_Max_Units": null, "PRD_Min_Lot_Size": null, "PRD_Mobile_or_Manufactured_Home_Park": "No", "PUD_Allowance": "Yes", "PUD_Required_with_Subdivision": "No", "PUD_Requires_Land_Conservation": "Yes", "PUD_Threshold_Number": null, "Notes": "None", "FIPS6": null}, "geometry": {"type": "MultiPolygon", "coordinates": [[[[-71.97463181325288, 44.63203172720013], [-71.97422828708692, 44.63223219893364], [-71.97414194541311, 44.63233245415742], [-71.97321915763193, 44.63271533835153], [-71.97186229437682, 44.63343327991822], [-71.97016732610116, 44.63471413505534], [-71.97068173619837, 44.63498857580052], [-71.97149048178589, 44.63573251341289], [-71.97355860859138, 44.63797990708172], [-71.97412484342298, 44.63873192635089], [-71.97316238328084, 44.639484078024736], [-71.97253952967749, 44.6395399806009], [-71.9722140969281, 44.639635782959886], [-71.97214497129158, 44.63970070419389], [-71.97216910696697, 44.639906536871564], [-71.97209149093827, 44.64021243936278], [-71.97163638244886, 44.640534158872924], [-71.97101200094193, 44.64075694903127], [-71.9702994375562, 44.6408866736237], [-71.96845492616389, 44.64264250618851], [-71.97556568956884, 44.64606611867997], [-71.97185500312958, 44.649693622814034], [-71.97248227675934, 44.649812918394616], [-71.97289650149186, 44.64994809823915], [-71.97364154245096, 44.65030363700092], [-71.97505351227497, 44.65109242959716], [-71.97589017326827, 44.65142941520264], [-71.97685055937801, 44.65173690865911], [-71.97834883899674, 44.65236632625338], [-71.97706387793743, 44.653931942071175], [-71.97915033744329, 44.65489807162112], [-71.97961665404226, 44.654992493019755], [-71.97982842745151, 44.65509463925362], [-71.9801212910751, 44.65493650440682], [-71.98013607595153, 44.65464273733883], [-71.98005217785226, 44.65427869180382], [-71.98028770698969, 44.65366139787703], [-71.9800447385241, 44.6529721137991], [-71.98007019834378, 44.65269917167707], [-71.9802258966931, 44.65254105811158], [-71.98061341637977, 44.65232802473575], [-71.98066876889285, 44.65215408534197], [-71.98128802855798, 44.6519660383631], [-71.98132830227351, 44.652097290944994], [-71.98310211039312, 44.64624177222785], [-71.98383833762432, 44.64384421013386], [-71.98515093366811, 44.63954995898893], [-71.986356202072, 44.63572571583543], [-71.9861623532681, 44.6355535589857], [-71.98506100242814, 44.63494256041704], [-71.98389931890817, 44.63438639518083], [-71.98253545572312, 44.63385678673442], [-71.98232858247064, 44.633859439921665], [-71.98192528865542, 44.6340350605912], [-71.98064674978602, 44.634222461628], [-71.9799708763111, 44.63440064399839], [-71.97950611746137, 44.63369700232253], [-71.97918096823219, 44.63332556373332], [-71.97869612361872, 44.63354777524302], [-71.97800745625557, 44.63401132857981], [-71.97767441565297, 44.63416882759471], [-71.9757962537998, 44.632732799804195], [-71.97463181325288, 44.63203172720013]]], [[[-71.94597051473644, 44.584002805223726], [-71.94519679351446, 44.58400960009081], [-71.94516878479179, 44.58488632612672], [-71.9448952087819, 44.58559678640992], [-71.94442290855386, 44.58585209658021], [-71.94377832782551, 44.58634602728108], [-71.94419792333841, 44.586749104768366], [-71.94350558711902, 44.58746229875481], [-71.94288392843478, 44.587177448760755], [-71.94282075179474, 44.58722258701108], [-71.94274712881106, 44.58759752272778], [-71.9428737368255, 44.587690810642655], [-71.9425062487774, 44.58776537642998], [-71.94197258091542, 44.58768543294837], [-71.9416984352516, 44.58779306831061], [-71.94160217601471, 44.58757155073814], [-71.94095661911267, 44.58766949342363], [-71.94009246346175, 44.58831954042006], [-71.9388639340214, 44.58838887110562], [-71.93898987143749, 44.588716494418144], [-71.93897700713764, 44.588908160265234], [-71.9393379848366, 44.58926666845198], [-71.94017020485214, 44.58974342064149], [-71.94091482546958, 44.589712994149366], [-71.94236990563873, 44.590008243564434], [-71.94271816364594, 44.58996898312934], [-71.94510789226894, 44.59021080526197], [-71.94537900126893, 44.58976089226198], [-71.94569619677232, 44.58901689569906], [-71.94587545925222, 44.58878884156887], [-71.94647299512346, 44.58836062527229], [-71.94682051182932, 44.588234348945505], [-71.94712128923712, 44.588056665420694], [-71.94730314854617, 44.588017731858685], [-71.9476185035539, 44.587552210315906], [-71.94785968642468, 44.587357902856155], [-71.94793870217055, 44.58709783080666], [-71.94790710940941, 44.586863320221134], [-71.94807287271918, 44.58650981999496], [-71.94810169742378, 44.58617398492835], [-71.94831576876352, 44.58598665038876], [-71.94858954906309, 44.58585499441291], [-71.94873213270756, 44.58567570216062], [-71.94872999381202, 44.58531908473497], [-71.9480286645135, 44.58515933458642], [-71.94800399601664, 44.584855209134965], [-71.94758229003976, 44.58467388973792], [-71.94747637634418, 44.58480400313439], [-71.94713774456262, 44.58457724692487], [-71.9470912343363, 44.584086846984334], [-71.94597051473644, 44.584002805223726]]]]}}, {"type": "Feature", "properties": {"OBJECT_ID": 1026, "County": "Caledonia", "RPC": "NVDA", "Municipal_Name": "Burke ", "GEO_ID": "5000510450", "District_Name": "Agricultural-Residential I", "Abbreviated_District_Name": "Ar I", "District_Type": "Primarily Residential", "Bylaw_Date": null, "Elderly_Housing_District": "No", "District_Mapped": "Yes", "Overlay_District": "No", "Base_Density": null, "GIS_ID": null, "Last_Update": null, "Shape_Length": 24330.26810708701, "Shape_Area": 7280710.814909171, "F1F_Allowance": "Permitted", "F1F_Front_Setback": 75.0, "F1F_Side_Setback": 50.0, "F1F_Rear_Setback": 100.0, "F1F_Frontage": 200.0, "F1F_Max_Height": null, "F1F_Max_Stories": null, "F1F_Min_Lot_Size": 2.0, "F1F_Max_Lot_Building_Coverage": null, "F1F_Max_Lot_Impervious_Coverage": null, "F1F_Min_Parking_Spaces": 2.0, "F1F_Elderly_Housing_Only": null, "F1F_Affordable_Housing_Only": null, "F2F_Allowance": "Permitted", "F2F_Front_Setback": 75.0, "F2F_Side_Setback": 50.0, "F2F_Rear_Setback": 100.0, "F2F_Frontage": 200.0, "F2F_Max_Density": null, "F2F_Max_Height": null, "F2F_Max_Stories": null, "F2F_Min_Lot_Size": 2.0, "F2F_Max_Lot_Building_Coverage": null, "F2F_Max_Lot_Impervious_Coverage": null, "F2F_Min_Parking_Spaces_per_1BR": 2.0, "F2F_Min_Parking_Spaces_per_mult_BR": 2.0, "F2F_Elderly_Housing_Only": "No", "F2F_Affordable_Housing_Only": "No", "F3F_Allowance": "Public Hearing", "F3F_Front_Setback": 75.0, "F3F_Side_Setback": 50.0, "F3F_Rear_Setback": 100.0, "F3F_Frontage": 200.0, "F3F_Max_Density": null, "F3F_Max_Height": null, "F3F_Max_Stories": null, "F3F_Min_Lot_Size": 2.0, "F3F_Max_Lot_Building_Coverage": null, "F3F_Max_Lot_Impervious_Coverage": null, "F3F_Min_Parking_Spaces_per_1BR": 2.0, "F3F_Min_Parking_Spaces_per_mult_BR": 2.0, "F3F_Affordable_Housing_Only": "No", "F3F_Proximity_to_Public_Transit_Required": "No", "F3F_Connection_to_Sewage/Water_Required": "No", "F4F_Allowance": "Public Hearing", "F4F_Front_Setback": 75.0, "F4F_Side_Setback": 50.0, "F4F_Rear_Setback": 100.0, "F4F_Frontage": 200.0, "F1F_Max_Density": null, "F4F_Max_Density": null, "F4F_Max_Height": null, "F4F_Max_Stories": null, "F4F_Min_Lot_Size": 2.0, "F4F_Max_Lot_Building_Coverage": null, "F4F_Max_Lot_Impervious_Coverage": null, "F4F_Min_Parking_Spaces_per_1BR": 2.0, "F4F_Min_Parking_Spaces_per_mult_BR": 2.0, "F3F_Elderly_Housing_Only": "No", "F4F_Elderly_Housing_Only": "No", "F4F_Affordable_Housing_Only": "No", "F4F_Proximity_to_Public_Transit_Required": "No", "F4F_Connection_to_Sewage/Water_Required": "No", "ADU_Allowance": "Allowed/Conditional", "ADU_Elderly_Housing_Only": "No", "ADU_Max_Size_as_Percent_of_Primary_Strcture": 30.0, "ADU_Max_Size_in_sq_ft": null, "ADU_Min_Lot_Size": null, "ADU_Max_Bedrooms": 1.0, "ADU_Min_Parking_Spaces": 1.0, "ADU_Owner_Occupancy_Required": "No", "ADU_Renter_Occupancy_Prohibited": "No", "ADU_Employee_or_Family_Occupancy_Required": "No", "ADU_Restricted_to_Primary_Structure": "No", "Affordable_Housing_Allowance": "Not Mentioned", "Affordable_Housing_District": "No", "Affordable_Housing_Elderly_Only": null, "Affordable_Housing_Min_Lot_Size": null, "Affordable_Housing_Max_Density": null, "Affordable_Housing_Min_Parking_Spaces_per_mult_BR": null, "Affordable_Housing_Max_Units_per_Building": null, "Affordable_Housing_Min_Parking_Spaces_per_1BR": null, "PRD_Allowance": "Public Hearing", "PRD_Max_Density": null, "PRD_Max_Units": null, "PRD_Min_Lot_Size": null, "PRD_Mobile_or_Manufactured_Home_Park": "Yes", "PUD_Allowance": "Yes", "PUD_Required_with_Subdivision": "No", "PUD_Requires_Land_Conservation": "Yes", "PUD_Threshold_Number": null, "Notes": "None", "FIPS6": null}, "geometry": {"type": "MultiPolygon", "coordinates": [[[[-71.94967603834115, 44.58265488471366], [-71.95056185899277, 44.58276898700772], [-71.95418082037003, 44.58334198263764], [-71.95314316256393, 44.58773171833309], [-71.95373991028598, 44.58872898442206], [-71.95359125882919, 44.59031203808695], [-71.95336746107873, 44.59033852659359], [-71.95286278995633, 44.591524264689056], [-71.94964877734229, 44.59496344319059], [-71.94883028400908, 44.59469360238237], [-71.94817905642034, 44.59529877421296], [-71.9469697187453, 44.596819258724636], [-71.94507409584126, 44.59574899915427], [-71.94457716102004, 44.59692982256568], [-71.94273383109362, 44.59625929978962], [-71.94234710594102, 44.597081242339655], [-71.94147271388357, 44.59673502842712], [-71.9412669335872, 44.59684971665127], [-71.94114063705955, 44.597049336304536], [-71.94029135872202, 44.597201827859145], [-71.93975876444061, 44.597573526261655], [-71.93927576602111, 44.5980274301926], [-71.9385745319882, 44.59760161129685], [-71.9383295928024, 44.59777785026056], [-71.93817561512445, 44.5980007906838], [-71.93607391108478, 44.59770975224425], [-71.93148709671547, 44.595357082071494], [-71.92701834433424, 44.59326392298003], [-71.93074458000001, 44.58989544385597], [-71.92952943620499, 44.58922513313731], [-71.92885257921218, 44.589208533913244], [-71.92853740927885, 44.58918475430287], [-71.93228083335754, 44.58522515821798], [-71.93249342092751, 44.58521524911292], [-71.93282782389927, 44.58532607535316], [-71.93294675447325, 44.585261620777], [-71.93278193355862, 44.584521889675756], [-71.93270570935876, 44.58329661988524], [-71.93242359002772, 44.58236140741902], [-71.93237169183399, 44.582115637704916], [-71.93233235616525, 44.58179090301146], [-71.9322857559942, 44.58156806369634], [-71.93224554122736, 44.58141136858731], [-71.93221422953197, 44.58131091027939], [-71.93202109930066, 44.580577037570954], [-71.93184806663889, 44.58023216585821], [-71.94941196630003, 44.58262086980992], [-71.94967603834115, 44.58265488471366]], [[-71.94516878479179, 44.58488632612672], [-71.9448952087819, 44.58559678640992], [-71.94442290855386, 44.58585209658021], [-71.94377832782551, 44.58634602728108], [-71.94419792333841, 44.586749104768366], [-71.94350558711902, 44.58746229875481], [-71.94288392843478, 44.587177448760755], [-71.94282075179474, 44.58722258701108], [-71.94274712881106, 44.58759752272778], [-71.9428737368255, 44.587690810642655], [-71.9425062487774, 44.58776537642998], [-71.94197258091542, 44.58768543294837], [-71.9416984352516, 44.58779306831061], [-71.94160217601471, 44.58757155073814], [-71.94095661911267, 44.58766949342363], [-71.94009246346175, 44.58831954042006], [-71.9388639340214, 44.58838887110562], [-71.93898987143749, 44.588716494418144], [-71.93897700713764, 44.588908160265234], [-71.9393379848366, 44.58926666845198], [-71.94017020485214, 44.58974342064149], [-71.94091482546958, 44.589712994149366], [-71.94236990563873, 44.590008243564434], [-71.94271816364594, 44.58996898312934], [-71.94510789226894, 44.59021080526197], [-71.94537900126893, 44.58976089226198], [-71.94569619677232, 44.58901689569906], [-71.94587545925222, 44.58878884156887], [-71.94647299512346, 44.58836062527229], [-71.94682051182932, 44.588234348945505], [-71.94712128923712, 44.588056665420694], [-71.94730314854617, 44.588017731858685], [-71.9476185035539, 44.587552210315906], [-71.94785968642468, 44.587357902856155], [-71.94793870217055, 44.58709783080666], [-71.94790710940941, 44.586863320221134], [-71.94807287271918, 44.58650981999496], [-71.94810169742378, 44.58617398492835], [-71.94831576876352, 44.58598665038876], [-71.94858954906309, 44.58585499441291], [-71.94873213270756, 44.58567570216062], [-71.94872999381202, 44.58531908473497], [-71.9480286645135, 44.58515933458642], [-71.94800399601664, 44.584855209134965], [-71.94758229003976, 44.58467388973792], [-71.94747637634418, 44.58480400313439], [-71.94713774456262, 44.58457724692487], [-71.9470912343363, 44.584086846984334], [-71.94597051473644, 44.584002805223726], [-71.94519679351446, 44.58400960009081], [-71.94516878479179, 44.58488632612672]]], [[[-71.97457864977937, 44.62684150961057], [-71.97513946493441, 44.626753402097066], [-71.97648960449682, 44.62708185691987], [-71.97733990578466, 44.62738202503482], [-71.97840473573275, 44.627647581097364], [-71.97929484259855, 44.62763829511037], [-71.97950820734668, 44.627560251724404], [-71.98001731686972, 44.627523340431004], [-71.98214724440223, 44.62767642611522], [-71.98326042803319, 44.627823344659916], [-71.98493973297654, 44.62790278472186], [-71.98545141410672, 44.627997533076886], [-71.98827598408339, 44.62755825167602], [-71.98893943524641, 44.627530895886586], [-71.98893932377122, 44.62753124905765], [-71.98673627715165, 44.63452177905828], [-71.986356202072, 44.63572571583543], [-71.9861623532681, 44.6355535589857], [-71.98506100242814, 44.63494256041704], [-71.98389931890817, 44.63438639518083], [-71.98253545572312, 44.63385678673442], [-71.98232858247064, 44.633859439921665], [-71.98192528865542, 44.6340350605912], [-71.98064674978602, 44.634222461628], [-71.9799708763111, 44.63440064399839], [-71.97950611746137, 44.63369700232253], [-71.97918096823219, 44.63332556373332], [-71.97869612361872, 44.63354777524302], [-71.97800745625557, 44.63401132857981], [-71.97767441565297, 44.63416882759471], [-71.9757962537998, 44.632732799804195], [-71.97463181325288, 44.63203172720013], [-71.97422828708692, 44.63223219893364], [-71.97414194541311, 44.63233245415742], [-71.97321915763193, 44.63271533835153], [-71.97186229437682, 44.63343327991822], [-71.97016732610116, 44.63471413505534], [-71.97068173619837, 44.63498857580052], [-71.97149048178589, 44.63573251341289], [-71.97355860859138, 44.63797990708172], [-71.97412484342298, 44.63873192635089], [-71.97316238328084, 44.639484078024736], [-71.97253952967749, 44.6395399806009], [-71.9722140969281, 44.639635782959886], [-71.97214497129158, 44.63970070419389], [-71.97216910696697, 44.639906536871564], [-71.97209149093827, 44.64021243936278], [-71.97163638244886, 44.640534158872924], [-71.97101200094193, 44.64075694903127], [-71.9702994375562, 44.6408866736237], [-71.96845492616389, 44.64264250618851], [-71.97556568956884, 44.64606611867997], [-71.97185500312958, 44.649693622814034], [-71.97248227675934, 44.649812918394616], [-71.97289650149186, 44.64994809823915], [-71.97364154245096, 44.65030363700092], [-71.97505351227497, 44.65109242959716], [-71.97589017326827, 44.65142941520264], [-71.97685055937801, 44.65173690865911], [-71.97834883899674, 44.65236632625338], [-71.97706387793743, 44.653931942071175], [-71.97915033744329, 44.65489807162112], [-71.97961665404226, 44.654992493019755], [-71.97982842745151, 44.65509463925362], [-71.9801212910751, 44.65493650440682], [-71.98013607595153, 44.65464273733883], [-71.98005217785226, 44.65427869180382], [-71.98028770698969, 44.65366139787703], [-71.9800447385241, 44.6529721137991], [-71.98007019834378, 44.65269917167707], [-71.9802258966931, 44.65254105811158], [-71.98061341637977, 44.65232802473575], [-71.98066876889285, 44.65215408534197], [-71.98128802855798, 44.6519660383631], [-71.98132830227351, 44.652097290944994], [-71.98012268500639, 44.65616717868461], [-71.97960506900344, 44.65794981003379], [-71.97846619369058, 44.657365503883184], [-71.97192665464749, 44.65560605091895], [-71.96415163247921, 44.65154536413125], [-71.96103598549487, 44.65270511626709], [-71.95908704367677, 44.65321075600374], [-71.95809615982422, 44.65200306357358], [-71.95739028116213, 44.650975204990935], [-71.95651282727765, 44.650182188390964], [-71.9558143168087, 44.649637627066625], [-71.95474897209678, 44.64838222594519], [-71.95438284588393, 44.64768376558947], [-71.95411614995876, 44.64638223604427], [-71.95375940266393, 44.64510546908967], [-71.95366172856129, 44.64476906514811], [-71.95362426164809, 44.644645569794285], [-71.95357968832475, 44.6444441432975], [-71.95345680234236, 44.644105512700435], [-71.95343827269986, 44.64381509161119], [-71.95356792024631, 44.643871661858775], [-71.95383204813632, 44.64369121869048], [-71.95993512692856, 44.63791731512982], [-71.96284793082255, 44.635048204412094], [-71.96317334333969, 44.63495566559021], [-71.96333277708804, 44.63483633377337], [-71.96379753316432, 44.634065569042214], [-71.96381442804903, 44.63394346321435], [-71.96400680233059, 44.63349623459226], [-71.96406231594099, 44.632856427998476], [-71.9641094157074, 44.63270239419986], [-71.96457743442728, 44.63191672959579], [-71.96461071824854, 44.63180832886429], [-71.96552635971, 44.62850878377393], [-71.96561460072331, 44.628503441681616], [-71.96611995829419, 44.628709966205506], [-71.96649219715215, 44.628743329865365], [-71.96699749971717, 44.62861397014183], [-71.96757705292926, 44.62853960128135], [-71.96884762582003, 44.62852511616674], [-71.96995764188942, 44.628435211560166], [-71.97056962835771, 44.62826284860404], [-71.97253695622673, 44.626257820425394], [-71.97389150817035, 44.627143453656075], [-71.97457864977937, 44.62684150961057]]]]}}]}