{"type":"FeatureCollection","features":[{"type":"Feature","id":1,"geometry":{"type":"MultiPolygon","coordinates":[[[[-73.18403029999996,44.49244520000008],[-73.17951379999994,44.492719100000045],[-73.18244429999999,44.49381200000005],[-73.18259059999997,44.49295610000007],[-73.18337219999995,44.49301840000004],[-73.18337969999999,44.49296350000003],[-73.18393109999994,44.49300710000006],[-73.18403029999996,44.49244520000008]]],[[[-73.19007189999996,44.49151560000007],[-73.18935159999995,44.49156060000007],[-73.18958639999994,44.491817000000026],[-73.19012729999997,44.49178470000004],[-73.19007189999996,44.49151560000007]]],[[[-73.18635189999998,44.491471800000056],[-73.18566419999996,44.49147880000004],[-73.18566909999998,44.49174560000006],[-73.18636799899997,44.49172980000003],[-73.18635189999998,44.491471800000056]]],[[[-73.18427129999998,44.491443600000025],[-73.18426630099998,44.49217950000008],[-73.18637749999994,44.49205080000007],[-73.18592799999993,44.49206420000007],[-73.18592329899997,44.49180030000008],[-73.18547869899999,44.491810300000054],[-73.18547259999997,44.49148010000005],[-73.18427129999998,44.491443600000025]]],[[[-73.18330409999999,44.49143570000007],[-73.18276819999994,44.49147370000003],[-73.18202599999995,44.49168570000006],[-73.18244309999994,44.492310400000065],[-73.18407449999995,44.492174000000034],[-73.18407959999996,44.491436100000044],[-73.18330409999999,44.49143570000007]]],[[[-73.18828059999998,44.491083900000035],[-73.18807909999998,44.491327600000034],[-73.18879930099996,44.49133670000003],[-73.18885529999994,44.491337600000065],[-73.18828059999998,44.491083900000035]]],[[[-73.19155499999994,44.490907900000025],[-73.18966200099999,44.49102460000006],[-73.18929529999997,44.49091660000005],[-73.18898969999998,44.49128440000004],[-73.18920350099995,44.49143470000007],[-73.19159169999995,44.49128900000005],[-73.19155499999994,44.490907900000025]]],[[[-73.18734980099998,44.49079990000007],[-73.18733920099999,44.491309400000034],[-73.18750189999997,44.49131250000005],[-73.18788389999997,44.49132130000004],[-73.18813269999998,44.491020400000025],[-73.18771569999996,44.490862400000026],[-73.18734980099998,44.49079990000007]]],[[[-73.18719669999996,44.49079070000005],[-73.18696549999999,44.490792800000065],[-73.18663159899995,44.49079590000008],[-73.18662439999997,44.49129800000003],[-73.18718589999997,44.49130610000003],[-73.18719669999996,44.49079070000005]]],[[[-73.18864709999997,44.49064060000006],[-73.18835859999996,44.49098950000007],[-73.18887189899993,44.49120620000008],[-73.18915959999998,44.49085990000003],[-73.18864709999997,44.49064060000006]]],[[[-73.18736029999997,44.49029830000006],[-73.18735209899995,44.49068960000005],[-73.18770599999993,44.49074250000007],[-73.18816279999999,44.49090430000007],[-73.18821079999998,44.49092600000006],[-73.18849569999998,44.49058130000003],[-73.18736029999997,44.49029830000006]]],[[[-73.18720729999995,44.490286500000025],[-73.18663419999996,44.49030620000008],[-73.18663219899997,44.49068610000006],[-73.18719899999996,44.49068090000003],[-73.18720729999995,44.490286500000025]]],[[[-73.18829079999995,44.48882150000003],[-73.18791579999998,44.488837500000045],[-73.18752890099995,44.48943890000004],[-73.18733429999997,44.489576000000056],[-73.18664330099995,44.48948930000006],[-73.18663419999996,44.49014900000003],[-73.18733729999997,44.49015480000003],[-73.18777039899999,44.49025320000004],[-73.18856859999994,44.49045410000008],[-73.18960929999997,44.49088340000003],[-73.19322539899997,44.490667200000075],[-73.19313439999996,44.490036700000076],[-73.19120499999997,44.489980100000025],[-73.19039579999998,44.489637800000025],[-73.18995320099998,44.489696500000036],[-73.18913849899997,44.48937140000004],[-73.18886019999997,44.48965090000007],[-73.18878429899996,44.48962530000006],[-73.18874609999995,44.48966020000006],[-73.18813769999997,44.489401600000065],[-73.18837799999994,44.489003300000036],[-73.18829079999995,44.48882150000003]]]]},"properties":{"OBJECT_ID":615,"County":"Chittenden","RPC":"CCRPC","Municipal_Name":"Winooski","GEO_ID":"5000785150","District_Name":"Central Business District","Abbreviated_District_Name":"C-1","District_Type":"Mixed with Residential","Bylaw_Date":"2023-08-02","Elderly_Housing_District":"No","District_Mapped":"Yes","Overlay_District":"No","Base_Density":14.48,"FIPS6":7090,"GIS_ID":null,"Last_Update":"20250707","Shape_Length":0.05981843245121203,"Shape_Area":1.4096965543902742e-05,"F1F_Allowance":"Prohibited","F1F_Front_Setback":null,"F1F_Side_Setback":null,"F1F_Rear_Setback":null,"F1F_Frontage":null,"F1F_Max_Height":null,"F1F_Max_Stories":null,"F1F_Min_Lot_Size":null,"F1F_Max_Lot_Building_Coverage":null,"F1F_Max_Lot_Impervious_Coverage":null,"F1F_Min_Parking_Spaces":null,"F1F_Elderly_Housing_Only":null,"F1F_Affordable_Housing_Only":null,"F2F_Allowance":"Prohibited","F2F_Front_Setback":null,"F2F_Side_Setback":null,"F2F_Rear_Setback":null,"F2F_Frontage":null,"F2F_Max_Density":null,"F2F_Max_Height":null,"F2F_Max_Stories":null,"F2F_Min_Lot_Size":null,"F2F_Max_Lot_Building_Coverage":null,"F2F_Max_Lot_Impervious_Coverage":null,"F2F_Min_Parking_Spaces_per_1BR":null,"F2F_Min_Parking_Spaces_per_mult_BR":null,"F2F_Elderly_Housing_Only":"No","F2F_Affordable_Housing_Only":"No","F3F_Allowance":"Permitted","F3F_Front_Setback":null,"F3F_Side_Setback":null,"F3F_Rear_Setback":null,"F3F_Frontage":50,"F3F_Max_Density":null,"F3F_Max_Height":null,"F3F_Max_Stories":null,"F3F_Min_Lot_Size":0.06,"F3F_Max_Lot_Building_Coverage":100,"F3F_Max_Lot_Impervious_Coverage":null,"F3F_Min_Parking_Spaces_per_1BR":1,"F3F_Min_Parking_Spaces_per_mult_BR":1.25,"F3F_Affordable_Housing_Only":"No","F3F_Proximity_to_Public_Transit_Required":"No","F3F_Connection_to_Sewage/Water_Required":"No","F4F_Allowance":"Public Hearing","F4F_Front_Setback":null,"F4F_Side_Setback":null,"F4F_Rear_Setback":null,"F4F_Frontage":50,"F1F_Max_Density":null,"F4F_Max_Density":null,"F4F_Max_Height":null,"F4F_Max_Stories":null,"F4F_Min_Lot_Size":0.07,"F4F_Max_Lot_Building_Coverage":100,"F4F_Max_Lot_Impervious_Coverage":null,"F4F_Min_Parking_Spaces_per_1BR":1,"F4F_Min_Parking_Spaces_per_mult_BR":1.25,"F3F_Elderly_Housing_Only":"No","F4F_Elderly_Housing_Only":"No","F4F_Affordable_Housing_Only":"No","F4F_Proximity_to_Public_Transit_Required":"No","F4F_Connection_to_Sewage/Water_Required":"No","ADU_Allowance":"Prohibited","ADU_Elderly_Housing_Only":"No","ADU_Max_Size_as_Percent_of_Primary_Strcture":null,"ADU_Max_Size_in_sq_ft":null,"ADU_Min_Lot_Size":null,"ADU_Max_Bedrooms":null,"ADU_Min_Parking_Spaces":null,"ADU_Owner_Occupancy_Required":"No","ADU_Renter_Occupancy_Prohibited":"No","ADU_Employee_or_Family_Occupancy_Required":"No","ADU_Restricted_to_Primary_Structure":"No","Affordable_Housing_Allowance":"Allowed/Conditional","Affordable_Housing_District":"No","Affordable_Housing_Elderly_Only":"No","Affordable_Housing_Min_Lot_Size":0.06,"Affordable_Housing_Max_Density":null,"Affordable_Housing_Min_Parking_Spaces_per_mult_BR":1.25,"Affordable_Housing_Max_Units_per_Building":null,"Affordable_Housing_Min_Parking_Spaces_per_1BR":1,"PRD_Allowance":"Not Mentioned","PRD_Max_Density":null,"PRD_Max_Units":null,"PRD_Min_Lot_Size":null,"PRD_Mobile_or_Manufactured_Home_Park":"No","PUD_Allowance":"Yes","PUD_Required_with_Subdivision":"No","PUD_Requires_Land_Conservation":"No","PUD_Threshold_Number":null,"Notes":"None"}},{"type":"Feature","id":2,"geometry":{"type":"MultiPolygon","coordinates":[[[[-73.18536379999995,44.490463100000056],[-73.18459619999999,44.49046340000007],[-73.18458569999996,44.49052900000004],[-73.18443529999996,44.49053470000007],[-73.18443549999995,44.490752300000054],[-73.18449509999994,44.49078640000005],[-73.18443549999995,44.49080860000004],[-73.18443559999997,44.49098120000008],[-73.18431439999995,44.49099170000005],[-73.18431459999994,44.49127930000003],[-73.18509009999997,44.49128120000006],[-73.18551839899999,44.491274600000054],[-73.18563309999996,44.49120250000004],[-73.18564609999999,44.49102730000004],[-73.18546579999997,44.49101680000007],[-73.18546579999997,44.49095310000007],[-73.18552519899998,44.490942500000074],[-73.18552479999994,44.490534300000036],[-73.18537439999994,44.49052870000003],[-73.18536379999995,44.490463100000056]]],[[[-73.18406869999995,44.490338500000064],[-73.18206079999999,44.49033930000007],[-73.18206129999999,44.49108200000006],[-73.18213899999995,44.491080500000066],[-73.18216339999998,44.49144700000005],[-73.18295729999994,44.49126630000006],[-73.18405369999994,44.491253200000074],[-73.18406869999995,44.490338500000064]]],[[[-73.18181099999998,44.48941890000003],[-73.18181119899998,44.48961840000004],[-73.18139389999999,44.48963690000005],[-73.18139459999998,44.49056950000005],[-73.18146909999996,44.49068810000006],[-73.18138679999998,44.490831900000046],[-73.18102029999994,44.49081210000003],[-73.18084240099995,44.49096190000006],[-73.18058259999998,44.491043200000036],[-73.18103989999997,44.49179190000007],[-73.18180809999996,44.491553500000066],[-73.18181159899996,44.49015280000003],[-73.18617689899997,44.490122400000075],[-73.18631689999995,44.49002050000007],[-73.18638389999995,44.489741200000026],[-73.18638429999999,44.489504500000066],[-73.18627899999996,44.48950620000005],[-73.18444939999995,44.48956750000008],[-73.18439249999994,44.48958390000007],[-73.18439799999999,44.489693000000045],[-73.18432099999995,44.48971930000005],[-73.18298819999995,44.489802000000054],[-73.18198329999996,44.489556400000026],[-73.18181099999998,44.48941890000003]]]]},"properties":{"OBJECT_ID":616,"County":"Chittenden","RPC":"CCRPC","Municipal_Name":"Winooski","GEO_ID":"5000785150","District_Name":"Downtown Core","Abbreviated_District_Name":"Dc","District_Type":"Mixed with Residential","Bylaw_Date":"2023-08-02","Elderly_Housing_District":"No","District_Mapped":"Yes","Overlay_District":"No","Base_Density":null,"FIPS6":7090,"GIS_ID":null,"Last_Update":"20250707","Shape_Length":0.026030476248220517,"Shape_Area":6.459333062940148e-06,"F1F_Allowance":"Prohibited","F1F_Front_Setback":null,"F1F_Side_Setback":null,"F1F_Rear_Setback":null,"F1F_Frontage":null,"F1F_Max_Height":null,"F1F_Max_Stories":null,"F1F_Min_Lot_Size":null,"F1F_Max_Lot_Building_Coverage":null,"F1F_Max_Lot_Impervious_Coverage":null,"F1F_Min_Parking_Spaces":null,"F1F_Elderly_Housing_Only":null,"F1F_Affordable_Housing_Only":null,"F2F_Allowance":"Prohibited","F2F_Front_Setback":null,"F2F_Side_Setback":null,"F2F_Rear_Setback":null,"F2F_Frontage":null,"F2F_Max_Density":null,"F2F_Max_Height":null,"F2F_Max_Stories":null,"F2F_Min_Lot_Size":null,"F2F_Max_Lot_Building_Coverage":null,"F2F_Max_Lot_Impervious_Coverage":null,"F2F_Min_Parking_Spaces_per_1BR":null,"F2F_Min_Parking_Spaces_per_mult_BR":null,"F2F_Elderly_Housing_Only":"No","F2F_Affordable_Housing_Only":"No","F3F_Allowance":"Permitted","F3F_Front_Setback":null,"F3F_Side_Setback":null,"F3F_Rear_Setback":null,"F3F_Frontage":null,"F3F_Max_Density":null,"F3F_Max_Height":190,"F3F_Max_Stories":null,"F3F_Min_Lot_Size":null,"F3F_Max_Lot_Building_Coverage":null,"F3F_Max_Lot_Impervious_Coverage":null,"F3F_Min_Parking_Spaces_per_1BR":1,"F3F_Min_Parking_Spaces_per_mult_BR":1.25,"F3F_Affordable_Housing_Only":"No","F3F_Proximity_to_Public_Transit_Required":"No","F3F_Connection_to_Sewage/Water_Required":"No","F4F_Allowance":"Public Hearing","F4F_Front_Setback":null,"F4F_Side_Setback":null,"F4F_Rear_Setback":null,"F4F_Frontage":null,"F1F_Max_Density":null,"F4F_Max_Density":null,"F4F_Max_Height":190,"F4F_Max_Stories":null,"F4F_Min_Lot_Size":null,"F4F_Max_Lot_Building_Coverage":null,"F4F_Max_Lot_Impervious_Coverage":null,"F4F_Min_Parking_Spaces_per_1BR":1,"F4F_Min_Parking_Spaces_per_mult_BR":1.25,"F3F_Elderly_Housing_Only":"No","F4F_Elderly_Housing_Only":"No","F4F_Affordable_Housing_Only":"No","F4F_Proximity_to_Public_Transit_Required":"No","F4F_Connection_to_Sewage/Water_Required":"No","ADU_Allowance":"Prohibited","ADU_Elderly_Housing_Only":"No","ADU_Max_Size_as_Percent_of_Primary_Strcture":null,"ADU_Max_Size_in_sq_ft":null,"ADU_Min_Lot_Size":null,"ADU_Max_Bedrooms":null,"ADU_Min_Parking_Spaces":null,"ADU_Owner_Occupancy_Required":"No","ADU_Renter_Occupancy_Prohibited":"No","ADU_Employee_or_Family_Occupancy_Required":"No","ADU_Restricted_to_Primary_Structure":"No","Affordable_Housing_Allowance":"Allowed/Conditional","Affordable_Housing_District":"No","Affordable_Housing_Elderly_Only":"No","Affordable_Housing_Min_Lot_Size":null,"Affordable_Housing_Max_Density":null,"Affordable_Housing_Min_Parking_Spaces_per_mult_BR":1.25,"Affordable_Housing_Max_Units_per_Building":null,"Affordable_Housing_Min_Parking_Spaces_per_1BR":1,"PRD_Allowance":"Not Mentioned","PRD_Max_Density":null,"PRD_Max_Units":null,"PRD_Min_Lot_Size":null,"PRD_Mobile_or_Manufactured_Home_Park":"No","PUD_Allowance":"Yes","PUD_Required_with_Subdivision":"No","PUD_Requires_Land_Conservation":"No","PUD_Threshold_Number":null,"Notes":"None"}},{"type":"Feature","id":3,"geometry":{"type":"MultiPolygon","coordinates":[[[[-73.18300659999994,44.50139000000007],[-73.18251999899996,44.502530500000034],[-73.18305613499996,44.50272725100007],[-73.18337860099996,44.502238000000034],[-73.18307300099997,44.502171700000076],[-73.18338929999999,44.50147930000003],[-73.18300659999994,44.50139000000007]]],[[[-73.18528179899994,44.49975960000006],[-73.18475299999994,44.500752900000066],[-73.18514819899997,44.50084000000004],[-73.18524379999997,44.500662000000034],[-73.18547909899996,44.50074690000008],[-73.18590359999996,44.50017960000008],[-73.18605269999995,44.50022340000004],[-73.18613349999998,44.50012830000003],[-73.18528179899994,44.49975960000006]]],[[[-73.19709559999995,44.49877200000003],[-73.19676319999996,44.49917140000008],[-73.19704704299994,44.49946103900004],[-73.19733466599996,44.49907865700004],[-73.19709559999995,44.49877200000003]]],[[[-73.17412529999996,44.498446700000045],[-73.17438179899995,44.49953060000007],[-73.18229159999999,44.502446700000064],[-73.18303529999997,44.50073530000003],[-73.18269099999998,44.500610100000074],[-73.18251099999998,44.50100250000003],[-73.18220559999997,44.50093010000006],[-73.18239599999998,44.50050390000007],[-73.18200069999995,44.50036410000007],[-73.18208710099998,44.50024160000004],[-73.18220099999996,44.499997300000075],[-73.18289589999995,44.50022740000003],[-73.18277140099997,44.500485500000025],[-73.18309519999997,44.500602600000036],[-73.18359350099996,44.49955860000006],[-73.18289249999998,44.49929750000007],[-73.18276259899994,44.49954640000004],[-73.18250329999995,44.49945020000007],[-73.18232169999999,44.49969180000005],[-73.18041519999997,44.49898880000006],[-73.18034839999996,44.49907850000005],[-73.18022509999997,44.499058200000036],[-73.18014409899996,44.499166900000034],[-73.17994550099996,44.499433200000055],[-73.17990469999995,44.49941830000006],[-73.17917910099999,44.50041780000004],[-73.17636119999997,44.49935330000005],[-73.17412529999996,44.498446700000045]]],[[[-73.19515349999995,44.497817000000055],[-73.19485990099997,44.49796930000008],[-73.19513279999995,44.498259000000076],[-73.19481999999994,44.49841770000006],[-73.19454289999999,44.49812350000008],[-73.19438349899997,44.498200600000075],[-73.19469209999994,44.49851620000004],[-73.19442849999996,44.49864990000003],[-73.19469829999997,44.498923200000036],[-73.19517950099998,44.49867910000006],[-73.19654387599996,44.50012997500005],[-73.19670899099998,44.49991046400004],[-73.19692207799994,44.49962717400007],[-73.19682449999993,44.499518900000055],[-73.19515349999995,44.497817000000055]]],[[[-73.18388239899997,44.49780770000007],[-73.18372019999998,44.49812520000006],[-73.18356219999998,44.498068000000046],[-73.18340240099997,44.49837110000004],[-73.18348269999996,44.49840020000005],[-73.18322219999999,44.49888130000005],[-73.18345119999998,44.49896460000008],[-73.18342519899994,44.49901260000007],[-73.18318449899994,44.49892600000004],[-73.18304599999993,44.49920030000004],[-73.18365719999997,44.49942800000008],[-73.18438519999995,44.497974200000044],[-73.18388239899997,44.49780770000007]]],[[[-73.19616429999996,44.49750410000007],[-73.19581919899997,44.49768220000004],[-73.19568159999994,44.49754550000006],[-73.19534109999995,44.497721700000056],[-73.19654619999994,44.49895200000003],[-73.19675859999995,44.49884320000007],[-73.19702929999994,44.49858240000003],[-73.19677969899993,44.49833270000005],[-73.19724319999995,44.49810460000003],[-73.19693589899998,44.49782820000007],[-73.19663400099995,44.497970500000065],[-73.19616429999996,44.49750410000007]]],[[[-73.18530619999996,44.496719100000064],[-73.18413619999995,44.49899510000006],[-73.18306519999999,44.50125940000004],[-73.18414429999996,44.50151210000007],[-73.18522739999997,44.49946700000004],[-73.18463239999994,44.49928860000006],[-73.18574089999998,44.49714670000003],[-73.18590509999996,44.49718840000003],[-73.18605799999995,44.49691070000006],[-73.18530619999996,44.496719100000064]]],[[[-73.18438239999995,44.49666410000003],[-73.18392719999997,44.497701300000074],[-73.18443940099996,44.497871100000054],[-73.18498279999994,44.49682310000003],[-73.18438239999995,44.49666410000003]]],[[[-73.19286659999995,44.496314400000074],[-73.19286679999993,44.49653130000007],[-73.19329019999998,44.496318200000076],[-73.19286659999995,44.496314400000074]]],[[[-73.19365550099997,44.496300500000075],[-73.19304159899997,44.496609300000046],[-73.19341550099995,44.49699080000005],[-73.19350599899997,44.49694100000005],[-73.19422809999998,44.49768370000004],[-73.19437980099997,44.49760830000008],[-73.19464659999994,44.49790850000005],[-73.19504099999995,44.49770600000005],[-73.19365550099997,44.496300500000075]]],[[[-73.19440409999999,44.495998900000075],[-73.19389059999997,44.496254900000054],[-73.19522850099997,44.49761070000005],[-73.19555459999998,44.49744180000005],[-73.19530699999996,44.49718070000006],[-73.19546349999996,44.49710390000007],[-73.19440409999999,44.495998900000075]]],[[[-73.19263709999996,44.49524950000006],[-73.19212149999998,44.49524980000007],[-73.19225469999998,44.495747100000074],[-73.19237659999999,44.49576530000007],[-73.19248689999995,44.49589630000003],[-73.19273599899998,44.49581260000008],[-73.19298019999997,44.49607850000007],[-73.19297549999999,44.49617920000003],[-73.19354060099994,44.496185300000036],[-73.19263709999996,44.49524950000006]]],[[[-73.18625679999997,44.49487940000006],[-73.18537109999994,44.49659150000008],[-73.18596639999998,44.496743200000026],[-73.18683939999994,44.49502280000007],[-73.18625679999997,44.49487940000006]]],[[[-73.18538699999993,44.49468620000005],[-73.18512909999998,44.49522930000006],[-73.18474199999997,44.495146300000044],[-73.18466890099995,44.49528930000008],[-73.18449849999996,44.49525260000007],[-73.18441589999998,44.495416300000045],[-73.18495789999997,44.495550500000036],[-73.18445609999998,44.49653740000008],[-73.18504949999993,44.496694500000046],[-73.18602019999997,44.49481550000007],[-73.18538699999993,44.49468620000005]]],[[[-73.18587999999994,44.49377950000007],[-73.18580259999999,44.494219100000066],[-73.18557150099997,44.494190100000026],[-73.18542789999998,44.494552200000044],[-73.18608569999998,44.49468630000007],[-73.18635749999999,44.49411740000005],[-73.18641609999997,44.49385110000003],[-73.18587999999994,44.49377950000007]]],[[[-73.18755969899996,44.49369600000006],[-73.18667429899995,44.49370700000003],[-73.18661249999997,44.49413510000005],[-73.18633489999996,44.49472440000005],[-73.18689489999997,44.494862100000034],[-73.18721049999994,44.49428040000004],[-73.18702539999998,44.49423150000007],[-73.18710489999995,44.49402230000004],[-73.18742849999995,44.494062100000065],[-73.18742399999996,44.493872700000054],[-73.18756429899997,44.493870800000025],[-73.18755969899996,44.49369600000006]]],[[[-73.19111129999999,44.49365160000008],[-73.19047559899997,44.49365960000006],[-73.19048749999996,44.49402710000004],[-73.19064079999998,44.49402920000006],[-73.19062440099998,44.49410580000006],[-73.19063149999994,44.49460950000008],[-73.19154179899994,44.49460800000003],[-73.19176349999998,44.49483350000003],[-73.19176299999998,44.494792500000074],[-73.19203059999995,44.49478110000007],[-73.19216089999998,44.49508530000003],[-73.19247519999993,44.49508580000003],[-73.19111129999999,44.49365160000008]]],[[[-73.17113419999998,44.493408300000056],[-73.17102919999996,44.493457300000046],[-73.17071739999994,44.49386910000004],[-73.17106019999994,44.49399870000008],[-73.17113419999998,44.493408300000056]]],[[[-73.17288489999999,44.493369200000075],[-73.17128739999998,44.49341010000006],[-73.17126399999995,44.493805000000066],[-73.17177379999998,44.49379790000006],[-73.17181879999998,44.49391910000003],[-73.17211369999995,44.49391390000005],[-73.17214199999995,44.49422090000007],[-73.17267839999994,44.49420610000004],[-73.17267569999996,44.494146700000044],[-73.17295559999997,44.49414580000007],[-73.17288489999999,44.493369200000075]]],[[[-73.19179699999995,44.493333000000064],[-73.19131099999998,44.49356910000006],[-73.19374989999994,44.49611290000007],[-73.19378009899998,44.49614280000003],[-73.19429329999997,44.49588700000004],[-73.19201599999997,44.49349170000005],[-73.19196959999994,44.493514600000026],[-73.19179699999995,44.493333000000064]]],[[[-73.17502589999998,44.493277000000035],[-73.17386639999995,44.49333860000007],[-73.17387649999995,44.49421070000005],[-73.17461619999995,44.494197100000065],[-73.17455779999995,44.49354150000005],[-73.17504939999998,44.49353240000005],[-73.17502589999998,44.493277000000035]]],[[[-73.17740369899997,44.493010500000025],[-73.17627450099997,44.49317780000007],[-73.17525489999997,44.49326180000003],[-73.17527349999995,44.49346230000003],[-73.17577229999995,44.49346600000007],[-73.17575209999995,44.49365020000005],[-73.17566890099994,44.49417720000008],[-73.17641959999997,44.494294300000035],[-73.17644969999998,44.494115700000066],[-73.17651949999998,44.49357830000008],[-73.17707089899994,44.49356110000008],[-73.17705979999994,44.49335540000004],[-73.17744159999995,44.49334150000004],[-73.17740369899997,44.493010500000025]]],[[[-73.18582919999994,44.493008700000075],[-73.18581209999996,44.49329930000005],[-73.18591589899995,44.49330390000006],[-73.18585109999998,44.493636200000026],[-73.18642139999997,44.49371250000007],[-73.18640269999997,44.49302050000006],[-73.18582919999994,44.493008700000075]]],[[[-73.19031699999994,44.49285390000006],[-73.18994640099999,44.49285680000003],[-73.18994819999995,44.493040800000074],[-73.19023359999994,44.49319630000008],[-73.19017649999995,44.49326730000007],[-73.19030359999994,44.493525900000066],[-73.19097669999996,44.49351750000005],[-73.19031699999994,44.49285390000006]]],[[[-73.18726719999995,44.492835600000035],[-73.18665279999993,44.49285210000005],[-73.18667030099994,44.493571200000076],[-73.18773219999997,44.493558000000064],[-73.18772009999998,44.49319250000008],[-73.18726129999999,44.493195600000035],[-73.18726719999995,44.492835600000035]]],[[[-73.17902189999995,44.492772700000046],[-73.17901729999994,44.49293960000006],[-73.17940779899999,44.49292380000003],[-73.17940019899999,44.49283470000006],[-73.17902189999995,44.492772700000046]]],[[[-73.17865839999996,44.49271930000003],[-73.17755359999995,44.49298100000004],[-73.17759390099997,44.493328200000064],[-73.17846939899994,44.493286100000034],[-73.17844579999996,44.493017300000076],[-73.17883029899997,44.49300000000005],[-73.17883499899995,44.492742400000054],[-73.17865839999996,44.49271930000003]]],[[[-73.17150009999995,44.49270260000003],[-73.17147319899993,44.49287090000007],[-73.17155509999998,44.492871500000035],[-73.17152680099997,44.493182200000035],[-73.17181779999999,44.49317480000008],[-73.17189339999999,44.49274170000007],[-73.17150009999995,44.49270260000003]]],[[[-73.17537819999995,44.492633400000045],[-73.17468079899999,44.49265770000005],[-73.17471789999996,44.49308890000003],[-73.17589749999996,44.49303530000003],[-73.17580929999997,44.49263550000006],[-73.17537829999998,44.49270130000008],[-73.17537819999995,44.492633400000045]]],[[[-73.18638549999997,44.49230760000006],[-73.18604320099996,44.492323300000066],[-73.18605189999994,44.49242480000004],[-73.18578439999999,44.49242650000008],[-73.18586869999996,44.49287250000003],[-73.18640069999998,44.492883300000074],[-73.18638549999997,44.49230760000006]]],[[[-73.18726329999998,44.492223300000035],[-73.18663709999998,44.492258700000036],[-73.18664539999997,44.49265800000006],[-73.18664979999994,44.49276160000005],[-73.18728179999994,44.49274460000004],[-73.18726329999998,44.492223300000035]]],[[[-73.18960919999995,44.49214020000005],[-73.18938639999999,44.49215840000005],[-73.18939879999994,44.492557600000055],[-73.18960569999996,44.49255460000006],[-73.18960769999995,44.492723700000056],[-73.19018539999996,44.49271920000007],[-73.18960919999995,44.49214020000005]]],[[[-73.17574409999997,44.491950100000054],[-73.17606509999996,44.493017500000065],[-73.17719059999996,44.49286410000008],[-73.17808239999994,44.49267280000004],[-73.17745689999998,44.492576400000075],[-73.17721379899996,44.49264130000006],[-73.17713580099996,44.492448900000056],[-73.17640429999994,44.49223370000004],[-73.17574409999997,44.491950100000054]]],[[[-73.19235779999997,44.491904600000055],[-73.19122499999997,44.491975800000034],[-73.18998669999996,44.49223770000003],[-73.19122429999999,44.49347860000006],[-73.19172289999995,44.49323640000006],[-73.19127149999997,44.49276830000008],[-73.19155479999995,44.49263990000003],[-73.19141839899999,44.49250010000003],[-73.19168309999998,44.492376300000046],[-73.19165619999995,44.49234910000007],[-73.19181279999998,44.492270000000076],[-73.19240039999994,44.491953300000034],[-73.19235779999997,44.491904600000055]]],[[[-73.18636919899996,44.491790200000025],[-73.18592329899997,44.49180030000008],[-73.18592799999993,44.49206420000007],[-73.18637749999994,44.49205080000007],[-73.18636919899996,44.491790200000025]]],[[[-73.18184859999997,44.491737700000044],[-73.18178649999999,44.491755700000056],[-73.17941979999995,44.49248260000007],[-73.18223859999995,44.492323800000065],[-73.18184859999997,44.491737700000044]]],[[[-73.18813259999996,44.49151000000006],[-73.18813239999997,44.491540900000075],[-73.18813109999996,44.491947700000026],[-73.18936019999995,44.49187040000004],[-73.18899809899995,44.49152910000004],[-73.18813259999996,44.49151000000006]]],[[[-73.18662029999996,44.49147910000005],[-73.18662799999998,44.49198400000006],[-73.18790159999998,44.491970200000026],[-73.18790269999994,44.491503100000045],[-73.18662029999996,44.49147910000005]]],[[[-73.18058259999998,44.491043200000036],[-73.18038949999993,44.49110370000005],[-73.18055039999996,44.491367000000025],[-73.17999599999996,44.49154150000004],[-73.18012950099995,44.49176010000008],[-73.17969679999999,44.491916900000035],[-73.17960839999995,44.49178520000004],[-73.17930319999994,44.49195030000004],[-73.17934439999993,44.492012800000055],[-73.17908019999999,44.492093700000055],[-73.17924030099994,44.49234100000007],[-73.18103989999997,44.49179190000007],[-73.18058259999998,44.491043200000036]]]]},"properties":{"OBJECT_ID":617,"County":"Chittenden","RPC":"CCRPC","Municipal_Name":"Winooski","GEO_ID":"5000785150","District_Name":"Gateway District","Abbreviated_District_Name":"G","District_Type":"Mixed with Residential","Bylaw_Date":"2023-08-11","Elderly_Housing_District":"No","District_Mapped":"Yes","Overlay_District":"No","Base_Density":null,"FIPS6":7090,"GIS_ID":null,"Last_Update":"20250707","Shape_Length":0.19635176485841135,"Shape_Area":4.551746685147956e-05,"F1F_Allowance":"Permitted","F1F_Front_Setback":null,"F1F_Side_Setback":null,"F1F_Rear_Setback":null,"F1F_Frontage":null,"F1F_Max_Height":40,"F1F_Max_Stories":3,"F1F_Min_Lot_Size":null,"F1F_Max_Lot_Building_Coverage":null,"F1F_Max_Lot_Impervious_Coverage":null,"F1F_Min_Parking_Spaces":1,"F1F_Elderly_Housing_Only":null,"F1F_Affordable_Housing_Only":null,"F2F_Allowance":"Permitted","F2F_Front_Setback":null,"F2F_Side_Setback":null,"F2F_Rear_Setback":null,"F2F_Frontage":null,"F2F_Max_Density":null,"F2F_Max_Height":40,"F2F_Max_Stories":3,"F2F_Min_Lot_Size":null,"F2F_Max_Lot_Building_Coverage":null,"F2F_Max_Lot_Impervious_Coverage":null,"F2F_Min_Parking_Spaces_per_1BR":1,"F2F_Min_Parking_Spaces_per_mult_BR":1.25,"F2F_Elderly_Housing_Only":"No","F2F_Affordable_Housing_Only":"No","F3F_Allowance":"Permitted","F3F_Front_Setback":null,"F3F_Side_Setback":null,"F3F_Rear_Setback":null,"F3F_Frontage":null,"F3F_Max_Density":null,"F3F_Max_Height":40,"F3F_Max_Stories":3,"F3F_Min_Lot_Size":null,"F3F_Max_Lot_Building_Coverage":null,"F3F_Max_Lot_Impervious_Coverage":null,"F3F_Min_Parking_Spaces_per_1BR":1,"F3F_Min_Parking_Spaces_per_mult_BR":1.25,"F3F_Affordable_Housing_Only":"No","F3F_Proximity_to_Public_Transit_Required":"No","F3F_Connection_to_Sewage/Water_Required":"No","F4F_Allowance":"Permitted","F4F_Front_Setback":null,"F4F_Side_Setback":null,"F4F_Rear_Setback":null,"F4F_Frontage":null,"F1F_Max_Density":null,"F4F_Max_Density":null,"F4F_Max_Height":40,"F4F_Max_Stories":3,"F4F_Min_Lot_Size":null,"F4F_Max_Lot_Building_Coverage":null,"F4F_Max_Lot_Impervious_Coverage":null,"F4F_Min_Parking_Spaces_per_1BR":1,"F4F_Min_Parking_Spaces_per_mult_BR":1.25,"F3F_Elderly_Housing_Only":"No","F4F_Elderly_Housing_Only":"No","F4F_Affordable_Housing_Only":"No","F4F_Proximity_to_Public_Transit_Required":"No","F4F_Connection_to_Sewage/Water_Required":"No","ADU_Allowance":"Prohibited","ADU_Elderly_Housing_Only":"No","ADU_Max_Size_as_Percent_of_Primary_Strcture":null,"ADU_Max_Size_in_sq_ft":null,"ADU_Min_Lot_Size":null,"ADU_Max_Bedrooms":null,"ADU_Min_Parking_Spaces":null,"ADU_Owner_Occupancy_Required":"No","ADU_Renter_Occupancy_Prohibited":"No","ADU_Employee_or_Family_Occupancy_Required":"No","ADU_Restricted_to_Primary_Structure":"No","Affordable_Housing_Allowance":"Allowed/Conditional","Affordable_Housing_District":"No","Affordable_Housing_Elderly_Only":"No","Affordable_Housing_Min_Lot_Size":null,"Affordable_Housing_Max_Density":null,"Affordable_Housing_Min_Parking_Spaces_per_mult_BR":1.25,"Affordable_Housing_Max_Units_per_Building":null,"Affordable_Housing_Min_Parking_Spaces_per_1BR":1,"PRD_Allowance":"Not Mentioned","PRD_Max_Density":null,"PRD_Max_Units":null,"PRD_Min_Lot_Size":null,"PRD_Mobile_or_Manufactured_Home_Park":"No","PUD_Allowance":"No","PUD_Required_with_Subdivision":"No","PUD_Requires_Land_Conservation":"No","PUD_Threshold_Number":null,"Notes":"None"}},{"type":"Feature","id":4,"geometry":{"type":"MultiPolygon","coordinates":[[[[-73.18069969899994,44.48506420000007],[-73.18110900099998,44.48547690000004],[-73.18134420099994,44.48618000000005],[-73.18154819999995,44.487492400000065],[-73.18151119999999,44.48754370000006],[-73.18126000099994,44.48738000000003],[-73.18086319999998,44.48721910000006],[-73.18017999999995,44.487040000000036],[-73.17973999999998,44.487010000000055],[-73.17862249999996,44.48709390000005],[-73.17660999999998,44.48697000000004],[-73.17588399999994,44.48698510000003],[-73.17487039999997,44.48686070000008],[-73.17462999999998,44.48678000000007],[-73.17428589999997,44.486848000000066],[-73.17405999999994,44.486830000000054],[-73.17371429999997,44.487028500000065],[-73.17334029899996,44.48709210000004],[-73.17328239999995,44.48693730000008],[-73.17335419999995,44.48663370000003],[-73.17353520099994,44.48634890000005],[-73.17398909999997,44.486042600000076],[-73.17457759999996,44.485749800000065],[-73.17536999999999,44.48551000000003],[-73.17605959899998,44.48543580000006],[-73.17629189999997,44.48536640000003],[-73.17688109999995,44.48513870000005],[-73.17737309999995,44.48472890000005],[-73.17808779999996,44.48446590000003],[-73.17842730099994,44.48439990000003],[-73.17900869999994,44.484397400000034],[-73.17930999999999,44.48443000000003],[-73.17985999999996,44.484590000000026],[-73.18069969899994,44.48506420000007]]],[[[-73.18147059999995,44.48834890000006],[-73.18110999999993,44.488140000000044],[-73.18019999999996,44.48795000000007],[-73.17939999999999,44.48794000000004],[-73.17869689999998,44.48759430000007],[-73.18015859899998,44.48753110000007],[-73.18055089999996,44.487587200000064],[-73.18106139999998,44.48782200000005],[-73.18139039899995,44.48815590000004],[-73.18147059999995,44.48834890000006]]],[[[-73.17262000099998,44.48839000000004],[-73.17276539999995,44.48797630000007],[-73.17299039999995,44.487760200000025],[-73.17312629999998,44.48763710000003],[-73.17274660099997,44.49020800000005],[-73.17178169999994,44.489910000000066],[-73.17199789999995,44.48872770000003],[-73.17262000099998,44.48839000000004]]],[[[-73.17474229999993,44.48751390000007],[-73.17498999999998,44.487550000000056],[-73.17522999999994,44.48751000000004],[-73.17591999999996,44.48763000000008],[-73.17654999999996,44.48759000000007],[-73.17710859999994,44.48749040000007],[-73.17812819999995,44.487555100000066],[-73.17857829999997,44.48773430000006],[-73.17907999999994,44.48802000000006],[-73.17934000099996,44.48810000000003],[-73.18057439999995,44.48817920000005],[-73.18117650099998,44.488391000000036],[-73.18144999999998,44.48859600000003],[-73.18156289999996,44.488947100000075],[-73.18134999999995,44.489040000000045],[-73.18090999999998,44.48899000000006],[-73.18037999999996,44.489220000000046],[-73.18012999999996,44.48957000000007],[-73.17989999999998,44.489730000000066],[-73.17987999999997,44.48993000000007],[-73.18013999999994,44.49003000000005],[-73.18046999999996,44.49002000000007],[-73.18057999999996,44.48993000000007],[-73.18066999999996,44.48948000000007],[-73.18076000099995,44.489370000000065],[-73.18084999999996,44.48936000000003],[-73.18089999899996,44.48911000000004],[-73.18109999899997,44.48908000000006],[-73.18141999999995,44.489220000000046],[-73.18150999899996,44.489156200000025],[-73.18181099999998,44.48941890000003],[-73.18181119899998,44.48961840000004],[-73.18139389999999,44.48963690000005],[-73.18139459999998,44.49056950000005],[-73.18146909999996,44.49068810000006],[-73.18138679999998,44.490831900000046],[-73.18102029999994,44.49081210000003],[-73.18084240099995,44.49096190000006],[-73.18058259999998,44.491043200000036],[-73.18038949999993,44.49110370000005],[-73.18055039999996,44.491367000000025],[-73.17999599999996,44.49154150000004],[-73.18012950099995,44.49176010000008],[-73.17969679999999,44.491916900000035],[-73.17960839999995,44.49178520000004],[-73.17930319999994,44.49195030000004],[-73.17934439999993,44.492012800000055],[-73.17908019999999,44.492093700000055],[-73.17924030099994,44.49234100000007],[-73.17896629999996,44.49242700000008],[-73.17817369999995,44.492340400000046],[-73.17698699999994,44.49210180000006],[-73.17591559999994,44.49170120000008],[-73.17358929999995,44.490575000000035],[-73.17400659899994,44.48737670000003],[-73.17415769999997,44.48737380000006],[-73.17445999999995,44.487640000000056],[-73.17457999999993,44.48763000000008],[-73.17474229999993,44.48751390000007]],[[-73.17657000099996,44.488260000000025],[-73.17645999999996,44.48837000000003],[-73.17655999999994,44.48848000000004],[-73.17673000099995,44.488530000000026],[-73.17753999899998,44.48837000000003],[-73.17798999999997,44.488240000000076],[-73.17802999999998,44.48818000000006],[-73.17793999999998,44.488060000000075],[-73.17774999999995,44.48807000000005],[-73.17690999999996,44.48831000000007],[-73.17657000099996,44.488260000000025]],[[-73.17668999999995,44.49144000000007],[-73.17687999999998,44.49152000000004],[-73.17724999899997,44.49154000000004],[-73.17760999999996,44.491670000000056],[-73.17777999899994,44.49163000000004],[-73.17655999999994,44.49111000000005],[-73.17642999999998,44.49117000000007],[-73.17647999999997,44.49126000000007],[-73.17668999999995,44.49144000000007]]],[[[-73.17580929999997,44.49263550000006],[-73.17537829999998,44.49270130000008],[-73.17537819999995,44.492633400000045],[-73.17468079899999,44.49265770000005],[-73.17435720099996,44.492674700000066],[-73.17397139999997,44.49197710000004],[-73.17395189999996,44.49148870000005],[-73.17410109999997,44.49129730000004],[-73.17425399999996,44.491292600000065],[-73.17576189999994,44.49202150000008],[-73.17606019999994,44.49301800000006],[-73.17589749999996,44.49303530000003],[-73.17580929999997,44.49263550000006]]],[[[-73.18239599999998,44.50050390000007],[-73.18269099999998,44.500610100000074],[-73.18251099999998,44.50100250000003],[-73.18220559999997,44.50093010000006],[-73.18239599999998,44.50050390000007]]]]},"properties":{"OBJECT_ID":618,"County":"Chittenden","RPC":"CCRPC","Municipal_Name":"Winooski","GEO_ID":"5000785150","District_Name":"General Commercial","Abbreviated_District_Name":"C-2","District_Type":"Mixed with Residential","Bylaw_Date":"2023-08-02","Elderly_Housing_District":"No","District_Mapped":"Yes","Overlay_District":"No","Base_Density":5.88,"FIPS6":7090,"GIS_ID":null,"Last_Update":"20250707","Shape_Length":0.0746246293412418,"Shape_Area":4.9472317927540146e-05,"F1F_Allowance":"Prohibited","F1F_Front_Setback":null,"F1F_Side_Setback":null,"F1F_Rear_Setback":null,"F1F_Frontage":null,"F1F_Max_Height":null,"F1F_Max_Stories":null,"F1F_Min_Lot_Size":null,"F1F_Max_Lot_Building_Coverage":null,"F1F_Max_Lot_Impervious_Coverage":null,"F1F_Min_Parking_Spaces":null,"F1F_Elderly_Housing_Only":null,"F1F_Affordable_Housing_Only":null,"F2F_Allowance":"Public Hearing","F2F_Front_Setback":null,"F2F_Side_Setback":null,"F2F_Rear_Setback":null,"F2F_Frontage":75,"F2F_Max_Density":null,"F2F_Max_Height":null,"F2F_Max_Stories":null,"F2F_Min_Lot_Size":0.17,"F2F_Max_Lot_Building_Coverage":80,"F2F_Max_Lot_Impervious_Coverage":null,"F2F_Min_Parking_Spaces_per_1BR":1,"F2F_Min_Parking_Spaces_per_mult_BR":1.25,"F2F_Elderly_Housing_Only":"No","F2F_Affordable_Housing_Only":"No","F3F_Allowance":"Public Hearing","F3F_Front_Setback":null,"F3F_Side_Setback":null,"F3F_Rear_Setback":null,"F3F_Frontage":75,"F3F_Max_Density":null,"F3F_Max_Height":null,"F3F_Max_Stories":null,"F3F_Min_Lot_Size":0.17,"F3F_Max_Lot_Building_Coverage":80,"F3F_Max_Lot_Impervious_Coverage":null,"F3F_Min_Parking_Spaces_per_1BR":1,"F3F_Min_Parking_Spaces_per_mult_BR":1.25,"F3F_Affordable_Housing_Only":"No","F3F_Proximity_to_Public_Transit_Required":"No","F3F_Connection_to_Sewage/Water_Required":"No","F4F_Allowance":"Public Hearing","F4F_Front_Setback":null,"F4F_Side_Setback":null,"F4F_Rear_Setback":null,"F4F_Frontage":75,"F1F_Max_Density":null,"F4F_Max_Density":null,"F4F_Max_Height":null,"F4F_Max_Stories":null,"F4F_Min_Lot_Size":0.17,"F4F_Max_Lot_Building_Coverage":80,"F4F_Max_Lot_Impervious_Coverage":null,"F4F_Min_Parking_Spaces_per_1BR":1,"F4F_Min_Parking_Spaces_per_mult_BR":1.25,"F3F_Elderly_Housing_Only":"No","F4F_Elderly_Housing_Only":"No","F4F_Affordable_Housing_Only":"No","F4F_Proximity_to_Public_Transit_Required":"No","F4F_Connection_to_Sewage/Water_Required":"No","ADU_Allowance":"Prohibited","ADU_Elderly_Housing_Only":"No","ADU_Max_Size_as_Percent_of_Primary_Strcture":null,"ADU_Max_Size_in_sq_ft":null,"ADU_Min_Lot_Size":null,"ADU_Max_Bedrooms":null,"ADU_Min_Parking_Spaces":null,"ADU_Owner_Occupancy_Required":"No","ADU_Renter_Occupancy_Prohibited":"No","ADU_Employee_or_Family_Occupancy_Required":"No","ADU_Restricted_to_Primary_Structure":"No","Affordable_Housing_Allowance":"Allowed/Conditional","Affordable_Housing_District":"No","Affordable_Housing_Elderly_Only":"No","Affordable_Housing_Min_Lot_Size":0.17,"Affordable_Housing_Max_Density":null,"Affordable_Housing_Min_Parking_Spaces_per_mult_BR":1.25,"Affordable_Housing_Max_Units_per_Building":null,"Affordable_Housing_Min_Parking_Spaces_per_1BR":1,"PRD_Allowance":"Not Mentioned","PRD_Max_Density":null,"PRD_Max_Units":null,"PRD_Min_Lot_Size":null,"PRD_Mobile_or_Manufactured_Home_Park":"No","PUD_Allowance":"Yes","PUD_Required_with_Subdivision":"No","PUD_Requires_Land_Conservation":"No","PUD_Threshold_Number":null,"Notes":"None"}},{"type":"Feature","id":5,"geometry":{"type":"MultiPolygon","coordinates":[[[[-73.18790960099994,44.49990120000007],[-73.18747539999998,44.50070740000007],[-73.18613349999998,44.50012830000003],[-73.18605269999995,44.50022340000004],[-73.18590359999996,44.50017960000008],[-73.18547909899996,44.50074690000008],[-73.18524379999997,44.500662000000034],[-73.18514819899997,44.50084000000004],[-73.18475299999994,44.500752900000066],[-73.18432889999997,44.50155040000004],[-73.18594399999995,44.501877500000035],[-73.18624929999999,44.502031300000056],[-73.18709529999995,44.50265090000005],[-73.18737889999994,44.50277650000004],[-73.18756069999995,44.50279980000005],[-73.18768109999996,44.50273140000007],[-73.18790449999995,44.50171650000004],[-73.18808229999996,44.50178560000006],[-73.18786019999999,44.50278050000003],[-73.18792579999996,44.50289890000005],[-73.18786399899994,44.50298800000007],[-73.18767409999998,44.50301900000005],[-73.18755129999994,44.50293880000004],[-73.18707839999996,44.502813100000026],[-73.18609769999995,44.50211800000005],[-73.18581259999996,44.501983600000074],[-73.18426399999998,44.50168000000008],[-73.18378149999995,44.50259560000006],[-73.18360380099995,44.50254430000007],[-73.18407989999997,44.50164140000004],[-73.18338929999999,44.50147930000003],[-73.18307300099997,44.502171700000076],[-73.18337860099996,44.502238000000034],[-73.18305613499996,44.50272725100007],[-73.18740738799994,44.50432388100006],[-73.18915455999996,44.50496498000007],[-73.18911580099996,44.50448630000005],[-73.18853169999994,44.50438800000006],[-73.18898859999996,44.50177930000007],[-73.18906889899995,44.50041950000008],[-73.18790960099994,44.49990120000007]]],[[[-73.16737791999998,44.497471123000025],[-73.16676003099997,44.498275731000035],[-73.16639473099997,44.49875140900008],[-73.16606183999994,44.49918491500006],[-73.16731449999997,44.497563900000046],[-73.16782719999998,44.49765680000007],[-73.16788076699999,44.49756211000005],[-73.16737791999998,44.497471123000025]]],[[[-73.20140969999994,44.491478200000074],[-73.19723689999995,44.49175760000003],[-73.19670479999996,44.49168260000005],[-73.19703799999996,44.49204610000004],[-73.19683209999994,44.49214650000005],[-73.19716359999995,44.49247340000005],[-73.19686389999998,44.49263300000007],[-73.19692639999994,44.492688600000065],[-73.19643469999994,44.49293890000007],[-73.19625049999996,44.49274180000003],[-73.19594539999997,44.492895900000065],[-73.19682679999994,44.493242800000075],[-73.19705529999999,44.49392830000005],[-73.19749939999997,44.494462300000066],[-73.19832789899993,44.49405290000004],[-73.19914099999994,44.494210500000065],[-73.20055538699995,44.494796853000025],[-73.20203598199998,44.492828469000074],[-73.20172739999998,44.49233190000007],[-73.20162260099994,44.49192590000007],[-73.20140969999994,44.491478200000074]]],[[[-73.19705649999997,44.489649400000076],[-73.19709579999994,44.490999000000045],[-73.19757839999994,44.49096610000004],[-73.19775699999997,44.49077220000004],[-73.19791599999996,44.49085730000007],[-73.19777999899998,44.49103470000006],[-73.19760609999997,44.491103500000065],[-73.19624129999994,44.491165100000046],[-73.19625629899997,44.49146120000006],[-73.20132229999996,44.49114490000005],[-73.20115999999996,44.49066000000005],[-73.20082729999996,44.490373600000055],[-73.20066479899998,44.49030000000005],[-73.19987769999994,44.49008070000008],[-73.19781999999998,44.489820000000066],[-73.19705649999997,44.489649400000076]]]]},"properties":{"OBJECT_ID":619,"County":"Chittenden","RPC":"CCRPC","Municipal_Name":"Winooski","GEO_ID":"5000785150","District_Name":"Industrial","Abbreviated_District_Name":"I","District_Type":"Nonresidential","Bylaw_Date":"2023-08-02","Elderly_Housing_District":"No","District_Mapped":"Yes","Overlay_District":"No","Base_Density":null,"FIPS6":7090,"GIS_ID":null,"Last_Update":"20250707","Shape_Length":0.06935603559293321,"Shape_Area":3.507110514960937e-05,"F1F_Allowance":"Prohibited","F1F_Front_Setback":null,"F1F_Side_Setback":null,"F1F_Rear_Setback":null,"F1F_Frontage":null,"F1F_Max_Height":null,"F1F_Max_Stories":null,"F1F_Min_Lot_Size":null,"F1F_Max_Lot_Building_Coverage":null,"F1F_Max_Lot_Impervious_Coverage":null,"F1F_Min_Parking_Spaces":null,"F1F_Elderly_Housing_Only":null,"F1F_Affordable_Housing_Only":null,"F2F_Allowance":"Prohibited","F2F_Front_Setback":null,"F2F_Side_Setback":null,"F2F_Rear_Setback":null,"F2F_Frontage":null,"F2F_Max_Density":null,"F2F_Max_Height":null,"F2F_Max_Stories":null,"F2F_Min_Lot_Size":null,"F2F_Max_Lot_Building_Coverage":null,"F2F_Max_Lot_Impervious_Coverage":null,"F2F_Min_Parking_Spaces_per_1BR":null,"F2F_Min_Parking_Spaces_per_mult_BR":null,"F2F_Elderly_Housing_Only":"No","F2F_Affordable_Housing_Only":"No","F3F_Allowance":"Prohibited","F3F_Front_Setback":null,"F3F_Side_Setback":null,"F3F_Rear_Setback":null,"F3F_Frontage":null,"F3F_Max_Density":null,"F3F_Max_Height":null,"F3F_Max_Stories":null,"F3F_Min_Lot_Size":null,"F3F_Max_Lot_Building_Coverage":null,"F3F_Max_Lot_Impervious_Coverage":null,"F3F_Min_Parking_Spaces_per_1BR":null,"F3F_Min_Parking_Spaces_per_mult_BR":null,"F3F_Affordable_Housing_Only":"No","F3F_Proximity_to_Public_Transit_Required":"No","F3F_Connection_to_Sewage/Water_Required":"No","F4F_Allowance":"Prohibited","F4F_Front_Setback":null,"F4F_Side_Setback":null,"F4F_Rear_Setback":null,"F4F_Frontage":null,"F1F_Max_Density":null,"F4F_Max_Density":null,"F4F_Max_Height":null,"F4F_Max_Stories":null,"F4F_Min_Lot_Size":null,"F4F_Max_Lot_Building_Coverage":null,"F4F_Max_Lot_Impervious_Coverage":null,"F4F_Min_Parking_Spaces_per_1BR":null,"F4F_Min_Parking_Spaces_per_mult_BR":null,"F3F_Elderly_Housing_Only":"No","F4F_Elderly_Housing_Only":"No","F4F_Affordable_Housing_Only":"No","F4F_Proximity_to_Public_Transit_Required":"No","F4F_Connection_to_Sewage/Water_Required":"No","ADU_Allowance":"Prohibited","ADU_Elderly_Housing_Only":"No","ADU_Max_Size_as_Percent_of_Primary_Strcture":null,"ADU_Max_Size_in_sq_ft":null,"ADU_Min_Lot_Size":null,"ADU_Max_Bedrooms":null,"ADU_Min_Parking_Spaces":null,"ADU_Owner_Occupancy_Required":"No","ADU_Renter_Occupancy_Prohibited":"No","ADU_Employee_or_Family_Occupancy_Required":"No","ADU_Restricted_to_Primary_Structure":"No","Affordable_Housing_Allowance":"Prohibited","Affordable_Housing_District":"No","Affordable_Housing_Elderly_Only":"No","Affordable_Housing_Min_Lot_Size":null,"Affordable_Housing_Max_Density":null,"Affordable_Housing_Min_Parking_Spaces_per_mult_BR":null,"Affordable_Housing_Max_Units_per_Building":null,"Affordable_Housing_Min_Parking_Spaces_per_1BR":null,"PRD_Allowance":"Not Mentioned","PRD_Max_Density":null,"PRD_Max_Units":null,"PRD_Min_Lot_Size":null,"PRD_Mobile_or_Manufactured_Home_Park":"No","PUD_Allowance":"Yes","PUD_Required_with_Subdivision":"No","PUD_Requires_Land_Conservation":"No","PUD_Threshold_Number":null,"Notes":"None"}},{"type":"Feature","id":6,"geometry":{"type":"MultiPolygon","coordinates":[[[[-73.18984889999996,44.499072600000034],[-73.18984869899998,44.499135900000056],[-73.19096549999995,44.49914680000006],[-73.19096339999999,44.49908010000007],[-73.18984889999996,44.499072600000034]]],[[[-73.19223119999998,44.49880610000008],[-73.19272779999994,44.49951280000005],[-73.19306679999994,44.49933690000006],[-73.19283409899998,44.49942000000004],[-73.19256139999999,44.49922890000005],[-73.19223119999998,44.49880610000008]]],[[[-73.17721409999996,44.49815140000004],[-73.17711529999997,44.49828940000003],[-73.17636119999997,44.49935330000005],[-73.17917910099999,44.50041780000004],[-73.17990469999995,44.49941830000006],[-73.17994550099996,44.499433200000055],[-73.17840709999996,44.49886370000007],[-73.17824119999995,44.49879510000005],[-73.17835359999998,44.49865640000007],[-73.17791039899998,44.49851160000003],[-73.17721409999996,44.49815140000004]]],[[[-73.19157479999996,44.497664300000054],[-73.19141319999994,44.49781570000005],[-73.19113729999998,44.49781010000004],[-73.19114459999997,44.49843350000003],[-73.19102109999994,44.49842940000008],[-73.19100049999997,44.49866430000003],[-73.19208679999997,44.49866860000003],[-73.19182489999997,44.498397200000056],[-73.19213469999994,44.49824180000007],[-73.19157479999996,44.497664300000054]]]]},"properties":{"OBJECT_ID":620,"County":"Chittenden","RPC":"CCRPC","Municipal_Name":"Winooski","GEO_ID":"5000785150","District_Name":"Public","Abbreviated_District_Name":"P","District_Type":"Nonresidential","Bylaw_Date":"2023-08-02","Elderly_Housing_District":"No","District_Mapped":"Yes","Overlay_District":"No","Base_Density":null,"FIPS6":7090,"GIS_ID":null,"Last_Update":"20250707","Shape_Length":0.017831508375739904,"Shape_Area":4.66263013034883e-06,"F1F_Allowance":"Prohibited","F1F_Front_Setback":null,"F1F_Side_Setback":null,"F1F_Rear_Setback":null,"F1F_Frontage":null,"F1F_Max_Height":null,"F1F_Max_Stories":null,"F1F_Min_Lot_Size":null,"F1F_Max_Lot_Building_Coverage":null,"F1F_Max_Lot_Impervious_Coverage":null,"F1F_Min_Parking_Spaces":null,"F1F_Elderly_Housing_Only":null,"F1F_Affordable_Housing_Only":null,"F2F_Allowance":"Prohibited","F2F_Front_Setback":null,"F2F_Side_Setback":null,"F2F_Rear_Setback":null,"F2F_Frontage":null,"F2F_Max_Density":null,"F2F_Max_Height":null,"F2F_Max_Stories":null,"F2F_Min_Lot_Size":null,"F2F_Max_Lot_Building_Coverage":null,"F2F_Max_Lot_Impervious_Coverage":null,"F2F_Min_Parking_Spaces_per_1BR":null,"F2F_Min_Parking_Spaces_per_mult_BR":null,"F2F_Elderly_Housing_Only":"No","F2F_Affordable_Housing_Only":"No","F3F_Allowance":"Prohibited","F3F_Front_Setback":null,"F3F_Side_Setback":null,"F3F_Rear_Setback":null,"F3F_Frontage":null,"F3F_Max_Density":null,"F3F_Max_Height":null,"F3F_Max_Stories":null,"F3F_Min_Lot_Size":null,"F3F_Max_Lot_Building_Coverage":null,"F3F_Max_Lot_Impervious_Coverage":null,"F3F_Min_Parking_Spaces_per_1BR":null,"F3F_Min_Parking_Spaces_per_mult_BR":null,"F3F_Affordable_Housing_Only":"No","F3F_Proximity_to_Public_Transit_Required":"No","F3F_Connection_to_Sewage/Water_Required":"No","F4F_Allowance":"Prohibited","F4F_Front_Setback":null,"F4F_Side_Setback":null,"F4F_Rear_Setback":null,"F4F_Frontage":null,"F1F_Max_Density":null,"F4F_Max_Density":null,"F4F_Max_Height":null,"F4F_Max_Stories":null,"F4F_Min_Lot_Size":null,"F4F_Max_Lot_Building_Coverage":null,"F4F_Max_Lot_Impervious_Coverage":null,"F4F_Min_Parking_Spaces_per_1BR":null,"F4F_Min_Parking_Spaces_per_mult_BR":null,"F3F_Elderly_Housing_Only":"No","F4F_Elderly_Housing_Only":"No","F4F_Affordable_Housing_Only":"No","F4F_Proximity_to_Public_Transit_Required":"No","F4F_Connection_to_Sewage/Water_Required":"No","ADU_Allowance":"Prohibited","ADU_Elderly_Housing_Only":"No","ADU_Max_Size_as_Percent_of_Primary_Strcture":null,"ADU_Max_Size_in_sq_ft":null,"ADU_Min_Lot_Size":null,"ADU_Max_Bedrooms":null,"ADU_Min_Parking_Spaces":null,"ADU_Owner_Occupancy_Required":"No","ADU_Renter_Occupancy_Prohibited":"No","ADU_Employee_or_Family_Occupancy_Required":"No","ADU_Restricted_to_Primary_Structure":"No","Affordable_Housing_Allowance":"Prohibited","Affordable_Housing_District":"No","Affordable_Housing_Elderly_Only":"No","Affordable_Housing_Min_Lot_Size":null,"Affordable_Housing_Max_Density":null,"Affordable_Housing_Min_Parking_Spaces_per_mult_BR":null,"Affordable_Housing_Max_Units_per_Building":null,"Affordable_Housing_Min_Parking_Spaces_per_1BR":null,"PRD_Allowance":"Not Mentioned","PRD_Max_Density":null,"PRD_Max_Units":null,"PRD_Min_Lot_Size":null,"PRD_Mobile_or_Manufactured_Home_Park":"No","PUD_Allowance":"No","PUD_Required_with_Subdivision":"No","PUD_Requires_Land_Conservation":"No","PUD_Threshold_Number":null,"Notes":"None"}},{"type":"Feature","id":7,"geometry":{"type":"MultiPolygon","coordinates":[[[[-73.18975739999996,44.50177590000004],[-73.18934479999996,44.50425180000008],[-73.18970119999994,44.50427620000005],[-73.19010040099994,44.504166000000055],[-73.19052089999997,44.50179950000006],[-73.18975739999996,44.50177590000004]]],[[[-73.18981899999994,44.50048680000003],[-73.18976699999996,44.501638900000046],[-73.19053520099999,44.501662700000054],[-73.19056779999994,44.501289100000065],[-73.19075929999997,44.50129500000003],[-73.19072669999997,44.50166860000007],[-73.19222019999995,44.50171500000005],[-73.19233879999996,44.50179410000004],[-73.19231359999998,44.50187150000005],[-73.19221700099996,44.501910200000054],[-73.19207599999999,44.50184750000005],[-73.19163879999996,44.50183400000003],[-73.19156399999997,44.50297270000004],[-73.19141449999995,44.50375960000008],[-73.19149269999997,44.50388470000007],[-73.19143049999997,44.503972400000066],[-73.19130579999995,44.504012000000046],[-73.19115979999998,44.50396260000008],[-73.19111039999996,44.50387080000007],[-73.19122379999999,44.50374540000007],[-73.19137299999994,44.502960200000075],[-73.19144739999996,44.50182810000007],[-73.19071239999994,44.50180540000008],[-73.19029949999998,44.50414080000007],[-73.19047479999995,44.50453040000008],[-73.19077439999995,44.50481560000003],[-73.19191340099997,44.504630200000065],[-73.19214319899999,44.50452310000003],[-73.19297909999995,44.50382980000006],[-73.19315889999996,44.503620100000035],[-73.19355249999995,44.502788200000055],[-73.19359049999997,44.502447000000075],[-73.19345489999995,44.50230650000003],[-73.19361059999994,44.50223300000005],[-73.19380379899997,44.50225100000006],[-73.19377700099994,44.502563200000054],[-73.19365709999994,44.503054200000065],[-73.19329359999995,44.503733200000056],[-73.19221149899994,44.50466790000007],[-73.19199910099996,44.504782000000034],[-73.19080379999997,44.50499380000008],[-73.19063069999999,44.504944300000034],[-73.19039159999994,44.50474170000007],[-73.19014189999996,44.50433110000006],[-73.18971059999996,44.504413200000045],[-73.18932159999997,44.50438800000006],[-73.18929349999996,44.504722300000026],[-73.18938295599997,44.50504878700008],[-73.19209423799998,44.50604365000004],[-73.19265010999999,44.50530497300008],[-73.19405379499995,44.50343963200004],[-73.19488907599998,44.502329631000066],[-73.19351818999996,44.501696726000034],[-73.19342600099998,44.501798800000074],[-73.18981899999994,44.50048680000003]]],[[[-73.18985059999994,44.49879580000004],[-73.18984889999996,44.499072600000034],[-73.19096339999999,44.49908010000007],[-73.19095499999997,44.49880100000007],[-73.19079299999999,44.49879930000003],[-73.18985059999994,44.49879580000004]]],[[[-73.19396669999998,44.49841290000006],[-73.19333229999995,44.49873660000003],[-73.19361739999994,44.49902520000006],[-73.19346049999996,44.49910390000008],[-73.19315799999998,44.498797800000034],[-73.19223119999998,44.49880610000008],[-73.19256139999999,44.49922890000005],[-73.19283409899998,44.49942000000004],[-73.19306679999994,44.49933690000006],[-73.19317259999997,44.49928190000003],[-73.19342539999997,44.499562800000035],[-73.19350249899998,44.49952390000004],[-73.19355209999998,44.49957340000003],[-73.19362309999997,44.49952970000004],[-73.19406789999994,44.49990130000003],[-73.19457209999996,44.500139700000034],[-73.19529049999994,44.50003330000004],[-73.19644748699994,44.50024096100003],[-73.19654387599996,44.50012997500005],[-73.19517950099998,44.49867910000006],[-73.19469829999997,44.498923200000036],[-73.19545679999999,44.49970080000003],[-73.19529720099996,44.49977690000003],[-73.19396669999998,44.49841290000006]]],[[[-73.19438349899997,44.498200600000075],[-73.19412069999998,44.49833060000003],[-73.19442849999996,44.49864990000003],[-73.19469209999994,44.49851620000004],[-73.19438349899997,44.498200600000075]]],[[[-73.19485990099997,44.49796930000008],[-73.19454289999999,44.49812350000008],[-73.19481999999994,44.49841770000006],[-73.19513279999995,44.498259000000076],[-73.19485990099997,44.49796930000008]]],[[[-73.18942669999996,44.49663390000006],[-73.18942429999998,44.49673740000003],[-73.18868740099998,44.496732200000054],[-73.18773660099998,44.49850900000007],[-73.18832890099998,44.498505400000056],[-73.18814540099999,44.49946330000006],[-73.18790960099994,44.49990120000007],[-73.18906889899995,44.50041950000008],[-73.18898859999996,44.50177930000007],[-73.18853169999994,44.50438800000006],[-73.18911580099996,44.50448630000005],[-73.18956159999993,44.50186220000006],[-73.18966980099998,44.497327100000064],[-73.18888949999996,44.49731890000004],[-73.18887529999995,44.498346500000025],[-73.18879849999996,44.49842660000007],[-73.18866649999995,44.49844950000005],[-73.18854669999996,44.498403100000075],[-73.18850119999996,44.49831180000007],[-73.18869140099997,44.498074400000064],[-73.18871409999997,44.497246000000075],[-73.18883869999996,44.49718320000005],[-73.18966889999996,44.497191300000054],[-73.18967229999998,44.49663470000007],[-73.18942669999996,44.49663390000006]]],[[[-73.17407780099995,44.49649520000003],[-73.17401459999996,44.497317500000065],[-73.17412529999996,44.498446700000045],[-73.17636119999997,44.49935330000005],[-73.17711529999997,44.49828940000003],[-73.17659889999999,44.49809220000003],[-73.17677849999995,44.49785470000006],[-73.17669419999999,44.49782220000003],[-73.17633619999998,44.49768450000005],[-73.17659709999998,44.49733990000004],[-73.17687139999998,44.49732430000006],[-73.17705459899997,44.49708010000006],[-73.17554629999995,44.49715250000003],[-73.17559249999994,44.49812600000007],[-73.17595979999999,44.49811520000003],[-73.17617249899996,44.498046000000045],[-73.17630869999994,44.498099800000034],[-73.17634699999996,44.49819420000006],[-73.17618049999999,44.49831880000005],[-73.17595509999995,44.498254200000076],[-73.17560179999998,44.49826290000004],[-73.17568739999996,44.498635800000045],[-73.17559619999997,44.49872620000008],[-73.17544119999997,44.49873820000005],[-73.17530939999995,44.498622400000045],[-73.17538159899993,44.49847650000004],[-73.17537189999996,44.49826100000007],[-73.17470379999997,44.49826170000006],[-73.17454949899997,44.49817890000003],[-73.17445739999994,44.49653210000008],[-73.17407780099995,44.49649520000003]]],[[[-73.17463209999994,44.496322700000064],[-73.17472650099995,44.49812120000007],[-73.17536209999997,44.49812350000008],[-73.17529629999996,44.49633320000004],[-73.17463209999994,44.496322700000064]]],[[[-73.17438609999994,44.49532050000005],[-73.17394339999998,44.49532250000004],[-73.17395079999994,44.49547540000003],[-73.17398309999999,44.49613380000005],[-73.17411719999996,44.49613420000003],[-73.17411179999993,44.49642290000003],[-73.17444869999997,44.49642400000005],[-73.17438609999994,44.49532050000005]]],[[[-73.17522609999997,44.495312600000034],[-73.17457769899994,44.49532190000008],[-73.17461859999997,44.49618560000005],[-73.17475059999998,44.496186400000056],[-73.17529749999994,44.49619610000008],[-73.17522609999997,44.495312600000034]]],[[[-73.17238879999996,44.495304600000054],[-73.17216440099997,44.495733200000075],[-73.17131609999996,44.496788700000025],[-73.17154889899996,44.49694040000003],[-73.17178669999998,44.49709070000006],[-73.17247739999993,44.49654990000005],[-73.17289169999998,44.49634700000007],[-73.17280759999994,44.49531500000006],[-73.17238879999996,44.495304600000054]]],[[[-73.17145449999998,44.49528340000006],[-73.17061879999994,44.496347900000046],[-73.17091399999998,44.496530300000074],[-73.17117049999996,44.496694500000046],[-73.17197320099996,44.49569900000006],[-73.17219559999995,44.495300100000065],[-73.17145449999998,44.49528340000006]]],[[[-73.17717269999997,44.49528090000007],[-73.17648390099998,44.49529300000006],[-73.17638639999996,44.49632750000006],[-73.17552610099995,44.496337700000026],[-73.17554049999995,44.497015300000044],[-73.17705749999999,44.49693940000003],[-73.17724569999996,44.49668840000004],[-73.17717269999997,44.49528090000007]]],[[[-73.17511910099995,44.49450500000006],[-73.17455659999996,44.49453100000005],[-73.17457479999996,44.49518480000006],[-73.17521229999994,44.49517570000006],[-73.17511910099995,44.49450500000006]]],[[[-73.17633409999996,44.49448030000008],[-73.17537569999996,44.49450580000007],[-73.17538219999994,44.494565900000055],[-73.17544239999995,44.495169700000076],[-73.17631069999999,44.495158100000026],[-73.17633409999996,44.49448030000008]]],[[[-73.17071739999994,44.49386910000004],[-73.17038379999997,44.49430970000003],[-73.16910809999996,44.49599480000006],[-73.17002219899996,44.496534000000054],[-73.17135129999997,44.49745120000006],[-73.17166849999995,44.497198800000035],[-73.16976709999994,44.49601640000003],[-73.16959319999995,44.496227100000056],[-73.16945879999997,44.496174300000064],[-73.17082729999998,44.494425800000045],[-73.17106019999994,44.49399870000008],[-73.17071739999994,44.49386910000004]]],[[[-73.17177379999998,44.49379790000006],[-73.17126399999995,44.493805000000066],[-73.17103049999997,44.49438100000003],[-73.16986579999997,44.495897600000035],[-73.17047019999995,44.49625750000007],[-73.17182959999997,44.494534600000065],[-73.17281239999994,44.49448690000003],[-73.17292349999997,44.49457720000004],[-73.17282220099997,44.49465600000008],[-73.17194039999998,44.49465040000007],[-73.17156060099995,44.49514910000005],[-73.17294229999999,44.49518040000004],[-73.17295559999997,44.49414580000007],[-73.17267569999996,44.494146700000044],[-73.17267839999994,44.49420610000004],[-73.17214199999995,44.49422090000007],[-73.17211369999995,44.49391390000005],[-73.17181879999998,44.49391910000003],[-73.17177379999998,44.49379790000006]]],[[[-73.17575209999995,44.49365020000005],[-73.17529019999995,44.493665400000054],[-73.17535939999993,44.49436840000004],[-73.17645579999999,44.49436060000005],[-73.17653840099996,44.494589500000075],[-73.17650399999997,44.495155700000055],[-73.17719029999995,44.49514360000006],[-73.17709970099997,44.49410330000006],[-73.17644969999998,44.494115700000066],[-73.17641959999997,44.494294300000035],[-73.17566890099994,44.49417720000008],[-73.17575209999995,44.49365020000005]]],[[[-73.17504939999998,44.49353240000005],[-73.17455779999995,44.49354150000005],[-73.17461619999995,44.494197100000065],[-73.17387649999995,44.49421070000005],[-73.17387279999997,44.49474310000005],[-73.17393040099995,44.49474330000004],[-73.17395419999997,44.494960400000025],[-73.17386599999998,44.49496010000007],[-73.17385809899997,44.49518470000004],[-73.17438309899995,44.495183300000065],[-73.17439399999995,44.49445490000005],[-73.17453359999996,44.494393900000034],[-73.17512829999998,44.494367700000055],[-73.17504939999998,44.49353240000005]]],[[[-73.17172979999998,44.490193900000065],[-73.17118249999999,44.493192400000055],[-73.17152680099997,44.493182200000035],[-73.17155509999998,44.492871500000035],[-73.17147319899993,44.49287090000007],[-73.17150009999995,44.49270260000003],[-73.17189339999999,44.49274170000007],[-73.17210509999995,44.49154280000005],[-73.17205869899993,44.49145740000006],[-73.17219759999995,44.49138940000006],[-73.17228969999996,44.49144590000003],[-73.17228689899997,44.49159570000006],[-73.17206650099996,44.49285820000006],[-73.17241049999996,44.492886000000055],[-73.17279549999995,44.490520100000026],[-73.17172979999998,44.490193900000065]]]]},"properties":{"OBJECT_ID":621,"County":"Chittenden","RPC":"CCRPC","Municipal_Name":"Winooski","GEO_ID":"5000785150","District_Name":"Residential A","Abbreviated_District_Name":"R-A","District_Type":"Primarily Residential","Bylaw_Date":"2023-08-02","Elderly_Housing_District":"No","District_Mapped":"Yes","Overlay_District":"No","Base_Density":4.35,"FIPS6":7090,"GIS_ID":null,"Last_Update":"20250707","Shape_Length":0.18466490832142335,"Shape_Area":4.793847976751581e-05,"F1F_Allowance":"Permitted","F1F_Front_Setback":20,"F1F_Side_Setback":15,"F1F_Rear_Setback":15,"F1F_Frontage":75,"F1F_Max_Height":35,"F1F_Max_Stories":null,"F1F_Min_Lot_Size":0.23,"F1F_Max_Lot_Building_Coverage":40,"F1F_Max_Lot_Impervious_Coverage":null,"F1F_Min_Parking_Spaces":1,"F1F_Elderly_Housing_Only":null,"F1F_Affordable_Housing_Only":null,"F2F_Allowance":"Permitted","F2F_Front_Setback":20,"F2F_Side_Setback":15,"F2F_Rear_Setback":15,"F2F_Frontage":75,"F2F_Max_Density":null,"F2F_Max_Height":35,"F2F_Max_Stories":null,"F2F_Min_Lot_Size":0.23,"F2F_Max_Lot_Building_Coverage":40,"F2F_Max_Lot_Impervious_Coverage":null,"F2F_Min_Parking_Spaces_per_1BR":1,"F2F_Min_Parking_Spaces_per_mult_BR":2,"F2F_Elderly_Housing_Only":"No","F2F_Affordable_Housing_Only":"No","F3F_Allowance":"Public Hearing","F3F_Front_Setback":20,"F3F_Side_Setback":15,"F3F_Rear_Setback":15,"F3F_Frontage":75,"F3F_Max_Density":null,"F3F_Max_Height":35,"F3F_Max_Stories":null,"F3F_Min_Lot_Size":0.23,"F3F_Max_Lot_Building_Coverage":40,"F3F_Max_Lot_Impervious_Coverage":null,"F3F_Min_Parking_Spaces_per_1BR":1,"F3F_Min_Parking_Spaces_per_mult_BR":2,"F3F_Affordable_Housing_Only":"No","F3F_Proximity_to_Public_Transit_Required":"No","F3F_Connection_to_Sewage/Water_Required":"No","F4F_Allowance":"Public Hearing","F4F_Front_Setback":20,"F4F_Side_Setback":15,"F4F_Rear_Setback":15,"F4F_Frontage":75,"F1F_Max_Density":null,"F4F_Max_Density":null,"F4F_Max_Height":35,"F4F_Max_Stories":null,"F4F_Min_Lot_Size":0.23,"F4F_Max_Lot_Building_Coverage":40,"F4F_Max_Lot_Impervious_Coverage":null,"F4F_Min_Parking_Spaces_per_1BR":1,"F4F_Min_Parking_Spaces_per_mult_BR":2,"F3F_Elderly_Housing_Only":"No","F4F_Elderly_Housing_Only":"No","F4F_Affordable_Housing_Only":"No","F4F_Proximity_to_Public_Transit_Required":"No","F4F_Connection_to_Sewage/Water_Required":"No","ADU_Allowance":"Allowed/Conditional","ADU_Elderly_Housing_Only":"No","ADU_Max_Size_as_Percent_of_Primary_Strcture":30,"ADU_Max_Size_in_sq_ft":900,"ADU_Min_Lot_Size":null,"ADU_Max_Bedrooms":null,"ADU_Min_Parking_Spaces":null,"ADU_Owner_Occupancy_Required":"Yes","ADU_Renter_Occupancy_Prohibited":"No","ADU_Employee_or_Family_Occupancy_Required":"No","ADU_Restricted_to_Primary_Structure":"No","Affordable_Housing_Allowance":"Allowed/Conditional","Affordable_Housing_District":"No","Affordable_Housing_Elderly_Only":"No","Affordable_Housing_Min_Lot_Size":0.23,"Affordable_Housing_Max_Density":null,"Affordable_Housing_Min_Parking_Spaces_per_mult_BR":2,"Affordable_Housing_Max_Units_per_Building":null,"Affordable_Housing_Min_Parking_Spaces_per_1BR":1,"PRD_Allowance":"Allowed/Conditional","PRD_Max_Density":null,"PRD_Max_Units":null,"PRD_Min_Lot_Size":null,"PRD_Mobile_or_Manufactured_Home_Park":"Yes","PUD_Allowance":"Yes","PUD_Required_with_Subdivision":"No","PUD_Requires_Land_Conservation":"No","PUD_Threshold_Number":null,"Notes":" 3+ Unit Dwellings Permitted If Proposed As Part Of A Pud. "}},{"type":"Feature","id":8,"geometry":{"type":"MultiPolygon","coordinates":[[[[-73.18220099999996,44.499997300000075],[-73.18208710099998,44.50024160000004],[-73.18277140099997,44.500485500000025],[-73.18289589999995,44.50022740000003],[-73.18220099999996,44.499997300000075]]],[[[-73.17862670099998,44.49858770000003],[-73.17840709999996,44.49886370000007],[-73.17994550099996,44.499433200000055],[-73.18014409899996,44.499166900000034],[-73.17862670099998,44.49858770000003]]],[[[-73.17916249899997,44.49788430000007],[-73.17870919999996,44.49847930000004],[-73.18022509999997,44.499058200000036],[-73.18034839999996,44.49907850000005],[-73.18041519999997,44.49898880000006],[-73.18232169999999,44.49969180000005],[-73.18250329999995,44.49945020000007],[-73.18276259899994,44.49954640000004],[-73.18289249999998,44.49929750000007],[-73.17916249899997,44.49788430000007]]],[[[-73.18286889999996,44.49749940000004],[-73.18216239999998,44.49886820000006],[-73.18304599999993,44.49920030000004],[-73.18318449899994,44.49892600000004],[-73.18342519899994,44.49901260000007],[-73.18345119999998,44.49896460000008],[-73.18322219999999,44.49888130000005],[-73.18348269999996,44.49840020000005],[-73.18340240099997,44.49837110000004],[-73.18356219999998,44.498068000000046],[-73.18372019999998,44.49812520000006],[-73.18388239899997,44.49780770000007],[-73.18304749999999,44.49751240000006],[-73.18286889999996,44.49749940000004]]],[[[-73.19167479999999,44.49729700000006],[-73.19150819999999,44.49735220000008],[-73.18985949999995,44.49732940000007],[-73.18985060099999,44.49865870000008],[-73.19088540099995,44.498663100000044],[-73.19090289999997,44.49815030000008],[-73.19101399899995,44.49812910000003],[-73.19102109999994,44.49842940000008],[-73.19114459999997,44.49843350000003],[-73.19113729999998,44.49781010000004],[-73.19141319999994,44.49781570000005],[-73.19157479999996,44.497664300000054],[-73.19213469999994,44.49824180000007],[-73.19182489999997,44.498397200000056],[-73.19208679999997,44.49866860000003],[-73.19303429999997,44.49867270000004],[-73.19167479999999,44.49729700000006]]],[[[-73.17746049999994,44.49723480000006],[-73.17690279999994,44.49797810000007],[-73.17681079899995,44.49794270000007],[-73.17677849999995,44.49785470000006],[-73.17659889999999,44.49809220000003],[-73.17711529999997,44.49828940000003],[-73.17721409999996,44.49815140000004],[-73.17791039899998,44.49851160000003],[-73.17835359999998,44.49865640000007],[-73.17900009999994,44.497810800000025],[-73.17746049999994,44.49723480000006]]],[[[-73.17705459899997,44.49708010000006],[-73.17687139999998,44.49732430000006],[-73.17659709999998,44.49733990000004],[-73.17633619999998,44.49768450000005],[-73.17669419999999,44.49782220000003],[-73.17676669999997,44.49772550000006],[-73.17685059899998,44.497757800000045],[-73.17729069999996,44.497171200000025],[-73.17705459899997,44.49708010000006]]],[[[-73.18605799999995,44.49691070000006],[-73.18590509999996,44.49718840000003],[-73.18574089999998,44.49714670000003],[-73.18463239999994,44.49928860000006],[-73.18522739999997,44.49946700000004],[-73.18650370099994,44.49702430000008],[-73.18605799999995,44.49691070000006]]],[[[-73.19248429999993,44.496889700000054],[-73.19216989999995,44.49704790000004],[-73.19183159999994,44.49721820000008],[-73.19322139999997,44.49862450000006],[-73.19386289999994,44.49829720000008],[-73.19248429999993,44.496889700000054]]],[[[-73.19304159899997,44.496609300000046],[-73.19264109999995,44.49681090000007],[-73.19401679999999,44.49821510000004],[-73.19451209999994,44.49797350000006],[-73.19422809999998,44.49768370000004],[-73.19350599899997,44.49694100000005],[-73.19341550099995,44.49699080000005],[-73.19304159899997,44.496609300000046]]],[[[-73.19262209999994,44.496470600000066],[-73.19242659999998,44.49647270000003],[-73.19242669999994,44.49654120000008],[-73.19223510099994,44.49654330000004],[-73.19223519999997,44.49672160000006],[-73.18986059999997,44.49673660000008],[-73.18985859999998,44.49719360000006],[-73.19150530099995,44.49721640000007],[-73.19262219999996,44.49665440000007],[-73.19262209999994,44.496470600000066]]],[[[-73.18362769999999,44.496467600000074],[-73.18314649999996,44.49742440000006],[-73.18392719999997,44.497701300000074],[-73.18438239999995,44.49666410000003],[-73.18362769999999,44.496467600000074]]],[[[-73.17917099999994,44.496442900000034],[-73.17842149999996,44.49743470000004],[-73.17904979999997,44.49767300000008],[-73.17909059999994,44.49768990000007],[-73.17983409999994,44.49670290000006],[-73.17917099999994,44.496442900000034]]],[[[-73.18891729999996,44.49628670000004],[-73.18714129999995,44.49628850000005],[-73.18528179899994,44.49975960000006],[-73.18613349999998,44.50012830000003],[-73.18747539999998,44.50070740000007],[-73.18790960099994,44.49990120000007],[-73.18814540099999,44.49946330000006],[-73.18832890099998,44.498505400000056],[-73.18773660099998,44.49850900000007],[-73.18868740099998,44.496732200000054],[-73.18891729999996,44.49628670000004]]],[[[-73.17830959999998,44.496126900000036],[-73.17826829999996,44.49617980000005],[-73.17755439999996,44.49711490000004],[-73.17825259899996,44.49736990000008],[-73.17900049999997,44.496380300000055],[-73.17830959999998,44.496126900000036]]],[[[-73.18077609999995,44.49573820000006],[-73.18028939999994,44.49639710000008],[-73.18115199999994,44.49671310000008],[-73.18135419999999,44.49671560000007],[-73.18143540099999,44.49679580000003],[-73.18141989999998,44.49689440000003],[-73.18132009999994,44.49695860000003],[-73.18117449999994,44.49695690000004],[-73.18105849999995,44.49683280000005],[-73.18020679999995,44.496503000000075],[-73.17925349999996,44.49776270000007],[-73.17994760099998,44.49802760000006],[-73.18039359899996,44.49743170000005],[-73.18038989999997,44.49729320000006],[-73.18058709999997,44.49722470000006],[-73.18072149999995,44.49728920000007],[-73.18073300099996,44.49741460000007],[-73.18045829999994,44.497596300000055],[-73.18009730099999,44.49808370000005],[-73.18120149999999,44.49850360000005],[-73.18132279899999,44.49826630000007],[-73.18131179999995,44.498099000000025],[-73.18145750099995,44.49803870000005],[-73.18161139999995,44.49808390000004],[-73.18164949999993,44.49822420000004],[-73.18150309999999,44.49831270000004],[-73.18137109899999,44.49857050000003],[-73.18199179999993,44.49880340000004],[-73.18278839899995,44.497281600000065],[-73.18298199899994,44.497348600000066],[-73.18344769999999,44.49642460000007],[-73.18077609999995,44.49573820000006]]],[[[-73.17988729899997,44.49550990000006],[-73.17971029999995,44.49573700000008],[-73.17926299899995,44.496322500000076],[-73.17992440099994,44.496582000000046],[-73.18059239999997,44.49569310000004],[-73.17988729899997,44.49550990000006]]],[[[-73.17895009999995,44.495276500000045],[-73.17881949999997,44.49544780000008],[-73.17840169999994,44.49600650000008],[-73.17909239999994,44.49625990000004],[-73.17970429999997,44.495462700000076],[-73.17895009999995,44.495276500000045]]],[[[-73.17756359999998,44.49527450000005],[-73.17717269999997,44.49528090000007],[-73.17724569999996,44.49668840000004],[-73.17705749999999,44.49693940000003],[-73.17738429999997,44.49705170000004],[-73.17784799999998,44.49644180000007],[-73.17769020099996,44.49636490000006],[-73.17761799999994,44.49624840000007],[-73.17756359999998,44.49527450000005]]],[[[-73.17857619999995,44.49524830000007],[-73.17771680099997,44.49527020000005],[-73.17776489999994,44.49620800000008],[-73.17780709999994,44.49629360000006],[-73.17792199999997,44.49634580000003],[-73.17875039999996,44.495252900000025],[-73.17857619999995,44.49524830000007]]],[[[-73.18768490099995,44.49522810000008],[-73.18721079999995,44.496151800000064],[-73.18865919999996,44.49615040000003],[-73.18867219999998,44.495240300000034],[-73.18768490099995,44.49522810000008]]],[[[-73.18683939999994,44.49502280000007],[-73.18596639999998,44.496743200000026],[-73.18656979999997,44.49689710000007],[-73.18739440099995,44.49531990000003],[-73.18746269999997,44.49518440000003],[-73.18683939999994,44.49502280000007]]],[[[-73.18445739999999,44.49483390000006],[-73.18369349999995,44.496338800000046],[-73.18445609999998,44.49653740000008],[-73.18495789999997,44.495550500000036],[-73.18441589999998,44.495416300000045],[-73.18449849999996,44.49525260000007],[-73.18466890099995,44.49528930000008],[-73.18474199999997,44.495146300000044],[-73.18485309999994,44.494915400000025],[-73.18445739999999,44.49483390000006]]],[[[-73.18200139999993,44.49412460000008],[-73.18086899999997,44.49561630000005],[-73.18159820099999,44.49580430000003],[-73.18198329999996,44.49509980000005],[-73.18212649999998,44.49513940000003],[-73.18174299999998,44.49584050000004],[-73.18344699999994,44.49628030000008],[-73.18351359999997,44.496295700000076],[-73.18432919999998,44.49468930000006],[-73.18393499999996,44.49456280000004],[-73.18372149999993,44.49499810000003],[-73.18273189999996,44.49463890000004],[-73.18228869999996,44.49442710000005],[-73.18239159999996,44.494282000000055],[-73.18200139999993,44.49412460000008]]],[[[-73.17801350099995,44.49411310000005],[-73.17770469899995,44.49411750000007],[-73.17764509999995,44.49411930000008],[-73.17771129999994,44.49513310000003],[-73.17807459999995,44.495122500000036],[-73.17801350099995,44.49411310000005]]],[[[-73.17893049999998,44.49409160000005],[-73.17816679899994,44.494110600000056],[-73.17822789999997,44.495120400000076],[-73.17863020099998,44.49511080000008],[-73.17884849999996,44.49512310000006],[-73.17892699999999,44.494906600000036],[-73.17893049999998,44.49409160000005]]],[[[-73.18115289999997,44.49384120000008],[-73.17998169899994,44.49538840000008],[-73.18068519999997,44.49557080000005],[-73.18178839999996,44.494118300000025],[-73.18115289999997,44.49384120000008]]],[[[-73.17744159999995,44.49334150000004],[-73.17705979999994,44.49335540000004],[-73.17707089899994,44.49356110000008],[-73.17651949999998,44.49357830000008],[-73.17644969999998,44.494115700000066],[-73.17709970099997,44.49410330000006],[-73.17719029999995,44.49514360000006],[-73.17755819999996,44.49513740000003],[-73.17744159999995,44.49334150000004]]],[[[-73.17883029899997,44.49300000000005],[-73.17844579999996,44.493017300000076],[-73.17846939899994,44.493286100000034],[-73.17759390099997,44.493328200000064],[-73.17764109999996,44.494053500000064],[-73.17801039999995,44.494047300000034],[-73.17796320099995,44.493490000000065],[-73.17811639999996,44.49348560000004],[-73.17816359999995,44.49404480000004],[-73.17892389999997,44.494026000000076],[-73.17883029899997,44.49300000000005]]],[[[-73.17940779899999,44.49292380000003],[-73.17901729999994,44.49293960000006],[-73.17915639999995,44.49461050000008],[-73.17903919999998,44.49515150000008],[-73.17979919999993,44.49534150000005],[-73.18100829999997,44.493744700000036],[-73.18065779899996,44.49361150000004],[-73.18085439999999,44.49335860000008],[-73.18051690099998,44.49322980000005],[-73.18035120099995,44.493483800000035],[-73.18018229999996,44.49341890000005],[-73.17944749899993,44.49338030000007],[-73.17940779899999,44.49292380000003]]]]},"properties":{"OBJECT_ID":622,"County":"Chittenden","RPC":"CCRPC","Municipal_Name":"Winooski","GEO_ID":"5000785150","District_Name":"Residential B","Abbreviated_District_Name":"R-B","District_Type":"Primarily Residential","Bylaw_Date":"2023-08-02","Elderly_Housing_District":"No","District_Mapped":"Yes","Overlay_District":"No","Base_Density":5.88,"FIPS6":7090,"GIS_ID":null,"Last_Update":"20250707","Shape_Length":0.1786050736877178,"Shape_Area":4.923887742704174e-05,"F1F_Allowance":"Permitted","F1F_Front_Setback":10,"F1F_Side_Setback":10,"F1F_Rear_Setback":15,"F1F_Frontage":75,"F1F_Max_Height":35,"F1F_Max_Stories":null,"F1F_Min_Lot_Size":0.17,"F1F_Max_Lot_Building_Coverage":50,"F1F_Max_Lot_Impervious_Coverage":null,"F1F_Min_Parking_Spaces":1,"F1F_Elderly_Housing_Only":null,"F1F_Affordable_Housing_Only":null,"F2F_Allowance":"Permitted","F2F_Front_Setback":10,"F2F_Side_Setback":10,"F2F_Rear_Setback":15,"F2F_Frontage":75,"F2F_Max_Density":null,"F2F_Max_Height":35,"F2F_Max_Stories":null,"F2F_Min_Lot_Size":0.17,"F2F_Max_Lot_Building_Coverage":50,"F2F_Max_Lot_Impervious_Coverage":null,"F2F_Min_Parking_Spaces_per_1BR":1,"F2F_Min_Parking_Spaces_per_mult_BR":2,"F2F_Elderly_Housing_Only":"No","F2F_Affordable_Housing_Only":"No","F3F_Allowance":"Public Hearing","F3F_Front_Setback":10,"F3F_Side_Setback":10,"F3F_Rear_Setback":15,"F3F_Frontage":75,"F3F_Max_Density":null,"F3F_Max_Height":35,"F3F_Max_Stories":null,"F3F_Min_Lot_Size":0.17,"F3F_Max_Lot_Building_Coverage":50,"F3F_Max_Lot_Impervious_Coverage":null,"F3F_Min_Parking_Spaces_per_1BR":1,"F3F_Min_Parking_Spaces_per_mult_BR":2,"F3F_Affordable_Housing_Only":"No","F3F_Proximity_to_Public_Transit_Required":"No","F3F_Connection_to_Sewage/Water_Required":"No","F4F_Allowance":"Public Hearing","F4F_Front_Setback":10,"F4F_Side_Setback":10,"F4F_Rear_Setback":15,"F4F_Frontage":75,"F1F_Max_Density":null,"F4F_Max_Density":null,"F4F_Max_Height":35,"F4F_Max_Stories":null,"F4F_Min_Lot_Size":0.17,"F4F_Max_Lot_Building_Coverage":50,"F4F_Max_Lot_Impervious_Coverage":null,"F4F_Min_Parking_Spaces_per_1BR":1,"F4F_Min_Parking_Spaces_per_mult_BR":2,"F3F_Elderly_Housing_Only":"No","F4F_Elderly_Housing_Only":"No","F4F_Affordable_Housing_Only":"No","F4F_Proximity_to_Public_Transit_Required":"No","F4F_Connection_to_Sewage/Water_Required":"No","ADU_Allowance":"Allowed/Conditional","ADU_Elderly_Housing_Only":"No","ADU_Max_Size_as_Percent_of_Primary_Strcture":30,"ADU_Max_Size_in_sq_ft":900,"ADU_Min_Lot_Size":null,"ADU_Max_Bedrooms":null,"ADU_Min_Parking_Spaces":null,"ADU_Owner_Occupancy_Required":"Yes","ADU_Renter_Occupancy_Prohibited":"No","ADU_Employee_or_Family_Occupancy_Required":"No","ADU_Restricted_to_Primary_Structure":"No","Affordable_Housing_Allowance":"Allowed/Conditional","Affordable_Housing_District":"No","Affordable_Housing_Elderly_Only":"No","Affordable_Housing_Min_Lot_Size":0.23,"Affordable_Housing_Max_Density":null,"Affordable_Housing_Min_Parking_Spaces_per_mult_BR":2,"Affordable_Housing_Max_Units_per_Building":null,"Affordable_Housing_Min_Parking_Spaces_per_1BR":1,"PRD_Allowance":"Allowed/Conditional","PRD_Max_Density":null,"PRD_Max_Units":null,"PRD_Min_Lot_Size":null,"PRD_Mobile_or_Manufactured_Home_Park":"Yes","PUD_Allowance":"Yes","PUD_Required_with_Subdivision":"No","PUD_Requires_Land_Conservation":"No","PUD_Threshold_Number":null,"Notes":"None"}},{"type":"Feature","id":9,"geometry":{"type":"MultiPolygon","coordinates":[[[[-73.19731489999998,44.49867580000006],[-73.19709559999995,44.49877200000003],[-73.19733466599996,44.49907865700004],[-73.19758723499996,44.49874287800003],[-73.19731489999998,44.49867580000006]]],[[[-73.19437980099997,44.49760830000008],[-73.19422809999998,44.49768370000004],[-73.19451209999994,44.49797350000006],[-73.19464659999994,44.49790850000005],[-73.19437980099997,44.49760830000008]]],[[[-73.19636660099997,44.49719740000006],[-73.19568159999994,44.49754550000006],[-73.19581919899997,44.49768220000004],[-73.19616429999996,44.49750410000007],[-73.19663400099995,44.497970500000065],[-73.19693589899998,44.49782820000007],[-73.19724319999995,44.49810460000003],[-73.19677969899993,44.49833270000005],[-73.19702929999994,44.49858240000003],[-73.19735209999999,44.49851140000004],[-73.19769638899999,44.49859776200003],[-73.19796042899998,44.49824673300003],[-73.19781609999995,44.498274200000026],[-73.19765549999994,44.49802120000004],[-73.19735079999998,44.497730500000046],[-73.19678479999999,44.49758860000003],[-73.19636660099997,44.49719740000006]]],[[[-73.18986310099996,44.49629050000004],[-73.18986059999997,44.49673660000008],[-73.19223519999997,44.49672160000006],[-73.19223510099994,44.49654330000004],[-73.19242669999994,44.49654120000008],[-73.19242659999998,44.49647270000003],[-73.19262209999994,44.496470600000066],[-73.19262219999996,44.49665440000007],[-73.19286679999993,44.49653130000007],[-73.19286659999995,44.496314400000074],[-73.18986310099996,44.49629050000004]]],[[[-73.18891729999996,44.49628670000004],[-73.18868740099998,44.496732200000054],[-73.18942429999998,44.49673740000003],[-73.18942669999996,44.49663390000006],[-73.18967229999998,44.49663470000007],[-73.18967339899996,44.49629020000003],[-73.18891729999996,44.49628670000004]]],[[[-73.19493649999998,44.495737200000065],[-73.19440409999999,44.495998900000075],[-73.19546349999996,44.49710390000007],[-73.19530699999996,44.49718070000006],[-73.19555459999998,44.49744180000005],[-73.19624959899994,44.49708860000004],[-73.19493649999998,44.495737200000065]]],[[[-73.19212149999998,44.49524980000007],[-73.18986959999995,44.49525150000005],[-73.18986320099998,44.496154800000056],[-73.19297549999999,44.49617920000003],[-73.19298019999997,44.49607850000007],[-73.19273599899998,44.49581260000008],[-73.19248689999995,44.49589630000003],[-73.19237659999999,44.49576530000007],[-73.19225469999998,44.495747100000074],[-73.19212149999998,44.49524980000007]]],[[[-73.18867219999998,44.495240300000034],[-73.18865919999996,44.49615040000003],[-73.18967349999997,44.49615430000006],[-73.18967999999995,44.49524870000005],[-73.18867219999998,44.495240300000034]]],[[[-73.19614879999995,44.495141800000056],[-73.19610939999995,44.495160000000055],[-73.19509420099996,44.495659200000034],[-73.19640499899998,44.49700830000006],[-73.19744689999999,44.49647600000003],[-73.19614879999995,44.495141800000056]]],[[[-73.18461089999994,44.49453160000007],[-73.18445739999999,44.49483390000006],[-73.18485309999994,44.494915400000025],[-73.18474199999997,44.495146300000044],[-73.18512909999998,44.49522930000006],[-73.18538699999993,44.49468620000005],[-73.18461089999994,44.49453160000007]]],[[[-73.18988209999998,44.49409870000005],[-73.18987229999993,44.49508700000007],[-73.19216089999998,44.49508530000003],[-73.19203059999995,44.49478110000007],[-73.19176299999998,44.494792500000074],[-73.19176349999998,44.49483350000003],[-73.19154179899994,44.49460800000003],[-73.19063149999994,44.49460950000008],[-73.19062440099998,44.49410580000006],[-73.18988209999998,44.49409870000005]]],[[[-73.19832789899993,44.49405290000004],[-73.19749939999997,44.494462300000066],[-73.19631320099995,44.495070800000065],[-73.19841819999994,44.49723420000004],[-73.19852480099996,44.49743700000005],[-73.19839729999995,44.497528500000044],[-73.19822669999996,44.49748500000004],[-73.19819309999997,44.49739150000005],[-73.19826089999998,44.49731260000004],[-73.19755649999996,44.49658860000005],[-73.19652189999994,44.49711700000006],[-73.19689949999997,44.49747810000008],[-73.19745099999994,44.497610000000066],[-73.19781069999993,44.49792190000005],[-73.19803379999996,44.49795580000006],[-73.19808186099993,44.49808529400008],[-73.20055538699995,44.494796853000025],[-73.19914099999994,44.494210500000065],[-73.19832789899993,44.49405290000004]]],[[[-73.18219279999994,44.493872700000054],[-73.18200139999993,44.49412460000008],[-73.18239159999996,44.494282000000055],[-73.18228869999996,44.49442710000005],[-73.18273189999996,44.49463890000004],[-73.18372149999993,44.49499810000003],[-73.18393499999996,44.49456280000004],[-73.18432919999998,44.49468930000006],[-73.18442730099997,44.49449600000003],[-73.18330879999996,44.49426630000005],[-73.18219279999994,44.493872700000054]]],[[[-73.18795239999997,44.493691100000035],[-73.18755969899996,44.49369600000006],[-73.18756429899997,44.493870800000025],[-73.18742399999996,44.493872700000054],[-73.18742849999995,44.494062100000065],[-73.18710489999995,44.49402230000004],[-73.18702539999998,44.49423150000007],[-73.18721049999994,44.49428040000004],[-73.18689489999997,44.494862100000034],[-73.18753879999997,44.495029000000045],[-73.18787179999998,44.494336900000064],[-73.18795659999995,44.49392770000003],[-73.18795239999997,44.493691100000035]]],[[[-73.18969980099996,44.49366930000008],[-73.18818229999994,44.493688200000065],[-73.18814769999994,44.494219900000076],[-73.18776269999995,44.49506930000007],[-73.18918269999995,44.49507890000007],[-73.18968269999993,44.49508410000004],[-73.18969980099996,44.49366930000008]]],[[[-73.19047559899997,44.49365960000006],[-73.18988969999998,44.49366690000005],[-73.18988299999995,44.494021900000064],[-73.19048749999996,44.49402710000004],[-73.19047559899997,44.49365960000006]]],[[[-73.18136809999999,44.49355910000003],[-73.18115289999997,44.49384120000008],[-73.18178839999996,44.494118300000025],[-73.18202179999997,44.49381050000005],[-73.18136809999999,44.49355910000003]]],[[[-73.18403340099997,44.49353430000008],[-73.18391189999994,44.49425350000007],[-73.18542789999998,44.494552200000044],[-73.18557150099997,44.494190100000026],[-73.18580259999999,44.494219100000066],[-73.18587999999994,44.49377950000007],[-73.18403340099997,44.49353430000008]]],[[[-73.17527349999995,44.49346230000003],[-73.17529019999995,44.493665400000054],[-73.17575209999995,44.49365020000005],[-73.17577229999995,44.49346600000007],[-73.17527349999995,44.49346230000003]]],[[[-73.18085439999999,44.49335860000008],[-73.18065779899996,44.49361150000004],[-73.18100829999997,44.493744700000036],[-73.18120219999997,44.49349040000004],[-73.18085439999999,44.49335860000008]]],[[[-73.19235760099997,44.49306070000006],[-73.19179699999995,44.493333000000064],[-73.19196959999994,44.493514600000026],[-73.19201599999997,44.49349170000005],[-73.19429329999997,44.49588700000004],[-73.19483269999995,44.49562190000006],[-73.19235760099997,44.49306070000006]]],[[[-73.18413019999997,44.49297530000007],[-73.18405569999999,44.49339770000006],[-73.18585109999998,44.493636200000026],[-73.18591589899995,44.49330390000006],[-73.18581209999996,44.49329930000005],[-73.18582919999994,44.493008700000075],[-73.18413019999997,44.49297530000007]]],[[[-73.18259059999997,44.49295610000007],[-73.18244429999999,44.49381200000005],[-73.18314439999995,44.49406860000005],[-73.18372479999994,44.49421790000008],[-73.18393109999994,44.49300710000006],[-73.18337969999999,44.49296350000003],[-73.18337219999995,44.49301840000004],[-73.18259059999997,44.49295610000007]]],[[[-73.18994640099999,44.49285680000003],[-73.18815769999998,44.49287080000005],[-73.18817609999996,44.49355250000008],[-73.19030359999994,44.493525900000066],[-73.19017649999995,44.49326730000007],[-73.19023359999994,44.49319630000008],[-73.18994819999995,44.493040800000074],[-73.18994640099999,44.49285680000003]]],[[[-73.17940019899999,44.49283470000006],[-73.17940779899999,44.49292380000003],[-73.17944749899993,44.49338030000007],[-73.18018229999996,44.49341890000005],[-73.18035120099995,44.493483800000035],[-73.18051690099998,44.49322980000005],[-73.17940019899999,44.49283470000006]]],[[[-73.18792579999996,44.492817900000034],[-73.18726719999995,44.492835600000035],[-73.18726129999999,44.493195600000035],[-73.18772009999998,44.49319250000008],[-73.18773219999997,44.493558000000064],[-73.18794609999998,44.493555300000025],[-73.18792579999996,44.492817900000034]]],[[[-73.19377700099994,44.49273520000003],[-73.19275939999994,44.49323300000003],[-73.19499039999994,44.495543800000064],[-73.19603929999994,44.49502920000003],[-73.19377700099994,44.49273520000003]]],[[[-73.19168309999998,44.492376300000046],[-73.19141839899999,44.49250010000003],[-73.19155479999995,44.49263990000003],[-73.19127149999997,44.49276830000008],[-73.19172289999995,44.49323640000006],[-73.19226969999994,44.49297080000008],[-73.19168309999998,44.492376300000046]]],[[[-73.18604320099996,44.492323300000066],[-73.18421979999994,44.49246610000006],[-73.18415459999994,44.49283870000005],[-73.18586869999996,44.49287250000003],[-73.18578439999999,44.49242650000008],[-73.18605189999994,44.49242480000004],[-73.18604320099996,44.492323300000066]]],[[[-73.18938639999999,44.49215840000005],[-73.18813819999997,44.49226580000004],[-73.18815199999995,44.49273500000004],[-73.18960769999995,44.492723700000056],[-73.18960569999996,44.49255460000006],[-73.18939879999994,44.492557600000055],[-73.18938639999999,44.49215840000005]]],[[[-73.18790559899998,44.492143300000066],[-73.18726329999998,44.492223300000035],[-73.18728179999994,44.49274460000004],[-73.18792159999998,44.49272750000006],[-73.18790559899998,44.492143300000066]]],[[[-73.19499009999998,44.49212680000005],[-73.19395829999996,44.49264750000003],[-73.19541209999994,44.49414360000003],[-73.19620359999993,44.494958100000076],[-73.19726009999994,44.49444310000007],[-73.19696109999995,44.49411130000004],[-73.19667059999995,44.49402950000007],[-73.19635569999997,44.493576200000064],[-73.19585219999993,44.49327260000007],[-73.19565039999998,44.49283630000008],[-73.19499009999998,44.49212680000005]]],[[[-73.19303479999996,44.49188490000006],[-73.19235779999997,44.491904600000055],[-73.19240039999994,44.491953300000034],[-73.19181279999998,44.492270000000076],[-73.19264969999995,44.49312050000003],[-73.19369179899996,44.49261130000008],[-73.19303479999996,44.49188490000006]]],[[[-73.19657379999995,44.491642900000045],[-73.19593619999995,44.491668600000025],[-73.19670089999994,44.49249200000003],[-73.19654239999994,44.49256900000006],[-73.19577939899995,44.491748200000075],[-73.19514779999997,44.49204880000008],[-73.19594539999997,44.492895900000065],[-73.19625049999996,44.49274180000003],[-73.19643469999994,44.49293890000007],[-73.19692639999994,44.492688600000065],[-73.19686389999998,44.49263300000007],[-73.19716359999995,44.49247340000005],[-73.19683209999994,44.49214650000005],[-73.19703799999996,44.49204610000004],[-73.19670479999996,44.49168260000005],[-73.19657379999995,44.491642900000045]]],[[[-73.19569089999999,44.49162400000006],[-73.19477449999994,44.49171510000008],[-73.19324649999999,44.491867100000036],[-73.19385030099994,44.49253420000008],[-73.19569089999999,44.49162400000006]]],[[[-73.19624129999994,44.491165100000046],[-73.19230629899994,44.49138650000003],[-73.19233909999997,44.491656300000045],[-73.19625629899997,44.49146120000006],[-73.19624129999994,44.491165100000046]]],[[[-73.19522869999997,44.490678700000046],[-73.19155499999994,44.490907900000025],[-73.19159169999995,44.49128900000005],[-73.19534179999994,44.49106880000005],[-73.19522869999997,44.490678700000046]]],[[[-73.19529589999996,44.489369400000044],[-73.19444199999998,44.48942510000006],[-73.19376999999997,44.48951000000005],[-73.19314539999993,44.48973150000006],[-73.19313439999996,44.490036700000076],[-73.19322539899997,44.490667200000075],[-73.19521770099993,44.49054660000007],[-73.19545799899998,44.490678100000025],[-73.19553279999997,44.49105720000006],[-73.19709579999994,44.490999000000045],[-73.19705649999997,44.489649400000076],[-73.19577270099995,44.48938670000007],[-73.19529589999996,44.489369400000044]]]]},"properties":{"OBJECT_ID":623,"County":"Chittenden","RPC":"CCRPC","Municipal_Name":"Winooski","GEO_ID":"5000785150","District_Name":"Residential C","Abbreviated_District_Name":"R-C","District_Type":"Primarily Residential","Bylaw_Date":"2023-08-02","Elderly_Housing_District":"No","District_Mapped":"Yes","Overlay_District":"No","Base_Density":5.88,"FIPS6":7090,"GIS_ID":null,"Last_Update":"20250707","Shape_Length":0.20237653974955824,"Shape_Area":5.261803220065826e-05,"F1F_Allowance":"Permitted","F1F_Front_Setback":10,"F1F_Side_Setback":10,"F1F_Rear_Setback":15,"F1F_Frontage":50,"F1F_Max_Height":35,"F1F_Max_Stories":null,"F1F_Min_Lot_Size":0.17,"F1F_Max_Lot_Building_Coverage":50,"F1F_Max_Lot_Impervious_Coverage":null,"F1F_Min_Parking_Spaces":1,"F1F_Elderly_Housing_Only":null,"F1F_Affordable_Housing_Only":null,"F2F_Allowance":"Permitted","F2F_Front_Setback":10,"F2F_Side_Setback":10,"F2F_Rear_Setback":15,"F2F_Frontage":50,"F2F_Max_Density":null,"F2F_Max_Height":35,"F2F_Max_Stories":null,"F2F_Min_Lot_Size":0.17,"F2F_Max_Lot_Building_Coverage":50,"F2F_Max_Lot_Impervious_Coverage":null,"F2F_Min_Parking_Spaces_per_1BR":1,"F2F_Min_Parking_Spaces_per_mult_BR":2,"F2F_Elderly_Housing_Only":"No","F2F_Affordable_Housing_Only":"No","F3F_Allowance":"Public Hearing","F3F_Front_Setback":10,"F3F_Side_Setback":10,"F3F_Rear_Setback":15,"F3F_Frontage":50,"F3F_Max_Density":null,"F3F_Max_Height":35,"F3F_Max_Stories":null,"F3F_Min_Lot_Size":0.17,"F3F_Max_Lot_Building_Coverage":50,"F3F_Max_Lot_Impervious_Coverage":null,"F3F_Min_Parking_Spaces_per_1BR":1,"F3F_Min_Parking_Spaces_per_mult_BR":2,"F3F_Affordable_Housing_Only":"No","F3F_Proximity_to_Public_Transit_Required":"No","F3F_Connection_to_Sewage/Water_Required":"No","F4F_Allowance":"Public Hearing","F4F_Front_Setback":10,"F4F_Side_Setback":10,"F4F_Rear_Setback":15,"F4F_Frontage":50,"F1F_Max_Density":null,"F4F_Max_Density":null,"F4F_Max_Height":35,"F4F_Max_Stories":null,"F4F_Min_Lot_Size":0.17,"F4F_Max_Lot_Building_Coverage":50,"F4F_Max_Lot_Impervious_Coverage":null,"F4F_Min_Parking_Spaces_per_1BR":1,"F4F_Min_Parking_Spaces_per_mult_BR":2,"F3F_Elderly_Housing_Only":"No","F4F_Elderly_Housing_Only":"No","F4F_Affordable_Housing_Only":"No","F4F_Proximity_to_Public_Transit_Required":"No","F4F_Connection_to_Sewage/Water_Required":"No","ADU_Allowance":"Allowed/Conditional","ADU_Elderly_Housing_Only":"No","ADU_Max_Size_as_Percent_of_Primary_Strcture":30,"ADU_Max_Size_in_sq_ft":900,"ADU_Min_Lot_Size":null,"ADU_Max_Bedrooms":null,"ADU_Min_Parking_Spaces":null,"ADU_Owner_Occupancy_Required":"Yes","ADU_Renter_Occupancy_Prohibited":"No","ADU_Employee_or_Family_Occupancy_Required":"No","ADU_Restricted_to_Primary_Structure":"No","Affordable_Housing_Allowance":"Allowed/Conditional","Affordable_Housing_District":"No","Affordable_Housing_Elderly_Only":"No","Affordable_Housing_Min_Lot_Size":0.17,"Affordable_Housing_Max_Density":null,"Affordable_Housing_Min_Parking_Spaces_per_mult_BR":2,"Affordable_Housing_Max_Units_per_Building":null,"Affordable_Housing_Min_Parking_Spaces_per_1BR":1,"PRD_Allowance":"Allowed/Conditional","PRD_Max_Density":null,"PRD_Max_Units":null,"PRD_Min_Lot_Size":null,"PRD_Mobile_or_Manufactured_Home_Park":"Yes","PUD_Allowance":"Yes","PUD_Required_with_Subdivision":"No","PUD_Requires_Land_Conservation":"No","PUD_Threshold_Number":null,"Notes":"None"}}]}