{"type": "FeatureCollection", "name": "Chittenden_SaintGeorge", "features": [{"type": "Feature", "properties": {"OBJECT_ID": 429, "County": "Chittenden", "RPC": "CCRPC", "Municipal_Name": "Saint George ", "GEO_ID": null, "District_Name": "Village Neighborhood District", "Abbreviated_District_Name": "Vn", "District_Type": "Primarily Residential", "Bylaw_Date": "2023-07-31T00:00:00", "Elderly_Housing_District": "No", "District_Mapped": "Yes", "Overlay_District": "No", "Base_Density": 4.0, "Shape_Length": 9711.463418048652, "Shape_Area": 597443.5493200137, "F1F_Allowance": "Permitted", "F1F_Front_Setback": 15.0, "F1F_Side_Setback": 10.0, "F1F_Rear_Setback": 30.0, "F1F_Frontage": 75.0, "F1F_Max_Height": null, "F1F_Max_Stories": 3.0, "F1F_Min_Lot_Size": 0.5, "F1F_Max_Lot_Building_Coverage": null, "F1F_Max_Lot_Impervious_Coverage": 50.0, "F1F_Min_Parking_Spaces": 2.0, "F2F_Allowance": "Permitted", "F2F_Front_Setback": 15.0, "F2F_Side_Setback": 10.0, "F2F_Rear_Setback": 30.0, "F2F_Frontage": 75.0, "F2F_Max_Density": 4.0, "F2F_Max_Height": null, "F2F_Max_Stories": 3.0, "F2F_Min_Lot_Size": 0.5, "F2F_Max_Lot_Building_Coverage": null, "F2F_Max_Lot_Impervious_Coverage": 50.0, "F2F_Min_Parking_Spaces_per_1BR": null, "F2F_Min_Parking_Spaces_per_mult_BR": 2.0, "F2F_Elderly_Housing_Only": "No", "F2F_Affordable_Housing_Only": "No", "F3F_Allowance": "Public Hearing", "F3F_Front_Setback": 15.0, "F3F_Side_Setback": 10.0, "F3F_Rear_Setback": 30.0, "F3F_Frontage": 75.0, "F3F_Max_Density": 4.0, "F3F_Max_Height": null, "F3F_Max_Stories": 3.0, "F3F_Min_Lot_Size": 0.5, "F3F_Max_Lot_Building_Coverage": null, "F3F_Max_Lot_Impervious_Coverage": 50.0, "F3F_Min_Parking_Spaces_per_1BR": null, "F3F_Min_Parking_Spaces_per_mult_BR": null, "F3F_Affordable_Housing_Only": "No", "F3F_Proximity_to_Public_Transit_Required": "No", "F3F_Connection_to_Sewage/Water_Required": "No", "F4F_Allowance": "Public Hearing", "F4F_Front_Setback": 15.0, "F4F_Side_Setback": 10.0, "F4F_Rear_Setback": 30.0, "F4F_Frontage": 75.0, "F4F_Max_Density": 4.0, "F4F_Max_Height": null, "F4F_Max_Stories": 3.0, "F4F_Min_Lot_Size": 0.5, "F4F_Max_Lot_Building_Coverage": null, "F4F_Max_Lot_Impervious_Coverage": 50.0, "F4F_Min_Parking_Spaces_per_1BR": null, "F4F_Min_Parking_Spaces_per_mult_BR": null, "F3F_Elderly_Housing_Only": "No", "F4F_Elderly_Housing_Only": "No", "F4F_Affordable_Housing_Only": "No", "F4F_Proximity_to_Public_Transit_Required": "No", "F4F_Connection_to_Sewage/Water_Required": "No", "ADU_Allowance": "Allowed/Conditional", "ADU_Elderly_Housing_Only": "No", "ADU_Max_Size_as_Percent_of_Primary_Strcture": 30.0, "ADU_Max_Size_in_sq_ft": 600.0, "ADU_Min_Lot_Size": null, "ADU_Max_Bedrooms": null, "ADU_Min_Parking_Spaces": 1.0, "ADU_Owner_Occupancy_Required": "Yes", "ADU_Renter_Occupancy_Prohibited": "No", "ADU_Employee_or_Family_Occupancy_Required": "No", "ADU_Restricted_to_Primary_Structure": "No", "Affordable_Housing_Allowance": "Not Mentioned", "Affordable_Housing_District": "No", "Affordable_Housing_Elderly_Only": "No", "Affordable_Housing_Min_Lot_Size": null, "Affordable_Housing_Max_Density": null, "Affordable_Housing_Min_Parking_Spaces_per_mult_BR": null, "Affordable_Housing_Max_Units_per_Building": null, "Affordable_Housing_Min_Parking_Spaces_per_1BR": null, "PRD_Allowance": "Public Hearing", "PRD_Max_Density": 4.0, "PRD_Max_Units": null, "PRD_Min_Lot_Size": null, "PRD_Mobile_or_Manufactured_Home_Park": "Yes", "PUD_Allowance": "Yes", "PUD_Required_with_Subdivision": "T", "PUD_Requires_Land_Conservation": "T", "PUD_Threshold_Number": null, "Notes": "\"Multifamily And Attached Dwellings Should Be Designed to Resemble Large Single-Family Dwellings.\"  "}, "geometry": {"type": "MultiPolygon", "coordinates": [[[[-73.12606820043551, 44.38895209981991], [-73.12555639964883, 44.38899879956146], [-73.12505570056935, 44.38919800023666], [-73.12450510036288, 44.389562200294854], [-73.12515330002421, 44.389165999877044], [-73.12562179939485, 44.38901010034846], [-73.12629310027161, 44.38895819973788], [-73.12729360049983, 44.388977900159595], [-73.12728630053415, 44.38966290004956], [-73.12732410012224, 44.38965790016169], [-73.12734029981955, 44.38896320021317], [-73.12606820043551, 44.38895209981991]]], [[[-73.1264385000069, 44.383118100098315], [-73.12603300060019, 44.38332859957707], [-73.12521680005216, 44.383970899723366], [-73.12447929976086, 44.384448799806194], [-73.12452530062345, 44.38935859982106], [-73.12498790010106, 44.38906489992785], [-73.12556010046416, 44.3888568996378], [-73.12616629998666, 44.38881430010825], [-73.12735170012117, 44.38882720038118], [-73.12757850016227, 44.38677379959829], [-73.12749550049615, 44.38596199960729], [-73.12718700048546, 44.384666099726296], [-73.1264385000069, 44.383118100098315]]], [[[-73.12712469991408, 44.37980680039345], [-73.12636859956952, 44.37983310001463], [-73.12634770060606, 44.38115470038464], [-73.12648489950534, 44.3824530000683], [-73.12670090026705, 44.38311340010372], [-73.12740729990672, 44.384545099621135], [-73.12780540050994, 44.38634529990544], [-73.1278225995009, 44.38705249980465], [-73.12760750003065, 44.3887970998733], [-73.12757520030081, 44.38962880019862], [-73.13035839991016, 44.38957589983346], [-73.13028439980125, 44.386599699651235], [-73.13017710025505, 44.38228480017697], [-73.12731409966388, 44.3825402000409], [-73.12729619987967, 44.38070329958849], [-73.1272850993782, 44.380835999600585], [-73.1270702004644, 44.38084469968157], [-73.12709309940269, 44.38057700006111], [-73.12734739959606, 44.38016079955874], [-73.12712469991408, 44.37980680039345]]], [[[-73.12860170040122, 44.371939899975295], [-73.12772830031919, 44.37204280017357], [-73.12746439951378, 44.37324119999246], [-73.12736960041228, 44.3746529999687], [-73.12690370036208, 44.376354699792046], [-73.12983769957395, 44.37608079959672], [-73.12974529998104, 44.37373800005373], [-73.12981169980365, 44.37361350028186], [-73.1289260994377, 44.372694100212094], [-73.12941960048354, 44.3726238998911], [-73.12954390042424, 44.372721900294124], [-73.13051680022825, 44.37198069985289], [-73.12860170040122, 44.371939899975295]]], [[[-73.12750199968278, 44.37191380009181], [-73.12452250058314, 44.372259300383384], [-73.12466210027834, 44.374418499995905], [-73.12461739983436, 44.384179399989925], [-73.12590429965339, 44.383228999724416], [-73.12637490056176, 44.38298740012655], [-73.12621690003189, 44.382381400038234], [-73.1261267005353, 44.381564200332214], [-73.12610879991779, 44.37988440031065], [-73.12539650029225, 44.379973400317624], [-73.12573220032633, 44.37756880006748], [-73.12592549976652, 44.37646799968583], [-73.12663930003404, 44.37639940014985], [-73.12711980021936, 44.37462710018583], [-73.12721320011929, 44.37322259959127], [-73.12750199968278, 44.37191380009181]]]]}}, {"type": "Feature", "properties": {"OBJECT_ID": 427, "County": "Chittenden", "RPC": "CCRPC", "Municipal_Name": "Saint George ", "GEO_ID": null, "District_Name": "Village Center District", "Abbreviated_District_Name": "Vc", "District_Type": "Mixed with Residential", "Bylaw_Date": "2023-07-31T00:00:00", "Elderly_Housing_District": "No", "District_Mapped": "Yes", "Overlay_District": "No", "Base_Density": 12.0, "Shape_Length": 3431.4796438377284, "Shape_Area": 184387.64709444548, "F1F_Allowance": "Public Hearing", "F1F_Front_Setback": null, "F1F_Side_Setback": null, "F1F_Rear_Setback": 10.0, "F1F_Frontage": 25.0, "F1F_Max_Height": null, "F1F_Max_Stories": 3.0, "F1F_Min_Lot_Size": 0.06, "F1F_Max_Lot_Building_Coverage": null, "F1F_Max_Lot_Impervious_Coverage": 90.0, "F1F_Min_Parking_Spaces": 2.0, "F2F_Allowance": "Prohibited", "F2F_Front_Setback": null, "F2F_Side_Setback": null, "F2F_Rear_Setback": null, "F2F_Frontage": 25.0, "F2F_Max_Density": null, "F2F_Max_Height": null, "F2F_Max_Stories": null, "F2F_Min_Lot_Size": null, "F2F_Max_Lot_Building_Coverage": null, "F2F_Max_Lot_Impervious_Coverage": null, "F2F_Min_Parking_Spaces_per_1BR": null, "F2F_Min_Parking_Spaces_per_mult_BR": null, "F2F_Elderly_Housing_Only": "No", "F2F_Affordable_Housing_Only": "No", "F3F_Allowance": "Public Hearing", "F3F_Front_Setback": null, "F3F_Side_Setback": null, "F3F_Rear_Setback": 10.0, "F3F_Frontage": 25.0, "F3F_Max_Density": 12.0, "F3F_Max_Height": null, "F3F_Max_Stories": 3.0, "F3F_Min_Lot_Size": 0.06, "F3F_Max_Lot_Building_Coverage": null, "F3F_Max_Lot_Impervious_Coverage": 90.0, "F3F_Min_Parking_Spaces_per_1BR": null, "F3F_Min_Parking_Spaces_per_mult_BR": null, "F3F_Affordable_Housing_Only": "No", "F3F_Proximity_to_Public_Transit_Required": "No", "F3F_Connection_to_Sewage/Water_Required": "No", "F4F_Allowance": "Public Hearing", "F4F_Front_Setback": null, "F4F_Side_Setback": null, "F4F_Rear_Setback": 10.0, "F4F_Frontage": 25.0, "F4F_Max_Density": 12.0, "F4F_Max_Height": null, "F4F_Max_Stories": 3.0, "F4F_Min_Lot_Size": 0.06, "F4F_Max_Lot_Building_Coverage": null, "F4F_Max_Lot_Impervious_Coverage": 90.0, "F4F_Min_Parking_Spaces_per_1BR": null, "F4F_Min_Parking_Spaces_per_mult_BR": null, "F3F_Elderly_Housing_Only": "No", "F4F_Elderly_Housing_Only": "No", "F4F_Affordable_Housing_Only": "No", "F4F_Proximity_to_Public_Transit_Required": "No", "F4F_Connection_to_Sewage/Water_Required": "No", "ADU_Allowance": "Prohibited", "ADU_Elderly_Housing_Only": "No", "ADU_Max_Size_as_Percent_of_Primary_Strcture": null, "ADU_Max_Size_in_sq_ft": null, "ADU_Min_Lot_Size": null, "ADU_Max_Bedrooms": null, "ADU_Min_Parking_Spaces": null, "ADU_Owner_Occupancy_Required": "No", "ADU_Renter_Occupancy_Prohibited": "No", "ADU_Employee_or_Family_Occupancy_Required": "No", "ADU_Restricted_to_Primary_Structure": "No", "Affordable_Housing_Allowance": "Not Mentioned", "Affordable_Housing_District": "No", "Affordable_Housing_Elderly_Only": "No", "Affordable_Housing_Min_Lot_Size": null, "Affordable_Housing_Max_Density": null, "Affordable_Housing_Min_Parking_Spaces_per_mult_BR": null, "Affordable_Housing_Max_Units_per_Building": null, "Affordable_Housing_Min_Parking_Spaces_per_1BR": null, "PRD_Allowance": "Public Hearing", "PRD_Max_Density": 12.0, "PRD_Max_Units": null, "PRD_Min_Lot_Size": null, "PRD_Mobile_or_Manufactured_Home_Park": "Yes", "PUD_Allowance": "Yes", "PUD_Required_with_Subdivision": "T", "PUD_Requires_Land_Conservation": "T", "PUD_Threshold_Number": null, "Notes": "None"}, "geometry": {"type": "MultiPolygon", "coordinates": [[[[-73.1264740006146, 44.37903290044067], [-73.12636859956952, 44.37983310001463], [-73.12712469991408, 44.37980680039345], [-73.12700820038107, 44.37961850018913], [-73.1268703997632, 44.3790618003707], [-73.1264740006146, 44.37903290044067]]], [[[-73.12663930003404, 44.37639940014985], [-73.12592549976652, 44.37646799968583], [-73.12573220032633, 44.37756880006748], [-73.12539650029225, 44.379973400317624], [-73.12610879991779, 44.37988440031065], [-73.12663930003404, 44.37639940014985]]], [[[-73.12983769957395, 44.37608079959672], [-73.12690370036208, 44.376354699792046], [-73.12650519938971, 44.37879810023794], [-73.1268549996733, 44.37878759988736], [-73.12704870041644, 44.378859300393025], [-73.12723649945919, 44.379609000369086], [-73.12756570040091, 44.37999210036168], [-73.12988749967344, 44.37978220044208], [-73.12992600004834, 44.379932700218966], [-73.1275937002128, 44.38017100020962], [-73.12729619987967, 44.38070329958849], [-73.12731409966388, 44.3825402000409], [-73.13017710025505, 44.38228480017697], [-73.12983769957395, 44.37608079959672]]]]}}, {"type": "Feature", "properties": {"OBJECT_ID": 425, "County": "Chittenden", "RPC": "CCRPC", "Municipal_Name": "Saint George ", "GEO_ID": null, "District_Name": "Medium-Density Residential District", "Abbreviated_District_Name": "Mdr", "District_Type": "Primarily Residential", "Bylaw_Date": "2023-07-31T00:00:00", "Elderly_Housing_District": "No", "District_Mapped": "Yes", "Overlay_District": "No", "Base_Density": 1.0, "Shape_Length": 15892.602807657344, "Shape_Area": 1072075.5119580196, "F1F_Allowance": "Permitted", "F1F_Front_Setback": 30.0, "F1F_Side_Setback": 20.0, "F1F_Rear_Setback": 50.0, "F1F_Frontage": 200.0, "F1F_Max_Height": null, "F1F_Max_Stories": 2.0, "F1F_Min_Lot_Size": 2.0, "F1F_Max_Lot_Building_Coverage": null, "F1F_Max_Lot_Impervious_Coverage": 10.0, "F1F_Min_Parking_Spaces": null, "F2F_Allowance": "Permitted", "F2F_Front_Setback": 30.0, "F2F_Side_Setback": 20.0, "F2F_Rear_Setback": 50.0, "F2F_Frontage": 200.0, "F2F_Max_Density": 1.0, "F2F_Max_Height": null, "F2F_Max_Stories": 2.0, "F2F_Min_Lot_Size": 2.0, "F2F_Max_Lot_Building_Coverage": null, "F2F_Max_Lot_Impervious_Coverage": 10.0, "F2F_Min_Parking_Spaces_per_1BR": null, "F2F_Min_Parking_Spaces_per_mult_BR": null, "F2F_Elderly_Housing_Only": "No", "F2F_Affordable_Housing_Only": "No", "F3F_Allowance": "Public Hearing", "F3F_Front_Setback": 30.0, "F3F_Side_Setback": 20.0, "F3F_Rear_Setback": 50.0, "F3F_Frontage": 200.0, "F3F_Max_Density": 1.0, "F3F_Max_Height": null, "F3F_Max_Stories": 3.0, "F3F_Min_Lot_Size": 2.0, "F3F_Max_Lot_Building_Coverage": null, "F3F_Max_Lot_Impervious_Coverage": 10.0, "F3F_Min_Parking_Spaces_per_1BR": null, "F3F_Min_Parking_Spaces_per_mult_BR": null, "F3F_Affordable_Housing_Only": "No", "F3F_Proximity_to_Public_Transit_Required": "No", "F3F_Connection_to_Sewage/Water_Required": "No", "F4F_Allowance": "Public Hearing", "F4F_Front_Setback": 30.0, "F4F_Side_Setback": 20.0, "F4F_Rear_Setback": 50.0, "F4F_Frontage": 200.0, "F4F_Max_Density": 1.0, "F4F_Max_Height": null, "F4F_Max_Stories": 2.0, "F4F_Min_Lot_Size": 2.0, "F4F_Max_Lot_Building_Coverage": null, "F4F_Max_Lot_Impervious_Coverage": 10.0, "F4F_Min_Parking_Spaces_per_1BR": null, "F4F_Min_Parking_Spaces_per_mult_BR": null, "F3F_Elderly_Housing_Only": "No", "F4F_Elderly_Housing_Only": "No", "F4F_Affordable_Housing_Only": "No", "F4F_Proximity_to_Public_Transit_Required": "No", "F4F_Connection_to_Sewage/Water_Required": "No", "ADU_Allowance": "Allowed/Conditional", "ADU_Elderly_Housing_Only": "No", "ADU_Max_Size_as_Percent_of_Primary_Strcture": 30.0, "ADU_Max_Size_in_sq_ft": 600.0, "ADU_Min_Lot_Size": null, "ADU_Max_Bedrooms": null, "ADU_Min_Parking_Spaces": 1.0, "ADU_Owner_Occupancy_Required": "Yes", "ADU_Renter_Occupancy_Prohibited": "No", "ADU_Employee_or_Family_Occupancy_Required": "No", "ADU_Restricted_to_Primary_Structure": "No", "Affordable_Housing_Allowance": "Not Mentioned", "Affordable_Housing_District": "No", "Affordable_Housing_Elderly_Only": "No", "Affordable_Housing_Min_Lot_Size": null, "Affordable_Housing_Max_Density": null, "Affordable_Housing_Min_Parking_Spaces_per_mult_BR": null, "Affordable_Housing_Max_Units_per_Building": null, "Affordable_Housing_Min_Parking_Spaces_per_1BR": null, "PRD_Allowance": "Public Hearing", "PRD_Max_Density": 1.0, "PRD_Max_Units": null, "PRD_Min_Lot_Size": null, "PRD_Mobile_or_Manufactured_Home_Park": "Yes", "PUD_Allowance": "Yes", "PUD_Required_with_Subdivision": "T", "PUD_Requires_Land_Conservation": "T", "PUD_Threshold_Number": null, "Notes": " \"The Town Plan Describes This District As 'Existing Residential Neighborhoods' And Envisions 'Few Changes to The Current Pattern And Density Of Land Use Within This Planning Area.' "}, "geometry": {"type": "MultiPolygon", "coordinates": [[[[-73.12629310027161, 44.38895819973788], [-73.12562179939485, 44.38901010034846], [-73.12580670040273, 44.39253000042047], [-73.12762869997478, 44.39228320032457], [-73.12728630053415, 44.38966290004956], [-73.12729360049983, 44.388977900159595], [-73.12629310027161, 44.38895819973788]]], [[[-73.13671520029789, 44.37832350011879], [-73.13650469942435, 44.3783531004531], [-73.13688229939247, 44.3790856003399], [-73.13671520029789, 44.37832350011879]]], [[[-73.12559039968733, 44.36996999969956], [-73.12521830002744, 44.37003309960559], [-73.1248990003114, 44.370087099703014], [-73.12499249954197, 44.37113989972413], [-73.12593310054979, 44.37101099963935], [-73.12559039968733, 44.36996999969956]]], [[[-73.12839529976213, 44.36986319977229], [-73.12822409983762, 44.36999519957687], [-73.12815020036626, 44.37017369974816], [-73.12772830031919, 44.37204280017357], [-73.12860170040122, 44.371939899975295], [-73.13051680022825, 44.37198069985289], [-73.12954390042424, 44.372721900294124], [-73.12941960048354, 44.3726238998911], [-73.1289260994377, 44.372694100212094], [-73.12981169980365, 44.37361350028186], [-73.12974529998104, 44.37373800005373], [-73.12983769957395, 44.37608079959672], [-73.13263419947731, 44.37581950027854], [-73.13402879979819, 44.381949000205935], [-73.13017710025505, 44.38228480017697], [-73.13028439980125, 44.386599699651235], [-73.13494310020387, 44.386166699936254], [-73.13499930005256, 44.38641800033866], [-73.13839369950195, 44.385980200216274], [-73.13706500037655, 44.3799194004449], [-73.13509459997653, 44.37621790038023], [-73.1339268998804, 44.37427490008071], [-73.13322569962689, 44.37349719989952], [-73.13184730061667, 44.37240760035645], [-73.13058910044403, 44.37339580017704], [-73.13058660047264, 44.37384589975437], [-73.13050329966414, 44.37386190016604], [-73.1304627003255, 44.37351399977861], [-73.13050899950152, 44.37335949958937], [-73.13178229975448, 44.37235779957593], [-73.12976209945529, 44.37092119974259], [-73.12839529976213, 44.36986319977229]]], [[[-73.1262438003815, 44.36746410020281], [-73.1251597994111, 44.36764289978405], [-73.12535569980079, 44.36820479967974], [-73.12317510059532, 44.36859300044759], [-73.12319849968264, 44.36898549987853], [-73.12418769989166, 44.36898350030258], [-73.12442569946231, 44.37071200015208], [-73.12452250058314, 44.372259300383384], [-73.12750199968278, 44.37191380009181], [-73.12770760045125, 44.370996800425644], [-73.12641729997631, 44.37117360002351], [-73.12613549990606, 44.37112289958174], [-73.12481440041846, 44.37129269969185], [-73.12469870052927, 44.369989799669554], [-73.1255464999416, 44.369836500175836], [-73.12532679952903, 44.369169099657235], [-73.1248011001394, 44.36931180022533], [-73.12469009951363, 44.369253700040716], [-73.1246606999362, 44.369165200025776], [-73.1248120998302, 44.36904499988011], [-73.12498999991024, 44.36908529981712], [-73.12547170043628, 44.36901259999124], [-73.12611840055371, 44.37097870041922], [-73.1264216001137, 44.371033799560536], [-73.12774020012228, 44.37085309963719], [-73.12795309955654, 44.36990909994746], [-73.12794160011383, 44.36957579963344], [-73.12780610020567, 44.36935819985347], [-73.12658970018622, 44.36820519971668], [-73.12639230057948, 44.367882200124924], [-73.1262438003815, 44.36746410020281]]], [[[-73.12482039938779, 44.367254400323965], [-73.12430610036604, 44.36730890014178], [-73.1233417003778, 44.367411099656685], [-73.12314730050379, 44.36812439977062], [-73.12316169945358, 44.36845379969684], [-73.12513040015038, 44.368103500107814], [-73.12482039938779, 44.367254400323965]]], [[[-73.12567667840887, 44.36552260219252], [-73.12211250040879, 44.365939499820804], [-73.122398300069, 44.36693690008524], [-73.12206620012061, 44.36874309955246], [-73.12295310052278, 44.36873200035766], [-73.12299120031228, 44.3687748999119], [-73.12295659971187, 44.368109399951734], [-73.12319260034448, 44.367243800014116], [-73.1229538995872, 44.36650300003371], [-73.12275559950184, 44.366442000065646], [-73.12276139980713, 44.36628870008475], [-73.12292540010645, 44.36623139965764], [-73.1230841004463, 44.366302000183346], [-73.12339519959306, 44.367266500290675], [-73.12495429940498, 44.36710240006206], [-73.12510160016627, 44.367483699737086], [-73.1261956005296, 44.36730329974687], [-73.12567667840887, 44.36552260219252]]], [[[-73.12883479981073, 44.365184712585524], [-73.1270986943575, 44.365370365941104], [-73.12593609797115, 44.365494065841865], [-73.12653879990037, 44.36758280036802], [-73.12680750005924, 44.36811379955498], [-73.12794729943057, 44.36919529975999], [-73.12888250027135, 44.369986299935974], [-73.1319953997655, 44.372255599826005], [-73.13364349967466, 44.37359840021443], [-73.13414830034891, 44.374187900146126], [-73.13451649939887, 44.374739599617875], [-73.13643459979627, 44.37822130015062], [-73.13661026688058, 44.378197203873725], [-73.13654170057134, 44.37790140040213], [-73.13642687934791, 44.37740606032018], [-73.13546839961046, 44.37327189980271], [-73.13383730017301, 44.37342310024105], [-73.13346059997953, 44.3726804995726], [-73.13311660029105, 44.37171300004273], [-73.13260710019576, 44.371749399749845], [-73.1326093001138, 44.370899999682266], [-73.13148719984096, 44.371333700398], [-73.1315873997725, 44.370087099619646], [-73.12931490006696, 44.366839600437665], [-73.12883479981073, 44.365184712585524]]]]}}, {"type": "Feature", "properties": {"OBJECT_ID": 428, "County": "Chittenden", "RPC": "CCRPC", "Municipal_Name": "Saint George ", "GEO_ID": null, "District_Name": "Village Center Reserve District", "Abbreviated_District_Name": "Vcr", "District_Type": "Nonresidential", "Bylaw_Date": "2023-07-31T00:00:00", "Elderly_Housing_District": "No", "District_Mapped": "Yes", "Overlay_District": "No", "Base_Density": null, "Shape_Length": 1913.9829638997458, "Shape_Area": 183818.12450702465, "F1F_Allowance": "Prohibited", "F1F_Front_Setback": null, "F1F_Side_Setback": null, "F1F_Rear_Setback": null, "F1F_Frontage": null, "F1F_Max_Height": null, "F1F_Max_Stories": null, "F1F_Min_Lot_Size": null, "F1F_Max_Lot_Building_Coverage": null, "F1F_Max_Lot_Impervious_Coverage": null, "F1F_Min_Parking_Spaces": null, "F2F_Allowance": "Prohibited", "F2F_Front_Setback": null, "F2F_Side_Setback": null, "F2F_Rear_Setback": null, "F2F_Frontage": null, "F2F_Max_Density": null, "F2F_Max_Height": null, "F2F_Max_Stories": null, "F2F_Min_Lot_Size": null, "F2F_Max_Lot_Building_Coverage": null, "F2F_Max_Lot_Impervious_Coverage": null, "F2F_Min_Parking_Spaces_per_1BR": null, "F2F_Min_Parking_Spaces_per_mult_BR": null, "F2F_Elderly_Housing_Only": "No", "F2F_Affordable_Housing_Only": "No", "F3F_Allowance": "Prohibited", "F3F_Front_Setback": null, "F3F_Side_Setback": null, "F3F_Rear_Setback": null, "F3F_Frontage": null, "F3F_Max_Density": null, "F3F_Max_Height": null, "F3F_Max_Stories": null, "F3F_Min_Lot_Size": null, "F3F_Max_Lot_Building_Coverage": null, "F3F_Max_Lot_Impervious_Coverage": null, "F3F_Min_Parking_Spaces_per_1BR": null, "F3F_Min_Parking_Spaces_per_mult_BR": null, "F3F_Affordable_Housing_Only": "No", "F3F_Proximity_to_Public_Transit_Required": "No", "F3F_Connection_to_Sewage/Water_Required": "No", "F4F_Allowance": "Prohibited", "F4F_Front_Setback": null, "F4F_Side_Setback": null, "F4F_Rear_Setback": null, "F4F_Frontage": null, "F4F_Max_Density": null, "F4F_Max_Height": null, "F4F_Max_Stories": null, "F4F_Min_Lot_Size": null, "F4F_Max_Lot_Building_Coverage": null, "F4F_Max_Lot_Impervious_Coverage": null, "F4F_Min_Parking_Spaces_per_1BR": null, "F4F_Min_Parking_Spaces_per_mult_BR": null, "F3F_Elderly_Housing_Only": "No", "F4F_Elderly_Housing_Only": "No", "F4F_Affordable_Housing_Only": "No", "F4F_Proximity_to_Public_Transit_Required": "No", "F4F_Connection_to_Sewage/Water_Required": "No", "ADU_Allowance": "Prohibited", "ADU_Elderly_Housing_Only": "No", "ADU_Max_Size_as_Percent_of_Primary_Strcture": null, "ADU_Max_Size_in_sq_ft": null, "ADU_Min_Lot_Size": null, "ADU_Max_Bedrooms": null, "ADU_Min_Parking_Spaces": null, "ADU_Owner_Occupancy_Required": "No", "ADU_Renter_Occupancy_Prohibited": "No", "ADU_Employee_or_Family_Occupancy_Required": "No", "ADU_Restricted_to_Primary_Structure": "No", "Affordable_Housing_Allowance": "Not Mentioned", "Affordable_Housing_District": "No", "Affordable_Housing_Elderly_Only": "No", "Affordable_Housing_Min_Lot_Size": null, "Affordable_Housing_Max_Density": null, "Affordable_Housing_Min_Parking_Spaces_per_mult_BR": null, "Affordable_Housing_Max_Units_per_Building": null, "Affordable_Housing_Min_Parking_Spaces_per_1BR": null, "PRD_Allowance": "Public Hearing", "PRD_Max_Density": null, "PRD_Max_Units": null, "PRD_Min_Lot_Size": null, "PRD_Mobile_or_Manufactured_Home_Park": "No", "PUD_Allowance": "Yes", "PUD_Required_with_Subdivision": "T", "PUD_Requires_Land_Conservation": "T", "PUD_Threshold_Number": null, "Notes": "None"}, "geometry": {"type": "MultiPolygon", "coordinates": [[[[-73.12983769957395, 44.37608079959672], [-73.13017710025505, 44.38228480017697], [-73.13402879979819, 44.381949000205935], [-73.13263419947731, 44.37581950027854], [-73.12983769957395, 44.37608079959672]]]]}}, {"type": "Feature", "properties": {"OBJECT_ID": 424, "County": "Chittenden", "RPC": "CCRPC", "Municipal_Name": "Saint George ", "GEO_ID": null, "District_Name": "Low-Density Residential District", "Abbreviated_District_Name": "Ldr", "District_Type": "Primarily Residential", "Bylaw_Date": "2023-07-31T00:00:00", "Elderly_Housing_District": "No", "District_Mapped": "Yes", "Overlay_District": "No", "Base_Density": null, "Shape_Length": 18907.594127142518, "Shape_Area": 1775311.2423357393, "F1F_Allowance": "Permitted", "F1F_Front_Setback": 50.0, "F1F_Side_Setback": 50.0, "F1F_Rear_Setback": 50.0, "F1F_Frontage": 330.0, "F1F_Max_Height": null, "F1F_Max_Stories": 2.0, "F1F_Min_Lot_Size": 10.0, "F1F_Max_Lot_Building_Coverage": null, "F1F_Max_Lot_Impervious_Coverage": 5.0, "F1F_Min_Parking_Spaces": 2.0, "F2F_Allowance": "Permitted", "F2F_Front_Setback": 50.0, "F2F_Side_Setback": 50.0, "F2F_Rear_Setback": 50.0, "F2F_Frontage": 330.0, "F2F_Max_Density": null, "F2F_Max_Height": null, "F2F_Max_Stories": 2.0, "F2F_Min_Lot_Size": 10.0, "F2F_Max_Lot_Building_Coverage": null, "F2F_Max_Lot_Impervious_Coverage": 5.0, "F2F_Min_Parking_Spaces_per_1BR": null, "F2F_Min_Parking_Spaces_per_mult_BR": 2.0, "F2F_Elderly_Housing_Only": "No", "F2F_Affordable_Housing_Only": "No", "F3F_Allowance": "Prohibited", "F3F_Front_Setback": null, "F3F_Side_Setback": null, "F3F_Rear_Setback": null, "F3F_Frontage": null, "F3F_Max_Density": null, "F3F_Max_Height": null, "F3F_Max_Stories": null, "F3F_Min_Lot_Size": null, "F3F_Max_Lot_Building_Coverage": null, "F3F_Max_Lot_Impervious_Coverage": null, "F3F_Min_Parking_Spaces_per_1BR": null, "F3F_Min_Parking_Spaces_per_mult_BR": null, "F3F_Affordable_Housing_Only": "No", "F3F_Proximity_to_Public_Transit_Required": "No", "F3F_Connection_to_Sewage/Water_Required": "No", "F4F_Allowance": "Prohibited", "F4F_Front_Setback": null, "F4F_Side_Setback": null, "F4F_Rear_Setback": null, "F4F_Frontage": null, "F4F_Max_Density": null, "F4F_Max_Height": null, "F4F_Max_Stories": null, "F4F_Min_Lot_Size": null, "F4F_Max_Lot_Building_Coverage": null, "F4F_Max_Lot_Impervious_Coverage": null, "F4F_Min_Parking_Spaces_per_1BR": null, "F4F_Min_Parking_Spaces_per_mult_BR": null, "F3F_Elderly_Housing_Only": "No", "F4F_Elderly_Housing_Only": "No", "F4F_Affordable_Housing_Only": "No", "F4F_Proximity_to_Public_Transit_Required": "No", "F4F_Connection_to_Sewage/Water_Required": "No", "ADU_Allowance": "Allowed/Conditional", "ADU_Elderly_Housing_Only": "No", "ADU_Max_Size_as_Percent_of_Primary_Strcture": 30.0, "ADU_Max_Size_in_sq_ft": 600.0, "ADU_Min_Lot_Size": null, "ADU_Max_Bedrooms": null, "ADU_Min_Parking_Spaces": 1.0, "ADU_Owner_Occupancy_Required": "Yes", "ADU_Renter_Occupancy_Prohibited": "No", "ADU_Employee_or_Family_Occupancy_Required": "No", "ADU_Restricted_to_Primary_Structure": "No", "Affordable_Housing_Allowance": "Not Mentioned", "Affordable_Housing_District": "No", "Affordable_Housing_Elderly_Only": "No", "Affordable_Housing_Min_Lot_Size": null, "Affordable_Housing_Max_Density": null, "Affordable_Housing_Min_Parking_Spaces_per_mult_BR": null, "Affordable_Housing_Max_Units_per_Building": null, "Affordable_Housing_Min_Parking_Spaces_per_1BR": null, "PRD_Allowance": "Public Hearing", "PRD_Max_Density": null, "PRD_Max_Units": null, "PRD_Min_Lot_Size": null, "PRD_Mobile_or_Manufactured_Home_Park": "Yes", "PUD_Allowance": "Yes", "PUD_Required_with_Subdivision": "T", "PUD_Requires_Land_Conservation": "T", "PUD_Threshold_Number": null, "Notes": "None"}, "geometry": {"type": "MultiPolygon", "coordinates": [[[[-73.09706159945871, 44.37001249987334], [-73.09681229941945, 44.369993800164245], [-73.09642740058354, 44.36988609968674], [-73.09550479983753, 44.3694898996493], [-73.09376069995358, 44.36952609978451], [-73.09241780037931, 44.36965689961648], [-73.09229059990597, 44.36917280020405], [-73.09835230180228, 44.36850961213288], [-73.09857709974546, 44.36968800038393], [-73.0984202006249, 44.3699015999741], [-73.09706159945871, 44.37001249987334]]], [[[-73.09204060000215, 44.36919970026036], [-73.09275831503699, 44.37284514824581], [-73.09050179330045, 44.37070590717293], [-73.08924459934633, 44.36950809468376], [-73.09204060000215, 44.36919970026036]]], [[[-73.12299120031228, 44.3687748999119], [-73.12301970018297, 44.36971269989531], [-73.12263690044968, 44.37067729981957], [-73.12279510020534, 44.372723900167934], [-73.12267230049741, 44.37284539959662], [-73.12216739944914, 44.37295069991452], [-73.12196820050946, 44.373044799555075], [-73.12172779966643, 44.37321929991682], [-73.12150409977218, 44.37359400011924], [-73.12133649954136, 44.373560799762494], [-73.12067599972106, 44.37302560017484], [-73.11983600018583, 44.37185640022246], [-73.1197811999222, 44.371627600285194], [-73.11981099992862, 44.37124240014943], [-73.12015390060526, 44.37040649977712], [-73.12023189997113, 44.369184699930386], [-73.12036160060002, 44.36903649964969], [-73.12030869967747, 44.36892090045159], [-73.12015690042524, 44.36885690036464], [-73.11997530018772, 44.36888719982176], [-73.11988090012538, 44.36898599989042], [-73.11990549969315, 44.36911719986115], [-73.1200384004917, 44.36919580038132], [-73.12003370004884, 44.36983149977684], [-73.11993770001789, 44.37047550005171], [-73.11962139953214, 44.37122400043972], [-73.11958999977105, 44.371634900452534], [-73.11964979952046, 44.371888000261194], [-73.12051939992826, 44.37310440041736], [-73.12100039947025, 44.37351939966872], [-73.12133189989652, 44.373715199901454], [-73.12165480060882, 44.373691400156666], [-73.12194069943943, 44.37325260043646], [-73.12223369943291, 44.37308099986688], [-73.12276439976506, 44.372967299636215], [-73.12298130060942, 44.37275869967196], [-73.12282710024968, 44.37071089973574], [-73.12320799996327, 44.36973730001369], [-73.12319849968264, 44.36898549987853], [-73.12418769989166, 44.36898350030258], [-73.12442569946231, 44.37071200015208], [-73.12452250058314, 44.372259300383384], [-73.12466210027834, 44.374418499995905], [-73.12273180008387, 44.37459919986575], [-73.12259750004786, 44.37387999963451], [-73.12094060033832, 44.374055499609355], [-73.1202219001281, 44.37372640021762], [-73.1196103999448, 44.37356229986739], [-73.12002129941006, 44.37552290038813], [-73.11967139982076, 44.3755337997313], [-73.11903029941371, 44.375782100037846], [-73.11853770001812, 44.37617979998386], [-73.11824960056039, 44.37612200004343], [-73.11745800029341, 44.376126300052086], [-73.1169335002997, 44.37625150030132], [-73.11634100060947, 44.37323799993177], [-73.1161843002105, 44.371104300439754], [-73.1166694993984, 44.370483100272544], [-73.11657280002234, 44.36868029984604], [-73.11627299984386, 44.36844530026172], [-73.11654720023816, 44.36755820042707], [-73.11666100027115, 44.36656309995216], [-73.1193676003022, 44.366260500247144], [-73.11953942809467, 44.36624040634442], [-73.12211250040879, 44.365939499820804], [-73.122398300069, 44.36693690008524], [-73.12206620012061, 44.36874309955246], [-73.12295310052278, 44.36873200035766], [-73.12299120031228, 44.3687748999119]]], [[[-73.09676009955923, 44.370154299692054], [-73.09718850016304, 44.370170300225936], [-73.09833140007595, 44.370031599618166], [-73.09896299972952, 44.37061739997034], [-73.09923370027731, 44.37268050019043], [-73.09920369965202, 44.37391720035034], [-73.1019954994492, 44.373557699658804], [-73.10217590044871, 44.374383900048265], [-73.10215169973158, 44.3752003000919], [-73.10453589984282, 44.37500400035326], [-73.10518500020544, 44.37623170008432], [-73.1054705999991, 44.37654700028278], [-73.10563660001577, 44.37695210043964], [-73.10526960033292, 44.377492999928734], [-73.10500460041415, 44.3776239003578], [-73.1050730001184, 44.37778299964344], [-73.1064206994419, 44.37766420036453], [-73.10704350052042, 44.38036519962946], [-73.10534110027018, 44.38041559958379], [-73.10614980038733, 44.38313020003502], [-73.10864129977209, 44.38330399969816], [-73.10962009941463, 44.38341660003896], [-73.10985460017466, 44.38352070038101], [-73.11253060039077, 44.383212999990185], [-73.1125361002815, 44.383257000203706], [-73.11378809941188, 44.3831035998573], [-73.11563300003468, 44.382991899722796], [-73.11567750047918, 44.385899499959685], [-73.1146982996249, 44.38570769959337], [-73.11355460054725, 44.385317300024916], [-73.11295930058365, 44.38517790012209], [-73.11121479972049, 44.38504089967117], [-73.10613680045495, 44.38500429967601], [-73.10134480002445, 44.380556299647964], [-73.10121789958487, 44.38055829962334], [-73.10606690061151, 44.3850202003238], [-73.10568153096996, 44.38497128960111], [-73.10261920047944, 44.38210489955459], [-73.09304323797335, 44.37311270240457], [-73.09244499999473, 44.36979269982996], [-73.09377530052447, 44.369663100030856], [-73.09549980004033, 44.36964690005547], [-73.0955132996061, 44.3696975003197], [-73.09626379978876, 44.370011800373945], [-73.09676009955923, 44.370154299692054]]], [[[-73.10585515986486, 44.38513380888647], [-73.10623919948014, 44.38517910013786], [-73.10744970017053, 44.38633179962475], [-73.10709680142041, 44.38629600082077], [-73.10585515986486, 44.38513380888647]]], [[[-73.11461540011749, 44.38585450004956], [-73.1156736994838, 44.38604740022126], [-73.11572439943369, 44.38918769973779], [-73.11240820026305, 44.388689200255], [-73.11205660032508, 44.388415499873076], [-73.11131890057749, 44.388199799853226], [-73.11117010037705, 44.38777309957476], [-73.11046479939637, 44.38716040007885], [-73.10806100029082, 44.38640029992229], [-73.10756649938867, 44.38634490010108], [-73.10635509977003, 44.38520530016078], [-73.11078170031062, 44.38521429994916], [-73.11214669990879, 44.38528430011999], [-73.11303479954809, 44.38537590033675], [-73.11461540011749, 44.38585450004956]], [[-73.11181000033893, 44.38729000015618], [-73.11207999939052, 44.38725999965339], [-73.11242000032027, 44.38706999986736], [-73.11247000001114, 44.386939999729194], [-73.11207999977252, 44.3870699999451], [-73.1111900001799, 44.38684999970249], [-73.11111999988563, 44.38691000025295], [-73.11112000063086, 44.387060000306555], [-73.11155000007602, 44.38724999974059], [-73.11181000033893, 44.38729000015618]]]]}}, {"type": "Feature", "properties": {"OBJECT_ID": 426, "County": "Chittenden", "RPC": "CCRPC", "Municipal_Name": "Saint George ", "GEO_ID": null, "District_Name": "Rural Development District", "Abbreviated_District_Name": "Rd", "District_Type": "Primarily Residential", "Bylaw_Date": "2023-07-31T00:00:00", "Elderly_Housing_District": "No", "District_Mapped": "Yes", "Overlay_District": "No", "Base_Density": 0.1, "Shape_Length": 28437.641599761242, "Shape_Area": 5458915.942085217, "F1F_Allowance": "Permitted", "F1F_Front_Setback": 50.0, "F1F_Side_Setback": 50.0, "F1F_Rear_Setback": 50.0, "F1F_Frontage": 200.0, "F1F_Max_Height": null, "F1F_Max_Stories": 2.0, "F1F_Min_Lot_Size": 1.0, "F1F_Max_Lot_Building_Coverage": null, "F1F_Max_Lot_Impervious_Coverage": 10.0, "F1F_Min_Parking_Spaces": 2.0, "F2F_Allowance": "Prohibited", "F2F_Front_Setback": null, "F2F_Side_Setback": null, "F2F_Rear_Setback": null, "F2F_Frontage": null, "F2F_Max_Density": null, "F2F_Max_Height": null, "F2F_Max_Stories": null, "F2F_Min_Lot_Size": null, "F2F_Max_Lot_Building_Coverage": null, "F2F_Max_Lot_Impervious_Coverage": null, "F2F_Min_Parking_Spaces_per_1BR": null, "F2F_Min_Parking_Spaces_per_mult_BR": null, "F2F_Elderly_Housing_Only": "No", "F2F_Affordable_Housing_Only": "No", "F3F_Allowance": "Prohibited", "F3F_Front_Setback": null, "F3F_Side_Setback": null, "F3F_Rear_Setback": null, "F3F_Frontage": null, "F3F_Max_Density": null, "F3F_Max_Height": null, "F3F_Max_Stories": null, "F3F_Min_Lot_Size": null, "F3F_Max_Lot_Building_Coverage": null, "F3F_Max_Lot_Impervious_Coverage": null, "F3F_Min_Parking_Spaces_per_1BR": null, "F3F_Min_Parking_Spaces_per_mult_BR": null, "F3F_Affordable_Housing_Only": "No", "F3F_Proximity_to_Public_Transit_Required": "No", "F3F_Connection_to_Sewage/Water_Required": "No", "F4F_Allowance": "Prohibited", "F4F_Front_Setback": null, "F4F_Side_Setback": null, "F4F_Rear_Setback": null, "F4F_Frontage": null, "F4F_Max_Density": null, "F4F_Max_Height": null, "F4F_Max_Stories": null, "F4F_Min_Lot_Size": null, "F4F_Max_Lot_Building_Coverage": null, "F4F_Max_Lot_Impervious_Coverage": null, "F4F_Min_Parking_Spaces_per_1BR": null, "F4F_Min_Parking_Spaces_per_mult_BR": null, "F3F_Elderly_Housing_Only": "No", "F4F_Elderly_Housing_Only": "No", "F4F_Affordable_Housing_Only": "No", "F4F_Proximity_to_Public_Transit_Required": "No", "F4F_Connection_to_Sewage/Water_Required": "No", "ADU_Allowance": "Allowed/Conditional", "ADU_Elderly_Housing_Only": "No", "ADU_Max_Size_as_Percent_of_Primary_Strcture": 30.0, "ADU_Max_Size_in_sq_ft": 600.0, "ADU_Min_Lot_Size": null, "ADU_Max_Bedrooms": null, "ADU_Min_Parking_Spaces": 1.0, "ADU_Owner_Occupancy_Required": "Yes", "ADU_Renter_Occupancy_Prohibited": "No", "ADU_Employee_or_Family_Occupancy_Required": "No", "ADU_Restricted_to_Primary_Structure": "No", "Affordable_Housing_Allowance": "Not Mentioned", "Affordable_Housing_District": "No", "Affordable_Housing_Elderly_Only": "No", "Affordable_Housing_Min_Lot_Size": null, "Affordable_Housing_Max_Density": null, "Affordable_Housing_Min_Parking_Spaces_per_mult_BR": null, "Affordable_Housing_Max_Units_per_Building": null, "Affordable_Housing_Min_Parking_Spaces_per_1BR": null, "PRD_Allowance": "Public Hearing", "PRD_Max_Density": null, "PRD_Max_Units": null, "PRD_Min_Lot_Size": null, "PRD_Mobile_or_Manufactured_Home_Park": "Yes", "PUD_Allowance": "Yes", "PUD_Required_with_Subdivision": "T", "PUD_Requires_Land_Conservation": "T", "PUD_Threshold_Number": null, "Notes": "None"}, "geometry": {"type": "MultiPolygon", "coordinates": [[[[-73.13311660029105, 44.37171300004273], [-73.13260710019576, 44.371749399749845], [-73.1326093001138, 44.370899999682266], [-73.13148719984096, 44.371333700398], [-73.1315873997725, 44.370087099619646], [-73.12931490006696, 44.366839600437665], [-73.12883479981073, 44.365184712585524], [-73.12965464426918, 44.36509030224643], [-73.1334697996784, 44.364649100279564], [-73.13546839961046, 44.37327189980271], [-73.13383730017301, 44.37342310024105], [-73.13346059997953, 44.3726804995726], [-73.13311660029105, 44.37171300004273]], [[-73.13164999980384, 44.36651999976842], [-73.1316800001549, 44.36640999956945], [-73.13160999972193, 44.366209999812], [-73.13142999951343, 44.366139999566556], [-73.13107999948144, 44.36613999985713], [-73.13101000003792, 44.36627000029123], [-73.13106000008509, 44.36654999980949], [-73.13164999980384, 44.36651999976842]]], [[[-73.1166694993984, 44.370483100272544], [-73.1161843002105, 44.371104300439754], [-73.11634100060947, 44.37323799993177], [-73.1169335002997, 44.37625150030132], [-73.11745800029341, 44.376126300052086], [-73.11824960056039, 44.37612200004343], [-73.11853770001812, 44.37617979998386], [-73.11903029941371, 44.375782100037846], [-73.11967139982076, 44.3755337997313], [-73.12002129941006, 44.37552290038813], [-73.1196103999448, 44.37356229986739], [-73.1202219001281, 44.37372640021762], [-73.12094060033832, 44.374055499609355], [-73.12259750004786, 44.37387999963451], [-73.12273180008387, 44.37459919986575], [-73.12466210027834, 44.374418499995905], [-73.12461739983436, 44.384179399989925], [-73.12392929975364, 44.38461969956219], [-73.12337519977247, 44.38517770037279], [-73.12321410027646, 44.38542000031731], [-73.1230784993896, 44.38549500038918], [-73.12187810022849, 44.38586960027415], [-73.12046209945937, 44.38642740028557], [-73.11901779997972, 44.38667319997982], [-73.11832929963639, 44.38694679958579], [-73.11775490029594, 44.38700690036962], [-73.11757159997458, 44.38696999965228], [-73.11651329973833, 44.38630129973577], [-73.11567750047918, 44.385899499959685], [-73.11563300003468, 44.382991899722796], [-73.11378809941188, 44.3831035998573], [-73.1125361002815, 44.383257000203706], [-73.11253060039077, 44.383212999990185], [-73.10985460017466, 44.38352070038101], [-73.10962009941463, 44.38341660003896], [-73.10864129977209, 44.38330399969816], [-73.10614980038733, 44.38313020003502], [-73.10534110027018, 44.38041559958379], [-73.10704350052042, 44.38036519962946], [-73.1064206994419, 44.37766420036453], [-73.1050730001184, 44.37778299964344], [-73.10500460041415, 44.3776239003578], [-73.10526960033292, 44.377492999928734], [-73.10563660001577, 44.37695210043964], [-73.1054705999991, 44.37654700028278], [-73.10518500020544, 44.37623170008432], [-73.10453589984282, 44.37500400035326], [-73.10215169973158, 44.3752003000919], [-73.10217590044871, 44.374383900048265], [-73.1019954994492, 44.373557699658804], [-73.09920369965202, 44.37391720035034], [-73.09923370027731, 44.37268050019043], [-73.09896299972952, 44.37061739997034], [-73.09833140007595, 44.370031599618166], [-73.0984202006249, 44.3699015999741], [-73.09857709974546, 44.36968800038393], [-73.09835230180228, 44.36850961213288], [-73.10329439981722, 44.36795629921979], [-73.10340760647175, 44.36794366331324], [-73.1053840005979, 44.36772999981065], [-73.10667028692241, 44.36761349833709], [-73.11016211251525, 44.36725879723289], [-73.11136621342665, 44.367132416880104], [-73.11449416718087, 44.366804302757586], [-73.11449419977001, 44.366804299882375], [-73.11666100027115, 44.36656309995216], [-73.11654720023816, 44.36755820042707], [-73.11627299984386, 44.36844530026172], [-73.11657280002234, 44.36868029984604], [-73.1166694993984, 44.370483100272544]]], [[[-73.12272359995957, 44.3906317002656], [-73.12164840040292, 44.39065459973342], [-73.12162189950716, 44.390789099910215], [-73.12273960005234, 44.39076700033278], [-73.12349249965654, 44.39067750022412], [-73.12367099968657, 44.39056089972385], [-73.12403759951818, 44.390005999656616], [-73.12450510036288, 44.389562200294854], [-73.12515330002421, 44.389165999877044], [-73.12562179939485, 44.38901010034846], [-73.12580670040273, 44.39253000042047], [-73.12762869997478, 44.39228320032457], [-73.12728630053415, 44.38966290004956], [-73.12732410012224, 44.38965790016169], [-73.12775530041202, 44.39311169964241], [-73.12758090017678, 44.39538730037919], [-73.12784190000902, 44.397413099723856], [-73.12781563317574, 44.397965905332526], [-73.12673874953775, 44.39767504718326], [-73.12673319790498, 44.39767354771559], [-73.12438284193945, 44.397087690064026], [-73.11740413881193, 44.3953271134336], [-73.11648809107473, 44.3950863706704], [-73.11607074549471, 44.39469574157918], [-73.11781109990325, 44.39519799972797], [-73.11782070019773, 44.395163699843124], [-73.11614610013875, 44.39467419956011], [-73.1149037999465, 44.393519500001766], [-73.11591660963289, 44.3945514570719], [-73.10709680142041, 44.38629600082077], [-73.10744970017053, 44.38633179962475], [-73.11205599953298, 44.390819399734696], [-73.10756649938867, 44.38634490010108], [-73.10806100029082, 44.38640029992229], [-73.11046479939637, 44.38716040007885], [-73.11117010037705, 44.38777309957476], [-73.11131890057749, 44.388199799853226], [-73.11205660032508, 44.388415499873076], [-73.11240820026305, 44.388689200255], [-73.11572439943369, 44.38918769973779], [-73.1156736994838, 44.38604740022126], [-73.11648490039975, 44.38645890026637], [-73.11748050053802, 44.38708909980178], [-73.11773199967335, 44.3871429002925], [-73.1183255006151, 44.38708770000196], [-73.11907830006781, 44.386801900354826], [-73.12053590010815, 44.38655249979512], [-73.12196189940838, 44.38599140007668], [-73.12317650025082, 44.385611199675495], [-73.12336949959449, 44.385497799896896], [-73.12353450011513, 44.385251100130475], [-73.12407389973788, 44.38470749995536], [-73.12447929976086, 44.384448799806194], [-73.12452530062345, 44.38935859982106], [-73.1239094998356, 44.389897200395716], [-73.12343649953296, 44.39054210001154], [-73.12272359995957, 44.3906317002656]]], [[[-73.13965350030475, 44.39893230015543], [-73.14031569972694, 44.40052840032479], [-73.13827367546392, 44.40079053662543], [-73.12805842851853, 44.398031481572886], [-73.12809399954374, 44.39740230012471], [-73.12783340053375, 44.39538580023143], [-73.12800759986158, 44.39310430007968], [-73.12757520030081, 44.38962880019862], [-73.13035839991016, 44.38957589983346], [-73.13028439980125, 44.386599699651235], [-73.13494310020387, 44.386166699936254], [-73.13499930005256, 44.38641800033866], [-73.13839369950195, 44.385980200216274], [-73.14010759204471, 44.39379596435033], [-73.14019795603909, 44.3942559959864], [-73.13995379964942, 44.39502630036677], [-73.13953130000628, 44.39821959968324], [-73.13965350030475, 44.39893230015543]], [[-73.13659000030482, 44.39566999984341], [-73.1365800002418, 44.39610000031262], [-73.1366399994787, 44.396129999926266], [-73.13679999967107, 44.396049999779294], [-73.13711999954799, 44.395770000044564], [-73.13750999999351, 44.395590000075735], [-73.13771999988478, 44.395590000419524], [-73.13798999999578, 44.395490000157615], [-73.1381499999941, 44.39548999999602], [-73.13817000044101, 44.39538999996536], [-73.1375699994413, 44.39524999982604], [-73.13725999961214, 44.39525000010362], [-73.1370800002142, 44.39513999964299], [-73.1364600005537, 44.395030000061006], [-73.13636999945462, 44.39534000026313], [-73.13645000039884, 44.39545000021934], [-73.13636000050144, 44.395600000222316], [-73.13649000027652, 44.39560000033346], [-73.13659000030482, 44.39566999984341]]], [[[-73.13981399979802, 44.39776909983909], [-73.1402844001548, 44.394696100087266], [-73.13986460045435, 44.39803370039146], [-73.13981728111682, 44.39811420400523], [-73.13981399979802, 44.39776909983909]]], [[[-73.13980300000712, 44.39813850009659], [-73.13981728111682, 44.39811420400523], [-73.13981749843134, 44.398137140040205], [-73.13980300000712, 44.39813850009659]]], [[[-73.1406054993771, 44.400546800299], [-73.14032870052694, 44.40000079963349], [-73.13982189976758, 44.39860010011813], [-73.13981749843134, 44.398137140040205], [-73.14093950056544, 44.398031905237296], [-73.14156459967413, 44.40121410000924], [-73.14099349947949, 44.40093989966595], [-73.1406054993771, 44.400546800299]]], [[[-73.1406096775848, 44.401421471674844], [-73.13859683052232, 44.400877819007654], [-73.14040139996492, 44.40065629983248], [-73.1406096775848, 44.401421471674844]]], [[[-73.14115050052811, 44.401266000362035], [-73.1415730998849, 44.401419400268324], [-73.14080490498506, 44.401474201258004], [-73.14070829974821, 44.40098199978045], [-73.14115050052811, 44.401266000362035]]], [[[-73.14123792526401, 44.4015911559176], [-73.14163340031907, 44.40156419962493], [-73.14166111665746, 44.401705457975524], [-73.14123792526401, 44.4015911559176]]]]}}]}