{"type":"FeatureCollection","features":[{"type":"Feature","id":1,"geometry":{"type":"MultiPolygon","coordinates":[[[[-73.106355099999973,44.385205300000052],[-73.107566498999972,44.38634490000004],[-73.108060999999964,44.386400300000048],[-73.110464798999942,44.387160400000027],[-73.111170099999981,44.387773100000061],[-73.111318900999947,44.388199800000052],[-73.11205659999996,44.388415500000065],[-73.112408199999948,44.388689200000044],[-73.115724398999987,44.389187700000036],[-73.115673698999956,44.386047400000052],[-73.114615399999934,44.38585450000005],[-73.11303479999998,44.385375900000042],[-73.112146699999983,44.38528430000008],[-73.110781699999961,44.38521430000003],[-73.106355099999973,44.385205300000052]]],[[[-73.111189999999965,44.386850000000038],[-73.111119999999971,44.386910000000057],[-73.111120000999961,44.387060000000076],[-73.111549999999966,44.387250000000051],[-73.111809999999934,44.387290000000064],[-73.112079998999945,44.387260000000026],[-73.112419999999986,44.387070000000051],[-73.112469999999973,44.386940000000038],[-73.112079999999935,44.387070000000051],[-73.111189999999965,44.386850000000038]]],[[[-73.105855159999976,44.385133809000081],[-73.107096800999955,44.386296001000062],[-73.107449699999961,44.38633180000005],[-73.106239198999958,44.385179100000073],[-73.105855159999976,44.385133809000081]]],[[[-73.09549979999997,44.369646900000077],[-73.093775300999937,44.369663100000025],[-73.092444999999941,44.369792700000062],[-73.09304323799995,44.373112702000071],[-73.102619199999936,44.382104900000058],[-73.105681530999959,44.384971290000067],[-73.106066900999963,44.385020200000042],[-73.101217899999938,44.380558300000075],[-73.101344799999936,44.38055630000008],[-73.106136799999945,44.385004300000048],[-73.111214799999971,44.385040900000035],[-73.112959300999989,44.385177900000031],[-73.113554600999976,44.385317300000054],[-73.114698299999986,44.385707700000069],[-73.115677499999947,44.38589950000005],[-73.115632999999946,44.382991900000036],[-73.113788098999976,44.383103600000027],[-73.112536099999943,44.383257000000071],[-73.112530599999957,44.383213000000069],[-73.109854599999949,44.383520700000076],[-73.109620098999983,44.383416600000032],[-73.108641299999988,44.383304000000066],[-73.106149799999969,44.383130200000039],[-73.105341099999976,44.380415600000049],[-73.107043500999964,44.380365200000028],[-73.106420698999955,44.377664200000027],[-73.105072999999948,44.377783000000079],[-73.105004599999972,44.37762390000006],[-73.105269599999986,44.377493000000072],[-73.105636599999968,44.37695210000004],[-73.105470599999933,44.376547000000073],[-73.105184999999949,44.376231700000062],[-73.104535899999973,44.375004000000047],[-73.102151699999979,44.375200300000074],[-73.102175899999963,44.374383900000055],[-73.101995498999941,44.373557700000049],[-73.099203699999975,44.373917200000051],[-73.099233699999957,44.372680500000058],[-73.098962999999969,44.370617400000071],[-73.09833139999995,44.370031600000061],[-73.097188499999959,44.370170300000041],[-73.096760099999983,44.370154300000081],[-73.096263799999974,44.370011800000043],[-73.095513299999936,44.369697500000029],[-73.09549979999997,44.369646900000077]]],[[[-73.092040599999962,44.369199700000081],[-73.089244598999983,44.369508095000072],[-73.090501792999987,44.370705907000058],[-73.092758314999969,44.372845148000067],[-73.092040599999962,44.369199700000081]]],[[[-73.098352301999967,44.368509612000025],[-73.092290599999956,44.369172800000058],[-73.092417799999964,44.369656900000052],[-73.093760699999962,44.36952610000003],[-73.095504799999958,44.369489900000076],[-73.096427400999971,44.369886100000031],[-73.096812298999964,44.369993800000032],[-73.097061598999971,44.37001250000003],[-73.098420200999954,44.369901600000048],[-73.098577099999943,44.369688000000053],[-73.098352301999967,44.368509612000025]]],[[[-73.122112499999957,44.365939500000081],[-73.119539427999939,44.366240406000031],[-73.119367599999975,44.366260500000067],[-73.116660999999965,44.366563100000064],[-73.116547199999957,44.367558200000076],[-73.116272999999978,44.368445300000076],[-73.116572799999972,44.368680300000051],[-73.116669498999954,44.370483100000058],[-73.116184299999986,44.37110430000007],[-73.116341000999967,44.373238000000072],[-73.116933499999959,44.37625150000008],[-73.117457999999942,44.376126300000067],[-73.118249600999945,44.376122000000066],[-73.118537699999933,44.376179800000045],[-73.119030298999974,44.375782100000038],[-73.119671399999959,44.375533800000028],[-73.120021298999973,44.375522900000078],[-73.119610399999942,44.37356230000006],[-73.120221899999933,44.373726400000066],[-73.120940599999983,44.374055500000054],[-73.122597499999983,44.373880000000042],[-73.12273179999994,44.374599200000034],[-73.124662099999966,44.374418500000047],[-73.124522500999944,44.372259300000053],[-73.124425698999971,44.370712000000026],[-73.124187699999936,44.36898350000007],[-73.123198499999944,44.368985500000065],[-73.123207999999977,44.369737300000054],[-73.122827099999938,44.370710900000063],[-73.122981300999982,44.372758700000077],[-73.122764399999937,44.372967300000028],[-73.122233698999935,44.37308100000007],[-73.121940698999936,44.373252600000058],[-73.121654800999977,44.373691400000041],[-73.121331899999973,44.373715200000049],[-73.121000398999968,44.373519400000077],[-73.120519399999978,44.373104400000045],[-73.119649799999934,44.371888000000069],[-73.11958999999996,44.37163490000006],[-73.119621399999971,44.371224000000041],[-73.11993769999998,44.370475500000055],[-73.120033699999965,44.369831500000032],[-73.120038399999942,44.369195800000057],[-73.119905499999959,44.369117200000062],[-73.119880899999941,44.368986000000064],[-73.119975299999965,44.368887200000074],[-73.120156899999984,44.368856900000026],[-73.120308699999953,44.368920900000035],[-73.120361600999956,44.36903650000005],[-73.120231899999965,44.369184700000062],[-73.120153900999981,44.370406500000058],[-73.11981099999997,44.371242400000028],[-73.119781199999977,44.371627600000068],[-73.119835999999964,44.37185640000007],[-73.120675999999946,44.373025600000062],[-73.121336499999984,44.373560800000064],[-73.121504099999981,44.373594000000026],[-73.121727799999974,44.373219300000073],[-73.121968200999959,44.373044800000059],[-73.122167398999977,44.372950700000047],[-73.122672299999977,44.372845400000074],[-73.122795099999962,44.37272390000004],[-73.122636899999975,44.370677300000068],[-73.123019699999986,44.369712700000036],[-73.122991199999944,44.368774900000062],[-73.12295310099995,44.36873200000008],[-73.122066199999949,44.368743100000074],[-73.122398299999986,44.366936900000042],[-73.122112499999957,44.365939500000081]]]]},"properties":{"OBJECTID":1,"OBJECTID_1":424,"Jurisdiction_District_Name":"Saint George Low-Density Residential District","County":"Chittenden","Jurisdiction":"Saint George ","Abbreviated_District_Name":"Ldr","District_Name":"Low-Density Residential District","District_Mapped":"Yes","Overlay_District":"No","Extinct_District":null,"District_Type":"Primarily Residential","Affordable_Housing_District":"No","Elderly_Housing_District":"No","F1F_Allowance":"Permitted","F2F_Allowance":"Permitted","F3F_Allowance":"Prohibited","F4F_Allowance":"Prohibited","F5F_Allowance":null,"ADU_Allowance":"Allowed/Conditional","Affordable_Housing_Allowance":"Not Mentioned","PRD_Allowance":"Public Hearing","NOTES":"None","F1F_Min_Lot":10,"F1F_Front_Setback":50,"F1F_Side_Setback":50,"F1F_Rear_Setback":50,"F1F_Frontage":330,"F1F_Max_Lot_Building_Coverage":null,"F1F_Max_Lot_Impervious_Coverage":5,"F1F_Min_Parking_Spaces":2,"F1F_Max_Stories":2,"F1F_Max_Height":null,"F1F_Floor_to_Area_Ratio":null,"F1F_Min_Unit_Size":null,"F2F_Affordable_Housing_Only":"No","F2F_Elderly_Housing_Only":"No","F2F_Min_Lot_Size":10,"F2F_Max_Density":null,"F2F_Front_Setback":50,"F2F_Side_Setback":50,"F2F_Rear_Setback":50,"F2F_Frontage":330,"F2F_Max_Lot_Building_Coverage":null,"F2F_Max_Lot_Impervious_Coverage":5,"F2F_Min_Parking_Spaces_per_1BR":null,"F2F_Min_Parking_Spaces_per_mult_BR":2,"F2F_Max_Stories":2,"F2F_Max_Height":null,"F2F_Floor_to_Area_Ratio":null,"F2F_Min_Unit_Size":null,"F3F_Affordable_Housing_Only":"No","F3F_Elderly_Housing_Only":"No","F3F_Min_Lot_Size":null,"F3F_Max_Density":null,"F3F_Front_Setback":null,"F3F_Side_Setback":null,"F3F_Rear_Setback":null,"F3F_Frontage":null,"F3F_Max_Lot_Building_Coverage":null,"F3F_Max_Lot_Impervious_Coverage":null,"F3F_Min_Parking_Spaces_per_1BR":null,"F3F_Min_Parking_Spaces_per_mult_BR":null,"F3F_Connection_to_Sewage_Water_Required":"No","F3F_Proximity_to_Public_Transit_Required":"No","F3F_Max_Stories":null,"F3F_Max_Height":null,"F3F_Floor_to_Area_Ratio":null,"F3F_Min_Unit_Size":null,"F3F_Max_Bedrooms":null,"F4F_Affordable_Housing_Only":"No","F4F_Elderly_Housing_Only":"No","F4F_Min_Lot_Size":null,"F4F_Max_Density":null,"F4F_Front_Setback":null,"F4F_Side_Setback":null,"F4F_Rear_Setback":null,"F4F_Frontage":null,"F4F_Max_Lot_Building_Coverage":null,"F4F_Max_Lot_Impervious_Coverage":null,"F4F_Min_Parking_Spaces_per_1BR":null,"F4F_Min_Parking_Spaces_per__mult_BR":null,"F4F_Connection_to_Sewage_Water_Required":"No","F4F_Proximity_to_Public_Transit_Required":"No","F4F_Max_Stories":null,"F4F_Max_Height":null,"F4F_Floor_to_Area_Ratio":null,"F4F_Min_Unit_Size":null,"F4F_Max_Bedrooms":null,"F4F_Max_Units_per_Building":null,"F5F_Affordable_Housing_Only":null,"F5F_Elderly_Housing_Only":null,"F5F_Min_Lot_Size":null,"F5F_Max_Density":null,"F5F_Front_Setback":null,"F5F_Side_Setback":null,"F5F_Rear_Setback":null,"F5F_Frontage":null,"F5F_Max_Lot_Building_Coverage":null,"F5F_Max__Lot_Impervious_Coverage":null,"F5F_Min_Parking_Spaces_per_1BR":null,"F5F_Min_Parking_Spaces_per_mult_BR":null,"F5F_Connection_to_Sewage_Water_Required":null,"F5F_Proximity_to_Public_Transit_Required":null,"F5F_Max_Stories":null,"F5F_Max_Height":null,"F5F_Floor_to_Area_Ratio":null,"F5F_Min_Unit_Size":null,"F5F_Max_Bedrooms":null,"F5F_Max_Units_per_Building":null,"Affordable_Housing_Definition":null,"Affordable_Housing_Elderly_Only":"No","Affordable_Housing_Min_Lot_Size":null,"Affordable_Housing_Max_Density":null,"Affordable_Housing_Min_Parking_Spaces_per_1BR":null,"Affordable_Housing_Min_Parking_Spaces_per_mult_BR":null,"Affordable_Housing_Min_Unit_Size":null,"Affordable_Housing_Max_Bedrooms":null,"Affordable_Housing_Max_Units_per_Building":null,"ADU_Employee_or_Family_Occupancy_Required":"No","ADU_Renter_Occupancy_Prohibited":"No","ADU_Owner_Occupancy_Required":"Yes","ADU_Elderly_Housing_Only":"No","ADU_Min_Lot_Size":null,"ADU_Min_Parking_Spaces":1,"ADU_Restricted_to_Primary_Structure":"No","ADU_Max_Size_as_Percent_of_Primary_Strcture":30,"ADU_Max_Size_in_sq_ft":600,"ADU_Max_Bedrooms":null,"PRD_Mobile_or_Manufactured_Home_Park":"Yes","PRD_Min_Lot_Size":null,"PRD_Max_Density":null,"PRD_Max_Units":null,"PUD_Required_with_Subdivision":"T","PUD_Threshold_Number":null,"PUD_Allowance":"Yes","PUD_Requires_Land_Conservation":"T","Base_Density":null,"CONDITIONAL_1F_Min_Lot":null,"CONDITIONAL_1F_Front_Setback":null,"CONDITIONAL_1F_Side_Setback":null,"CONDITIONAL_1F_Rear_Setback":null,"CONDITIONAL_1F_Frontage":null,"CONDITIONAL_1F_Max_Lot_Building_Coverage":null,"CONDITIONAL_1F_Max_Lot_Impervious_Coverage":null,"CONDITIONAL_1F_Min_Parking_Spaces":null,"CONDITIONAL_1F_Max_Stories":null,"CONDITIONAL_1F_Max_Height":null,"CONDITIONAL_1F_Floor_to_Area_Ratio":null,"CONDITIONAL_1F_Min_Unit_Size":null,"CONDITIONAL_2F_Affordable_Housing_Only":null,"CONDITIONAL_2F_Elderly_Housing_Only":null,"CONDITIONAL_2F_Min_Lot_Size":null,"CONDITIONAL_2F_Max_Density":null,"CONDITIONAL_2F_Front_Setback":null,"CONDITIONAL_2F_Side_Setback":null,"CONDITIONAL_2F_Rear_Setback":null,"CONDITIONAL_2F_Frontage":null,"CONDITIONAL_2F_Max_Lot_Building_Coverage":null,"CONDITIONAL_2F_Max_Lot_Impervious_Coverage":null,"CONDITIONAL_2F_Min_Parking_Spaces_per_1BR":null,"CONDITIONAL_2F_Min_Parking_Spaces_per_mult_BR":null,"CONDITIONAL_2F_Max_Stories":null,"CONDITIONAL_2F_Max_Height":null,"CONDITIONAL_2F_Floor_to_Area_Ratio":null,"CONDITIONAL_2F_Min_Unit_Size":null,"CONDITIONAL_3F_Affordable_Housing_Only":null,"CONDITIONAL_3F_Elderly_Housing_Only":null,"CONDITIONAL_3F_Min_Lot_Size":null,"CONDITIONAL_3F_Max_Density":null,"CONDITIONAL_3F_Front_Setback":null,"CONDITIONAL_3F_Side_Setback":null,"CONDITIONAL_3F_Rear_Setback":null,"CONDITIONAL_3F_Frontage":null,"CONDITIONAL_3F_Max_Lot_Building_Coverage":null,"CONDITIONAL_3F_Max_Lot_Impervious_Coverage":null,"CONDITIONAL_3F_Min_Parking_Spaces_per_1BR":null,"CONDITIONAL_3F_Min_Parking_Spaces_per_mult_BR":null,"CONDITIONAL_3F_Connection_to_Sewage_Water_Required":null,"CONDITIONAL_3F_Proximity_to_Public_Transit_Required":null,"CONDITIONAL_3F_Max_Stories":null,"CONDITIONAL_3F_Max_Height":null,"CONDITIONAL_3F_Floor_to_Area_Ratio":null,"CONDITIONAL_3F_Min_Unit_Size":null,"CONDITIONAL_3F_Max_Bedrooms":null,"CONDITIONAL_4F_Affordable_Housing_Only":null,"CONDITIONAL_4F_Elderly_Housing_Only":null,"CONDITIONAL_4F_Min_Lot_Size":null,"CONDITIONAL_4F_Max_Density":null,"CONDITIONAL_4F_Front_Setback":null,"CONDITIONAL_4F_Side_Setback":null,"CONDITIONAL_4F_Rear_Setback":null,"CONDITIONAL_4F_Frontage":null,"CONDITIONAL_4F_Max_Lot_Building_Coverage":null,"CONDITIONAL_4F_Max_Lot_Impervious_Coverage":null,"CONDITIONAL_4F_Min_Parking_Spaces_per_1BR":null,"CONDITIONAL_4F_Min_Parking_Spaces_per__mult_BR":null,"CONDITIONAL_4F_Connection_to_Sewage_Water_Required":null,"CONDITIONAL_4F_Proximity_to_Public_Transit_Required":null,"CONDITIONAL_4F_Max_Stories":null,"CONDITIONAL_4F_Max_Height":null,"CONDITIONAL_4F_Floor_to_Area_Ratio":null,"CONDITIONAL_4F_Min_Unit_Size":null,"CONDITIONAL_4F_Max_Bedrooms":null,"CONDITIONAL_4F_Max_Units_per_Building":null,"CONDITIONAL_5F_Affordable_Housing_Only":null,"CONDITIONAL_5F_Elderly_Housing_Only":null,"CONDITIONAL_5F_Min_Lot_Size":null,"CONDITIONAL_5F_Max_Density":null,"CONDITIONAL_5F_Front_Setback":null,"CONDITIONAL_5F_Side_Setback":null,"CONDITIONAL_5F_Rear_Setback":null,"CONDITIONAL_5F_Frontage":null,"CONDITIONAL_5F_Max_Lot_Building_Coverage":null,"CONDITIONAL_5F_Max__Lot_Impervious_Coverage":null,"CONDITIONAL_5F_Min_Parking_Spaces_per_1BR":null,"CONDITIONAL_5F_Min_Parking_Spaces_per_mult_BR":null,"CONDITIONAL_5F_Connection_to_Sewage_Water_Required":null,"CONDITIONAL_5F_Proximity_to_Public_Transit_Required":null,"CONDITIONAL_5F_Max_Stories":null,"CONDITIONAL_5F_Max_Height":null,"CONDITIONAL_5F_Floor_to_Area_Ratio":null,"CONDITIONAL_5F_Min_Unit_Size":null,"CONDITIONAL_5F_Max_Bedrooms":null,"CONDITIONAL_5F_Max_Units_per_Building":null,"CONDITIONAL_Affordable_Housing_Definition":null,"CONDITIONAL_Affordable_Housing_Elderly_Only":null,"CONDITIONAL_Affordable_Housing_Min_Lot_Size":null,"CONDITIONAL_Affordable_Housing_Max_Density":null,"CONDITIONAL_Affordable_Housing_Min_Parking_Spaces_per_1BR":null,"CONDITIONAL_Affordable_Housing_Min_Parking_Spaces_per_mult_BR":null,"CONDITIONAL_Affordable_Housing_Min_Unit_Size":null,"CONDITIONAL_Affordable_Housing_Max_Bedrooms":null,"CONDITIONAL_Affordable_Housing_Max_Units_per_Building":null,"CONDITIONAL_ADU_Employee_or_Family_Occupancy_Required":null,"CONDITIONAL_ADU_Renter_Occupancy_Prohibited":null,"CONDITIONAL_ADU_Owner_Occupancy_Required":null,"CONDITIONAL_ADU_Elderly_Housing_Only":null,"CONDITIONAL_ADU_Min_Lot_Size":null,"CONDITIONAL_ADU_Min_Parking_Spaces":null,"CONDITIONAL_ADU_Restricted_to_Primary_Structure":null,"CONDITIONAL_ADU_Max_Size_as_Percent_of_Primary_Strcture":null,"CONDITIONAL_ADU_Max_Size_in_sq_ft":null,"CONDITIONAL_ADU_Max_Bedrooms":null,"CONDITIONAL_PRD_Mobile_or_Manufactured_Home_Park":null,"CONDITIONAL_PRD_Min_Lot_Size":null,"CONDITIONAL_PRD_Max_Density":null,"CONDITIONAL_PRD_Max_Units":null,"CONDITIONAL_PUD_Required_with_Subdivision":null,"CONDITIONAL_PUD_Threshold_Number":null,"CONDITIONAL_PUD_Allowance":null,"CONDITIONAL_PUD_Requires_Land_Conservation":null,"Bylaw_Date":"2023-07-31","RPC":"CCRPC","Version":1,"Acres":438.68828453737291,"Shape_Length":0.20162478646599874,"Shape_Area":0.00020046481455090413}},{"type":"Feature","id":2,"geometry":{"type":"MultiPolygon","coordinates":[[[[-73.126293099999941,44.388958200000047],[-73.125621798999987,44.389010100000064],[-73.125806699999941,44.392530000000079],[-73.127628699999946,44.392283200000065],[-73.12728630099997,44.389662900000076],[-73.127293599999973,44.388977900000043],[-73.126293099999941,44.388958200000047]]],[[[-73.136715199999969,44.378323500000079],[-73.136504698999943,44.378353100000027],[-73.136882298999979,44.379085600000053],[-73.136715199999969,44.378323500000079]]],[[[-73.125590399999965,44.36997000000008],[-73.125218299999972,44.370033100000057],[-73.124898999999971,44.370087100000035],[-73.124992499999962,44.37113990000006],[-73.125933100999987,44.371011000000067],[-73.125590399999965,44.36997000000008]]],[[[-73.128395299999966,44.369863200000054],[-73.128224099999954,44.369995200000062],[-73.128150199999936,44.370173700000066],[-73.127728299999944,44.372042800000031],[-73.128601699999933,44.371939900000029],[-73.130516799999953,44.371980700000051],[-73.129543899999987,44.372721900000045],[-73.129419599999949,44.372623900000065],[-73.128926098999955,44.372694100000047],[-73.129811699999948,44.373613500000033],[-73.129745299999968,44.37373800000006],[-73.129837699999939,44.376080800000068],[-73.132634198999938,44.375819500000034],[-73.134028799999953,44.381949000000077],[-73.130177099999969,44.382284800000036],[-73.130284399999937,44.386599700000033],[-73.134943099999987,44.386166700000047],[-73.134999299999947,44.386418000000049],[-73.138393699999938,44.385980200000063],[-73.13706499999995,44.379919400000063],[-73.135094599999945,44.376217900000029],[-73.133926899999949,44.374274900000046],[-73.133225699999969,44.373497200000031],[-73.131847300999937,44.372407600000031],[-73.130589099999952,44.373395800000026],[-73.130586599999958,44.373845900000049],[-73.130503299999987,44.373861900000065],[-73.130462699999953,44.373514000000057],[-73.130508999999961,44.373359500000049],[-73.131782299999941,44.372357800000032],[-73.129762098999947,44.370921200000055],[-73.128395299999966,44.369863200000054]]],[[[-73.126243799999941,44.367464100000063],[-73.12515979899996,44.367642900000078],[-73.125355699999943,44.368204800000058],[-73.123175100999958,44.368593000000033],[-73.123198499999944,44.368985500000065],[-73.124187699999936,44.36898350000007],[-73.124425698999971,44.370712000000026],[-73.124522500999944,44.372259300000053],[-73.127501999999936,44.371913800000073],[-73.127707599999951,44.370996800000057],[-73.126417299999957,44.371173600000077],[-73.126135499999975,44.371122900000046],[-73.124814399999934,44.371292700000026],[-73.124698700999943,44.369989800000042],[-73.125546499999984,44.369836500000076],[-73.125326799999982,44.369169100000079],[-73.124801099999956,44.369311800000048],[-73.124690099999953,44.369253700000058],[-73.124660699999936,44.369165200000054],[-73.124812099999986,44.369045000000028],[-73.124989999999968,44.369085300000052],[-73.125471699999935,44.369012600000076],[-73.126118400999985,44.37097870000008],[-73.126421599999958,44.371033800000077],[-73.127740199999948,44.370853100000033],[-73.127953099999957,44.369909100000029],[-73.127941599999986,44.369575800000064],[-73.127806099999987,44.369358200000079],[-73.126589699999954,44.368205200000034],[-73.126392300999953,44.367882200000054],[-73.126243799999941,44.367464100000063]]],[[[-73.124820398999987,44.367254400000036],[-73.124306099999956,44.367308900000069],[-73.123341699999969,44.367411100000027],[-73.12314730099996,44.368124400000056],[-73.123161698999979,44.368453800000054],[-73.125130399999989,44.368103500000075],[-73.124820398999987,44.367254400000036]]],[[[-73.125676677999934,44.365522602000055],[-73.122112499999957,44.365939500000081],[-73.122398299999986,44.366936900000042],[-73.122066199999949,44.368743100000074],[-73.12295310099995,44.36873200000008],[-73.122991199999944,44.368774900000062],[-73.122956599999952,44.368109400000037],[-73.123192599999982,44.36724380000004],[-73.12295389999997,44.36650300000008],[-73.122755599999948,44.366442000000063],[-73.122761399999945,44.366288700000041],[-73.122925399999986,44.366231400000061],[-73.123084099999971,44.366302000000076],[-73.123395199999948,44.367266500000028],[-73.124954298999967,44.367102400000078],[-73.125101599999937,44.367483700000037],[-73.126195600999949,44.36730330000006],[-73.125676677999934,44.365522602000055]]],[[[-73.128834799999936,44.365184713000076],[-73.127098693999983,44.365370366000036],[-73.125936097999954,44.365494066000053],[-73.126538799999935,44.367582800000037],[-73.126807499999984,44.36811380000006],[-73.12794729899997,44.369195300000058],[-73.128882499999975,44.369986300000051],[-73.131995399999937,44.372255600000074],[-73.133643499999948,44.373598400000049],[-73.134148299999936,44.374187900000038],[-73.134516498999972,44.374739600000055],[-73.136434599999973,44.378221300000064],[-73.13661026699998,44.37819720400006],[-73.136541700999942,44.377901400000042],[-73.136426878999941,44.377406060000055],[-73.135468399999979,44.373271900000077],[-73.133837299999982,44.373423100000025],[-73.133460599999978,44.372680500000058],[-73.133116599999937,44.371713000000057],[-73.132607099999973,44.371749400000056],[-73.132609299999956,44.370900000000063],[-73.131487199999981,44.371333700000037],[-73.131587399999944,44.370087100000035],[-73.12931489999994,44.366839600000048],[-73.128834799999936,44.365184713000076]]]]},"properties":{"OBJECTID":2,"OBJECTID_1":425,"Jurisdiction_District_Name":"Saint George Medium-Density Residential District","County":"Chittenden","Jurisdiction":"Saint George ","Abbreviated_District_Name":"Mdr","District_Name":"Medium-Density Residential District","District_Mapped":"Yes","Overlay_District":"No","Extinct_District":null,"District_Type":"Primarily Residential","Affordable_Housing_District":"No","Elderly_Housing_District":"No","F1F_Allowance":"Permitted","F2F_Allowance":"Permitted","F3F_Allowance":"Public Hearing","F4F_Allowance":"Public Hearing","F5F_Allowance":null,"ADU_Allowance":"Allowed/Conditional","Affordable_Housing_Allowance":"Not Mentioned","PRD_Allowance":"Public Hearing","NOTES":" \"The Town Plan Describes This District As 'Existing Residential Neighborhoods' And Envisions 'Few Changes to The Current Pattern And Density Of Land Use Within This Planning Area.' ","F1F_Min_Lot":2,"F1F_Front_Setback":30,"F1F_Side_Setback":20,"F1F_Rear_Setback":50,"F1F_Frontage":200,"F1F_Max_Lot_Building_Coverage":null,"F1F_Max_Lot_Impervious_Coverage":10,"F1F_Min_Parking_Spaces":null,"F1F_Max_Stories":2,"F1F_Max_Height":null,"F1F_Floor_to_Area_Ratio":null,"F1F_Min_Unit_Size":null,"F2F_Affordable_Housing_Only":"No","F2F_Elderly_Housing_Only":"No","F2F_Min_Lot_Size":2,"F2F_Max_Density":1,"F2F_Front_Setback":30,"F2F_Side_Setback":20,"F2F_Rear_Setback":50,"F2F_Frontage":200,"F2F_Max_Lot_Building_Coverage":null,"F2F_Max_Lot_Impervious_Coverage":10,"F2F_Min_Parking_Spaces_per_1BR":null,"F2F_Min_Parking_Spaces_per_mult_BR":null,"F2F_Max_Stories":2,"F2F_Max_Height":null,"F2F_Floor_to_Area_Ratio":null,"F2F_Min_Unit_Size":null,"F3F_Affordable_Housing_Only":"No","F3F_Elderly_Housing_Only":"No","F3F_Min_Lot_Size":2,"F3F_Max_Density":1,"F3F_Front_Setback":30,"F3F_Side_Setback":20,"F3F_Rear_Setback":50,"F3F_Frontage":200,"F3F_Max_Lot_Building_Coverage":null,"F3F_Max_Lot_Impervious_Coverage":10,"F3F_Min_Parking_Spaces_per_1BR":null,"F3F_Min_Parking_Spaces_per_mult_BR":null,"F3F_Connection_to_Sewage_Water_Required":"No","F3F_Proximity_to_Public_Transit_Required":"No","F3F_Max_Stories":3,"F3F_Max_Height":null,"F3F_Floor_to_Area_Ratio":null,"F3F_Min_Unit_Size":null,"F3F_Max_Bedrooms":null,"F4F_Affordable_Housing_Only":"No","F4F_Elderly_Housing_Only":"No","F4F_Min_Lot_Size":2,"F4F_Max_Density":1,"F4F_Front_Setback":30,"F4F_Side_Setback":20,"F4F_Rear_Setback":50,"F4F_Frontage":200,"F4F_Max_Lot_Building_Coverage":null,"F4F_Max_Lot_Impervious_Coverage":10,"F4F_Min_Parking_Spaces_per_1BR":null,"F4F_Min_Parking_Spaces_per__mult_BR":null,"F4F_Connection_to_Sewage_Water_Required":"No","F4F_Proximity_to_Public_Transit_Required":"No","F4F_Max_Stories":2,"F4F_Max_Height":null,"F4F_Floor_to_Area_Ratio":null,"F4F_Min_Unit_Size":null,"F4F_Max_Bedrooms":null,"F4F_Max_Units_per_Building":null,"F5F_Affordable_Housing_Only":"F","F5F_Elderly_Housing_Only":"F","F5F_Min_Lot_Size":2,"F5F_Max_Density":"1","F5F_Front_Setback":30,"F5F_Side_Setback":20,"F5F_Rear_Setback":50,"F5F_Frontage":200,"F5F_Max_Lot_Building_Coverage":null,"F5F_Max__Lot_Impervious_Coverage":10,"F5F_Min_Parking_Spaces_per_1BR":null,"F5F_Min_Parking_Spaces_per_mult_BR":null,"F5F_Connection_to_Sewage_Water_Required":"F","F5F_Proximity_to_Public_Transit_Required":"F","F5F_Max_Stories":2,"F5F_Max_Height":null,"F5F_Floor_to_Area_Ratio":null,"F5F_Min_Unit_Size":null,"F5F_Max_Bedrooms":null,"F5F_Max_Units_per_Building":null,"Affordable_Housing_Definition":null,"Affordable_Housing_Elderly_Only":"No","Affordable_Housing_Min_Lot_Size":null,"Affordable_Housing_Max_Density":null,"Affordable_Housing_Min_Parking_Spaces_per_1BR":null,"Affordable_Housing_Min_Parking_Spaces_per_mult_BR":null,"Affordable_Housing_Min_Unit_Size":null,"Affordable_Housing_Max_Bedrooms":null,"Affordable_Housing_Max_Units_per_Building":null,"ADU_Employee_or_Family_Occupancy_Required":"No","ADU_Renter_Occupancy_Prohibited":"No","ADU_Owner_Occupancy_Required":"Yes","ADU_Elderly_Housing_Only":"No","ADU_Min_Lot_Size":null,"ADU_Min_Parking_Spaces":1,"ADU_Restricted_to_Primary_Structure":"No","ADU_Max_Size_as_Percent_of_Primary_Strcture":30,"ADU_Max_Size_in_sq_ft":600,"ADU_Max_Bedrooms":null,"PRD_Mobile_or_Manufactured_Home_Park":"Yes","PRD_Min_Lot_Size":null,"PRD_Max_Density":1,"PRD_Max_Units":null,"PUD_Required_with_Subdivision":"T","PUD_Threshold_Number":null,"PUD_Allowance":"Yes","PUD_Requires_Land_Conservation":"T","Base_Density":1,"CONDITIONAL_1F_Min_Lot":null,"CONDITIONAL_1F_Front_Setback":null,"CONDITIONAL_1F_Side_Setback":null,"CONDITIONAL_1F_Rear_Setback":null,"CONDITIONAL_1F_Frontage":null,"CONDITIONAL_1F_Max_Lot_Building_Coverage":null,"CONDITIONAL_1F_Max_Lot_Impervious_Coverage":null,"CONDITIONAL_1F_Min_Parking_Spaces":null,"CONDITIONAL_1F_Max_Stories":null,"CONDITIONAL_1F_Max_Height":null,"CONDITIONAL_1F_Floor_to_Area_Ratio":null,"CONDITIONAL_1F_Min_Unit_Size":null,"CONDITIONAL_2F_Affordable_Housing_Only":null,"CONDITIONAL_2F_Elderly_Housing_Only":null,"CONDITIONAL_2F_Min_Lot_Size":null,"CONDITIONAL_2F_Max_Density":null,"CONDITIONAL_2F_Front_Setback":null,"CONDITIONAL_2F_Side_Setback":null,"CONDITIONAL_2F_Rear_Setback":null,"CONDITIONAL_2F_Frontage":null,"CONDITIONAL_2F_Max_Lot_Building_Coverage":null,"CONDITIONAL_2F_Max_Lot_Impervious_Coverage":null,"CONDITIONAL_2F_Min_Parking_Spaces_per_1BR":null,"CONDITIONAL_2F_Min_Parking_Spaces_per_mult_BR":null,"CONDITIONAL_2F_Max_Stories":null,"CONDITIONAL_2F_Max_Height":null,"CONDITIONAL_2F_Floor_to_Area_Ratio":null,"CONDITIONAL_2F_Min_Unit_Size":null,"CONDITIONAL_3F_Affordable_Housing_Only":null,"CONDITIONAL_3F_Elderly_Housing_Only":null,"CONDITIONAL_3F_Min_Lot_Size":null,"CONDITIONAL_3F_Max_Density":null,"CONDITIONAL_3F_Front_Setback":null,"CONDITIONAL_3F_Side_Setback":null,"CONDITIONAL_3F_Rear_Setback":null,"CONDITIONAL_3F_Frontage":null,"CONDITIONAL_3F_Max_Lot_Building_Coverage":null,"CONDITIONAL_3F_Max_Lot_Impervious_Coverage":null,"CONDITIONAL_3F_Min_Parking_Spaces_per_1BR":null,"CONDITIONAL_3F_Min_Parking_Spaces_per_mult_BR":"The Drb Shall Establish The Required Number of Parking Spaces","CONDITIONAL_3F_Connection_to_Sewage_Water_Required":null,"CONDITIONAL_3F_Proximity_to_Public_Transit_Required":null,"CONDITIONAL_3F_Max_Stories":null,"CONDITIONAL_3F_Max_Height":null,"CONDITIONAL_3F_Floor_to_Area_Ratio":null,"CONDITIONAL_3F_Min_Unit_Size":null,"CONDITIONAL_3F_Max_Bedrooms":null,"CONDITIONAL_4F_Affordable_Housing_Only":null,"CONDITIONAL_4F_Elderly_Housing_Only":null,"CONDITIONAL_4F_Min_Lot_Size":null,"CONDITIONAL_4F_Max_Density":null,"CONDITIONAL_4F_Front_Setback":null,"CONDITIONAL_4F_Side_Setback":null,"CONDITIONAL_4F_Rear_Setback":null,"CONDITIONAL_4F_Frontage":null,"CONDITIONAL_4F_Max_Lot_Building_Coverage":null,"CONDITIONAL_4F_Max_Lot_Impervious_Coverage":null,"CONDITIONAL_4F_Min_Parking_Spaces_per_1BR":null,"CONDITIONAL_4F_Min_Parking_Spaces_per__mult_BR":"The Drb Shall Establish The Required Number of Parking Spaces","CONDITIONAL_4F_Connection_to_Sewage_Water_Required":null,"CONDITIONAL_4F_Proximity_to_Public_Transit_Required":null,"CONDITIONAL_4F_Max_Stories":null,"CONDITIONAL_4F_Max_Height":null,"CONDITIONAL_4F_Floor_to_Area_Ratio":null,"CONDITIONAL_4F_Min_Unit_Size":null,"CONDITIONAL_4F_Max_Bedrooms":null,"CONDITIONAL_4F_Max_Units_per_Building":null,"CONDITIONAL_5F_Affordable_Housing_Only":null,"CONDITIONAL_5F_Elderly_Housing_Only":null,"CONDITIONAL_5F_Min_Lot_Size":null,"CONDITIONAL_5F_Max_Density":null,"CONDITIONAL_5F_Front_Setback":null,"CONDITIONAL_5F_Side_Setback":null,"CONDITIONAL_5F_Rear_Setback":null,"CONDITIONAL_5F_Frontage":null,"CONDITIONAL_5F_Max_Lot_Building_Coverage":null,"CONDITIONAL_5F_Max__Lot_Impervious_Coverage":null,"CONDITIONAL_5F_Min_Parking_Spaces_per_1BR":null,"CONDITIONAL_5F_Min_Parking_Spaces_per_mult_BR":null,"CONDITIONAL_5F_Connection_to_Sewage_Water_Required":null,"CONDITIONAL_5F_Proximity_to_Public_Transit_Required":null,"CONDITIONAL_5F_Max_Stories":null,"CONDITIONAL_5F_Max_Height":null,"CONDITIONAL_5F_Floor_to_Area_Ratio":null,"CONDITIONAL_5F_Min_Unit_Size":null,"CONDITIONAL_5F_Max_Bedrooms":null,"CONDITIONAL_5F_Max_Units_per_Building":null,"CONDITIONAL_Affordable_Housing_Definition":null,"CONDITIONAL_Affordable_Housing_Elderly_Only":null,"CONDITIONAL_Affordable_Housing_Min_Lot_Size":null,"CONDITIONAL_Affordable_Housing_Max_Density":null,"CONDITIONAL_Affordable_Housing_Min_Parking_Spaces_per_1BR":null,"CONDITIONAL_Affordable_Housing_Min_Parking_Spaces_per_mult_BR":null,"CONDITIONAL_Affordable_Housing_Min_Unit_Size":null,"CONDITIONAL_Affordable_Housing_Max_Bedrooms":null,"CONDITIONAL_Affordable_Housing_Max_Units_per_Building":null,"CONDITIONAL_ADU_Employee_or_Family_Occupancy_Required":null,"CONDITIONAL_ADU_Renter_Occupancy_Prohibited":null,"CONDITIONAL_ADU_Owner_Occupancy_Required":null,"CONDITIONAL_ADU_Elderly_Housing_Only":null,"CONDITIONAL_ADU_Min_Lot_Size":null,"CONDITIONAL_ADU_Min_Parking_Spaces":null,"CONDITIONAL_ADU_Restricted_to_Primary_Structure":null,"CONDITIONAL_ADU_Max_Size_as_Percent_of_Primary_Strcture":null,"CONDITIONAL_ADU_Max_Size_in_sq_ft":null,"CONDITIONAL_ADU_Max_Bedrooms":null,"CONDITIONAL_PRD_Mobile_or_Manufactured_Home_Park":null,"CONDITIONAL_PRD_Min_Lot_Size":null,"CONDITIONAL_PRD_Max_Density":null,"CONDITIONAL_PRD_Max_Units":null,"CONDITIONAL_PUD_Required_with_Subdivision":null,"CONDITIONAL_PUD_Threshold_Number":null,"CONDITIONAL_PUD_Allowance":null,"CONDITIONAL_PUD_Requires_Land_Conservation":null,"Bylaw_Date":"2023-07-31","RPC":"CCRPC","Version":1,"Acres":264.91521938238645,"Shape_Length":0.16401045444120235,"Shape_Area":0.00012105886821334763}},{"type":"Feature","id":3,"geometry":{"type":"MultiPolygon","coordinates":[[[[-73.141633399999989,44.401564200000053],[-73.141237924999984,44.401591156000052],[-73.141661116999956,44.401705458000038],[-73.141633399999989,44.401564200000053]]],[[[-73.140708299999972,44.400982000000056],[-73.140804904999982,44.401474201000042],[-73.14157309999996,44.401419400000066],[-73.14115050099997,44.401266000000078],[-73.140708299999972,44.400982000000056]]],[[[-73.140401399999973,44.400656300000037],[-73.138596830999973,44.400877819000073],[-73.140609677999976,44.401421472000038],[-73.140401399999973,44.400656300000037]]],[[[-73.139817280999978,44.39811420400008],[-73.139802999999972,44.398138500000073],[-73.139817497999957,44.398137140000074],[-73.139817280999978,44.39811420400008]]],[[[-73.140939500999934,44.398031905000039],[-73.139817497999957,44.398137140000074],[-73.139821899999959,44.398600100000067],[-73.140328700999987,44.400000800000043],[-73.140605498999946,44.400546800000029],[-73.140993498999933,44.400939900000026],[-73.141564599999981,44.401214100000061],[-73.140939500999934,44.398031905000039]]],[[[-73.140284399999985,44.394696100000033],[-73.139813999999944,44.397769100000062],[-73.139817280999978,44.39811420400008],[-73.139864599999953,44.398033700000042],[-73.140284399999985,44.394696100000033]]],[[[-73.138393699999938,44.385980200000063],[-73.134999299999947,44.386418000000049],[-73.134943099999987,44.386166700000047],[-73.130284399999937,44.386599700000033],[-73.130358399999977,44.389575900000068],[-73.127575199999967,44.389628800000025],[-73.128007599999989,44.393104300000061],[-73.127833400999975,44.395385800000042],[-73.128093999999976,44.397402300000067],[-73.128058428999964,44.398031482000079],[-73.138273674999937,44.400790537000034],[-73.140315699999974,44.400528400000042],[-73.139653499999952,44.39893230000007],[-73.139531299999987,44.398219600000061],[-73.139953799999944,44.39502630000004],[-73.140197955999952,44.394255996000027],[-73.140107591999936,44.393795964000049],[-73.138393699999938,44.385980200000063]]],[[[-73.136460000999989,44.395030000000077],[-73.136369998999953,44.395340000000033],[-73.136449999999968,44.395450000000039],[-73.136360000999957,44.395600000000059],[-73.136489999999981,44.395600000000059],[-73.136589999999956,44.395670000000052],[-73.136579999999981,44.396100000000047],[-73.136639998999954,44.396130000000028],[-73.136799999999937,44.396050000000059],[-73.137119999999982,44.395770000000027],[-73.137509999999963,44.395590000000027],[-73.137719999999945,44.395590000000027],[-73.137989999999945,44.395490000000052],[-73.138149999999939,44.395490000000052],[-73.138169999999946,44.395390000000077],[-73.137569998999936,44.395250000000033],[-73.137259999999969,44.395250000000033],[-73.137079999999969,44.395140000000026],[-73.136460000999989,44.395030000000077]]],[[[-73.124479299999962,44.38444880000003],[-73.124073899999985,44.384707500000047],[-73.123534499999948,44.385251100000062],[-73.123369499999967,44.385497800000053],[-73.123176499999943,44.385611200000028],[-73.121961898999984,44.38599140000008],[-73.120535899999936,44.38655250000005],[-73.119078299999956,44.38680190000008],[-73.118325500999958,44.387087700000052],[-73.117731999999933,44.387142900000072],[-73.117480500999989,44.387089100000026],[-73.116484899999989,44.386458900000036],[-73.115673698999956,44.386047400000052],[-73.115724398999987,44.389187700000036],[-73.112408199999948,44.388689200000044],[-73.11205659999996,44.388415500000065],[-73.111318900999947,44.388199800000052],[-73.111170099999981,44.387773100000061],[-73.110464798999942,44.387160400000027],[-73.108060999999964,44.386400300000048],[-73.107566498999972,44.38634490000004],[-73.112055999999939,44.390819400000055],[-73.107449699999961,44.38633180000005],[-73.107096800999955,44.386296001000062],[-73.115916609999942,44.394551457000034],[-73.114903799999979,44.393519500000025],[-73.11614609999998,44.394674200000054],[-73.117820699999982,44.395163700000069],[-73.117811099999983,44.39519800000005],[-73.116070744999945,44.394695742000067],[-73.116488090999951,44.395086371000048],[-73.117404138999973,44.395327113000064],[-73.124382841999989,44.397087690000035],[-73.126733197999954,44.397673548000057],[-73.126738749999959,44.397675047000064],[-73.127815632999955,44.397965905000035],[-73.127841899999964,44.397413100000051],[-73.127580899999941,44.395387300000039],[-73.127755299999933,44.393111700000077],[-73.127324099999953,44.389657900000032],[-73.12728630099997,44.389662900000076],[-73.127628699999946,44.392283200000065],[-73.125806699999941,44.392530000000079],[-73.125621798999987,44.389010100000064],[-73.125153299999965,44.389166000000046],[-73.124505099999965,44.389562200000057],[-73.124037599999951,44.390006000000028],[-73.123670999999945,44.390560900000025],[-73.123492499999941,44.390677500000038],[-73.122739599999989,44.390767000000039],[-73.12162189999998,44.390789100000063],[-73.12164839999997,44.390654600000062],[-73.122723599999972,44.390631700000029],[-73.123436499999968,44.390542100000062],[-73.123909499999968,44.389897200000064],[-73.124525300999949,44.389358600000037],[-73.124479299999962,44.38444880000003]]],[[[-73.116660999999965,44.366563100000064],[-73.114494199999967,44.366804300000069],[-73.114494166999975,44.366804303000038],[-73.11136621299994,44.36713241700005],[-73.110162112999944,44.367258797000034],[-73.106670286999986,44.367613498000026],[-73.105384000999948,44.367730000000051],[-73.103407605999962,44.367943663000062],[-73.103294399999982,44.36795629900007],[-73.098352301999967,44.368509612000025],[-73.098577099999943,44.369688000000053],[-73.098420200999954,44.369901600000048],[-73.09833139999995,44.370031600000061],[-73.098962999999969,44.370617400000071],[-73.099233699999957,44.372680500000058],[-73.099203699999975,44.373917200000051],[-73.101995498999941,44.373557700000049],[-73.102175899999963,44.374383900000055],[-73.102151699999979,44.375200300000074],[-73.104535899999973,44.375004000000047],[-73.105184999999949,44.376231700000062],[-73.105470599999933,44.376547000000073],[-73.105636599999968,44.37695210000004],[-73.105269599999986,44.377493000000072],[-73.105004599999972,44.37762390000006],[-73.105072999999948,44.377783000000079],[-73.106420698999955,44.377664200000027],[-73.107043500999964,44.380365200000028],[-73.105341099999976,44.380415600000049],[-73.106149799999969,44.383130200000039],[-73.108641299999988,44.383304000000066],[-73.109620098999983,44.383416600000032],[-73.109854599999949,44.383520700000076],[-73.112530599999957,44.383213000000069],[-73.112536099999943,44.383257000000071],[-73.113788098999976,44.383103600000027],[-73.115632999999946,44.382991900000036],[-73.115677499999947,44.38589950000005],[-73.116513299999951,44.386301300000071],[-73.117571599999962,44.386970000000076],[-73.117754899999966,44.387006900000074],[-73.118329299999971,44.386946800000032],[-73.119017799999938,44.386673200000075],[-73.120462098999951,44.386427400000059],[-73.121878099999947,44.385869600000035],[-73.123078498999973,44.385495000000049],[-73.123214099999984,44.385420000000067],[-73.123375199999941,44.385177700000042],[-73.123929299999986,44.38461970000003],[-73.124617399999977,44.38417940000005],[-73.124662099999966,44.374418500000047],[-73.12273179999994,44.374599200000034],[-73.122597499999983,44.373880000000042],[-73.120940599999983,44.374055500000054],[-73.120221899999933,44.373726400000066],[-73.119610399999942,44.37356230000006],[-73.120021298999973,44.375522900000078],[-73.119671399999959,44.375533800000028],[-73.119030298999974,44.375782100000038],[-73.118537699999933,44.376179800000045],[-73.118249600999945,44.376122000000066],[-73.117457999999942,44.376126300000067],[-73.116933499999959,44.37625150000008],[-73.116341000999967,44.373238000000072],[-73.116184299999986,44.37110430000007],[-73.116669498999954,44.370483100000058],[-73.116572799999972,44.368680300000051],[-73.116272999999978,44.368445300000076],[-73.116547199999957,44.367558200000076],[-73.116660999999965,44.366563100000064]]],[[[-73.133469799999943,44.364649100000065],[-73.12965464399997,44.365090302000056],[-73.128834799999936,44.365184713000076],[-73.12931489999994,44.366839600000048],[-73.131587399999944,44.370087100000035],[-73.131487199999981,44.371333700000037],[-73.132609299999956,44.370900000000063],[-73.132607099999973,44.371749400000056],[-73.133116599999937,44.371713000000057],[-73.133460599999978,44.372680500000058],[-73.133837299999982,44.373423100000025],[-73.135468399999979,44.373271900000077],[-73.133469799999943,44.364649100000065]]],[[[-73.131429999999966,44.36614000000003],[-73.131079998999951,44.36614000000003],[-73.131009999999947,44.366270000000043],[-73.131059999999934,44.366550000000075],[-73.131649999999979,44.366520000000037],[-73.13167999999996,44.36641000000003],[-73.131609999999966,44.366210000000081],[-73.131429999999966,44.36614000000003]]]]},"properties":{"OBJECTID":3,"OBJECTID_1":426,"Jurisdiction_District_Name":"Saint George Rural Development District","County":"Chittenden","Jurisdiction":"Saint George ","Abbreviated_District_Name":"Rd","District_Name":"Rural Development District","District_Mapped":"Yes","Overlay_District":"No","Extinct_District":null,"District_Type":"Primarily Residential","Affordable_Housing_District":"No","Elderly_Housing_District":"No","F1F_Allowance":"Permitted","F2F_Allowance":"Prohibited","F3F_Allowance":"Prohibited","F4F_Allowance":"Prohibited","F5F_Allowance":null,"ADU_Allowance":"Allowed/Conditional","Affordable_Housing_Allowance":"Not Mentioned","PRD_Allowance":"Public Hearing","NOTES":"None","F1F_Min_Lot":1,"F1F_Front_Setback":50,"F1F_Side_Setback":50,"F1F_Rear_Setback":50,"F1F_Frontage":200,"F1F_Max_Lot_Building_Coverage":null,"F1F_Max_Lot_Impervious_Coverage":10,"F1F_Min_Parking_Spaces":2,"F1F_Max_Stories":2,"F1F_Max_Height":null,"F1F_Floor_to_Area_Ratio":0.10000000000000001,"F1F_Min_Unit_Size":null,"F2F_Affordable_Housing_Only":"No","F2F_Elderly_Housing_Only":"No","F2F_Min_Lot_Size":null,"F2F_Max_Density":null,"F2F_Front_Setback":null,"F2F_Side_Setback":null,"F2F_Rear_Setback":null,"F2F_Frontage":null,"F2F_Max_Lot_Building_Coverage":null,"F2F_Max_Lot_Impervious_Coverage":null,"F2F_Min_Parking_Spaces_per_1BR":null,"F2F_Min_Parking_Spaces_per_mult_BR":null,"F2F_Max_Stories":null,"F2F_Max_Height":null,"F2F_Floor_to_Area_Ratio":null,"F2F_Min_Unit_Size":null,"F3F_Affordable_Housing_Only":"No","F3F_Elderly_Housing_Only":"No","F3F_Min_Lot_Size":null,"F3F_Max_Density":null,"F3F_Front_Setback":null,"F3F_Side_Setback":null,"F3F_Rear_Setback":null,"F3F_Frontage":null,"F3F_Max_Lot_Building_Coverage":null,"F3F_Max_Lot_Impervious_Coverage":null,"F3F_Min_Parking_Spaces_per_1BR":null,"F3F_Min_Parking_Spaces_per_mult_BR":null,"F3F_Connection_to_Sewage_Water_Required":"No","F3F_Proximity_to_Public_Transit_Required":"No","F3F_Max_Stories":null,"F3F_Max_Height":null,"F3F_Floor_to_Area_Ratio":null,"F3F_Min_Unit_Size":null,"F3F_Max_Bedrooms":null,"F4F_Affordable_Housing_Only":"No","F4F_Elderly_Housing_Only":"No","F4F_Min_Lot_Size":null,"F4F_Max_Density":null,"F4F_Front_Setback":null,"F4F_Side_Setback":null,"F4F_Rear_Setback":null,"F4F_Frontage":null,"F4F_Max_Lot_Building_Coverage":null,"F4F_Max_Lot_Impervious_Coverage":null,"F4F_Min_Parking_Spaces_per_1BR":null,"F4F_Min_Parking_Spaces_per__mult_BR":null,"F4F_Connection_to_Sewage_Water_Required":"No","F4F_Proximity_to_Public_Transit_Required":"No","F4F_Max_Stories":null,"F4F_Max_Height":null,"F4F_Floor_to_Area_Ratio":null,"F4F_Min_Unit_Size":null,"F4F_Max_Bedrooms":null,"F4F_Max_Units_per_Building":null,"F5F_Affordable_Housing_Only":null,"F5F_Elderly_Housing_Only":null,"F5F_Min_Lot_Size":null,"F5F_Max_Density":null,"F5F_Front_Setback":null,"F5F_Side_Setback":null,"F5F_Rear_Setback":null,"F5F_Frontage":null,"F5F_Max_Lot_Building_Coverage":null,"F5F_Max__Lot_Impervious_Coverage":null,"F5F_Min_Parking_Spaces_per_1BR":null,"F5F_Min_Parking_Spaces_per_mult_BR":null,"F5F_Connection_to_Sewage_Water_Required":null,"F5F_Proximity_to_Public_Transit_Required":null,"F5F_Max_Stories":null,"F5F_Max_Height":null,"F5F_Floor_to_Area_Ratio":null,"F5F_Min_Unit_Size":null,"F5F_Max_Bedrooms":null,"F5F_Max_Units_per_Building":null,"Affordable_Housing_Definition":null,"Affordable_Housing_Elderly_Only":"No","Affordable_Housing_Min_Lot_Size":null,"Affordable_Housing_Max_Density":null,"Affordable_Housing_Min_Parking_Spaces_per_1BR":null,"Affordable_Housing_Min_Parking_Spaces_per_mult_BR":null,"Affordable_Housing_Min_Unit_Size":null,"Affordable_Housing_Max_Bedrooms":null,"Affordable_Housing_Max_Units_per_Building":null,"ADU_Employee_or_Family_Occupancy_Required":"No","ADU_Renter_Occupancy_Prohibited":"No","ADU_Owner_Occupancy_Required":"Yes","ADU_Elderly_Housing_Only":"No","ADU_Min_Lot_Size":null,"ADU_Min_Parking_Spaces":1,"ADU_Restricted_to_Primary_Structure":"No","ADU_Max_Size_as_Percent_of_Primary_Strcture":30,"ADU_Max_Size_in_sq_ft":600,"ADU_Max_Bedrooms":null,"PRD_Mobile_or_Manufactured_Home_Park":"Yes","PRD_Min_Lot_Size":null,"PRD_Max_Density":null,"PRD_Max_Units":null,"PUD_Required_with_Subdivision":"T","PUD_Threshold_Number":null,"PUD_Allowance":"Yes","PUD_Requires_Land_Conservation":"T","Base_Density":0.10000000000000001,"CONDITIONAL_1F_Min_Lot":null,"CONDITIONAL_1F_Front_Setback":null,"CONDITIONAL_1F_Side_Setback":null,"CONDITIONAL_1F_Rear_Setback":null,"CONDITIONAL_1F_Frontage":null,"CONDITIONAL_1F_Max_Lot_Building_Coverage":null,"CONDITIONAL_1F_Max_Lot_Impervious_Coverage":null,"CONDITIONAL_1F_Min_Parking_Spaces":null,"CONDITIONAL_1F_Max_Stories":null,"CONDITIONAL_1F_Max_Height":null,"CONDITIONAL_1F_Floor_to_Area_Ratio":null,"CONDITIONAL_1F_Min_Unit_Size":null,"CONDITIONAL_2F_Affordable_Housing_Only":null,"CONDITIONAL_2F_Elderly_Housing_Only":null,"CONDITIONAL_2F_Min_Lot_Size":null,"CONDITIONAL_2F_Max_Density":null,"CONDITIONAL_2F_Front_Setback":null,"CONDITIONAL_2F_Side_Setback":null,"CONDITIONAL_2F_Rear_Setback":null,"CONDITIONAL_2F_Frontage":null,"CONDITIONAL_2F_Max_Lot_Building_Coverage":null,"CONDITIONAL_2F_Max_Lot_Impervious_Coverage":null,"CONDITIONAL_2F_Min_Parking_Spaces_per_1BR":null,"CONDITIONAL_2F_Min_Parking_Spaces_per_mult_BR":null,"CONDITIONAL_2F_Max_Stories":null,"CONDITIONAL_2F_Max_Height":null,"CONDITIONAL_2F_Floor_to_Area_Ratio":null,"CONDITIONAL_2F_Min_Unit_Size":null,"CONDITIONAL_3F_Affordable_Housing_Only":null,"CONDITIONAL_3F_Elderly_Housing_Only":null,"CONDITIONAL_3F_Min_Lot_Size":null,"CONDITIONAL_3F_Max_Density":null,"CONDITIONAL_3F_Front_Setback":null,"CONDITIONAL_3F_Side_Setback":null,"CONDITIONAL_3F_Rear_Setback":null,"CONDITIONAL_3F_Frontage":null,"CONDITIONAL_3F_Max_Lot_Building_Coverage":null,"CONDITIONAL_3F_Max_Lot_Impervious_Coverage":null,"CONDITIONAL_3F_Min_Parking_Spaces_per_1BR":null,"CONDITIONAL_3F_Min_Parking_Spaces_per_mult_BR":null,"CONDITIONAL_3F_Connection_to_Sewage_Water_Required":null,"CONDITIONAL_3F_Proximity_to_Public_Transit_Required":null,"CONDITIONAL_3F_Max_Stories":null,"CONDITIONAL_3F_Max_Height":null,"CONDITIONAL_3F_Floor_to_Area_Ratio":null,"CONDITIONAL_3F_Min_Unit_Size":null,"CONDITIONAL_3F_Max_Bedrooms":null,"CONDITIONAL_4F_Affordable_Housing_Only":null,"CONDITIONAL_4F_Elderly_Housing_Only":null,"CONDITIONAL_4F_Min_Lot_Size":null,"CONDITIONAL_4F_Max_Density":null,"CONDITIONAL_4F_Front_Setback":null,"CONDITIONAL_4F_Side_Setback":null,"CONDITIONAL_4F_Rear_Setback":null,"CONDITIONAL_4F_Frontage":null,"CONDITIONAL_4F_Max_Lot_Building_Coverage":null,"CONDITIONAL_4F_Max_Lot_Impervious_Coverage":null,"CONDITIONAL_4F_Min_Parking_Spaces_per_1BR":null,"CONDITIONAL_4F_Min_Parking_Spaces_per__mult_BR":null,"CONDITIONAL_4F_Connection_to_Sewage_Water_Required":null,"CONDITIONAL_4F_Proximity_to_Public_Transit_Required":null,"CONDITIONAL_4F_Max_Stories":null,"CONDITIONAL_4F_Max_Height":null,"CONDITIONAL_4F_Floor_to_Area_Ratio":null,"CONDITIONAL_4F_Min_Unit_Size":null,"CONDITIONAL_4F_Max_Bedrooms":null,"CONDITIONAL_4F_Max_Units_per_Building":null,"CONDITIONAL_5F_Affordable_Housing_Only":null,"CONDITIONAL_5F_Elderly_Housing_Only":null,"CONDITIONAL_5F_Min_Lot_Size":null,"CONDITIONAL_5F_Max_Density":null,"CONDITIONAL_5F_Front_Setback":null,"CONDITIONAL_5F_Side_Setback":null,"CONDITIONAL_5F_Rear_Setback":null,"CONDITIONAL_5F_Frontage":null,"CONDITIONAL_5F_Max_Lot_Building_Coverage":null,"CONDITIONAL_5F_Max__Lot_Impervious_Coverage":null,"CONDITIONAL_5F_Min_Parking_Spaces_per_1BR":null,"CONDITIONAL_5F_Min_Parking_Spaces_per_mult_BR":null,"CONDITIONAL_5F_Connection_to_Sewage_Water_Required":null,"CONDITIONAL_5F_Proximity_to_Public_Transit_Required":null,"CONDITIONAL_5F_Max_Stories":null,"CONDITIONAL_5F_Max_Height":null,"CONDITIONAL_5F_Floor_to_Area_Ratio":null,"CONDITIONAL_5F_Min_Unit_Size":null,"CONDITIONAL_5F_Max_Bedrooms":null,"CONDITIONAL_5F_Max_Units_per_Building":null,"CONDITIONAL_Affordable_Housing_Definition":null,"CONDITIONAL_Affordable_Housing_Elderly_Only":null,"CONDITIONAL_Affordable_Housing_Min_Lot_Size":null,"CONDITIONAL_Affordable_Housing_Max_Density":null,"CONDITIONAL_Affordable_Housing_Min_Parking_Spaces_per_1BR":null,"CONDITIONAL_Affordable_Housing_Min_Parking_Spaces_per_mult_BR":null,"CONDITIONAL_Affordable_Housing_Min_Unit_Size":null,"CONDITIONAL_Affordable_Housing_Max_Bedrooms":null,"CONDITIONAL_Affordable_Housing_Max_Units_per_Building":null,"CONDITIONAL_ADU_Employee_or_Family_Occupancy_Required":null,"CONDITIONAL_ADU_Renter_Occupancy_Prohibited":null,"CONDITIONAL_ADU_Owner_Occupancy_Required":null,"CONDITIONAL_ADU_Elderly_Housing_Only":null,"CONDITIONAL_ADU_Min_Lot_Size":null,"CONDITIONAL_ADU_Min_Parking_Spaces":null,"CONDITIONAL_ADU_Restricted_to_Primary_Structure":null,"CONDITIONAL_ADU_Max_Size_as_Percent_of_Primary_Strcture":null,"CONDITIONAL_ADU_Max_Size_in_sq_ft":null,"CONDITIONAL_ADU_Max_Bedrooms":null,"CONDITIONAL_PRD_Mobile_or_Manufactured_Home_Park":null,"CONDITIONAL_PRD_Min_Lot_Size":null,"CONDITIONAL_PRD_Max_Density":"1 Du / 10 Acres","CONDITIONAL_PRD_Max_Units":null,"CONDITIONAL_PUD_Required_with_Subdivision":null,"CONDITIONAL_PUD_Threshold_Number":null,"CONDITIONAL_PUD_Allowance":null,"CONDITIONAL_PUD_Requires_Land_Conservation":null,"Bylaw_Date":"2023-07-31","RPC":"CCRPC","Version":1,"Acres":1348.9254238689675,"Shape_Length":0.29868320897236833,"Shape_Area":0.00061648814308425104}},{"type":"Feature","id":4,"geometry":{"type":"MultiPolygon","coordinates":[[[[-73.126474000999963,44.379032900000027],[-73.126368599999978,44.379833100000042],[-73.127124699999968,44.37980680000004],[-73.127008199999977,44.379618500000049],[-73.126870399999973,44.379061800000045],[-73.126474000999963,44.379032900000027]]],[[[-73.126639299999965,44.376399400000025],[-73.125925499999937,44.376468000000045],[-73.125732199999959,44.377568800000063],[-73.125396499999965,44.37997340000004],[-73.12610879999994,44.379884400000037],[-73.126639299999965,44.376399400000025]]],[[[-73.129837699999939,44.376080800000068],[-73.126903699999957,44.376354700000036],[-73.126505198999951,44.37879810000004],[-73.126854999999978,44.378787600000067],[-73.127048699999989,44.378859300000045],[-73.127236498999935,44.379609000000073],[-73.127565699999934,44.379992100000038],[-73.129887499999938,44.379782200000079],[-73.129925999999955,44.37993270000004],[-73.127593699999977,44.380171000000075],[-73.127296199999989,44.38070330000005],[-73.127314099999978,44.382540200000051],[-73.130177099999969,44.382284800000036],[-73.129837699999939,44.376080800000068]]]]},"properties":{"OBJECTID":4,"OBJECTID_1":427,"Jurisdiction_District_Name":"Saint George Village Center District","County":"Chittenden","Jurisdiction":"Saint George ","Abbreviated_District_Name":"Vc","District_Name":"Village Center District","District_Mapped":"Yes","Overlay_District":"No","Extinct_District":null,"District_Type":"Mixed with Residential","Affordable_Housing_District":"No","Elderly_Housing_District":"No","F1F_Allowance":"Public Hearing","F2F_Allowance":"Prohibited","F3F_Allowance":"Public Hearing","F4F_Allowance":"Public Hearing","F5F_Allowance":null,"ADU_Allowance":"Prohibited","Affordable_Housing_Allowance":"Not Mentioned","PRD_Allowance":"Public Hearing","NOTES":"None","F1F_Min_Lot":0.059999999999999998,"F1F_Front_Setback":null,"F1F_Side_Setback":null,"F1F_Rear_Setback":10,"F1F_Frontage":25,"F1F_Max_Lot_Building_Coverage":null,"F1F_Max_Lot_Impervious_Coverage":90,"F1F_Min_Parking_Spaces":2,"F1F_Max_Stories":3,"F1F_Max_Height":null,"F1F_Floor_to_Area_Ratio":0.80000000000000004,"F1F_Min_Unit_Size":null,"F2F_Affordable_Housing_Only":"No","F2F_Elderly_Housing_Only":"No","F2F_Min_Lot_Size":null,"F2F_Max_Density":null,"F2F_Front_Setback":null,"F2F_Side_Setback":null,"F2F_Rear_Setback":null,"F2F_Frontage":25,"F2F_Max_Lot_Building_Coverage":null,"F2F_Max_Lot_Impervious_Coverage":null,"F2F_Min_Parking_Spaces_per_1BR":null,"F2F_Min_Parking_Spaces_per_mult_BR":null,"F2F_Max_Stories":null,"F2F_Max_Height":null,"F2F_Floor_to_Area_Ratio":null,"F2F_Min_Unit_Size":null,"F3F_Affordable_Housing_Only":"No","F3F_Elderly_Housing_Only":"No","F3F_Min_Lot_Size":0.059999999999999998,"F3F_Max_Density":12,"F3F_Front_Setback":null,"F3F_Side_Setback":null,"F3F_Rear_Setback":10,"F3F_Frontage":25,"F3F_Max_Lot_Building_Coverage":null,"F3F_Max_Lot_Impervious_Coverage":90,"F3F_Min_Parking_Spaces_per_1BR":null,"F3F_Min_Parking_Spaces_per_mult_BR":null,"F3F_Connection_to_Sewage_Water_Required":"No","F3F_Proximity_to_Public_Transit_Required":"No","F3F_Max_Stories":3,"F3F_Max_Height":null,"F3F_Floor_to_Area_Ratio":0.80000000000000004,"F3F_Min_Unit_Size":null,"F3F_Max_Bedrooms":null,"F4F_Affordable_Housing_Only":"No","F4F_Elderly_Housing_Only":"No","F4F_Min_Lot_Size":0.059999999999999998,"F4F_Max_Density":12,"F4F_Front_Setback":null,"F4F_Side_Setback":null,"F4F_Rear_Setback":10,"F4F_Frontage":25,"F4F_Max_Lot_Building_Coverage":null,"F4F_Max_Lot_Impervious_Coverage":90,"F4F_Min_Parking_Spaces_per_1BR":null,"F4F_Min_Parking_Spaces_per__mult_BR":null,"F4F_Connection_to_Sewage_Water_Required":"No","F4F_Proximity_to_Public_Transit_Required":"No","F4F_Max_Stories":3,"F4F_Max_Height":null,"F4F_Floor_to_Area_Ratio":0.80000000000000004,"F4F_Min_Unit_Size":null,"F4F_Max_Bedrooms":null,"F4F_Max_Units_per_Building":null,"F5F_Affordable_Housing_Only":"F","F5F_Elderly_Housing_Only":"F","F5F_Min_Lot_Size":0.059999999999999998,"F5F_Max_Density":"12","F5F_Front_Setback":0,"F5F_Side_Setback":0,"F5F_Rear_Setback":10,"F5F_Frontage":25,"F5F_Max_Lot_Building_Coverage":null,"F5F_Max__Lot_Impervious_Coverage":90,"F5F_Min_Parking_Spaces_per_1BR":null,"F5F_Min_Parking_Spaces_per_mult_BR":null,"F5F_Connection_to_Sewage_Water_Required":"F","F5F_Proximity_to_Public_Transit_Required":"F","F5F_Max_Stories":3,"F5F_Max_Height":null,"F5F_Floor_to_Area_Ratio":0.80000000000000004,"F5F_Min_Unit_Size":null,"F5F_Max_Bedrooms":null,"F5F_Max_Units_per_Building":null,"Affordable_Housing_Definition":null,"Affordable_Housing_Elderly_Only":"No","Affordable_Housing_Min_Lot_Size":null,"Affordable_Housing_Max_Density":null,"Affordable_Housing_Min_Parking_Spaces_per_1BR":null,"Affordable_Housing_Min_Parking_Spaces_per_mult_BR":null,"Affordable_Housing_Min_Unit_Size":null,"Affordable_Housing_Max_Bedrooms":null,"Affordable_Housing_Max_Units_per_Building":null,"ADU_Employee_or_Family_Occupancy_Required":"No","ADU_Renter_Occupancy_Prohibited":"No","ADU_Owner_Occupancy_Required":"No","ADU_Elderly_Housing_Only":"No","ADU_Min_Lot_Size":null,"ADU_Min_Parking_Spaces":null,"ADU_Restricted_to_Primary_Structure":"No","ADU_Max_Size_as_Percent_of_Primary_Strcture":null,"ADU_Max_Size_in_sq_ft":null,"ADU_Max_Bedrooms":null,"PRD_Mobile_or_Manufactured_Home_Park":"Yes","PRD_Min_Lot_Size":null,"PRD_Max_Density":12,"PRD_Max_Units":null,"PUD_Required_with_Subdivision":"T","PUD_Threshold_Number":null,"PUD_Allowance":"Yes","PUD_Requires_Land_Conservation":"T","Base_Density":12,"CONDITIONAL_1F_Min_Lot":null,"CONDITIONAL_1F_Front_Setback":null,"CONDITIONAL_1F_Side_Setback":null,"CONDITIONAL_1F_Rear_Setback":null,"CONDITIONAL_1F_Frontage":null,"CONDITIONAL_1F_Max_Lot_Building_Coverage":null,"CONDITIONAL_1F_Max_Lot_Impervious_Coverage":null,"CONDITIONAL_1F_Min_Parking_Spaces":null,"CONDITIONAL_1F_Max_Stories":null,"CONDITIONAL_1F_Max_Height":null,"CONDITIONAL_1F_Floor_to_Area_Ratio":null,"CONDITIONAL_1F_Min_Unit_Size":null,"CONDITIONAL_2F_Affordable_Housing_Only":null,"CONDITIONAL_2F_Elderly_Housing_Only":null,"CONDITIONAL_2F_Min_Lot_Size":null,"CONDITIONAL_2F_Max_Density":null,"CONDITIONAL_2F_Front_Setback":null,"CONDITIONAL_2F_Side_Setback":null,"CONDITIONAL_2F_Rear_Setback":null,"CONDITIONAL_2F_Frontage":null,"CONDITIONAL_2F_Max_Lot_Building_Coverage":null,"CONDITIONAL_2F_Max_Lot_Impervious_Coverage":null,"CONDITIONAL_2F_Min_Parking_Spaces_per_1BR":null,"CONDITIONAL_2F_Min_Parking_Spaces_per_mult_BR":null,"CONDITIONAL_2F_Max_Stories":null,"CONDITIONAL_2F_Max_Height":null,"CONDITIONAL_2F_Floor_to_Area_Ratio":null,"CONDITIONAL_2F_Min_Unit_Size":null,"CONDITIONAL_3F_Affordable_Housing_Only":null,"CONDITIONAL_3F_Elderly_Housing_Only":null,"CONDITIONAL_3F_Min_Lot_Size":null,"CONDITIONAL_3F_Max_Density":null,"CONDITIONAL_3F_Front_Setback":null,"CONDITIONAL_3F_Side_Setback":null,"CONDITIONAL_3F_Rear_Setback":null,"CONDITIONAL_3F_Frontage":null,"CONDITIONAL_3F_Max_Lot_Building_Coverage":null,"CONDITIONAL_3F_Max_Lot_Impervious_Coverage":null,"CONDITIONAL_3F_Min_Parking_Spaces_per_1BR":null,"CONDITIONAL_3F_Min_Parking_Spaces_per_mult_BR":"The Drb Shall Establish The Required Number of Parking Spaces","CONDITIONAL_3F_Connection_to_Sewage_Water_Required":null,"CONDITIONAL_3F_Proximity_to_Public_Transit_Required":null,"CONDITIONAL_3F_Max_Stories":null,"CONDITIONAL_3F_Max_Height":null,"CONDITIONAL_3F_Floor_to_Area_Ratio":null,"CONDITIONAL_3F_Min_Unit_Size":null,"CONDITIONAL_3F_Max_Bedrooms":null,"CONDITIONAL_4F_Affordable_Housing_Only":null,"CONDITIONAL_4F_Elderly_Housing_Only":null,"CONDITIONAL_4F_Min_Lot_Size":null,"CONDITIONAL_4F_Max_Density":null,"CONDITIONAL_4F_Front_Setback":null,"CONDITIONAL_4F_Side_Setback":null,"CONDITIONAL_4F_Rear_Setback":null,"CONDITIONAL_4F_Frontage":null,"CONDITIONAL_4F_Max_Lot_Building_Coverage":null,"CONDITIONAL_4F_Max_Lot_Impervious_Coverage":null,"CONDITIONAL_4F_Min_Parking_Spaces_per_1BR":null,"CONDITIONAL_4F_Min_Parking_Spaces_per__mult_BR":"The Drb Shall Establish The Required Number of Parking Spaces","CONDITIONAL_4F_Connection_to_Sewage_Water_Required":null,"CONDITIONAL_4F_Proximity_to_Public_Transit_Required":null,"CONDITIONAL_4F_Max_Stories":null,"CONDITIONAL_4F_Max_Height":null,"CONDITIONAL_4F_Floor_to_Area_Ratio":null,"CONDITIONAL_4F_Min_Unit_Size":null,"CONDITIONAL_4F_Max_Bedrooms":null,"CONDITIONAL_4F_Max_Units_per_Building":null,"CONDITIONAL_5F_Affordable_Housing_Only":null,"CONDITIONAL_5F_Elderly_Housing_Only":null,"CONDITIONAL_5F_Min_Lot_Size":null,"CONDITIONAL_5F_Max_Density":null,"CONDITIONAL_5F_Front_Setback":null,"CONDITIONAL_5F_Side_Setback":null,"CONDITIONAL_5F_Rear_Setback":null,"CONDITIONAL_5F_Frontage":null,"CONDITIONAL_5F_Max_Lot_Building_Coverage":null,"CONDITIONAL_5F_Max__Lot_Impervious_Coverage":null,"CONDITIONAL_5F_Min_Parking_Spaces_per_1BR":null,"CONDITIONAL_5F_Min_Parking_Spaces_per_mult_BR":null,"CONDITIONAL_5F_Connection_to_Sewage_Water_Required":null,"CONDITIONAL_5F_Proximity_to_Public_Transit_Required":null,"CONDITIONAL_5F_Max_Stories":null,"CONDITIONAL_5F_Max_Height":null,"CONDITIONAL_5F_Floor_to_Area_Ratio":null,"CONDITIONAL_5F_Min_Unit_Size":null,"CONDITIONAL_5F_Max_Bedrooms":null,"CONDITIONAL_5F_Max_Units_per_Building":null,"CONDITIONAL_Affordable_Housing_Definition":null,"CONDITIONAL_Affordable_Housing_Elderly_Only":null,"CONDITIONAL_Affordable_Housing_Min_Lot_Size":null,"CONDITIONAL_Affordable_Housing_Max_Density":null,"CONDITIONAL_Affordable_Housing_Min_Parking_Spaces_per_1BR":null,"CONDITIONAL_Affordable_Housing_Min_Parking_Spaces_per_mult_BR":null,"CONDITIONAL_Affordable_Housing_Min_Unit_Size":null,"CONDITIONAL_Affordable_Housing_Max_Bedrooms":null,"CONDITIONAL_Affordable_Housing_Max_Units_per_Building":null,"CONDITIONAL_ADU_Employee_or_Family_Occupancy_Required":null,"CONDITIONAL_ADU_Renter_Occupancy_Prohibited":null,"CONDITIONAL_ADU_Owner_Occupancy_Required":null,"CONDITIONAL_ADU_Elderly_Housing_Only":null,"CONDITIONAL_ADU_Min_Lot_Size":null,"CONDITIONAL_ADU_Min_Parking_Spaces":null,"CONDITIONAL_ADU_Restricted_to_Primary_Structure":null,"CONDITIONAL_ADU_Max_Size_as_Percent_of_Primary_Strcture":null,"CONDITIONAL_ADU_Max_Size_in_sq_ft":null,"CONDITIONAL_ADU_Max_Bedrooms":null,"CONDITIONAL_PRD_Mobile_or_Manufactured_Home_Park":null,"CONDITIONAL_PRD_Min_Lot_Size":null,"CONDITIONAL_PRD_Max_Density":null,"CONDITIONAL_PRD_Max_Units":null,"CONDITIONAL_PUD_Required_with_Subdivision":null,"CONDITIONAL_PUD_Threshold_Number":null,"CONDITIONAL_PUD_Allowance":null,"CONDITIONAL_PUD_Requires_Land_Conservation":null,"Bylaw_Date":"2023-07-31","RPC":"CCRPC","Version":1,"Acres":45.56310953527295,"Shape_Length":0.034884088053540048,"Shape_Area":2.0821975872094199e-05}},{"type":"Feature","id":5,"geometry":{"type":"Polygon","coordinates":[[[-73.129837699999939,44.376080800000068],[-73.130177099999969,44.382284800000036],[-73.134028799999953,44.381949000000077],[-73.132634198999938,44.375819500000034],[-73.129837699999939,44.376080800000068]]]},"properties":{"OBJECTID":5,"OBJECTID_1":428,"Jurisdiction_District_Name":"Saint George Village Center Reserve District","County":"Chittenden","Jurisdiction":"Saint George ","Abbreviated_District_Name":"Vcr","District_Name":"Village Center Reserve District","District_Mapped":"Yes","Overlay_District":"No","Extinct_District":null,"District_Type":"Nonresidential","Affordable_Housing_District":"No","Elderly_Housing_District":"No","F1F_Allowance":"Prohibited","F2F_Allowance":"Prohibited","F3F_Allowance":"Prohibited","F4F_Allowance":"Prohibited","F5F_Allowance":null,"ADU_Allowance":"Prohibited","Affordable_Housing_Allowance":"Not Mentioned","PRD_Allowance":"Public Hearing","NOTES":"None","F1F_Min_Lot":null,"F1F_Front_Setback":null,"F1F_Side_Setback":null,"F1F_Rear_Setback":null,"F1F_Frontage":null,"F1F_Max_Lot_Building_Coverage":null,"F1F_Max_Lot_Impervious_Coverage":null,"F1F_Min_Parking_Spaces":null,"F1F_Max_Stories":null,"F1F_Max_Height":null,"F1F_Floor_to_Area_Ratio":null,"F1F_Min_Unit_Size":null,"F2F_Affordable_Housing_Only":"No","F2F_Elderly_Housing_Only":"No","F2F_Min_Lot_Size":null,"F2F_Max_Density":null,"F2F_Front_Setback":null,"F2F_Side_Setback":null,"F2F_Rear_Setback":null,"F2F_Frontage":null,"F2F_Max_Lot_Building_Coverage":null,"F2F_Max_Lot_Impervious_Coverage":null,"F2F_Min_Parking_Spaces_per_1BR":null,"F2F_Min_Parking_Spaces_per_mult_BR":null,"F2F_Max_Stories":null,"F2F_Max_Height":null,"F2F_Floor_to_Area_Ratio":null,"F2F_Min_Unit_Size":null,"F3F_Affordable_Housing_Only":"No","F3F_Elderly_Housing_Only":"No","F3F_Min_Lot_Size":null,"F3F_Max_Density":null,"F3F_Front_Setback":null,"F3F_Side_Setback":null,"F3F_Rear_Setback":null,"F3F_Frontage":null,"F3F_Max_Lot_Building_Coverage":null,"F3F_Max_Lot_Impervious_Coverage":null,"F3F_Min_Parking_Spaces_per_1BR":null,"F3F_Min_Parking_Spaces_per_mult_BR":null,"F3F_Connection_to_Sewage_Water_Required":"No","F3F_Proximity_to_Public_Transit_Required":"No","F3F_Max_Stories":null,"F3F_Max_Height":null,"F3F_Floor_to_Area_Ratio":null,"F3F_Min_Unit_Size":null,"F3F_Max_Bedrooms":null,"F4F_Affordable_Housing_Only":"No","F4F_Elderly_Housing_Only":"No","F4F_Min_Lot_Size":null,"F4F_Max_Density":null,"F4F_Front_Setback":null,"F4F_Side_Setback":null,"F4F_Rear_Setback":null,"F4F_Frontage":null,"F4F_Max_Lot_Building_Coverage":null,"F4F_Max_Lot_Impervious_Coverage":null,"F4F_Min_Parking_Spaces_per_1BR":null,"F4F_Min_Parking_Spaces_per__mult_BR":null,"F4F_Connection_to_Sewage_Water_Required":"No","F4F_Proximity_to_Public_Transit_Required":"No","F4F_Max_Stories":null,"F4F_Max_Height":null,"F4F_Floor_to_Area_Ratio":null,"F4F_Min_Unit_Size":null,"F4F_Max_Bedrooms":null,"F4F_Max_Units_per_Building":null,"F5F_Affordable_Housing_Only":null,"F5F_Elderly_Housing_Only":null,"F5F_Min_Lot_Size":null,"F5F_Max_Density":null,"F5F_Front_Setback":null,"F5F_Side_Setback":null,"F5F_Rear_Setback":null,"F5F_Frontage":null,"F5F_Max_Lot_Building_Coverage":null,"F5F_Max__Lot_Impervious_Coverage":null,"F5F_Min_Parking_Spaces_per_1BR":null,"F5F_Min_Parking_Spaces_per_mult_BR":null,"F5F_Connection_to_Sewage_Water_Required":null,"F5F_Proximity_to_Public_Transit_Required":null,"F5F_Max_Stories":null,"F5F_Max_Height":null,"F5F_Floor_to_Area_Ratio":null,"F5F_Min_Unit_Size":null,"F5F_Max_Bedrooms":null,"F5F_Max_Units_per_Building":null,"Affordable_Housing_Definition":null,"Affordable_Housing_Elderly_Only":"No","Affordable_Housing_Min_Lot_Size":null,"Affordable_Housing_Max_Density":null,"Affordable_Housing_Min_Parking_Spaces_per_1BR":null,"Affordable_Housing_Min_Parking_Spaces_per_mult_BR":null,"Affordable_Housing_Min_Unit_Size":null,"Affordable_Housing_Max_Bedrooms":null,"Affordable_Housing_Max_Units_per_Building":null,"ADU_Employee_or_Family_Occupancy_Required":"No","ADU_Renter_Occupancy_Prohibited":"No","ADU_Owner_Occupancy_Required":"No","ADU_Elderly_Housing_Only":"No","ADU_Min_Lot_Size":null,"ADU_Min_Parking_Spaces":null,"ADU_Restricted_to_Primary_Structure":"No","ADU_Max_Size_as_Percent_of_Primary_Strcture":null,"ADU_Max_Size_in_sq_ft":null,"ADU_Max_Bedrooms":null,"PRD_Mobile_or_Manufactured_Home_Park":"No","PRD_Min_Lot_Size":null,"PRD_Max_Density":null,"PRD_Max_Units":null,"PUD_Required_with_Subdivision":"T","PUD_Threshold_Number":null,"PUD_Allowance":"Yes","PUD_Requires_Land_Conservation":"T","Base_Density":null,"CONDITIONAL_1F_Min_Lot":null,"CONDITIONAL_1F_Front_Setback":null,"CONDITIONAL_1F_Side_Setback":null,"CONDITIONAL_1F_Rear_Setback":null,"CONDITIONAL_1F_Frontage":null,"CONDITIONAL_1F_Max_Lot_Building_Coverage":null,"CONDITIONAL_1F_Max_Lot_Impervious_Coverage":null,"CONDITIONAL_1F_Min_Parking_Spaces":null,"CONDITIONAL_1F_Max_Stories":null,"CONDITIONAL_1F_Max_Height":null,"CONDITIONAL_1F_Floor_to_Area_Ratio":null,"CONDITIONAL_1F_Min_Unit_Size":null,"CONDITIONAL_2F_Affordable_Housing_Only":null,"CONDITIONAL_2F_Elderly_Housing_Only":null,"CONDITIONAL_2F_Min_Lot_Size":null,"CONDITIONAL_2F_Max_Density":null,"CONDITIONAL_2F_Front_Setback":null,"CONDITIONAL_2F_Side_Setback":null,"CONDITIONAL_2F_Rear_Setback":null,"CONDITIONAL_2F_Frontage":null,"CONDITIONAL_2F_Max_Lot_Building_Coverage":null,"CONDITIONAL_2F_Max_Lot_Impervious_Coverage":null,"CONDITIONAL_2F_Min_Parking_Spaces_per_1BR":null,"CONDITIONAL_2F_Min_Parking_Spaces_per_mult_BR":null,"CONDITIONAL_2F_Max_Stories":null,"CONDITIONAL_2F_Max_Height":null,"CONDITIONAL_2F_Floor_to_Area_Ratio":null,"CONDITIONAL_2F_Min_Unit_Size":null,"CONDITIONAL_3F_Affordable_Housing_Only":null,"CONDITIONAL_3F_Elderly_Housing_Only":null,"CONDITIONAL_3F_Min_Lot_Size":null,"CONDITIONAL_3F_Max_Density":null,"CONDITIONAL_3F_Front_Setback":null,"CONDITIONAL_3F_Side_Setback":null,"CONDITIONAL_3F_Rear_Setback":null,"CONDITIONAL_3F_Frontage":null,"CONDITIONAL_3F_Max_Lot_Building_Coverage":null,"CONDITIONAL_3F_Max_Lot_Impervious_Coverage":null,"CONDITIONAL_3F_Min_Parking_Spaces_per_1BR":null,"CONDITIONAL_3F_Min_Parking_Spaces_per_mult_BR":null,"CONDITIONAL_3F_Connection_to_Sewage_Water_Required":null,"CONDITIONAL_3F_Proximity_to_Public_Transit_Required":null,"CONDITIONAL_3F_Max_Stories":null,"CONDITIONAL_3F_Max_Height":null,"CONDITIONAL_3F_Floor_to_Area_Ratio":null,"CONDITIONAL_3F_Min_Unit_Size":null,"CONDITIONAL_3F_Max_Bedrooms":null,"CONDITIONAL_4F_Affordable_Housing_Only":null,"CONDITIONAL_4F_Elderly_Housing_Only":null,"CONDITIONAL_4F_Min_Lot_Size":null,"CONDITIONAL_4F_Max_Density":null,"CONDITIONAL_4F_Front_Setback":null,"CONDITIONAL_4F_Side_Setback":null,"CONDITIONAL_4F_Rear_Setback":null,"CONDITIONAL_4F_Frontage":null,"CONDITIONAL_4F_Max_Lot_Building_Coverage":null,"CONDITIONAL_4F_Max_Lot_Impervious_Coverage":null,"CONDITIONAL_4F_Min_Parking_Spaces_per_1BR":null,"CONDITIONAL_4F_Min_Parking_Spaces_per__mult_BR":null,"CONDITIONAL_4F_Connection_to_Sewage_Water_Required":null,"CONDITIONAL_4F_Proximity_to_Public_Transit_Required":null,"CONDITIONAL_4F_Max_Stories":null,"CONDITIONAL_4F_Max_Height":null,"CONDITIONAL_4F_Floor_to_Area_Ratio":null,"CONDITIONAL_4F_Min_Unit_Size":null,"CONDITIONAL_4F_Max_Bedrooms":null,"CONDITIONAL_4F_Max_Units_per_Building":null,"CONDITIONAL_5F_Affordable_Housing_Only":null,"CONDITIONAL_5F_Elderly_Housing_Only":null,"CONDITIONAL_5F_Min_Lot_Size":null,"CONDITIONAL_5F_Max_Density":null,"CONDITIONAL_5F_Front_Setback":null,"CONDITIONAL_5F_Side_Setback":null,"CONDITIONAL_5F_Rear_Setback":null,"CONDITIONAL_5F_Frontage":null,"CONDITIONAL_5F_Max_Lot_Building_Coverage":null,"CONDITIONAL_5F_Max__Lot_Impervious_Coverage":null,"CONDITIONAL_5F_Min_Parking_Spaces_per_1BR":null,"CONDITIONAL_5F_Min_Parking_Spaces_per_mult_BR":null,"CONDITIONAL_5F_Connection_to_Sewage_Water_Required":null,"CONDITIONAL_5F_Proximity_to_Public_Transit_Required":null,"CONDITIONAL_5F_Max_Stories":null,"CONDITIONAL_5F_Max_Height":null,"CONDITIONAL_5F_Floor_to_Area_Ratio":null,"CONDITIONAL_5F_Min_Unit_Size":null,"CONDITIONAL_5F_Max_Bedrooms":null,"CONDITIONAL_5F_Max_Units_per_Building":null,"CONDITIONAL_Affordable_Housing_Definition":null,"CONDITIONAL_Affordable_Housing_Elderly_Only":null,"CONDITIONAL_Affordable_Housing_Min_Lot_Size":null,"CONDITIONAL_Affordable_Housing_Max_Density":null,"CONDITIONAL_Affordable_Housing_Min_Parking_Spaces_per_1BR":null,"CONDITIONAL_Affordable_Housing_Min_Parking_Spaces_per_mult_BR":null,"CONDITIONAL_Affordable_Housing_Min_Unit_Size":null,"CONDITIONAL_Affordable_Housing_Max_Bedrooms":null,"CONDITIONAL_Affordable_Housing_Max_Units_per_Building":null,"CONDITIONAL_ADU_Employee_or_Family_Occupancy_Required":null,"CONDITIONAL_ADU_Renter_Occupancy_Prohibited":null,"CONDITIONAL_ADU_Owner_Occupancy_Required":null,"CONDITIONAL_ADU_Elderly_Housing_Only":null,"CONDITIONAL_ADU_Min_Lot_Size":null,"CONDITIONAL_ADU_Min_Parking_Spaces":null,"CONDITIONAL_ADU_Restricted_to_Primary_Structure":null,"CONDITIONAL_ADU_Max_Size_as_Percent_of_Primary_Strcture":null,"CONDITIONAL_ADU_Max_Size_in_sq_ft":null,"CONDITIONAL_ADU_Max_Bedrooms":null,"CONDITIONAL_PRD_Mobile_or_Manufactured_Home_Park":null,"CONDITIONAL_PRD_Min_Lot_Size":null,"CONDITIONAL_PRD_Max_Density":null,"CONDITIONAL_PRD_Max_Units":null,"CONDITIONAL_PUD_Required_with_Subdivision":null,"CONDITIONAL_PUD_Threshold_Number":null,"CONDITIONAL_PUD_Allowance":null,"CONDITIONAL_PUD_Requires_Land_Conservation":null,"Bylaw_Date":"2023-07-31","RPC":"CCRPC","Version":1,"Acres":45.422377656308328,"Shape_Length":0.019174417185796301,"Shape_Area":2.0757733590869581e-05}},{"type":"Feature","id":6,"geometry":{"type":"MultiPolygon","coordinates":[[[[-73.126068199999963,44.38895210000004],[-73.125556399999937,44.388998800000081],[-73.125055700999951,44.389198000000079],[-73.124505099999965,44.389562200000057],[-73.125153299999965,44.389166000000046],[-73.125621798999987,44.389010100000064],[-73.126293099999941,44.388958200000047],[-73.127293599999973,44.388977900000043],[-73.12728630099997,44.389662900000076],[-73.127324099999953,44.389657900000032],[-73.127340299999958,44.388963200000035],[-73.126068199999963,44.38895210000004]]],[[[-73.126438499999949,44.383118100000047],[-73.126033000999939,44.383328600000027],[-73.125216799999976,44.383970900000065],[-73.124479299999962,44.38444880000003],[-73.124525300999949,44.389358600000037],[-73.124987899999951,44.389064900000051],[-73.125560099999973,44.388856900000064],[-73.126166299999966,44.388814300000035],[-73.127351699999963,44.388827200000037],[-73.12757849999997,44.386773800000071],[-73.127495499999952,44.385962000000063],[-73.127186999999935,44.384666100000061],[-73.126438499999949,44.383118100000047]]],[[[-73.127124699999968,44.37980680000004],[-73.126368599999978,44.379833100000042],[-73.126347700999986,44.381154700000025],[-73.12648489999998,44.382453000000055],[-73.126700899999946,44.38311340000007],[-73.127407299999959,44.384545100000025],[-73.127805400999989,44.386345300000073],[-73.127822599999945,44.387052500000038],[-73.127607499999954,44.388797100000033],[-73.127575199999967,44.389628800000025],[-73.130358399999977,44.389575900000068],[-73.130284399999937,44.386599700000033],[-73.130177099999969,44.382284800000036],[-73.127314099999978,44.382540200000051],[-73.127296199999989,44.38070330000005],[-73.127285098999948,44.380836000000045],[-73.127070199999935,44.380844700000068],[-73.127093098999978,44.380577000000073],[-73.127347399999962,44.380160800000056],[-73.127124699999968,44.37980680000004]]],[[[-73.128601699999933,44.371939900000029],[-73.127728299999944,44.372042800000031],[-73.127464399999951,44.373241200000052],[-73.127369599999952,44.37465300000008],[-73.126903699999957,44.376354700000036],[-73.129837699999939,44.376080800000068],[-73.129745299999968,44.37373800000006],[-73.129811699999948,44.373613500000033],[-73.128926098999955,44.372694100000047],[-73.129419599999949,44.372623900000065],[-73.129543899999987,44.372721900000045],[-73.130516799999953,44.371980700000051],[-73.128601699999933,44.371939900000029]]],[[[-73.127501999999936,44.371913800000073],[-73.124522500999944,44.372259300000053],[-73.124662099999966,44.374418500000047],[-73.124617399999977,44.38417940000005],[-73.125904299999945,44.383229000000028],[-73.126374900999963,44.382987400000047],[-73.126216899999974,44.382381400000043],[-73.126126700999976,44.381564200000071],[-73.12610879999994,44.379884400000037],[-73.125396499999965,44.37997340000004],[-73.125732199999959,44.377568800000063],[-73.125925499999937,44.376468000000045],[-73.126639299999965,44.376399400000025],[-73.127119799999946,44.374627100000055],[-73.127213199999971,44.373222600000076],[-73.127501999999936,44.371913800000073]]]]},"properties":{"OBJECTID":6,"OBJECTID_1":429,"Jurisdiction_District_Name":"Saint George Village Neighborhood District","County":"Chittenden","Jurisdiction":"Saint George ","Abbreviated_District_Name":"Vn","District_Name":"Village Neighborhood District","District_Mapped":"Yes","Overlay_District":"No","Extinct_District":null,"District_Type":"Primarily Residential","Affordable_Housing_District":"No","Elderly_Housing_District":"No","F1F_Allowance":"Permitted","F2F_Allowance":"Permitted","F3F_Allowance":"Public Hearing","F4F_Allowance":"Public Hearing","F5F_Allowance":null,"ADU_Allowance":"Allowed/Conditional","Affordable_Housing_Allowance":"Not Mentioned","PRD_Allowance":"Public Hearing","NOTES":"\"Multifamily And Attached Dwellings Should Be Designed to Resemble Large Single-Family Dwellings.\"  ","F1F_Min_Lot":0.5,"F1F_Front_Setback":15,"F1F_Side_Setback":10,"F1F_Rear_Setback":30,"F1F_Frontage":75,"F1F_Max_Lot_Building_Coverage":null,"F1F_Max_Lot_Impervious_Coverage":50,"F1F_Min_Parking_Spaces":2,"F1F_Max_Stories":3,"F1F_Max_Height":null,"F1F_Floor_to_Area_Ratio":null,"F1F_Min_Unit_Size":null,"F2F_Affordable_Housing_Only":"No","F2F_Elderly_Housing_Only":"No","F2F_Min_Lot_Size":0.5,"F2F_Max_Density":4,"F2F_Front_Setback":15,"F2F_Side_Setback":10,"F2F_Rear_Setback":30,"F2F_Frontage":75,"F2F_Max_Lot_Building_Coverage":null,"F2F_Max_Lot_Impervious_Coverage":50,"F2F_Min_Parking_Spaces_per_1BR":null,"F2F_Min_Parking_Spaces_per_mult_BR":2,"F2F_Max_Stories":3,"F2F_Max_Height":null,"F2F_Floor_to_Area_Ratio":null,"F2F_Min_Unit_Size":null,"F3F_Affordable_Housing_Only":"No","F3F_Elderly_Housing_Only":"No","F3F_Min_Lot_Size":0.5,"F3F_Max_Density":4,"F3F_Front_Setback":15,"F3F_Side_Setback":10,"F3F_Rear_Setback":30,"F3F_Frontage":75,"F3F_Max_Lot_Building_Coverage":null,"F3F_Max_Lot_Impervious_Coverage":50,"F3F_Min_Parking_Spaces_per_1BR":null,"F3F_Min_Parking_Spaces_per_mult_BR":null,"F3F_Connection_to_Sewage_Water_Required":"No","F3F_Proximity_to_Public_Transit_Required":"No","F3F_Max_Stories":3,"F3F_Max_Height":null,"F3F_Floor_to_Area_Ratio":null,"F3F_Min_Unit_Size":null,"F3F_Max_Bedrooms":null,"F4F_Affordable_Housing_Only":"No","F4F_Elderly_Housing_Only":"No","F4F_Min_Lot_Size":0.5,"F4F_Max_Density":4,"F4F_Front_Setback":15,"F4F_Side_Setback":10,"F4F_Rear_Setback":30,"F4F_Frontage":75,"F4F_Max_Lot_Building_Coverage":null,"F4F_Max_Lot_Impervious_Coverage":50,"F4F_Min_Parking_Spaces_per_1BR":null,"F4F_Min_Parking_Spaces_per__mult_BR":null,"F4F_Connection_to_Sewage_Water_Required":"No","F4F_Proximity_to_Public_Transit_Required":"No","F4F_Max_Stories":3,"F4F_Max_Height":null,"F4F_Floor_to_Area_Ratio":null,"F4F_Min_Unit_Size":null,"F4F_Max_Bedrooms":null,"F4F_Max_Units_per_Building":null,"F5F_Affordable_Housing_Only":"F","F5F_Elderly_Housing_Only":"F","F5F_Min_Lot_Size":0.5,"F5F_Max_Density":null,"F5F_Front_Setback":15,"F5F_Side_Setback":10,"F5F_Rear_Setback":30,"F5F_Frontage":75,"F5F_Max_Lot_Building_Coverage":null,"F5F_Max__Lot_Impervious_Coverage":50,"F5F_Min_Parking_Spaces_per_1BR":null,"F5F_Min_Parking_Spaces_per_mult_BR":null,"F5F_Connection_to_Sewage_Water_Required":"F","F5F_Proximity_to_Public_Transit_Required":"F","F5F_Max_Stories":3,"F5F_Max_Height":null,"F5F_Floor_to_Area_Ratio":null,"F5F_Min_Unit_Size":null,"F5F_Max_Bedrooms":null,"F5F_Max_Units_per_Building":null,"Affordable_Housing_Definition":null,"Affordable_Housing_Elderly_Only":"No","Affordable_Housing_Min_Lot_Size":null,"Affordable_Housing_Max_Density":null,"Affordable_Housing_Min_Parking_Spaces_per_1BR":null,"Affordable_Housing_Min_Parking_Spaces_per_mult_BR":null,"Affordable_Housing_Min_Unit_Size":null,"Affordable_Housing_Max_Bedrooms":null,"Affordable_Housing_Max_Units_per_Building":null,"ADU_Employee_or_Family_Occupancy_Required":"No","ADU_Renter_Occupancy_Prohibited":"No","ADU_Owner_Occupancy_Required":"Yes","ADU_Elderly_Housing_Only":"No","ADU_Min_Lot_Size":null,"ADU_Min_Parking_Spaces":1,"ADU_Restricted_to_Primary_Structure":"No","ADU_Max_Size_as_Percent_of_Primary_Strcture":30,"ADU_Max_Size_in_sq_ft":600,"ADU_Max_Bedrooms":null,"PRD_Mobile_or_Manufactured_Home_Park":"Yes","PRD_Min_Lot_Size":null,"PRD_Max_Density":4,"PRD_Max_Units":null,"PUD_Required_with_Subdivision":"T","PUD_Threshold_Number":null,"PUD_Allowance":"Yes","PUD_Requires_Land_Conservation":"T","Base_Density":4,"CONDITIONAL_1F_Min_Lot":null,"CONDITIONAL_1F_Front_Setback":null,"CONDITIONAL_1F_Side_Setback":null,"CONDITIONAL_1F_Rear_Setback":null,"CONDITIONAL_1F_Frontage":null,"CONDITIONAL_1F_Max_Lot_Building_Coverage":null,"CONDITIONAL_1F_Max_Lot_Impervious_Coverage":null,"CONDITIONAL_1F_Min_Parking_Spaces":null,"CONDITIONAL_1F_Max_Stories":null,"CONDITIONAL_1F_Max_Height":null,"CONDITIONAL_1F_Floor_to_Area_Ratio":null,"CONDITIONAL_1F_Min_Unit_Size":null,"CONDITIONAL_2F_Affordable_Housing_Only":null,"CONDITIONAL_2F_Elderly_Housing_Only":null,"CONDITIONAL_2F_Min_Lot_Size":null,"CONDITIONAL_2F_Max_Density":null,"CONDITIONAL_2F_Front_Setback":null,"CONDITIONAL_2F_Side_Setback":null,"CONDITIONAL_2F_Rear_Setback":null,"CONDITIONAL_2F_Frontage":null,"CONDITIONAL_2F_Max_Lot_Building_Coverage":null,"CONDITIONAL_2F_Max_Lot_Impervious_Coverage":null,"CONDITIONAL_2F_Min_Parking_Spaces_per_1BR":null,"CONDITIONAL_2F_Min_Parking_Spaces_per_mult_BR":null,"CONDITIONAL_2F_Max_Stories":null,"CONDITIONAL_2F_Max_Height":null,"CONDITIONAL_2F_Floor_to_Area_Ratio":null,"CONDITIONAL_2F_Min_Unit_Size":null,"CONDITIONAL_3F_Affordable_Housing_Only":null,"CONDITIONAL_3F_Elderly_Housing_Only":null,"CONDITIONAL_3F_Min_Lot_Size":null,"CONDITIONAL_3F_Max_Density":null,"CONDITIONAL_3F_Front_Setback":null,"CONDITIONAL_3F_Side_Setback":null,"CONDITIONAL_3F_Rear_Setback":null,"CONDITIONAL_3F_Frontage":null,"CONDITIONAL_3F_Max_Lot_Building_Coverage":null,"CONDITIONAL_3F_Max_Lot_Impervious_Coverage":null,"CONDITIONAL_3F_Min_Parking_Spaces_per_1BR":null,"CONDITIONAL_3F_Min_Parking_Spaces_per_mult_BR":"The Drb Shall Establish The Required Number of Parking Spaces","CONDITIONAL_3F_Connection_to_Sewage_Water_Required":null,"CONDITIONAL_3F_Proximity_to_Public_Transit_Required":null,"CONDITIONAL_3F_Max_Stories":null,"CONDITIONAL_3F_Max_Height":null,"CONDITIONAL_3F_Floor_to_Area_Ratio":null,"CONDITIONAL_3F_Min_Unit_Size":null,"CONDITIONAL_3F_Max_Bedrooms":null,"CONDITIONAL_4F_Affordable_Housing_Only":null,"CONDITIONAL_4F_Elderly_Housing_Only":null,"CONDITIONAL_4F_Min_Lot_Size":null,"CONDITIONAL_4F_Max_Density":null,"CONDITIONAL_4F_Front_Setback":null,"CONDITIONAL_4F_Side_Setback":null,"CONDITIONAL_4F_Rear_Setback":null,"CONDITIONAL_4F_Frontage":null,"CONDITIONAL_4F_Max_Lot_Building_Coverage":null,"CONDITIONAL_4F_Max_Lot_Impervious_Coverage":null,"CONDITIONAL_4F_Min_Parking_Spaces_per_1BR":null,"CONDITIONAL_4F_Min_Parking_Spaces_per__mult_BR":"The Drb Shall Establish The Required Number of Parking Spaces","CONDITIONAL_4F_Connection_to_Sewage_Water_Required":null,"CONDITIONAL_4F_Proximity_to_Public_Transit_Required":null,"CONDITIONAL_4F_Max_Stories":null,"CONDITIONAL_4F_Max_Height":null,"CONDITIONAL_4F_Floor_to_Area_Ratio":null,"CONDITIONAL_4F_Min_Unit_Size":null,"CONDITIONAL_4F_Max_Bedrooms":null,"CONDITIONAL_4F_Max_Units_per_Building":null,"CONDITIONAL_5F_Affordable_Housing_Only":null,"CONDITIONAL_5F_Elderly_Housing_Only":null,"CONDITIONAL_5F_Min_Lot_Size":null,"CONDITIONAL_5F_Max_Density":null,"CONDITIONAL_5F_Front_Setback":null,"CONDITIONAL_5F_Side_Setback":null,"CONDITIONAL_5F_Rear_Setback":null,"CONDITIONAL_5F_Frontage":null,"CONDITIONAL_5F_Max_Lot_Building_Coverage":null,"CONDITIONAL_5F_Max__Lot_Impervious_Coverage":null,"CONDITIONAL_5F_Min_Parking_Spaces_per_1BR":null,"CONDITIONAL_5F_Min_Parking_Spaces_per_mult_BR":null,"CONDITIONAL_5F_Connection_to_Sewage_Water_Required":null,"CONDITIONAL_5F_Proximity_to_Public_Transit_Required":null,"CONDITIONAL_5F_Max_Stories":null,"CONDITIONAL_5F_Max_Height":null,"CONDITIONAL_5F_Floor_to_Area_Ratio":null,"CONDITIONAL_5F_Min_Unit_Size":null,"CONDITIONAL_5F_Max_Bedrooms":null,"CONDITIONAL_5F_Max_Units_per_Building":null,"CONDITIONAL_Affordable_Housing_Definition":null,"CONDITIONAL_Affordable_Housing_Elderly_Only":null,"CONDITIONAL_Affordable_Housing_Min_Lot_Size":null,"CONDITIONAL_Affordable_Housing_Max_Density":null,"CONDITIONAL_Affordable_Housing_Min_Parking_Spaces_per_1BR":null,"CONDITIONAL_Affordable_Housing_Min_Parking_Spaces_per_mult_BR":null,"CONDITIONAL_Affordable_Housing_Min_Unit_Size":null,"CONDITIONAL_Affordable_Housing_Max_Bedrooms":null,"CONDITIONAL_Affordable_Housing_Max_Units_per_Building":null,"CONDITIONAL_ADU_Employee_or_Family_Occupancy_Required":null,"CONDITIONAL_ADU_Renter_Occupancy_Prohibited":null,"CONDITIONAL_ADU_Owner_Occupancy_Required":null,"CONDITIONAL_ADU_Elderly_Housing_Only":null,"CONDITIONAL_ADU_Min_Lot_Size":null,"CONDITIONAL_ADU_Min_Parking_Spaces":null,"CONDITIONAL_ADU_Restricted_to_Primary_Structure":null,"CONDITIONAL_ADU_Max_Size_as_Percent_of_Primary_Strcture":null,"CONDITIONAL_ADU_Max_Size_in_sq_ft":null,"CONDITIONAL_ADU_Max_Bedrooms":null,"CONDITIONAL_PRD_Mobile_or_Manufactured_Home_Park":null,"CONDITIONAL_PRD_Min_Lot_Size":null,"CONDITIONAL_PRD_Max_Density":null,"CONDITIONAL_PRD_Max_Units":null,"CONDITIONAL_PUD_Required_with_Subdivision":null,"CONDITIONAL_PUD_Threshold_Number":null,"CONDITIONAL_PUD_Allowance":null,"CONDITIONAL_PUD_Requires_Land_Conservation":null,"Bylaw_Date":"2023-07-31","RPC":"CCRPC","Version":1,"Acres":147.63128825472199,"Shape_Length":0.096162277007574251,"Shape_Area":6.7468892790028862e-05}}]}