{"type":"FeatureCollection","features":[{"type":"Feature","id":1,"geometry":{"type":"MultiPolygon","coordinates":[[[[-72.96464059999994,44.22940220000004],[-72.96136209999997,44.22977780000008],[-72.95977189999996,44.229912600000034],[-72.95944993499995,44.229943787000025],[-72.95875642399994,44.23001784400003],[-72.96509878799998,44.23132706300004],[-72.96475419999996,44.23032770000003],[-72.96464059999994,44.22940220000004]]],[[[-72.96501459899997,44.229360400000076],[-72.96482759999998,44.22938130000006],[-72.96494059999998,44.230304800000056],[-72.96523719999993,44.23115000000007],[-72.96501459899997,44.229360400000076]]],[[[-72.95951099999996,44.216975500000046],[-72.95898489899997,44.21739070000007],[-72.95909969999997,44.21750990000004],[-72.95929209999997,44.21794740000007],[-72.95952989999995,44.21811390000005],[-72.96038359999994,44.21846500000004],[-72.96026520099997,44.21900550000004],[-72.96050339999994,44.21954460000006],[-72.96039760099995,44.219618800000035],[-72.96027499999997,44.22010800000004],[-72.96030159999998,44.22062530000005],[-72.96068789999998,44.22170380000006],[-72.96090729999997,44.222708200000056],[-72.96082279999996,44.22279400000008],[-72.96059229999997,44.223882100000026],[-72.96040250099998,44.224268100000074],[-72.96016959999997,44.22440670000003],[-72.96003399899996,44.22483300000005],[-72.96019779999995,44.22578180000005],[-72.96019489999998,44.22604370000005],[-72.96003369999994,44.22656630000006],[-72.95999279999995,44.226616000000035],[-72.95909850099997,44.22669520000005],[-72.95854889999998,44.226518300000066],[-72.95849649999997,44.22604960000007],[-72.95862379999994,44.225845700000036],[-72.95841079899998,44.22549290000006],[-72.95831929999997,44.22547250000008],[-72.95754749999998,44.22552510000003],[-72.95683699999995,44.22573680000005],[-72.95656279999997,44.22573250000005],[-72.95616499899995,44.225917700000025],[-72.95629489999999,44.22725020000007],[-72.96442589999998,44.22646220000007],[-72.96443289999996,44.22656040000004],[-72.96444560399993,44.226559300000076],[-72.96437009999994,44.225550500000054],[-72.96292319999998,44.21771770000004],[-72.96264459999998,44.21799620000007],[-72.96216009999995,44.21822210000005],[-72.96164879999998,44.21830600000004],[-72.96110889999994,44.21823170000005],[-72.96062449999994,44.218017100000054],[-72.96030659999997,44.21773550000006],[-72.96006909899995,44.21712260000004],[-72.95951099999996,44.216975500000046]]],[[[-72.96217169999994,44.213648800000044],[-72.96220059999996,44.21397040000005],[-72.96210789999998,44.214278500000034],[-72.96210609999997,44.21468980000003],[-72.96254989999994,44.21575720000004],[-72.96222629999994,44.21629670000004],[-72.96210209999998,44.21673910000004],[-72.96249469899993,44.21669700000007],[-72.96266279999998,44.216308000000026],[-72.96217169999994,44.213648800000044]]],[[[-72.96085859899995,44.20776130000007],[-72.96060249999994,44.20785150000006],[-72.96078279999995,44.20819190000003],[-72.96073479999995,44.20845580000008],[-72.96061059999994,44.20857330000007],[-72.96060019999999,44.20901160000005],[-72.96106729999997,44.20953440000005],[-72.96090379999998,44.210074200000065],[-72.96105659899996,44.21105360000007],[-72.96105049999994,44.21171060000006],[-72.96141699999998,44.212495800000056],[-72.96171319999996,44.212770900000066],[-72.96210099999996,44.213265800000045],[-72.96109679999995,44.20783250000005],[-72.96085859899995,44.20776130000007]]]]},"properties":{"OBJECT_ID":415,"County":"Chittenden","RPC":"CCRPC","Municipal_Name":"BuelsGore","GEO_ID":"5000710300","District_Name":"Design Review","Abbreviated_District_Name":"Dr","District_Type":"Mixed with Residential","Bylaw_Date":"2023-08-02","Elderly_Housing_District":"No","District_Mapped":"Yes","Overlay_District":"No","Base_Density":0.1,"GIS_ID":null,"Last_Update":"20100823","Shape_Length":0.07605433019243023,"Shape_Area":4.3439563079874335e-05,"F1F_Allowance":"Permitted","F1F_Front_Setback":50,"F1F_Side_Setback":50,"F1F_Rear_Setback":50,"F1F_Frontage":null,"F1F_Max_Height":null,"F1F_Max_Stories":null,"F1F_Min_Lot_Size":10,"F1F_Max_Lot_Building_Coverage":null,"F1F_Max_Lot_Impervious_Coverage":null,"F1F_Min_Parking_Spaces":null,"F1F_Elderly_Housing_Only":null,"F1F_Affordable_Housing_Only":null,"F2F_Allowance":"Prohibited","F2F_Front_Setback":null,"F2F_Side_Setback":null,"F2F_Rear_Setback":null,"F2F_Frontage":null,"F2F_Max_Density":null,"F2F_Max_Height":null,"F2F_Max_Stories":null,"F2F_Min_Lot_Size":null,"F2F_Max_Lot_Building_Coverage":null,"F2F_Max_Lot_Impervious_Coverage":null,"F2F_Min_Parking_Spaces_per_1BR":null,"F2F_Min_Parking_Spaces_per_mult_BR":null,"F2F_Elderly_Housing_Only":"No","F2F_Affordable_Housing_Only":"No","F3F_Allowance":"Prohibited","F3F_Front_Setback":null,"F3F_Side_Setback":null,"F3F_Rear_Setback":null,"F3F_Frontage":null,"F3F_Max_Density":null,"F3F_Max_Height":null,"F3F_Max_Stories":null,"F3F_Min_Lot_Size":null,"F3F_Max_Lot_Building_Coverage":null,"F3F_Max_Lot_Impervious_Coverage":null,"F3F_Min_Parking_Spaces_per_1BR":null,"F3F_Min_Parking_Spaces_per_mult_BR":null,"F3F_Affordable_Housing_Only":"No","F3F_Proximity_to_Public_Transit_Required":"No","F3F_Connection_to_Sewage/Water_Required":"No","F4F_Allowance":"Prohibited","F4F_Front_Setback":null,"F4F_Side_Setback":null,"F4F_Rear_Setback":null,"F4F_Frontage":null,"F1F_Max_Density":null,"F4F_Max_Density":null,"F4F_Max_Height":null,"F4F_Max_Stories":null,"F4F_Min_Lot_Size":null,"F4F_Max_Lot_Building_Coverage":null,"F4F_Max_Lot_Impervious_Coverage":null,"F4F_Min_Parking_Spaces_per_1BR":null,"F4F_Min_Parking_Spaces_per_mult_BR":null,"F3F_Elderly_Housing_Only":"No","F4F_Elderly_Housing_Only":"No","F4F_Affordable_Housing_Only":"No","F4F_Proximity_to_Public_Transit_Required":"No","F4F_Connection_to_Sewage/Water_Required":"No","ADU_Allowance":"Allowed/Conditional","ADU_Elderly_Housing_Only":"No","ADU_Max_Size_as_Percent_of_Primary_Strcture":null,"ADU_Max_Size_in_sq_ft":null,"ADU_Min_Lot_Size":null,"ADU_Max_Bedrooms":null,"ADU_Min_Parking_Spaces":null,"ADU_Owner_Occupancy_Required":"No","ADU_Renter_Occupancy_Prohibited":"No","ADU_Employee_or_Family_Occupancy_Required":"No","ADU_Restricted_to_Primary_Structure":"No","Affordable_Housing_Allowance":"Not Mentioned","Affordable_Housing_District":"No","Affordable_Housing_Elderly_Only":"No","Affordable_Housing_Min_Lot_Size":null,"Affordable_Housing_Max_Density":null,"Affordable_Housing_Min_Parking_Spaces_per_mult_BR":null,"Affordable_Housing_Max_Units_per_Building":null,"Affordable_Housing_Min_Parking_Spaces_per_1BR":null,"PRD_Allowance":"Not Mentioned","PRD_Max_Density":null,"PRD_Max_Units":null,"PRD_Min_Lot_Size":null,"PRD_Mobile_or_Manufactured_Home_Park":"No","PUD_Allowance":"No","PUD_Required_with_Subdivision":"No","PUD_Requires_Land_Conservation":"Yes","PUD_Threshold_Number":null,"Notes":"None","FIPS6":7010}},{"type":"Feature","id":2,"geometry":{"type":"MultiPolygon","coordinates":[[[[-72.95344579999994,44.22772770000006],[-72.95182859999994,44.22792570000007],[-72.95080560099996,44.227985500000045],[-72.94938139999994,44.227892100000076],[-72.94851155899994,44.22796775900008],[-72.95370549999996,44.22898935400008],[-72.95344579999994,44.22772770000006]]],[[[-72.95951099999996,44.216975500000046],[-72.95917589999993,44.21701010000004],[-72.95889819999996,44.217187600000045],[-72.95832299999995,44.217403200000035],[-72.95778279999996,44.21745580000004],[-72.95748069999996,44.21738950000008],[-72.95703009999994,44.217697300000054],[-72.95624910099997,44.21800280000008],[-72.95534289999995,44.21846910000005],[-72.95533239999997,44.218569900000034],[-72.95506249999994,44.21878430000004],[-72.95406769999994,44.21895650000005],[-72.95397539999993,44.21916120000003],[-72.95391279999996,44.22062440000008],[-72.95376599999997,44.22133450000007],[-72.95344790099995,44.221687700000075],[-72.95326769999997,44.22212940000003],[-72.95290149999994,44.222406300000046],[-72.95249530099994,44.22289630000006],[-72.95249089999999,44.22271930000005],[-72.95243309999995,44.22269970000008],[-72.95279729999999,44.222275800000034],[-72.95310279999995,44.22205990000003],[-72.95327170099995,44.22163270000004],[-72.95361199999996,44.22122180000008],[-72.95372369899997,44.22061300000007],[-72.95380659999995,44.21934730000004],[-72.95332019999995,44.21955890000004],[-72.95297879999998,44.22024780000004],[-72.95248089999995,44.220598100000075],[-72.95167580099996,44.220827100000065],[-72.95075689999999,44.22083890000005],[-72.95009649999997,44.22071730000005],[-72.94921259999995,44.22034730000007],[-72.94845849899997,44.220437600000025],[-72.94781999999998,44.22033580000004],[-72.94732009999996,44.22004830000003],[-72.94701569999995,44.21976730000006],[-72.94619061099996,44.219197465000036],[-72.94520119999999,44.21912820000006],[-72.94508629999996,44.219123600000046],[-72.94374349999998,44.21906330000007],[-72.94263590099996,44.219033900000056],[-72.94231019399996,44.22210590100008],[-72.94227669999998,44.222484800000075],[-72.94208659999998,44.224662900000055],[-72.94669099899994,44.224999300000036],[-72.94666679899996,44.225451700000065],[-72.94766369999996,44.22535820000007],[-72.94799769999997,44.22532630000006],[-72.95603059999996,44.22455110000004],[-72.95616499899995,44.225917700000025],[-72.95656279999997,44.22573250000005],[-72.95683699999995,44.22573680000005],[-72.95754749999998,44.22552510000003],[-72.95831929999997,44.22547250000008],[-72.95841079899998,44.22549290000006],[-72.95862379999994,44.225845700000036],[-72.95849649999997,44.22604960000007],[-72.95854889999998,44.226518300000066],[-72.95909850099997,44.22669520000005],[-72.95999279999995,44.226616000000035],[-72.96003369999994,44.22656630000006],[-72.96019489999998,44.22604370000005],[-72.96019779999995,44.22578180000005],[-72.96003399899996,44.22483300000005],[-72.96016959999997,44.22440670000003],[-72.96040250099998,44.224268100000074],[-72.96059229999997,44.223882100000026],[-72.96082279999996,44.22279400000008],[-72.96090729999997,44.222708200000056],[-72.96068789999998,44.22170380000006],[-72.96030159999998,44.22062530000005],[-72.96027499999997,44.22010800000004],[-72.96039760099995,44.219618800000035],[-72.96050339999994,44.21954460000006],[-72.96026520099997,44.21900550000004],[-72.96038359999994,44.21846500000004],[-72.95952989999995,44.21811390000005],[-72.95929209999997,44.21794740000007],[-72.95909969999997,44.21750990000004],[-72.95898489899997,44.21739070000007],[-72.95951099999996,44.216975500000046]]],[[[-72.94895559999998,44.20675860000006],[-72.94839769999999,44.206790399000056],[-72.94829949899997,44.20680390000007],[-72.94825210099998,44.20700580000005],[-72.94824902999994,44.20704114700004],[-72.94736239999997,44.218071000000066],[-72.94867079999995,44.21903450000008],[-72.94923689999996,44.21896300000003],[-72.94965649899996,44.218985700000076],[-72.95007409999994,44.21910460000004],[-72.95091279999997,44.21945770000008],[-72.95136839999998,44.21945590000007],[-72.95152700099999,44.219084500000065],[-72.95183789999999,44.21870000000007],[-72.95232949999996,44.21838500000007],[-72.95319069999994,44.218019500000025],[-72.95376879899999,44.21736110000006],[-72.95414699999998,44.217067100000065],[-72.95464089999996,44.21685820000005],[-72.95602839999998,44.21649350000007],[-72.95614639999997,44.21605750000003],[-72.95654159899993,44.215691400000026],[-72.95693249999994,44.21554750000007],[-72.95741969999995,44.215493500000036],[-72.95789989899998,44.21560860000005],[-72.95815260099994,44.21576330000005],[-72.95956229999996,44.21503850000005],[-72.96161039999998,44.215634100000045],[-72.96193699999998,44.21675600000003],[-72.96210209999998,44.21673910000004],[-72.96222629999994,44.21629670000004],[-72.96254989999994,44.21575720000004],[-72.96210609999997,44.21468980000003],[-72.96210789999998,44.214278500000034],[-72.96220059999996,44.21397040000005],[-72.96217169999994,44.213648800000044],[-72.96210099999996,44.213265800000045],[-72.96171319999996,44.212770900000066],[-72.96141699999998,44.212495800000056],[-72.96105049999994,44.21171060000006],[-72.96105659899996,44.21105360000007],[-72.96090379999998,44.210074200000065],[-72.96106729999997,44.20953440000005],[-72.96060019999999,44.20901160000005],[-72.96061059999994,44.20857330000007],[-72.96073479999995,44.20845580000008],[-72.96078279999995,44.20819190000003],[-72.96060249999994,44.20785150000006],[-72.96062399899995,44.20804220000008],[-72.96039889999997,44.20806380000005],[-72.96015809899995,44.20798830000007],[-72.95946539999994,44.207992500000046],[-72.95906409999998,44.20825190000005],[-72.95878639999995,44.20823830000006],[-72.95855199999994,44.208305600000074],[-72.95823930099994,44.20853870000008],[-72.95778529899997,44.208576900000025],[-72.95710749999995,44.208632900000055],[-72.95707119999997,44.208749400000045],[-72.95680309999995,44.20888880000007],[-72.95620759999997,44.20923350000004],[-72.95588529999998,44.20929150000006],[-72.95542429999995,44.209219500000074],[-72.95539370099993,44.20918670000003],[-72.95522549999998,44.20891970000008],[-72.95504099999994,44.20884490000003],[-72.95485699899996,44.20891190000003],[-72.95469769999994,44.209115300000065],[-72.95441859999994,44.20920870000003],[-72.95351139899998,44.20899460000004],[-72.95319089999998,44.20896370000003],[-72.95250539999995,44.20858690000006],[-72.95102579999997,44.20812820000003],[-72.94998469999996,44.20768140000007],[-72.94927009999998,44.207244900000035],[-72.94895559999998,44.20675860000006]]],[[[-72.95220478199997,44.161422412000036],[-72.95127769999993,44.16331950000006],[-72.94988159999997,44.166176300000075],[-72.94971719999995,44.166512700000055],[-72.94948169999998,44.166994600000066],[-72.94945190099997,44.16705620000005],[-72.94939559999995,44.16717260000007],[-72.93949799999996,44.18757940000006],[-72.94065899999998,44.18755730000004],[-72.94063559999995,44.18830810000003],[-72.94982669999996,44.188710300000025],[-72.95017150099994,44.18451700000003],[-72.95564869999998,44.18445360000004],[-72.95572899999996,44.18476700000008],[-72.95634449899995,44.184704400000044],[-72.95682799899998,44.18472680000008],[-72.95472899999999,44.17364470000007],[-72.95328529899996,44.16637670000006],[-72.95220478199997,44.161422412000036]]]]},"properties":{"OBJECT_ID":416,"County":"Chittenden","RPC":"CCRPC","Municipal_Name":"BuelsGore","GEO_ID":"5000710300","District_Name":"Forestry And Conservation One","Abbreviated_District_Name":"Fc1","District_Type":"Mixed with Residential","Bylaw_Date":"2023-08-02","Elderly_Housing_District":"No","District_Mapped":"Yes","Overlay_District":"No","Base_Density":0.1,"GIS_ID":null,"Last_Update":"20100823","Shape_Length":0.20386504747330683,"Shape_Area":0.0004541135326156952,"F1F_Allowance":"Permitted","F1F_Front_Setback":100,"F1F_Side_Setback":50,"F1F_Rear_Setback":50,"F1F_Frontage":null,"F1F_Max_Height":null,"F1F_Max_Stories":null,"F1F_Min_Lot_Size":10,"F1F_Max_Lot_Building_Coverage":null,"F1F_Max_Lot_Impervious_Coverage":null,"F1F_Min_Parking_Spaces":null,"F1F_Elderly_Housing_Only":null,"F1F_Affordable_Housing_Only":null,"F2F_Allowance":"Prohibited","F2F_Front_Setback":null,"F2F_Side_Setback":null,"F2F_Rear_Setback":null,"F2F_Frontage":null,"F2F_Max_Density":null,"F2F_Max_Height":null,"F2F_Max_Stories":null,"F2F_Min_Lot_Size":null,"F2F_Max_Lot_Building_Coverage":null,"F2F_Max_Lot_Impervious_Coverage":null,"F2F_Min_Parking_Spaces_per_1BR":null,"F2F_Min_Parking_Spaces_per_mult_BR":null,"F2F_Elderly_Housing_Only":"No","F2F_Affordable_Housing_Only":"No","F3F_Allowance":"Prohibited","F3F_Front_Setback":null,"F3F_Side_Setback":null,"F3F_Rear_Setback":null,"F3F_Frontage":null,"F3F_Max_Density":null,"F3F_Max_Height":null,"F3F_Max_Stories":null,"F3F_Min_Lot_Size":null,"F3F_Max_Lot_Building_Coverage":null,"F3F_Max_Lot_Impervious_Coverage":null,"F3F_Min_Parking_Spaces_per_1BR":null,"F3F_Min_Parking_Spaces_per_mult_BR":null,"F3F_Affordable_Housing_Only":"No","F3F_Proximity_to_Public_Transit_Required":"No","F3F_Connection_to_Sewage/Water_Required":"No","F4F_Allowance":"Prohibited","F4F_Front_Setback":null,"F4F_Side_Setback":null,"F4F_Rear_Setback":null,"F4F_Frontage":null,"F1F_Max_Density":null,"F4F_Max_Density":null,"F4F_Max_Height":null,"F4F_Max_Stories":null,"F4F_Min_Lot_Size":null,"F4F_Max_Lot_Building_Coverage":null,"F4F_Max_Lot_Impervious_Coverage":null,"F4F_Min_Parking_Spaces_per_1BR":null,"F4F_Min_Parking_Spaces_per_mult_BR":null,"F3F_Elderly_Housing_Only":"No","F4F_Elderly_Housing_Only":"No","F4F_Affordable_Housing_Only":"No","F4F_Proximity_to_Public_Transit_Required":"No","F4F_Connection_to_Sewage/Water_Required":"No","ADU_Allowance":"Allowed/Conditional","ADU_Elderly_Housing_Only":"No","ADU_Max_Size_as_Percent_of_Primary_Strcture":null,"ADU_Max_Size_in_sq_ft":null,"ADU_Min_Lot_Size":null,"ADU_Max_Bedrooms":null,"ADU_Min_Parking_Spaces":null,"ADU_Owner_Occupancy_Required":"No","ADU_Renter_Occupancy_Prohibited":"No","ADU_Employee_or_Family_Occupancy_Required":"No","ADU_Restricted_to_Primary_Structure":"No","Affordable_Housing_Allowance":"Not Mentioned","Affordable_Housing_District":"No","Affordable_Housing_Elderly_Only":"No","Affordable_Housing_Min_Lot_Size":null,"Affordable_Housing_Max_Density":null,"Affordable_Housing_Min_Parking_Spaces_per_mult_BR":null,"Affordable_Housing_Max_Units_per_Building":null,"Affordable_Housing_Min_Parking_Spaces_per_1BR":null,"PRD_Allowance":"Not Mentioned","PRD_Max_Density":null,"PRD_Max_Units":null,"PRD_Min_Lot_Size":null,"PRD_Mobile_or_Manufactured_Home_Park":"No","PUD_Allowance":"No","PUD_Required_with_Subdivision":"No","PUD_Requires_Land_Conservation":"No","PUD_Threshold_Number":null,"Notes":"None","FIPS6":7010}},{"type":"Feature","id":3,"geometry":{"type":"MultiPolygon","coordinates":[[[[-72.96470859999994,44.22738300000003],[-72.96482759999998,44.22938130000006],[-72.96501459899997,44.229360400000076],[-72.96470859999994,44.22738300000003]]],[[[-72.96444560399993,44.226559300000076],[-72.96443289999996,44.22656040000004],[-72.96463339999997,44.22939040000006],[-72.95944993499995,44.229943787000025],[-72.95977189999996,44.229912600000034],[-72.96136209999997,44.22977780000008],[-72.96464059999994,44.22940220000004],[-72.96444560399993,44.226559300000076]]],[[[-72.95603059999996,44.22455110000004],[-72.94799769999997,44.22532630000006],[-72.94766369999996,44.22535820000007],[-72.94666679899996,44.225451700000065],[-72.94666550099998,44.22548400000005],[-72.95601679999999,44.22456160000007],[-72.95629489999999,44.22725020000007],[-72.95616499899995,44.225917700000025],[-72.95603059999996,44.22455110000004]]],[[[-72.94231019399996,44.22210590100008],[-72.94203939899995,44.22465930000004],[-72.94208659999998,44.224662900000055],[-72.94227669999998,44.222484800000075],[-72.94231019399996,44.22210590100008]]],[[[-72.94374349999998,44.21906330000007],[-72.94508629999996,44.219123600000046],[-72.94520119999999,44.21912820000006],[-72.94619061099996,44.219197465000036],[-72.94719169999996,44.21921940000004],[-72.94719839999993,44.21915510000008],[-72.94374349999998,44.21906330000007]]],[[[-72.95500379999999,44.20883390000006],[-72.95485699899996,44.20891190000003],[-72.95504099999994,44.20884490000003],[-72.95522549999998,44.20891970000008],[-72.95539370099993,44.20918670000003],[-72.95542429999995,44.209219500000074],[-72.95588529999998,44.20929150000006],[-72.95620759999997,44.20923350000004],[-72.95680309999995,44.20888880000007],[-72.95639059999996,44.20906720000005],[-72.95566769999994,44.20922800000005],[-72.95537249999995,44.20907450000004],[-72.95518969999995,44.208853600000054],[-72.95500379999999,44.20883390000006]]],[[[-72.95855199999994,44.208305600000074],[-72.95798759999997,44.20843230000003],[-72.95778529899997,44.208576900000025],[-72.95823930099994,44.20853870000008],[-72.95855199999994,44.208305600000074]]],[[[-72.94832919999999,44.20604350000008],[-72.94824902999994,44.20704114700004],[-72.94825210099998,44.20700580000005],[-72.94829949899997,44.20680390000007],[-72.94839769999999,44.206790399000056],[-72.94895559999998,44.20675860000006],[-72.94832919999999,44.20604350000008]]],[[[-72.93541929999998,44.19592240000003],[-72.93488299899997,44.19701920000006],[-72.93192590699994,44.20306500400005],[-72.93488309999998,44.19701920000006],[-72.93524209999998,44.19753000000003],[-72.93538879999994,44.197916400000054],[-72.93542290299996,44.198299700000064],[-72.93542589999998,44.198365300000034],[-72.93538539999997,44.198652200000026],[-72.93563979999993,44.19812940000003],[-72.93571609999998,44.19761300000005],[-72.93541929999998,44.19592240000003]]]]},"properties":{"OBJECT_ID":417,"County":"Chittenden","RPC":"CCRPC","Municipal_Name":"BuelsGore","GEO_ID":"5000710300","District_Name":"Forestry And Conservation Two","Abbreviated_District_Name":"Fc2","District_Type":"Nonresidential","Bylaw_Date":"2023-08-02","Elderly_Housing_District":"No","District_Mapped":"Yes","Overlay_District":"No","Base_Density":null,"GIS_ID":null,"Last_Update":"20100823","Shape_Length":0.08493277966564762,"Shape_Area":2.1446399412581508e-06,"F1F_Allowance":"Prohibited","F1F_Front_Setback":null,"F1F_Side_Setback":null,"F1F_Rear_Setback":null,"F1F_Frontage":null,"F1F_Max_Height":null,"F1F_Max_Stories":null,"F1F_Min_Lot_Size":null,"F1F_Max_Lot_Building_Coverage":null,"F1F_Max_Lot_Impervious_Coverage":null,"F1F_Min_Parking_Spaces":null,"F1F_Elderly_Housing_Only":null,"F1F_Affordable_Housing_Only":null,"F2F_Allowance":"Prohibited","F2F_Front_Setback":null,"F2F_Side_Setback":null,"F2F_Rear_Setback":null,"F2F_Frontage":null,"F2F_Max_Density":null,"F2F_Max_Height":null,"F2F_Max_Stories":null,"F2F_Min_Lot_Size":null,"F2F_Max_Lot_Building_Coverage":null,"F2F_Max_Lot_Impervious_Coverage":null,"F2F_Min_Parking_Spaces_per_1BR":null,"F2F_Min_Parking_Spaces_per_mult_BR":null,"F2F_Elderly_Housing_Only":"No","F2F_Affordable_Housing_Only":"No","F3F_Allowance":"Prohibited","F3F_Front_Setback":null,"F3F_Side_Setback":null,"F3F_Rear_Setback":null,"F3F_Frontage":null,"F3F_Max_Density":null,"F3F_Max_Height":null,"F3F_Max_Stories":null,"F3F_Min_Lot_Size":null,"F3F_Max_Lot_Building_Coverage":null,"F3F_Max_Lot_Impervious_Coverage":null,"F3F_Min_Parking_Spaces_per_1BR":null,"F3F_Min_Parking_Spaces_per_mult_BR":null,"F3F_Affordable_Housing_Only":"No","F3F_Proximity_to_Public_Transit_Required":"No","F3F_Connection_to_Sewage/Water_Required":"No","F4F_Allowance":"Prohibited","F4F_Front_Setback":null,"F4F_Side_Setback":null,"F4F_Rear_Setback":null,"F4F_Frontage":null,"F1F_Max_Density":null,"F4F_Max_Density":null,"F4F_Max_Height":null,"F4F_Max_Stories":null,"F4F_Min_Lot_Size":null,"F4F_Max_Lot_Building_Coverage":null,"F4F_Max_Lot_Impervious_Coverage":null,"F4F_Min_Parking_Spaces_per_1BR":null,"F4F_Min_Parking_Spaces_per_mult_BR":null,"F3F_Elderly_Housing_Only":"No","F4F_Elderly_Housing_Only":"No","F4F_Affordable_Housing_Only":"No","F4F_Proximity_to_Public_Transit_Required":"No","F4F_Connection_to_Sewage/Water_Required":"No","ADU_Allowance":"Prohibited","ADU_Elderly_Housing_Only":"No","ADU_Max_Size_as_Percent_of_Primary_Strcture":null,"ADU_Max_Size_in_sq_ft":null,"ADU_Min_Lot_Size":null,"ADU_Max_Bedrooms":null,"ADU_Min_Parking_Spaces":null,"ADU_Owner_Occupancy_Required":"No","ADU_Renter_Occupancy_Prohibited":"No","ADU_Employee_or_Family_Occupancy_Required":"No","ADU_Restricted_to_Primary_Structure":"No","Affordable_Housing_Allowance":"Prohibited","Affordable_Housing_District":"No","Affordable_Housing_Elderly_Only":"No","Affordable_Housing_Min_Lot_Size":null,"Affordable_Housing_Max_Density":null,"Affordable_Housing_Min_Parking_Spaces_per_mult_BR":null,"Affordable_Housing_Max_Units_per_Building":null,"Affordable_Housing_Min_Parking_Spaces_per_1BR":null,"PRD_Allowance":"Prohibited","PRD_Max_Density":null,"PRD_Max_Units":null,"PRD_Min_Lot_Size":null,"PRD_Mobile_or_Manufactured_Home_Park":"No","PUD_Allowance":"No","PUD_Required_with_Subdivision":"No","PUD_Requires_Land_Conservation":"No","PUD_Threshold_Number":null,"Notes":"None","FIPS6":7010}},{"type":"Feature","id":4,"geometry":{"type":"Polygon","coordinates":[[[-72.93488299899997,44.19701920000006],[-72.93192590699994,44.20306500400005],[-72.93071449999997,44.20554160000006],[-72.93590569999998,44.205707500000074],[-72.93590819899998,44.20523900000006],[-72.93574009999998,44.20489300000003],[-72.93550179999994,44.204000800000074],[-72.93531589999998,44.20299970000008],[-72.93530829999997,44.20199240000005],[-72.93515209999998,44.200990200000035],[-72.93480039999997,44.199737500000026],[-72.93482989999995,44.19928630000004],[-72.93522309999997,44.198907500000075],[-72.93538539999997,44.198652200000026],[-72.93542589999998,44.198365300000034],[-72.93542290299996,44.198299700000064],[-72.93538879999994,44.197916400000054],[-72.93524209999998,44.19753000000003],[-72.93488309999998,44.19701920000006],[-72.93488299899997,44.19701920000006]]]},"properties":{"OBJECT_ID":418,"County":"Chittenden","RPC":"CCRPC","Municipal_Name":"BuelsGore","GEO_ID":"5000710300","District_Name":"Ridgetop","Abbreviated_District_Name":"R","District_Type":"Nonresidential","Bylaw_Date":"2023-08-02","Elderly_Housing_District":"No","District_Mapped":"Yes","Overlay_District":"No","Base_Density":null,"GIS_ID":null,"Last_Update":"20100823","Shape_Length":0.023877363231126845,"Shape_Area":2.168675364383935e-05,"F1F_Allowance":"Prohibited","F1F_Front_Setback":null,"F1F_Side_Setback":null,"F1F_Rear_Setback":null,"F1F_Frontage":null,"F1F_Max_Height":null,"F1F_Max_Stories":null,"F1F_Min_Lot_Size":null,"F1F_Max_Lot_Building_Coverage":null,"F1F_Max_Lot_Impervious_Coverage":null,"F1F_Min_Parking_Spaces":null,"F1F_Elderly_Housing_Only":null,"F1F_Affordable_Housing_Only":null,"F2F_Allowance":"Prohibited","F2F_Front_Setback":null,"F2F_Side_Setback":null,"F2F_Rear_Setback":null,"F2F_Frontage":null,"F2F_Max_Density":null,"F2F_Max_Height":null,"F2F_Max_Stories":null,"F2F_Min_Lot_Size":null,"F2F_Max_Lot_Building_Coverage":null,"F2F_Max_Lot_Impervious_Coverage":null,"F2F_Min_Parking_Spaces_per_1BR":null,"F2F_Min_Parking_Spaces_per_mult_BR":null,"F2F_Elderly_Housing_Only":"No","F2F_Affordable_Housing_Only":"No","F3F_Allowance":"Prohibited","F3F_Front_Setback":null,"F3F_Side_Setback":null,"F3F_Rear_Setback":null,"F3F_Frontage":null,"F3F_Max_Density":null,"F3F_Max_Height":null,"F3F_Max_Stories":null,"F3F_Min_Lot_Size":null,"F3F_Max_Lot_Building_Coverage":null,"F3F_Max_Lot_Impervious_Coverage":null,"F3F_Min_Parking_Spaces_per_1BR":null,"F3F_Min_Parking_Spaces_per_mult_BR":null,"F3F_Affordable_Housing_Only":"No","F3F_Proximity_to_Public_Transit_Required":"No","F3F_Connection_to_Sewage/Water_Required":"No","F4F_Allowance":"Prohibited","F4F_Front_Setback":null,"F4F_Side_Setback":null,"F4F_Rear_Setback":null,"F4F_Frontage":null,"F1F_Max_Density":null,"F4F_Max_Density":null,"F4F_Max_Height":null,"F4F_Max_Stories":null,"F4F_Min_Lot_Size":null,"F4F_Max_Lot_Building_Coverage":null,"F4F_Max_Lot_Impervious_Coverage":null,"F4F_Min_Parking_Spaces_per_1BR":null,"F4F_Min_Parking_Spaces_per_mult_BR":null,"F3F_Elderly_Housing_Only":"No","F4F_Elderly_Housing_Only":"No","F4F_Affordable_Housing_Only":"No","F4F_Proximity_to_Public_Transit_Required":"No","F4F_Connection_to_Sewage/Water_Required":"No","ADU_Allowance":"Prohibited","ADU_Elderly_Housing_Only":"No","ADU_Max_Size_as_Percent_of_Primary_Strcture":null,"ADU_Max_Size_in_sq_ft":null,"ADU_Min_Lot_Size":null,"ADU_Max_Bedrooms":null,"ADU_Min_Parking_Spaces":null,"ADU_Owner_Occupancy_Required":"No","ADU_Renter_Occupancy_Prohibited":"No","ADU_Employee_or_Family_Occupancy_Required":"No","ADU_Restricted_to_Primary_Structure":"No","Affordable_Housing_Allowance":"Prohibited","Affordable_Housing_District":"No","Affordable_Housing_Elderly_Only":"No","Affordable_Housing_Min_Lot_Size":null,"Affordable_Housing_Max_Density":null,"Affordable_Housing_Min_Parking_Spaces_per_mult_BR":null,"Affordable_Housing_Max_Units_per_Building":null,"Affordable_Housing_Min_Parking_Spaces_per_1BR":null,"PRD_Allowance":"Prohibited","PRD_Max_Density":null,"PRD_Max_Units":null,"PRD_Min_Lot_Size":null,"PRD_Mobile_or_Manufactured_Home_Park":"No","PUD_Allowance":"No","PUD_Required_with_Subdivision":"No","PUD_Requires_Land_Conservation":"No","PUD_Threshold_Number":null,"Notes":"None","FIPS6":7010}}]}