{"type":"FeatureCollection","name":"Essex_Lemington","features":[{"type":"Feature","properties":{"OBJECT_ID":314,"County":"Essex","RPC":"NVDA","Municipal_Name":"Lemington","GEO_ID":"5000939700","District_Name":"Rural Residential","Abbreviated_District_Name":"Rr","District_Type":"Primarily Residential","Bylaw_Date":null,"Elderly_Housing_District":"No","District_Mapped":"Yes","Overlay_District":"No","Base_Density":null,"FIPS6":null,"GIS_ID":null,"Last_Update":null,"Shape_Length":23639.310103313146,"Shape_Area":3508302.9559042268,"F1F_Allowance":"Permitted","F1F_Front_Setback":75.0,"F1F_Side_Setback":null,"F1F_Rear_Setback":null,"F1F_Frontage":200.0,"F1F_Max_Height":null,"F1F_Max_Stories":null,"F1F_Min_Lot_Size":null,"F1F_Max_Lot_Building_Coverage":null,"F1F_Max_Lot_Impervious_Coverage":null,"F1F_Min_Parking_Spaces":null,"F1F_Elderly_Housing_Only":null,"F1F_Affordable_Housing_Only":null,"F2F_Allowance":"Permitted","F2F_Front_Setback":75.0,"F2F_Side_Setback":null,"F2F_Rear_Setback":null,"F2F_Frontage":200.0,"F2F_Max_Density":null,"F2F_Max_Height":null,"F2F_Max_Stories":null,"F2F_Min_Lot_Size":null,"F2F_Max_Lot_Building_Coverage":null,"F2F_Max_Lot_Impervious_Coverage":null,"F2F_Min_Parking_Spaces_per_1BR":null,"F2F_Min_Parking_Spaces_per_mult_BR":null,"F2F_Elderly_Housing_Only":"No","F2F_Affordable_Housing_Only":"No","F3F_Allowance":"Prohibited","F3F_Front_Setback":null,"F3F_Side_Setback":null,"F3F_Rear_Setback":null,"F3F_Frontage":null,"F3F_Max_Density":null,"F3F_Max_Height":null,"F3F_Max_Stories":null,"F3F_Min_Lot_Size":null,"F3F_Max_Lot_Building_Coverage":null,"F3F_Max_Lot_Impervious_Coverage":null,"F3F_Min_Parking_Spaces_per_1BR":null,"F3F_Min_Parking_Spaces_per_mult_BR":null,"F3F_Affordable_Housing_Only":null,"F3F_Proximity_to_Public_Transit_Required":null,"F3F_Connection_to_Sewage/Water_Required":null,"F4F_Allowance":"Prohibited","F4F_Front_Setback":null,"F4F_Side_Setback":null,"F4F_Rear_Setback":null,"F4F_Frontage":null,"F1F_Max_Density":null,"F4F_Max_Density":null,"F4F_Max_Height":null,"F4F_Max_Stories":null,"F4F_Min_Lot_Size":null,"F4F_Max_Lot_Building_Coverage":null,"F4F_Max_Lot_Impervious_Coverage":null,"F4F_Min_Parking_Spaces_per_1BR":null,"F4F_Min_Parking_Spaces_per_mult_BR":null,"F3F_Elderly_Housing_Only":null,"F4F_Elderly_Housing_Only":null,"F4F_Affordable_Housing_Only":null,"F4F_Proximity_to_Public_Transit_Required":null,"F4F_Connection_to_Sewage/Water_Required":null,"ADU_Allowance":"Allowed/Conditional","ADU_Elderly_Housing_Only":"No","ADU_Max_Size_as_Percent_of_Primary_Strcture":50.0,"ADU_Max_Size_in_sq_ft":null,"ADU_Min_Lot_Size":null,"ADU_Max_Bedrooms":null,"ADU_Min_Parking_Spaces":null,"ADU_Owner_Occupancy_Required":"No","ADU_Renter_Occupancy_Prohibited":"No","ADU_Employee_or_Family_Occupancy_Required":"No","ADU_Restricted_to_Primary_Structure":"No","Affordable_Housing_Allowance":"Not Mentioned","Affordable_Housing_District":"No","Affordable_Housing_Elderly_Only":null,"Affordable_Housing_Min_Lot_Size":null,"Affordable_Housing_Max_Density":null,"Affordable_Housing_Min_Parking_Spaces_per_mult_BR":null,"Affordable_Housing_Max_Units_per_Building":null,"Affordable_Housing_Min_Parking_Spaces_per_1BR":null,"PRD_Allowance":"Not Mentioned","PRD_Max_Density":null,"PRD_Max_Units":null,"PRD_Min_Lot_Size":null,"PRD_Mobile_or_Manufactured_Home_Park":null,"PUD_Allowance":"No","PUD_Required_with_Subdivision":null,"PUD_Requires_Land_Conservation":null,"PUD_Threshold_Number":null,"Notes":"None"},"geometry":{"type":"MultiPolygon","coordinates":[[[[-71.56523110966361,44.826313007044384],[-71.56420361243251,44.82654187781902],[-71.56305094265859,44.82698099520535],[-71.56197378962618,44.82763015655125],[-71.56113093402135,44.82842709034148],[-71.56069937491512,44.829047890408305],[-71.55936867514733,44.8314496220852],[-71.55768882603192,44.834530522249565],[-71.55722417540034,44.83550811724424],[-71.5569127130972,44.83644697617937],[-71.55670362593868,44.83763310741793],[-71.55643006174718,44.84293371788737],[-71.55663904249406,44.844366722989],[-71.55782245042879,44.847681787587725],[-71.55787285766226,44.84822958742387],[-71.55780859001815,44.84871861789932],[-71.55755930743618,44.849398582387174],[-71.55724061579481,44.849889171391546],[-71.55688351739515,44.85027479792949],[-71.55609745695806,44.850860061441466],[-71.55228984608848,44.853216729065345],[-71.55142428725291,44.85399534659836],[-71.55059627645929,44.85517226178383],[-71.55039231208984,44.855735510428886],[-71.55042564791641,44.85650986672281],[-71.55074746235995,44.85759817640594],[-71.55183926739817,44.85912787505579],[-71.55190456999112,44.859636040445004],[-71.55174792612209,44.86010664380251],[-71.54932310645316,44.86313320917309],[-71.54679910303345,44.86579869289207],[-71.54616151022856,44.86632522921682],[-71.54423007965346,44.867033288166674],[-71.54249283959501,44.86809157982787],[-71.54126744711881,44.86862137807349],[-71.53989337621486,44.8689831789249],[-71.53650265588253,44.869466512322006],[-71.53537298928183,44.869686977009046],[-71.53412243633504,44.87016712180349],[-71.5332004882496,44.870757903624074],[-71.53196874343199,44.87205881470175],[-71.53104353065059,44.87324167507491],[-71.53070113639274,44.873985060351515],[-71.52984487678316,44.87671785099941],[-71.52953293995847,44.87727330562369],[-71.52901965416181,44.8779091951567],[-71.52662732888531,44.88038701357479],[-71.525773438062,44.88114030058816],[-71.52494891788746,44.881703694744694],[-71.52111516477044,44.883943288946476],[-71.52036428160966,44.884437188165315],[-71.51940217133671,44.88524807911224],[-71.51844285194096,44.88634482080822],[-71.51788673931405,44.887324145994505],[-71.51724853212828,44.88915080955777],[-71.51719598286353,44.89001433821203],[-71.51762745525639,44.891624690212645],[-71.51766351109208,44.89201267195924],[-71.5175580639175,44.89253297695629],[-71.5173932266377,44.89283859457927],[-71.5170850972328,44.89320921802622],[-71.51652445729597,44.89361613163317],[-71.51380958061058,44.89531629343438],[-71.51314789711874,44.8955563463477],[-71.51157496779476,44.896008335443696],[-71.5107274109206,44.89646994110028],[-71.50894327348216,44.898163430583075],[-71.50806383664363,44.89945507258465],[-71.50779971058991,44.899705100779904],[-71.50540277052559,44.9010534780618],[-71.50414519903396,44.901532566609944],[-71.50378624125668,44.901715277075446],[-71.50344653105216,44.90199661292177],[-71.50239657347355,44.90314219702721],[-71.50174376746237,44.904034097774726],[-71.50170572935143,44.90435392074932],[-71.50181512348826,44.904639318993006],[-71.50300781270064,44.905853422031996],[-71.50338991300679,44.90632595794189],[-71.50550498923258,44.90948911472742],[-71.50608652465158,44.910236206746966],[-71.50670419381494,44.91090415075509],[-71.5067042401567,44.910904107064134],[-71.50918270454478,44.908571918766356],[-71.50682538901151,44.90507646107224],[-71.50605843549398,44.90417079698504],[-71.50638717995274,44.903807837077395],[-71.50767575391292,44.90326987584283],[-71.51007336044714,44.90195957783901],[-71.51069242629424,44.90152037596129],[-71.51145494188596,44.900763886576414],[-71.51218446233644,44.89965730159695],[-71.51347468624144,44.89840255305972],[-71.51526318358174,44.897883072102],[-71.51619544014915,44.89747181441791],[-71.51917990005083,44.8956059630316],[-71.5198374770449,44.89514758192094],[-71.52028489846481,44.894741847785056],[-71.52099596123638,44.89382038378945],[-71.521261876368,44.89330153126043],[-71.52144499132034,44.89270003168671],[-71.52152182748152,44.89201503545379],[-71.52146898806434,44.89136923277066],[-71.52104080736359,44.88973145273897],[-71.5215696901962,44.888145288722306],[-71.52188931220874,44.88758014370741],[-71.52249151685282,44.886891977927085],[-71.52311697714127,44.886363069207746],[-71.52748081628553,44.883772953933345],[-71.52866463638264,44.88295604996937],[-71.5297778361997,44.88196966341812],[-71.53220690229986,44.87945411865497],[-71.53295366158441,44.87854084963085],[-71.53347629692898,44.87764272356145],[-71.53390075155274,44.87649996339938],[-71.53443325013725,44.874687380241696],[-71.53462601858436,44.87426650815834],[-71.53601571444668,44.87265106906976],[-71.53635342549661,44.87240482868044],[-71.53675309633172,44.87224890669516],[-71.54087138142123,44.871636206123156],[-71.54203640063935,44.871372104410746],[-71.54289625748075,44.87110745560429],[-71.54386417397943,44.87073442763177],[-71.54470165259943,44.87033992514458],[-71.54641954853459,44.869298596859345],[-71.5479364459019,44.86877952318666],[-71.54872786759742,44.86837254677993],[-71.54918197241848,44.868064995429975],[-71.54975608810504,44.86757081760704],[-71.55261581953118,44.86456101418931],[-71.55484511362774,44.86181361592807],[-71.55531195728213,44.861153896568126],[-71.55555458863654,44.860632316420244],[-71.55574892039131,44.85985092162548],[-71.55572888422859,44.85905086675142],[-71.55557108197017,44.85843703066825],[-71.55529993858471,44.8578719421726],[-71.55437544652247,44.85663784657341],[-71.55423566298444,44.85608614900794],[-71.55459757934109,44.85556581385543],[-71.55519636011637,44.85503348200644],[-71.55868244609657,44.852895029369435],[-71.55958001581456,44.85225647628649],[-71.56056871490581,44.851273904440376],[-71.56129284245303,44.850113131307104],[-71.56167491510267,44.84886559722194],[-71.56172795331285,44.848266891141535],[-71.56168417050819,44.84756679906482],[-71.56140998223552,44.846490192577306],[-71.56041690515282,44.843819660704916],[-71.56028581643118,44.84289033860232],[-71.56055046047196,44.8378138061632],[-71.560727605733,44.8368648663292],[-71.56093162091912,44.836260201063546],[-71.56129691399781,44.83549557660375],[-71.56445597257336,44.829816011145205],[-71.56478216479915,44.82951039292491],[-71.56522116358722,44.82925039210055],[-71.5665056056103,44.82885384759579],[-71.56717034279399,44.8285551712092],[-71.56811618652547,44.82784971894989],[-71.56523110966361,44.826313007044384]]]]}},{"type":"Feature","properties":{"OBJECT_ID":311,"County":"Essex","RPC":"ACRPC","Municipal_Name":"Lemington","GEO_ID":"5000939700","District_Name":"Agricultural","Abbreviated_District_Name":"Agr","District_Type":"Mixed with Residential","Bylaw_Date":null,"Elderly_Housing_District":"No","District_Mapped":"Yes","Overlay_District":"No","Base_Density":null,"FIPS6":null,"GIS_ID":null,"Last_Update":null,"Shape_Length":27136.373881541964,"Shape_Area":1758096.9419358685,"F1F_Allowance":"Public Hearing","F1F_Front_Setback":60.0,"F1F_Side_Setback":25.0,"F1F_Rear_Setback":25.0,"F1F_Frontage":200.0,"F1F_Max_Height":null,"F1F_Max_Stories":null,"F1F_Min_Lot_Size":5.0,"F1F_Max_Lot_Building_Coverage":null,"F1F_Max_Lot_Impervious_Coverage":null,"F1F_Min_Parking_Spaces":null,"F1F_Elderly_Housing_Only":null,"F1F_Affordable_Housing_Only":null,"F2F_Allowance":"Public Hearing","F2F_Front_Setback":60.0,"F2F_Side_Setback":25.0,"F2F_Rear_Setback":25.0,"F2F_Frontage":200.0,"F2F_Max_Density":null,"F2F_Max_Height":null,"F2F_Max_Stories":null,"F2F_Min_Lot_Size":5.0,"F2F_Max_Lot_Building_Coverage":null,"F2F_Max_Lot_Impervious_Coverage":null,"F2F_Min_Parking_Spaces_per_1BR":null,"F2F_Min_Parking_Spaces_per_mult_BR":null,"F2F_Elderly_Housing_Only":"No","F2F_Affordable_Housing_Only":"No","F3F_Allowance":"Prohibited","F3F_Front_Setback":null,"F3F_Side_Setback":null,"F3F_Rear_Setback":null,"F3F_Frontage":null,"F3F_Max_Density":null,"F3F_Max_Height":null,"F3F_Max_Stories":null,"F3F_Min_Lot_Size":null,"F3F_Max_Lot_Building_Coverage":null,"F3F_Max_Lot_Impervious_Coverage":null,"F3F_Min_Parking_Spaces_per_1BR":null,"F3F_Min_Parking_Spaces_per_mult_BR":null,"F3F_Affordable_Housing_Only":null,"F3F_Proximity_to_Public_Transit_Required":null,"F3F_Connection_to_Sewage/Water_Required":null,"F4F_Allowance":"Prohibited","F4F_Front_Setback":null,"F4F_Side_Setback":null,"F4F_Rear_Setback":null,"F4F_Frontage":null,"F1F_Max_Density":null,"F4F_Max_Density":null,"F4F_Max_Height":null,"F4F_Max_Stories":null,"F4F_Min_Lot_Size":null,"F4F_Max_Lot_Building_Coverage":null,"F4F_Max_Lot_Impervious_Coverage":null,"F4F_Min_Parking_Spaces_per_1BR":null,"F4F_Min_Parking_Spaces_per_mult_BR":null,"F3F_Elderly_Housing_Only":null,"F4F_Elderly_Housing_Only":null,"F4F_Affordable_Housing_Only":null,"F4F_Proximity_to_Public_Transit_Required":null,"F4F_Connection_to_Sewage/Water_Required":null,"ADU_Allowance":"Prohibited","ADU_Elderly_Housing_Only":null,"ADU_Max_Size_as_Percent_of_Primary_Strcture":null,"ADU_Max_Size_in_sq_ft":null,"ADU_Min_Lot_Size":null,"ADU_Max_Bedrooms":null,"ADU_Min_Parking_Spaces":null,"ADU_Owner_Occupancy_Required":null,"ADU_Renter_Occupancy_Prohibited":null,"ADU_Employee_or_Family_Occupancy_Required":null,"ADU_Restricted_to_Primary_Structure":null,"Affordable_Housing_Allowance":"Not Mentioned","Affordable_Housing_District":"No","Affordable_Housing_Elderly_Only":null,"Affordable_Housing_Min_Lot_Size":null,"Affordable_Housing_Max_Density":null,"Affordable_Housing_Min_Parking_Spaces_per_mult_BR":null,"Affordable_Housing_Max_Units_per_Building":null,"Affordable_Housing_Min_Parking_Spaces_per_1BR":null,"PRD_Allowance":"Not Mentioned","PRD_Max_Density":null,"PRD_Max_Units":null,"PRD_Min_Lot_Size":null,"PRD_Mobile_or_Manufactured_Home_Park":null,"PUD_Allowance":"No","PUD_Required_with_Subdivision":null,"PUD_Requires_Land_Conservation":null,"PUD_Threshold_Number":null,"Notes":"  Unlike Rurres And Rural, Which Explicitly Permit Adus, Agricultural Does Not, So Adus Are Marked As Prohibited."},"geometry":{"type":"MultiPolygon","coordinates":[[[[-71.49647587572876,44.908942775223764],[-71.50037850158755,44.90922310927063],[-71.5050868374358,44.91126299422495],[-71.50664349962155,44.91096125911661],[-71.50670419381494,44.91090415075509],[-71.50608652465158,44.910236206746966],[-71.50550498923258,44.90948911472742],[-71.50338991300679,44.90632595794189],[-71.50300781270064,44.905853422031996],[-71.50181512348826,44.904639318993006],[-71.50170572935143,44.90435392074932],[-71.50174376746237,44.904034097774726],[-71.50239657347355,44.90314219702721],[-71.50344653105216,44.90199661292177],[-71.50378624125668,44.901715277075446],[-71.50414519903396,44.901532566609944],[-71.50540277052559,44.9010534780618],[-71.50779971058991,44.899705100779904],[-71.50806383664363,44.89945507258465],[-71.50894327348216,44.898163430583075],[-71.5107274109206,44.89646994110028],[-71.51157496779476,44.896008335443696],[-71.51314789711874,44.8955563463477],[-71.51380958061058,44.89531629343438],[-71.51652445729597,44.89361613163317],[-71.5170850972328,44.89320921802622],[-71.5173932266377,44.89283859457927],[-71.5175580639175,44.89253297695629],[-71.51766351109208,44.89201267195924],[-71.51762745525639,44.891624690212645],[-71.51719598286353,44.89001433821203],[-71.51724853212828,44.88915080955777],[-71.51788673931405,44.887324145994505],[-71.51844285194096,44.88634482080822],[-71.51940217133671,44.88524807911224],[-71.52036428160966,44.884437188165315],[-71.52111516477044,44.883943288946476],[-71.52494891788746,44.881703694744694],[-71.525773438062,44.88114030058816],[-71.52662732888531,44.88038701357479],[-71.52901965416181,44.8779091951567],[-71.52953293995847,44.87727330562369],[-71.52984487678316,44.87671785099941],[-71.53070113639274,44.873985060351515],[-71.53104353065059,44.87324167507491],[-71.53196874343199,44.87205881470175],[-71.5332004882496,44.870757903624074],[-71.53412243633504,44.87016712180349],[-71.53537298928183,44.869686977009046],[-71.53650265588253,44.869466512322006],[-71.53989337621486,44.8689831789249],[-71.54126744711881,44.86862137807349],[-71.54249283959501,44.86809157982787],[-71.54423007965346,44.867033288166674],[-71.54616151022856,44.86632522921682],[-71.54679910303345,44.86579869289207],[-71.54932310645316,44.86313320917309],[-71.55174792612209,44.86010664380251],[-71.55190456999112,44.859636040445004],[-71.55183926739817,44.85912787505579],[-71.55074746235995,44.85759817640594],[-71.55042564791641,44.85650986672281],[-71.55039231208984,44.855735510428886],[-71.55059627645929,44.85517226178383],[-71.55142428725291,44.85399534659836],[-71.55228984608848,44.853216729065345],[-71.55609745695806,44.850860061441466],[-71.55688351739515,44.85027479792949],[-71.55724061579481,44.849889171391546],[-71.55755930743618,44.849398582387174],[-71.55780859001815,44.84871861789932],[-71.55787285766226,44.84822958742387],[-71.55782245042879,44.847681787587725],[-71.55663904249406,44.844366722989],[-71.55643006174718,44.84293371788737],[-71.55670362593868,44.83763310741793],[-71.5569127130972,44.83644697617937],[-71.55722417540034,44.83550811724424],[-71.55768882603192,44.834530522249565],[-71.55936867514733,44.8314496220852],[-71.56069937491512,44.829047890408305],[-71.56113093402135,44.82842709034148],[-71.56197378962618,44.82763015655125],[-71.56305094265859,44.82698099520535],[-71.56420361243251,44.82654187781902],[-71.56523110966361,44.826313007044384],[-71.56172266857449,44.824485970186316],[-71.56117977492862,44.82567350391618],[-71.5607224197234,44.82708194363557],[-71.56056547576301,44.827861309257216],[-71.55992117252204,44.82900606619799],[-71.55960417464729,44.829704022250425],[-71.55964402885556,44.83000617295906],[-71.55948698406952,44.83032380189051],[-71.55940424363567,44.83076136815192],[-71.55878176553843,44.831999078373705],[-71.55825786973587,44.832780542696874],[-71.55739500516056,44.834347151031544],[-71.55716151346687,44.83451188406602],[-71.55685503549961,44.834630839362205],[-71.55598868583978,44.834818866198376],[-71.5549431054915,44.83494610237172],[-71.55356153721814,44.8354179006315],[-71.55306317501532,44.835692285178226],[-71.55202329921782,44.83645747298377],[-71.55123809361147,44.83746287817478],[-71.55110111719557,44.838618908184564],[-71.55112680050472,44.838888100380494],[-71.55117811997314,44.839229043178584],[-71.55183074300687,44.84126542397147],[-71.55186343351713,44.8419252241281],[-71.55193948013111,44.842146868244754],[-71.55231127109091,44.842776547857376],[-71.5533694684471,44.844166293190334],[-71.55369718500745,44.844947862965945],[-71.55391041969938,44.84525883238078],[-71.55413448991662,44.84547981138998],[-71.5550130787413,44.84598463443337],[-71.55540512740201,44.84636888806251],[-71.55565399963031,44.84649711163265],[-71.55599065962504,44.846788041193705],[-71.55619166979687,44.84718250301756],[-71.55632699748996,44.847912169984845],[-71.55619626251288,44.84895396985283],[-71.55598579172144,44.84974989173027],[-71.55551166697512,44.85029121428206],[-71.55516240080287,44.85056926821497],[-71.55445619190267,44.85138483956613],[-71.55386828642007,44.851927552686305],[-71.55367821554444,44.85208552872046],[-71.55323317021323,44.852293493385545],[-71.55279464475832,44.85269012589187],[-71.55260958313028,44.85275050389309],[-71.55200016949824,44.85315282458136],[-71.55180788094738,44.853167695173575],[-71.55171638558409,44.853231188288845],[-71.5515255270101,44.8535752490527],[-71.55081671051079,44.85416679569073],[-71.54883454680112,44.85473378891457],[-71.54799515575618,44.85511617727657],[-71.5476706219619,44.855900421564954],[-71.54764410322575,44.85619689311627],[-71.54775497658281,44.85669302722656],[-71.54774932618804,44.85703583516458],[-71.54760735702324,44.85732081520637],[-71.54738980395072,44.85751661662378],[-71.54727143807219,44.85799652677768],[-71.54735243646988,44.858163863304945],[-71.5474622449618,44.85820293358805],[-71.54896571683592,44.858278276608],[-71.54916060551675,44.858337043186026],[-71.54931516550381,44.858447576230326],[-71.55010853171464,44.8594202063627],[-71.55013853276024,44.85962697802791],[-71.55032005880992,44.859990962888425],[-71.55050118911223,44.86017109558889],[-71.55059608057677,44.86050997269314],[-71.5505887228751,44.86075756109976],[-71.55054391696684,44.861035704241395],[-71.5503667466461,44.86122230635969],[-71.55015967207838,44.86160393564073],[-71.55016622063783,44.8618135717625],[-71.54996671047522,44.8621428011211],[-71.54783941708983,44.86446559656751],[-71.54749675991059,44.86473414538146],[-71.54642792184693,44.86600621128566],[-71.54593335100145,44.86635447638423],[-71.54514302068765,44.8665669009953],[-71.54465576164078,44.86663310944369],[-71.54422223893981,44.86677823107079],[-71.54388454587864,44.86695160172897],[-71.54333454197243,44.867413675892095],[-71.54158280155782,44.86805608439131],[-71.54141291818149,44.86820466930782],[-71.5407423346235,44.86846567421969],[-71.54036336553983,44.86870779794308],[-71.53911722362805,44.86894730819968],[-71.53741308495322,44.86874011003438],[-71.53663241860073,44.86897631586071],[-71.53592179044082,44.86906444666904],[-71.53550401538494,44.86918114442419],[-71.53436872207433,44.86979768814011],[-71.53344159699172,44.87017085675329],[-71.53313048957126,44.87035557818727],[-71.5325504186057,44.87100371343885],[-71.53227774798515,44.87149192923701],[-71.53167723182833,44.87215824160643],[-71.53104457259296,44.87274814959838],[-71.53077755792802,44.87289823406037],[-71.53022001471037,44.87300067682612],[-71.52983939562745,44.87313314731247],[-71.52941963152131,44.873403324264444],[-71.52917920061192,44.873763213927916],[-71.5290019367131,44.87415216831048],[-71.52902056193854,44.87483569679994],[-71.52937454510638,44.875686306736284],[-71.52936758073558,44.876100554043155],[-71.52906916949311,44.877521813161025],[-71.5289003546083,44.877798981652454],[-71.52745998313807,44.87881763124042],[-71.52624654787851,44.878895389209546],[-71.52581503511612,44.87886075196403],[-71.52481373048037,44.87890062020853],[-71.52444481520556,44.87895453531431],[-71.52405642819731,44.879090954198226],[-71.52320822621627,44.879521049859086],[-71.52260426493771,44.88001423297794],[-71.5222278115792,44.880487228447734],[-71.52171898357663,44.88205667680094],[-71.52123789210455,44.882973944373596],[-71.52088761857823,44.88329714822968],[-71.52071151452219,44.88360519779818],[-71.52039991758927,44.88383442409717],[-71.51969104612348,44.884552118296014],[-71.51894038221292,44.88493504998136],[-71.5187520598819,44.88514931371798],[-71.51787308058648,44.885023243001406],[-71.51701011164445,44.88465604485734],[-71.51674863602882,44.88462418674919],[-71.51649245921149,44.88463043960533],[-71.51620000979167,44.88473761707447],[-71.51576946538795,44.88478502131174],[-71.5147941877781,44.884717399116006],[-71.51368255369695,44.88443684770245],[-71.51304852664833,44.88399978702582],[-71.5127323966211,44.88387799901849],[-71.51215000992056,44.88386342468509],[-71.51184791043104,44.88395718837984],[-71.51183040953744,44.88414403162784],[-71.51189897852623,44.88424226220961],[-71.5122767516679,44.884541681680126],[-71.51279577020611,44.88465739608784],[-71.51377804589157,44.88468558915426],[-71.51464284557322,44.88484072614217],[-71.5159666387731,44.88541816710445],[-71.51609789738693,44.88563373915242],[-71.51593445540838,44.88634800896099],[-71.51560020485047,44.887094369051056],[-71.51383317861222,44.88819299693684],[-71.51217895552762,44.889538239901995],[-71.51144875050369,44.88993191937067],[-71.51112557557882,44.89022671213127],[-71.51098756566121,44.89054875889901],[-71.51101300158203,44.890782763905115],[-71.5111800486328,44.89095572790378],[-71.51206510350615,44.89141107921148],[-71.51344503248954,44.89188959842358],[-71.51432338840355,44.89302095412651],[-71.5142474000774,44.893156090270544],[-71.51439978054647,44.893254953557346],[-71.51447662052644,44.893462769353455],[-71.51440794920258,44.894347928667095],[-71.51423824068286,44.89467024097985],[-71.5134880228431,44.895054220747284],[-71.51276687994637,44.895188460935564],[-71.51130671138637,44.89580565387462],[-71.50980716053208,44.896259069168956],[-71.50849567409949,44.89647958978376],[-71.50823742050775,44.89683198922719],[-71.5080628356399,44.89742088355715],[-71.50819364890403,44.89810404003442],[-71.50812969141187,44.89863540468803],[-71.50794396437749,44.89875266463954],[-71.50784787803728,44.89892136819776],[-71.50787123685467,44.8991533802853],[-71.50776672140655,44.89949541563743],[-71.50762335370833,44.89969673285075],[-71.50512419194392,44.90106782156277],[-71.50481395950621,44.901179403115485],[-71.50459078075866,44.901154780065426],[-71.5036498339294,44.90147395227437],[-71.5016109696044,44.90371808339313],[-71.50104251973052,44.90462738778936],[-71.50085134599284,44.904830437820465],[-71.50040989751916,44.904979014062654],[-71.49990674383214,44.90501267535326],[-71.49928755136848,44.904976293272476],[-71.49879733664282,44.904848172974596],[-71.497915714142,44.90448804809518],[-71.49734183599841,44.90416166201422],[-71.4967232344464,44.90370619914997],[-71.49653990104754,44.90365455589671],[-71.49609636061896,44.90373398726377],[-71.49570721378952,44.903954363770794],[-71.49500066612138,44.90470296843117],[-71.49491288062234,44.904944803280245],[-71.4949321069882,44.905178490271155],[-71.49529230085615,44.90619897420615],[-71.4963213045012,44.90717170429761],[-71.49661503476904,44.90780761944169],[-71.49668050362044,44.90809147742855],[-71.49647587572876,44.908942775223764]]]]}},{"type":"Feature","properties":{"OBJECT_ID":312,"County":"Essex","RPC":"NVDA","Municipal_Name":"Lemington","GEO_ID":"5000939700","District_Name":"Resource","Abbreviated_District_Name":"Res","District_Type":"Nonresidential","Bylaw_Date":null,"Elderly_Housing_District":"No","District_Mapped":"Yes","Overlay_District":"No","Base_Density":null,"FIPS6":null,"GIS_ID":null,"Last_Update":null,"Shape_Length":59125.47300296524,"Shape_Area":81780982.27043267,"F1F_Allowance":"Prohibited","F1F_Front_Setback":null,"F1F_Side_Setback":null,"F1F_Rear_Setback":null,"F1F_Frontage":null,"F1F_Max_Height":null,"F1F_Max_Stories":null,"F1F_Min_Lot_Size":null,"F1F_Max_Lot_Building_Coverage":null,"F1F_Max_Lot_Impervious_Coverage":null,"F1F_Min_Parking_Spaces":null,"F1F_Elderly_Housing_Only":null,"F1F_Affordable_Housing_Only":null,"F2F_Allowance":"Prohibited","F2F_Front_Setback":null,"F2F_Side_Setback":null,"F2F_Rear_Setback":null,"F2F_Frontage":null,"F2F_Max_Density":null,"F2F_Max_Height":null,"F2F_Max_Stories":null,"F2F_Min_Lot_Size":null,"F2F_Max_Lot_Building_Coverage":null,"F2F_Max_Lot_Impervious_Coverage":null,"F2F_Min_Parking_Spaces_per_1BR":null,"F2F_Min_Parking_Spaces_per_mult_BR":null,"F2F_Elderly_Housing_Only":null,"F2F_Affordable_Housing_Only":null,"F3F_Allowance":"Prohibited","F3F_Front_Setback":null,"F3F_Side_Setback":null,"F3F_Rear_Setback":null,"F3F_Frontage":null,"F3F_Max_Density":null,"F3F_Max_Height":null,"F3F_Max_Stories":null,"F3F_Min_Lot_Size":null,"F3F_Max_Lot_Building_Coverage":null,"F3F_Max_Lot_Impervious_Coverage":null,"F3F_Min_Parking_Spaces_per_1BR":null,"F3F_Min_Parking_Spaces_per_mult_BR":null,"F3F_Affordable_Housing_Only":null,"F3F_Proximity_to_Public_Transit_Required":null,"F3F_Connection_to_Sewage/Water_Required":null,"F4F_Allowance":"Prohibited","F4F_Front_Setback":null,"F4F_Side_Setback":null,"F4F_Rear_Setback":null,"F4F_Frontage":null,"F1F_Max_Density":null,"F4F_Max_Density":null,"F4F_Max_Height":null,"F4F_Max_Stories":null,"F4F_Min_Lot_Size":null,"F4F_Max_Lot_Building_Coverage":null,"F4F_Max_Lot_Impervious_Coverage":null,"F4F_Min_Parking_Spaces_per_1BR":null,"F4F_Min_Parking_Spaces_per_mult_BR":null,"F3F_Elderly_Housing_Only":null,"F4F_Elderly_Housing_Only":null,"F4F_Affordable_Housing_Only":null,"F4F_Proximity_to_Public_Transit_Required":null,"F4F_Connection_to_Sewage/Water_Required":null,"ADU_Allowance":"Prohibited","ADU_Elderly_Housing_Only":null,"ADU_Max_Size_as_Percent_of_Primary_Strcture":null,"ADU_Max_Size_in_sq_ft":null,"ADU_Min_Lot_Size":null,"ADU_Max_Bedrooms":null,"ADU_Min_Parking_Spaces":null,"ADU_Owner_Occupancy_Required":null,"ADU_Renter_Occupancy_Prohibited":null,"ADU_Employee_or_Family_Occupancy_Required":null,"ADU_Restricted_to_Primary_Structure":null,"Affordable_Housing_Allowance":"Prohibited","Affordable_Housing_District":"No","Affordable_Housing_Elderly_Only":null,"Affordable_Housing_Min_Lot_Size":null,"Affordable_Housing_Max_Density":null,"Affordable_Housing_Min_Parking_Spaces_per_mult_BR":null,"Affordable_Housing_Max_Units_per_Building":null,"Affordable_Housing_Min_Parking_Spaces_per_1BR":null,"PRD_Allowance":"Prohibited","PRD_Max_Density":null,"PRD_Max_Units":null,"PRD_Min_Lot_Size":null,"PRD_Mobile_or_Manufactured_Home_Park":null,"PUD_Allowance":"No","PUD_Required_with_Subdivision":null,"PUD_Requires_Land_Conservation":null,"PUD_Threshold_Number":null,"Notes":"None"},"geometry":{"type":"MultiPolygon","coordinates":[[[[-71.54999811009557,44.92735648672733],[-71.5666388039356,44.936365785631104],[-71.57541053657944,44.94101625686423],[-71.58684077768442,44.947148220759814],[-71.59827346085477,44.95327905334789],[-71.61139558534609,44.93832407444902],[-71.62451086113572,44.92336749617975],[-71.63431258541814,44.91227881217992],[-71.6441105206762,44.90118923695819],[-71.65390466974858,44.890098771481796],[-71.66369503547224,44.879007416717315],[-71.65593256151416,44.875096014752565],[-71.64021273687278,44.86626488878701],[-71.62449773189381,44.857431622580776],[-71.62147045252482,44.85591170694815],[-71.61834560696279,44.85416173367427],[-71.60288853980181,44.846136559667265],[-71.59273537537292,44.840753116270065],[-71.5717215056982,44.829782886897895],[-71.56811618652547,44.82784971894989],[-71.56717034279399,44.8285551712092],[-71.5665056056103,44.82885384759579],[-71.56522116358722,44.82925039210055],[-71.56478216479915,44.82951039292491],[-71.56445597257336,44.829816011145205],[-71.56129691399781,44.83549557660375],[-71.56093162091912,44.836260201063546],[-71.560727605733,44.8368648663292],[-71.56055046047196,44.8378138061632],[-71.56028581643118,44.84289033860232],[-71.56041690515282,44.843819660704916],[-71.56140998223552,44.846490192577306],[-71.56168417050819,44.84756679906482],[-71.56172795331285,44.848266891141535],[-71.56167491510267,44.84886559722194],[-71.56129284245303,44.850113131307104],[-71.56056871490581,44.851273904440376],[-71.55958001581456,44.85225647628649],[-71.55868244609657,44.852895029369435],[-71.55519636011637,44.85503348200644],[-71.55459757934109,44.85556581385543],[-71.55527742846303,44.855633224575634],[-71.55591207315061,44.85576819630476],[-71.55697076076552,44.85617520137497],[-71.56061059536934,44.858265724727566],[-71.5614393874657,44.858853568269154],[-71.56185701717497,44.85923433401987],[-71.5622779011144,44.85979712065495],[-71.56290054513974,44.860965110688156],[-71.56340760209527,44.86243855942092],[-71.56362355760716,44.8627093161926],[-71.56408042657267,44.863144874395026],[-71.56624417396287,44.86453400235471],[-71.56857318775036,44.8635300404222],[-71.57046586884444,44.86303108558667],[-71.57164171429999,44.862440362870174],[-71.57450809462644,44.86135056364278],[-71.57514591592141,44.86115721612367],[-71.57609293691196,44.86104480470918],[-71.57700691117063,44.86109673721843],[-71.57804522886333,44.86135148381538],[-71.57898719110366,44.86180028901022],[-71.5795440792642,44.861199959290815],[-71.58049123423845,44.86033806473413],[-71.5806586944756,44.85950887459573],[-71.58079561686206,44.859145996142395],[-71.58107846416436,44.85870295738416],[-71.5814395066113,44.858337459300685],[-71.58194624218648,44.85798521958243],[-71.58252880387312,44.85773015995475],[-71.5833371390307,44.85752957393026],[-71.58405283526871,44.857485546577585],[-71.5856661890294,44.85762262929802],[-71.58731991271615,44.85768444028448],[-71.58800101910167,44.85779353971313],[-71.58895646104924,44.85806147177795],[-71.58942849862908,44.858268136774434],[-71.59034942032788,44.85880118364417],[-71.5920213123833,44.85951493281223],[-71.59293474378413,44.86013141761541],[-71.59484583019898,44.860998987820224],[-71.59577537591232,44.86157323603042],[-71.59698613430899,44.862150641035875],[-71.59755368620097,44.862484575808345],[-71.59796735234181,44.862109398810595],[-71.5986873993787,44.86166791364237],[-71.60247615440228,44.86478099956607],[-71.60132485866923,44.86597025081773],[-71.60089191234452,44.86636433760735],[-71.6005193934939,44.86661587722963],[-71.59993641772363,44.866881953203745],[-71.59946407453747,44.86702550370156],[-71.59873609605624,44.8671510980404],[-71.59804013824218,44.86717281042637],[-71.59912575842743,44.86832063080875],[-71.5943778094848,44.87078704500401],[-71.59429155048551,44.87058064006496],[-71.59381838098285,44.870066788450984],[-71.59329525571846,44.869526744802],[-71.59284913587508,44.86919431817755],[-71.5925543547536,44.86889511578481],[-71.5917652932675,44.867882202704365],[-71.59154774965562,44.86746421244213],[-71.59140921201684,44.8669068354132],[-71.59145384763877,44.86629141790787],[-71.59162397542119,44.86585236469103],[-71.59226155487102,44.86484637083693],[-71.59136562817613,44.86429056473045],[-71.58938372311317,44.86338404232941],[-71.58840588295415,44.86274080434833],[-71.58715359241057,44.86223739161037],[-71.58633343256898,44.86177760141978],[-71.58593335217883,44.86176402136833],[-71.58570112149889,44.862170571963816],[-71.58539008740054,44.86253217696027],[-71.58435077020519,44.86350276841792],[-71.58399859954737,44.86396554140355],[-71.58343856889579,44.86443052994396],[-71.58426220237655,44.86476048088996],[-71.58503663092415,44.86522482280516],[-71.5857926983687,44.865895986995035],[-71.58640804413037,44.866660159197814],[-71.58674449174104,44.86722899155345],[-71.58694557672426,44.8678270145945],[-71.58711267805938,44.86942396092958],[-71.587783316678,44.87046614481017],[-71.58813149031903,44.87164167678381],[-71.58221339507912,44.871667340393856],[-71.58167210728928,44.87097663606703],[-71.58142711393445,44.870400890184875],[-71.58123606387562,44.86851724944928],[-71.58103668953069,44.868240188608674],[-71.58092460942609,44.868140623224235],[-71.5790249716739,44.86730880081997],[-71.5783288264135,44.86687489213687],[-71.57768210396785,44.86627188135162],[-71.57703426398042,44.86601004396916],[-71.57604093782916,44.86542915866376],[-71.57458922492053,44.86598201432129],[-71.5731473058633,44.86668304037747],[-71.57233050454465,44.86693395611957],[-71.57115332515143,44.86721546057078],[-71.57043811798285,44.8675210750707],[-71.5725285910216,44.87020223671733],[-71.57316780630232,44.87088960743963],[-71.57394226112986,44.87158918036106],[-71.57500912990481,44.873184520261994],[-71.56992599391764,44.8751501265582],[-71.56900766819297,44.87376468704952],[-71.5684743721632,44.873297131673624],[-71.56757972415878,44.87233325867616],[-71.56681362049935,44.87141224215507],[-71.5656349193808,44.869825334741776],[-71.56525847407866,44.870627442970765],[-71.56450170526163,44.871458920695865],[-71.56434100858874,44.871724438809885],[-71.56386111078864,44.87303676670017],[-71.56362875920955,44.873917223412356],[-71.56301900219583,44.875027136952404],[-71.56320106933953,44.87587429028487],[-71.5631005609302,44.87689444956601],[-71.56298892100126,44.87725102587165],[-71.56249041641549,44.87794229066723],[-71.56195752570514,44.8783787783118],[-71.56156237240266,44.87938877342033],[-71.56127929157216,44.87983173692039],[-71.56085772081396,44.88021509002685],[-71.56031282753116,44.88053256955579],[-71.55878731460965,44.88111726506866],[-71.55829418858998,44.881219891557116],[-71.55768574599466,44.88127556239262],[-71.55653985017585,44.881258505121224],[-71.5558190815408,44.88142687336859],[-71.55425853322123,44.877445426960506],[-71.55547737311099,44.87716157207606],[-71.5564422194298,44.87713092259374],[-71.55678700930426,44.8765085794353],[-71.5573514171167,44.875876229173436],[-71.55718059291162,44.87522633022067],[-71.55718528664008,44.87469143473578],[-71.55726705552821,44.87433076405512],[-71.55766453526893,44.873445967037426],[-71.55808072930719,44.87273908871583],[-71.55817008125572,44.872222794413574],[-71.55887004243814,44.870375449115485],[-71.559367079369,44.86955982125959],[-71.56001340893145,44.86885326141023],[-71.56005667595151,44.868731027121264],[-71.55980634915618,44.868215232877255],[-71.55973637910739,44.86785332773488],[-71.55975504548957,44.867371199694425],[-71.55997609262869,44.86659795915037],[-71.55954091588896,44.865699060366225],[-71.5587658391492,44.86494691342902],[-71.5580568716104,44.86401706340142],[-71.55764343662662,44.86311821124303],[-71.55737350247381,44.86218053403115],[-71.55701545998393,44.86151826664592],[-71.55555458863654,44.860632316420244],[-71.55531195728213,44.861153896568126],[-71.55484511362774,44.86181361592807],[-71.55261581953118,44.86456101418931],[-71.54975608810504,44.86757081760704],[-71.54918197241848,44.868064995429975],[-71.54872786759742,44.86837254677993],[-71.5479364459019,44.86877952318666],[-71.54641954853459,44.869298596859345],[-71.54470165259943,44.87033992514458],[-71.54386417397943,44.87073442763177],[-71.54289625748075,44.87110745560429],[-71.54203640063935,44.871372104410746],[-71.54087138142123,44.871636206123156],[-71.53675309633172,44.87224890669516],[-71.53635342549661,44.87240482868044],[-71.53601571444668,44.87265106906976],[-71.53462601858436,44.87426650815834],[-71.53443325013725,44.874687380241696],[-71.53390075155274,44.87649996339938],[-71.53347629692898,44.87764272356145],[-71.53295366158441,44.87854084963085],[-71.53220690229986,44.87945411865497],[-71.5297778361997,44.88196966341812],[-71.52866463638264,44.88295604996937],[-71.52748081628553,44.883772953933345],[-71.52311697714127,44.886363069207746],[-71.52249151685282,44.886891977927085],[-71.52188931220874,44.88758014370741],[-71.5215696901962,44.888145288722306],[-71.52104080736359,44.88973145273897],[-71.52146898806434,44.89136923277066],[-71.52152182748152,44.89201503545379],[-71.52144499132034,44.89270003168671],[-71.521261876368,44.89330153126043],[-71.52099596123638,44.89382038378945],[-71.52028489846481,44.894741847785056],[-71.5198374770449,44.89514758192094],[-71.51917990005083,44.8956059630316],[-71.51619544014915,44.89747181441791],[-71.51526318358174,44.897883072102],[-71.51347468624144,44.89840255305972],[-71.51218446233644,44.89965730159695],[-71.51145494188596,44.900763886576414],[-71.51069242629424,44.90152037596129],[-71.51007336044714,44.90195957783901],[-71.50767575391292,44.90326987584283],[-71.50638717995274,44.903807837077395],[-71.50605843549398,44.90417079698504],[-71.50682538901151,44.90507646107224],[-71.50918270454478,44.908571918766356],[-71.50994785369184,44.90785192810812],[-71.5147569984146,44.910523021666116],[-71.52800937204866,44.91681506564624],[-71.54126465301444,44.923105589253936],[-71.54491937312814,44.92483770856262],[-71.54505144177065,44.92377250993347],[-71.54528157478711,44.92321377780435],[-71.54560332645868,44.92280401608103],[-71.54602042931549,44.92244141166097],[-71.54687179286474,44.92201027713197],[-71.54765190715769,44.921772199137344],[-71.55080936288608,44.92120122205584],[-71.55457722499845,44.920679933932746],[-71.55686912147434,44.919854510117894],[-71.56301562390244,44.91747855641475],[-71.56422682485812,44.91712098517761],[-71.56644714540029,44.91669045731091],[-71.56837068490563,44.920436100665974],[-71.56544052252123,44.92121528597368],[-71.558342999467,44.92395790616835],[-71.55672503981624,44.924501626057534],[-71.55548768948752,44.924772887192894],[-71.552118244714,44.92520956512491],[-71.55067918516183,44.92546879696913],[-71.55052752425443,44.92659948126672],[-71.55028153087163,44.92705358465253],[-71.54999811009557,44.92735648672733]]]]}},{"type":"Feature","properties":{"OBJECT_ID":313,"County":"Essex","RPC":"NVDA","Municipal_Name":"Lemington","GEO_ID":"5000939700","District_Name":"Rural Lands","Abbreviated_District_Name":"Rl","District_Type":"Primarily Residential","Bylaw_Date":null,"Elderly_Housing_District":"No","District_Mapped":"Yes","Overlay_District":"No","Base_Density":null,"FIPS6":null,"GIS_ID":null,"Last_Update":null,"Shape_Length":22132.698670656202,"Shape_Area":4691777.220856747,"F1F_Allowance":"Permitted","F1F_Front_Setback":50.0,"F1F_Side_Setback":50.0,"F1F_Rear_Setback":50.0,"F1F_Frontage":200.0,"F1F_Max_Height":null,"F1F_Max_Stories":null,"F1F_Min_Lot_Size":5.0,"F1F_Max_Lot_Building_Coverage":null,"F1F_Max_Lot_Impervious_Coverage":null,"F1F_Min_Parking_Spaces":null,"F1F_Elderly_Housing_Only":null,"F1F_Affordable_Housing_Only":null,"F2F_Allowance":"Prohibited","F2F_Front_Setback":null,"F2F_Side_Setback":null,"F2F_Rear_Setback":null,"F2F_Frontage":null,"F2F_Max_Density":null,"F2F_Max_Height":null,"F2F_Max_Stories":null,"F2F_Min_Lot_Size":null,"F2F_Max_Lot_Building_Coverage":null,"F2F_Max_Lot_Impervious_Coverage":null,"F2F_Min_Parking_Spaces_per_1BR":null,"F2F_Min_Parking_Spaces_per_mult_BR":null,"F2F_Elderly_Housing_Only":null,"F2F_Affordable_Housing_Only":null,"F3F_Allowance":"Prohibited","F3F_Front_Setback":null,"F3F_Side_Setback":null,"F3F_Rear_Setback":null,"F3F_Frontage":null,"F3F_Max_Density":null,"F3F_Max_Height":null,"F3F_Max_Stories":null,"F3F_Min_Lot_Size":null,"F3F_Max_Lot_Building_Coverage":null,"F3F_Max_Lot_Impervious_Coverage":null,"F3F_Min_Parking_Spaces_per_1BR":null,"F3F_Min_Parking_Spaces_per_mult_BR":null,"F3F_Affordable_Housing_Only":null,"F3F_Proximity_to_Public_Transit_Required":null,"F3F_Connection_to_Sewage/Water_Required":null,"F4F_Allowance":"Prohibited","F4F_Front_Setback":null,"F4F_Side_Setback":null,"F4F_Rear_Setback":null,"F4F_Frontage":null,"F1F_Max_Density":null,"F4F_Max_Density":null,"F4F_Max_Height":null,"F4F_Max_Stories":null,"F4F_Min_Lot_Size":null,"F4F_Max_Lot_Building_Coverage":null,"F4F_Max_Lot_Impervious_Coverage":null,"F4F_Min_Parking_Spaces_per_1BR":null,"F4F_Min_Parking_Spaces_per_mult_BR":null,"F3F_Elderly_Housing_Only":null,"F4F_Elderly_Housing_Only":null,"F4F_Affordable_Housing_Only":null,"F4F_Proximity_to_Public_Transit_Required":null,"F4F_Connection_to_Sewage/Water_Required":null,"ADU_Allowance":"Allowed/Conditional","ADU_Elderly_Housing_Only":"No","ADU_Max_Size_as_Percent_of_Primary_Strcture":50.0,"ADU_Max_Size_in_sq_ft":null,"ADU_Min_Lot_Size":null,"ADU_Max_Bedrooms":null,"ADU_Min_Parking_Spaces":null,"ADU_Owner_Occupancy_Required":"No","ADU_Renter_Occupancy_Prohibited":"No","ADU_Employee_or_Family_Occupancy_Required":"No","ADU_Restricted_to_Primary_Structure":"No","Affordable_Housing_Allowance":"Not Mentioned","Affordable_Housing_District":"No","Affordable_Housing_Elderly_Only":null,"Affordable_Housing_Min_Lot_Size":null,"Affordable_Housing_Max_Density":null,"Affordable_Housing_Min_Parking_Spaces_per_mult_BR":null,"Affordable_Housing_Max_Units_per_Building":null,"Affordable_Housing_Min_Parking_Spaces_per_1BR":null,"PRD_Allowance":"Not Mentioned","PRD_Max_Density":null,"PRD_Max_Units":null,"PRD_Min_Lot_Size":null,"PRD_Mobile_or_Manufactured_Home_Park":null,"PUD_Allowance":"No","PUD_Required_with_Subdivision":null,"PUD_Requires_Land_Conservation":null,"PUD_Threshold_Number":null,"Notes":"None"},"geometry":{"type":"MultiPolygon","coordinates":[[[[-71.56644714540029,44.91669045731091],[-71.56422682485812,44.91712098517761],[-71.56301562390244,44.91747855641475],[-71.55686912147434,44.919854510117894],[-71.55457722499845,44.920679933932746],[-71.55080936288608,44.92120122205584],[-71.54765190715769,44.921772199137344],[-71.54687179286474,44.92201027713197],[-71.54602042931549,44.92244141166097],[-71.54560332645868,44.92280401608103],[-71.54528157478711,44.92321377780435],[-71.54505144177065,44.92377250993347],[-71.54491937312814,44.92483770856262],[-71.54762184358603,44.92611851897233],[-71.54822862642857,44.92643463980833],[-71.54840630785537,44.926527206917555],[-71.54911795221531,44.92689795625897],[-71.54999811009557,44.92735648672733],[-71.55028153087163,44.92705358465253],[-71.55052752425443,44.92659948126672],[-71.55067918516183,44.92546879696913],[-71.552118244714,44.92520956512491],[-71.55548768948752,44.924772887192894],[-71.55672503981624,44.924501626057534],[-71.558342999467,44.92395790616835],[-71.56544052252123,44.92121528597368],[-71.56837068490563,44.920436100665974],[-71.56644714540029,44.91669045731091]]],[[[-71.55459757934109,44.85556581385543],[-71.55423566298444,44.85608614900794],[-71.55437544652247,44.85663784657341],[-71.55529993858471,44.8578719421726],[-71.55557108197017,44.85843703066825],[-71.55572888422859,44.85905086675142],[-71.55574892039131,44.85985092162548],[-71.55555458863654,44.860632316420244],[-71.55701545998393,44.86151826664592],[-71.55737350247381,44.86218053403115],[-71.55764343662662,44.86311821124303],[-71.5580568716104,44.86401706340142],[-71.5587658391492,44.86494691342902],[-71.55954091588896,44.865699060366225],[-71.55997609262869,44.86659795915037],[-71.55975504548957,44.867371199694425],[-71.55973637910739,44.86785332773488],[-71.55980634915618,44.868215232877255],[-71.56005667595151,44.868731027121264],[-71.56001340893145,44.86885326141023],[-71.559367079369,44.86955982125959],[-71.55887004243814,44.870375449115485],[-71.55817008125572,44.872222794413574],[-71.55808072930719,44.87273908871583],[-71.55766453526893,44.873445967037426],[-71.55726705552821,44.87433076405512],[-71.55718528664008,44.87469143473578],[-71.55718059291162,44.87522633022067],[-71.5573514171167,44.875876229173436],[-71.55678700930426,44.8765085794353],[-71.5564422194298,44.87713092259374],[-71.55547737311099,44.87716157207606],[-71.55425853322123,44.877445426960506],[-71.5558190815408,44.88142687336859],[-71.55653985017585,44.881258505121224],[-71.55768574599466,44.88127556239262],[-71.55829418858998,44.881219891557116],[-71.55878731460965,44.88111726506866],[-71.56031282753116,44.88053256955579],[-71.56085772081396,44.88021509002685],[-71.56127929157216,44.87983173692039],[-71.56156237240266,44.87938877342033],[-71.56195752570514,44.8783787783118],[-71.56249041641549,44.87794229066723],[-71.56298892100126,44.87725102587165],[-71.5631005609302,44.87689444956601],[-71.56320106933953,44.87587429028487],[-71.56301900219583,44.875027136952404],[-71.56362875920955,44.873917223412356],[-71.56386111078864,44.87303676670017],[-71.56434100858874,44.871724438809885],[-71.56450170526163,44.871458920695865],[-71.56525847407866,44.870627442970765],[-71.5656349193808,44.869825334741776],[-71.56681362049935,44.87141224215507],[-71.56757972415878,44.87233325867616],[-71.5684743721632,44.873297131673624],[-71.56900766819297,44.87376468704952],[-71.56992599391764,44.8751501265582],[-71.57500912990481,44.873184520261994],[-71.57394226112986,44.87158918036106],[-71.57316780630232,44.87088960743963],[-71.5725285910216,44.87020223671733],[-71.57043811798285,44.8675210750707],[-71.57115332515143,44.86721546057078],[-71.57233050454465,44.86693395611957],[-71.5731473058633,44.86668304037747],[-71.57458922492053,44.86598201432129],[-71.57604093782916,44.86542915866376],[-71.57703426398042,44.86601004396916],[-71.57768210396785,44.86627188135162],[-71.5783288264135,44.86687489213687],[-71.5790249716739,44.86730880081997],[-71.58092460942609,44.868140623224235],[-71.58103668953069,44.868240188608674],[-71.58123606387562,44.86851724944928],[-71.58142711393445,44.870400890184875],[-71.58167210728928,44.87097663606703],[-71.58221339507912,44.871667340393856],[-71.58813149031903,44.87164167678381],[-71.587783316678,44.87046614481017],[-71.58711267805938,44.86942396092958],[-71.58694557672426,44.8678270145945],[-71.58674449174104,44.86722899155345],[-71.58640804413037,44.866660159197814],[-71.5857926983687,44.865895986995035],[-71.58503663092415,44.86522482280516],[-71.58426220237655,44.86476048088996],[-71.58343856889579,44.86443052994396],[-71.58399859954737,44.86396554140355],[-71.58435077020519,44.86350276841792],[-71.58539008740054,44.86253217696027],[-71.58570112149889,44.862170571963816],[-71.58593335217883,44.86176402136833],[-71.58633343256898,44.86177760141978],[-71.58715359241057,44.86223739161037],[-71.58840588295415,44.86274080434833],[-71.58938372311317,44.86338404232941],[-71.59136562817613,44.86429056473045],[-71.59226155487102,44.86484637083693],[-71.59162397542119,44.86585236469103],[-71.59145384763877,44.86629141790787],[-71.59140921201684,44.8669068354132],[-71.59154774965562,44.86746421244213],[-71.5917652932675,44.867882202704365],[-71.5925543547536,44.86889511578481],[-71.59284913587508,44.86919431817755],[-71.59329525571846,44.869526744802],[-71.59381838098285,44.870066788450984],[-71.59429155048551,44.87058064006496],[-71.5943778094848,44.87078704500401],[-71.59912575842743,44.86832063080875],[-71.59804013824218,44.86717281042637],[-71.59873609605624,44.8671510980404],[-71.59946407453747,44.86702550370156],[-71.59993641772363,44.866881953203745],[-71.6005193934939,44.86661587722963],[-71.60089191234452,44.86636433760735],[-71.60132485866923,44.86597025081773],[-71.60247615440228,44.86478099956607],[-71.5986873993787,44.86166791364237],[-71.59796735234181,44.862109398810595],[-71.59755368620097,44.862484575808345],[-71.59698613430899,44.862150641035875],[-71.59577537591232,44.86157323603042],[-71.59484583019898,44.860998987820224],[-71.59293474378413,44.86013141761541],[-71.5920213123833,44.85951493281223],[-71.59034942032788,44.85880118364417],[-71.58942849862908,44.858268136774434],[-71.58895646104924,44.85806147177795],[-71.58800101910167,44.85779353971313],[-71.58731991271615,44.85768444028448],[-71.5856661890294,44.85762262929802],[-71.58405283526871,44.857485546577585],[-71.5833371390307,44.85752957393026],[-71.58252880387312,44.85773015995475],[-71.58194624218648,44.85798521958243],[-71.5814395066113,44.858337459300685],[-71.58107846416436,44.85870295738416],[-71.58079561686206,44.859145996142395],[-71.5806586944756,44.85950887459573],[-71.58049123423845,44.86033806473413],[-71.5795440792642,44.861199959290815],[-71.57898719110366,44.86180028901022],[-71.57804522886333,44.86135148381538],[-71.57700691117063,44.86109673721843],[-71.57609293691196,44.86104480470918],[-71.57514591592141,44.86115721612367],[-71.57450809462644,44.86135056364278],[-71.57164171429999,44.862440362870174],[-71.57046586884444,44.86303108558667],[-71.56857318775036,44.8635300404222],[-71.56624417396287,44.86453400235471],[-71.56408042657267,44.863144874395026],[-71.56362355760716,44.8627093161926],[-71.56340760209527,44.86243855942092],[-71.56290054513974,44.860965110688156],[-71.5622779011144,44.85979712065495],[-71.56185701717497,44.85923433401987],[-71.5614393874657,44.858853568269154],[-71.56061059536934,44.858265724727566],[-71.55697076076552,44.85617520137497],[-71.55591207315061,44.85576819630476],[-71.55527742846303,44.855633224575634],[-71.55459757934109,44.85556581385543]]]]}}]}