{"type":"FeatureCollection","name":"Essex_Averill","features":[{"type":"Feature","properties":{"OBJECT_ID":824,"County":"Essex","RPC":"NVDA","Municipal_Name":"Averill","GEO_ID":"5000902125","District_Name":"Commercial, Industrial, Residential District","Abbreviated_District_Name":"Cir","District_Type":"Mixed with Residential","Bylaw_Date":null,"Elderly_Housing_District":"No","District_Mapped":"Yes","Overlay_District":"No","Base_Density":null,"FIPS6":null,"GIS_ID":null,"Last_Update":null,"Shape_Length":23123.938259603452,"Shape_Area":2893380.0113964775,"F1F_Allowance":"Permitted","F1F_Front_Setback":null,"F1F_Side_Setback":null,"F1F_Rear_Setback":null,"F1F_Frontage":null,"F1F_Max_Height":null,"F1F_Max_Stories":null,"F1F_Min_Lot_Size":1.0,"F1F_Max_Lot_Building_Coverage":null,"F1F_Max_Lot_Impervious_Coverage":null,"F1F_Min_Parking_Spaces":null,"F1F_Elderly_Housing_Only":null,"F1F_Affordable_Housing_Only":null,"F2F_Allowance":"Permitted","F2F_Front_Setback":null,"F2F_Side_Setback":null,"F2F_Rear_Setback":null,"F2F_Frontage":null,"F2F_Max_Density":null,"F2F_Max_Height":null,"F2F_Max_Stories":null,"F2F_Min_Lot_Size":null,"F2F_Max_Lot_Building_Coverage":null,"F2F_Max_Lot_Impervious_Coverage":null,"F2F_Min_Parking_Spaces_per_1BR":null,"F2F_Min_Parking_Spaces_per_mult_BR":null,"F2F_Elderly_Housing_Only":"No","F2F_Affordable_Housing_Only":"No","F3F_Allowance":"Public Hearing","F3F_Front_Setback":null,"F3F_Side_Setback":null,"F3F_Rear_Setback":null,"F3F_Frontage":null,"F3F_Max_Density":null,"F3F_Max_Height":null,"F3F_Max_Stories":null,"F3F_Min_Lot_Size":null,"F3F_Max_Lot_Building_Coverage":null,"F3F_Max_Lot_Impervious_Coverage":null,"F3F_Min_Parking_Spaces_per_1BR":null,"F3F_Min_Parking_Spaces_per_mult_BR":null,"F3F_Affordable_Housing_Only":"No","F3F_Proximity_to_Public_Transit_Required":null,"F3F_Connection_to_Sewage/Water_Required":null,"F4F_Allowance":"Public Hearing","F4F_Front_Setback":null,"F4F_Side_Setback":null,"F4F_Rear_Setback":null,"F4F_Frontage":null,"F1F_Max_Density":null,"F4F_Max_Density":null,"F4F_Max_Height":null,"F4F_Max_Stories":null,"F4F_Min_Lot_Size":null,"F4F_Max_Lot_Building_Coverage":null,"F4F_Max_Lot_Impervious_Coverage":null,"F4F_Min_Parking_Spaces_per_1BR":null,"F4F_Min_Parking_Spaces_per_mult_BR":null,"F3F_Elderly_Housing_Only":"No","F4F_Elderly_Housing_Only":"No","F4F_Affordable_Housing_Only":"No","F4F_Proximity_to_Public_Transit_Required":null,"F4F_Connection_to_Sewage/Water_Required":null,"ADU_Allowance":"Allowed/Conditional","ADU_Elderly_Housing_Only":"No","ADU_Max_Size_as_Percent_of_Primary_Strcture":30.0,"ADU_Max_Size_in_sq_ft":600.0,"ADU_Min_Lot_Size":1.0,"ADU_Max_Bedrooms":1.0,"ADU_Min_Parking_Spaces":null,"ADU_Owner_Occupancy_Required":"Yes","ADU_Renter_Occupancy_Prohibited":"No","ADU_Employee_or_Family_Occupancy_Required":"No","ADU_Restricted_to_Primary_Structure":"No","Affordable_Housing_Allowance":"Not Mentioned","Affordable_Housing_District":"No","Affordable_Housing_Elderly_Only":null,"Affordable_Housing_Min_Lot_Size":null,"Affordable_Housing_Max_Density":null,"Affordable_Housing_Min_Parking_Spaces_per_mult_BR":null,"Affordable_Housing_Max_Units_per_Building":null,"Affordable_Housing_Min_Parking_Spaces_per_1BR":null,"PRD_Allowance":"Not Mentioned","PRD_Max_Density":null,"PRD_Max_Units":null,"PRD_Min_Lot_Size":null,"PRD_Mobile_or_Manufactured_Home_Park":null,"PUD_Allowance":"Yes","PUD_Required_with_Subdivision":"No","PUD_Requires_Land_Conservation":"Yes","PUD_Threshold_Number":null,"Notes":"  Minimum Lot Width Of 200'"},"geometry":{"type":"MultiPolygon","coordinates":[[[[-71.69483629551152,45.00441871068057],[-71.69533741289375,45.00428790739079],[-71.697539616319,45.00405259027368],[-71.69790399860881,45.00406664410466],[-71.69892392234246,45.0042614067879],[-71.70028081458896,45.004435523651104],[-71.70226096824375,45.004492347929784],[-71.70360414439124,45.004401146732825],[-71.70994203873494,44.99701127034977],[-71.70853066646033,44.99733117029069],[-71.70804383854885,44.99735082731021],[-71.70761258961036,44.99724046664099],[-71.70725791943339,44.996967538077584],[-71.70670808276572,44.9968477003167],[-71.70602812073572,44.996494206921284],[-71.7057666474783,44.99623463580084],[-71.70562179025605,44.99598099824938],[-71.70555678407129,44.995306312845926],[-71.70544826959922,44.99516463356024],[-71.70476800013246,44.994849844437425],[-71.70437495233695,44.99454863933854],[-71.70400217158145,44.99434456166126],[-71.7034002292365,44.9937618614302],[-71.7020908319051,44.99284017438417],[-71.70160351665722,44.99262689276096],[-71.70089773816306,44.992009706400204],[-71.69967313875141,44.99117315141052],[-71.69793926170843,44.989799936565106],[-71.69531799022357,44.98742840028077],[-71.69425934493809,44.98663282801402],[-71.6938897420666,44.98616406701228],[-71.69308197438045,44.98536446543092],[-71.69218159073668,44.984082164749246],[-71.69192109769077,44.98381746065817],[-71.69179620434586,44.98350385044952],[-71.6917404318752,44.983075233138386],[-71.6914584848529,44.982724600735],[-71.69074100526579,44.98225332520407],[-71.69010204557331,44.981741109119035],[-71.68991752018056,44.98156207466457],[-71.68978894569514,44.98132647885132],[-71.6892328713401,44.9807991296484],[-71.68887747331509,44.9809935932664],[-71.68863422972022,44.98119966187521],[-71.6883387650119,44.981691940562285],[-71.68833119884411,44.982226975946176],[-71.68861274498502,44.982723335092],[-71.6895298620309,44.98343781012164],[-71.69037983690163,44.98384772936239],[-71.69063451674161,44.98438502314303],[-71.6912078277427,44.98520213379501],[-71.69275390241845,44.98682004827613],[-71.6936439487067,44.987900242689186],[-71.69439213128875,44.98840677042145],[-71.69500292300806,44.988980217943535],[-71.69603494134505,44.9896518261231],[-71.69629179460927,44.98997031055532],[-71.69756719734814,44.99117249575327],[-71.69792641674368,44.99145710841004],[-71.69836285173935,44.99169980089236],[-71.69874939659022,44.99212076057308],[-71.69973546602846,44.99301014813865],[-71.70058476727745,44.99354980876296],[-71.7011260728141,44.99378695169467],[-71.7016357954076,44.994300777931784],[-71.70250028174516,44.9947548910376],[-71.70306529752568,44.995564742338985],[-71.70352007797389,44.996085660765225],[-71.70405584387929,44.99656347674629],[-71.70439432824296,44.997014411044795],[-71.7031761436092,44.99697484356256],[-71.70011538255694,44.99702570808481],[-71.69984224589825,44.99699391101162],[-71.69857105032158,44.99663454637026],[-71.69773127701734,44.99649747116285],[-71.69535040990684,44.99629002004175],[-71.69459561473997,44.99613822007791],[-71.69359721996594,44.99574429798934],[-71.69224826805454,44.99530672558655],[-71.69113883860608,44.994859251805295],[-71.69007217296203,44.99417595475595],[-71.6887252356513,44.993070965828565],[-71.68728437838612,44.99151441095634],[-71.68488726884922,44.98948633411314],[-71.68451489008172,44.989107721301096],[-71.6836136995525,44.98841075276046],[-71.68292462246107,44.98877004110146],[-71.6822357438045,44.988882377222446],[-71.68102263311863,44.98883012672739],[-71.68018362497911,44.98864228418235],[-71.67990035765878,44.98847284092902],[-71.67943426833143,44.98802494974517],[-71.67863332809343,44.986974700367995],[-71.67819519497542,44.98623487589229],[-71.67703548991328,44.98600988241653],[-71.67504292509733,44.985485171440196],[-71.67327737560568,44.9848337653537],[-71.67110338528036,44.98426156638832],[-71.66893999269705,44.98353166895706],[-71.66798280354716,44.98296607682182],[-71.66753959583095,44.98276959585878],[-71.66691429587173,44.98257729483142],[-71.66607655131448,44.98243750955795],[-71.6649315469385,44.98241159424121],[-71.66410109919009,44.982502047432696],[-71.66341809576548,44.98267468435963],[-71.66303649972608,44.98267218613348],[-71.6616651338215,44.98249200900229],[-71.6607618228554,44.982442264256],[-71.65984003765095,44.98194385457416],[-71.65879387375756,44.98081151385125],[-71.65791885464067,44.98007942326667],[-71.65756711802409,44.97991937559872],[-71.65566549851759,44.9793424238067],[-71.65457502813541,44.979074949391425],[-71.65396690441845,44.97833437527913],[-71.65358923874385,44.97761439979749],[-71.65316334293888,44.977191595101914],[-71.65313073425685,44.97711711145323],[-71.65281305759775,44.97670701495003],[-71.65240636371365,44.97643772518911],[-71.65108442678947,44.975791885241854],[-71.64973135897871,44.97527393402765],[-71.6485123008871,44.97466578862332],[-71.64738235896309,44.974272700959126],[-71.64630933879629,44.973978331987865],[-71.64545164834294,44.973805456662106],[-71.64476191209414,44.97357726887524],[-71.6442518309693,44.973389256247344],[-71.64343479071161,44.97295780506521],[-71.64243969185914,44.972418009404414],[-71.64146805255417,44.971352629235795],[-71.64056599530224,44.970713636446945],[-71.63994503442215,44.970090901561875],[-71.63901627751285,44.969436662087986],[-71.63788446470726,44.968916704053626],[-71.63626617721835,44.968538984614206],[-71.63566610197958,44.96790938590771],[-71.63520848274784,44.967520652957354],[-71.63417226205634,44.96696031444987],[-71.63363038512423,44.96682946798136],[-71.6329028427246,44.9667410123124],[-71.63134815364329,44.96676507129913],[-71.62999521684739,44.96698077263194],[-71.62877535376639,44.96726115522033],[-71.62698041681269,44.96749490619732],[-71.62648631604326,44.967676062764745],[-71.6260909834447,44.967940378632825],[-71.62965044942004,44.969933268841295],[-71.63181017083083,44.969497966879864],[-71.63249751763436,44.969484901415136],[-71.63313265984303,44.97019131488966],[-71.63410015878067,44.97082242640974],[-71.6349907964363,44.97113251666804],[-71.63619352517965,44.97138654787089],[-71.63652983793423,44.97155580644368],[-71.63710939417244,44.971960100631236],[-71.63769792661327,44.97255733395574],[-71.63848004738925,44.97309356039429],[-71.63917452948041,44.97388891027038],[-71.63962383952195,44.974309080404225],[-71.64131257543161,44.975260363872636],[-71.64218052965742,44.975712599952004],[-71.64309209557163,44.976050796871746],[-71.64405642289182,44.97636761594881],[-71.64509261826348,44.97658313759662],[-71.64652238587279,44.97702126058984],[-71.647684254288,44.97760558740372],[-71.64902771999088,44.97811574235379],[-71.64969949471451,44.97845947190226],[-71.65020291349282,44.978959310120814],[-71.65031407661358,44.979251888881414],[-71.65115702015268,44.980354507185936],[-71.65127364571954,44.9805084406227],[-71.65190023520859,44.9810772399194],[-71.652417861119,44.981366845794646],[-71.65303805682656,44.98159644381119],[-71.6542639119487,44.98189974778506],[-71.65552429290598,44.9822861510013],[-71.65664979433791,44.983499356592006],[-71.65704752966306,44.98384642130397],[-71.65840486619578,44.98464111566682],[-71.65916612367522,44.984943267281736],[-71.6599294013012,44.98513387484575],[-71.66109581048157,44.98520857597851],[-71.66278436655841,44.985412841779805],[-71.663844515201,44.98541581544195],[-71.66446771430373,44.98533683400418],[-71.66504896858467,44.98516877061103],[-71.66567877114235,44.985177794646745],[-71.66699653307184,44.98592122628673],[-71.66949000484995,44.98675473504324],[-71.6717569982206,44.98735553940625],[-71.67368247399742,44.98805464912668],[-71.67581385223525,44.988613808371746],[-71.67877663030809,44.98919269188263],[-71.67982880720731,44.98961569203005],[-71.68148980785023,44.990820102967945],[-71.68190696830176,44.99123453256782],[-71.68318566533131,44.99226753886005],[-71.68420608543231,44.99317430556048],[-71.68562760824483,44.99471662676655],[-71.68722673866766,44.99603418387485],[-71.68886845286416,44.997089002756226],[-71.69044551872292,44.99773414031403],[-71.69186295594982,44.99819666782543],[-71.69305338332326,44.99866297304386],[-71.69453837530182,44.99897549168233],[-71.69702120581883,44.99919530018387],[-71.69746565811835,44.999266077166816],[-71.6987375957136,44.99963365062839],[-71.69973305522514,44.99975871642306],[-71.7035720057451,44.99972040084603],[-71.70459778009426,45.000235955589],[-71.70391323718786,45.00109858415985],[-71.70357173109677,45.00141102333812],[-71.70281574860522,45.0017044487586],[-71.70228433929927,45.00174850366879],[-71.70064495299947,45.00170442296256],[-71.69865247719954,45.00137483060893],[-71.698103605941,45.00132507932757],[-71.69742988616437,45.00131049844287],[-71.69644198857252,45.00136706028511],[-71.69456640122965,45.001599991890444],[-71.69355241898417,45.00180052104843],[-71.69254366027815,45.002200877734],[-71.69197736639266,45.00250591994511],[-71.69166672401286,45.00273810203861],[-71.69483629551152,45.00441871068057]]]]}},{"type":"Feature","properties":{"OBJECT_ID":826,"County":"Essex","RPC":"NVDA","Municipal_Name":"Averill","GEO_ID":"5000902125","District_Name":"Shore Land District","Abbreviated_District_Name":"Sl","District_Type":"Mixed with Residential","Bylaw_Date":null,"Elderly_Housing_District":"No","District_Mapped":"Yes","Overlay_District":"No","Base_Density":null,"FIPS6":null,"GIS_ID":null,"Last_Update":null,"Shape_Length":34078.17355409506,"Shape_Area":5566383.862022222,"F1F_Allowance":"Permitted","F1F_Front_Setback":100.0,"F1F_Side_Setback":null,"F1F_Rear_Setback":null,"F1F_Frontage":null,"F1F_Max_Height":30.0,"F1F_Max_Stories":null,"F1F_Min_Lot_Size":1.5,"F1F_Max_Lot_Building_Coverage":null,"F1F_Max_Lot_Impervious_Coverage":null,"F1F_Min_Parking_Spaces":null,"F1F_Elderly_Housing_Only":null,"F1F_Affordable_Housing_Only":null,"F2F_Allowance":"Public Hearing","F2F_Front_Setback":100.0,"F2F_Side_Setback":null,"F2F_Rear_Setback":null,"F2F_Frontage":null,"F2F_Max_Density":null,"F2F_Max_Height":null,"F2F_Max_Stories":null,"F2F_Min_Lot_Size":null,"F2F_Max_Lot_Building_Coverage":null,"F2F_Max_Lot_Impervious_Coverage":null,"F2F_Min_Parking_Spaces_per_1BR":null,"F2F_Min_Parking_Spaces_per_mult_BR":null,"F2F_Elderly_Housing_Only":"No","F2F_Affordable_Housing_Only":"No","F3F_Allowance":"Prohibited","F3F_Front_Setback":null,"F3F_Side_Setback":null,"F3F_Rear_Setback":null,"F3F_Frontage":null,"F3F_Max_Density":null,"F3F_Max_Height":null,"F3F_Max_Stories":null,"F3F_Min_Lot_Size":null,"F3F_Max_Lot_Building_Coverage":null,"F3F_Max_Lot_Impervious_Coverage":null,"F3F_Min_Parking_Spaces_per_1BR":null,"F3F_Min_Parking_Spaces_per_mult_BR":null,"F3F_Affordable_Housing_Only":null,"F3F_Proximity_to_Public_Transit_Required":null,"F3F_Connection_to_Sewage/Water_Required":null,"F4F_Allowance":"Prohibited","F4F_Front_Setback":null,"F4F_Side_Setback":null,"F4F_Rear_Setback":null,"F4F_Frontage":null,"F1F_Max_Density":null,"F4F_Max_Density":null,"F4F_Max_Height":null,"F4F_Max_Stories":null,"F4F_Min_Lot_Size":null,"F4F_Max_Lot_Building_Coverage":null,"F4F_Max_Lot_Impervious_Coverage":null,"F4F_Min_Parking_Spaces_per_1BR":null,"F4F_Min_Parking_Spaces_per_mult_BR":null,"F3F_Elderly_Housing_Only":null,"F4F_Elderly_Housing_Only":null,"F4F_Affordable_Housing_Only":null,"F4F_Proximity_to_Public_Transit_Required":null,"F4F_Connection_to_Sewage/Water_Required":null,"ADU_Allowance":"Allowed/Conditional","ADU_Elderly_Housing_Only":"No","ADU_Max_Size_as_Percent_of_Primary_Strcture":30.0,"ADU_Max_Size_in_sq_ft":600.0,"ADU_Min_Lot_Size":1.5,"ADU_Max_Bedrooms":1.0,"ADU_Min_Parking_Spaces":null,"ADU_Owner_Occupancy_Required":"Yes","ADU_Renter_Occupancy_Prohibited":"No","ADU_Employee_or_Family_Occupancy_Required":"No","ADU_Restricted_to_Primary_Structure":"No","Affordable_Housing_Allowance":"Not Mentioned","Affordable_Housing_District":"No","Affordable_Housing_Elderly_Only":null,"Affordable_Housing_Min_Lot_Size":null,"Affordable_Housing_Max_Density":null,"Affordable_Housing_Min_Parking_Spaces_per_mult_BR":null,"Affordable_Housing_Max_Units_per_Building":null,"Affordable_Housing_Min_Parking_Spaces_per_1BR":null,"PRD_Allowance":"Not Mentioned","PRD_Max_Density":null,"PRD_Max_Units":null,"PRD_Min_Lot_Size":null,"PRD_Mobile_or_Manufactured_Home_Park":null,"PUD_Allowance":"Yes","PUD_Required_with_Subdivision":"No","PUD_Requires_Land_Conservation":"Yes","PUD_Threshold_Number":null,"Notes":"  Minimum Lot Width Of 200'"},"geometry":{"type":"MultiPolygon","coordinates":[[[[-71.71572931079598,44.94608590326222],[-71.71652495205485,44.946220068055055],[-71.7171411705037,44.94649099300732],[-71.71807566786123,44.94714022685132],[-71.71860574472598,44.94806192972023],[-71.71927476944843,44.94855047776902],[-71.71952284803953,44.94881199195253],[-71.7199581115951,44.948983499420855],[-71.72019906113061,44.949144477337285],[-71.72069109942836,44.94926706834463],[-71.7215717286502,44.94969605328311],[-71.72248660717112,44.95048538726736],[-71.72284550562811,44.95093134855311],[-71.72321437443726,44.95116290271547],[-71.72358465747423,44.95164120578502],[-71.72365548270483,44.952000603145294],[-71.72398081930429,44.95238496040075],[-71.72419185314406,44.952803207826584],[-71.72426289411894,44.9531668194049],[-71.7245918746689,44.95364010244985],[-71.72474146187416,44.95401182839572],[-71.72506533336178,44.95416573508611],[-71.72540614896778,44.95442508578791],[-71.72625052871625,44.955438811219274],[-71.72644467670793,44.9557687029366],[-71.72691895847969,44.95589589171458],[-71.7272401515123,44.95616039887251],[-71.72732782470736,44.956362037812326],[-71.7273364660623,44.956608006879605],[-71.727255677805,44.95684584161138],[-71.72709513175423,44.9570377622836],[-71.72734049190404,44.957123287940405],[-71.72757459242,44.95728322466966],[-71.72837844167807,44.95740172056838],[-71.72904423815945,44.957717770733666],[-71.72934334925422,44.95806878042537],[-71.7293729730315,44.95830788896216],[-71.72930944233308,44.95851403828172],[-71.72909421347458,44.95874928411012],[-71.72876435583409,44.958903642616754],[-71.72836174577195,44.958958468786925],[-71.72792857274939,44.958901935726146],[-71.7275658251155,44.95898895421066],[-71.72680442802884,44.95901860598721],[-71.72664307420601,44.95904790116794],[-71.72631343027392,44.95924515358977],[-71.72598070236643,44.95933225342531],[-71.7251457673315,44.96025051867468],[-71.72415430584677,44.960996118005355],[-71.72319813600556,44.96150895325781],[-71.72148625729805,44.96207598396653],[-71.72079714243648,44.9622079321659],[-71.72001497631787,44.962152606625516],[-71.71958428468433,44.96224189732841],[-71.71922042411244,44.96224495160799],[-71.71890647774615,44.96255911916115],[-71.71853693149183,44.962747601102635],[-71.71805510374712,44.962845335029044],[-71.71767754059857,44.962833520991246],[-71.71705660768133,44.9629943495662],[-71.71675940749013,44.96299773871811],[-71.71625264978363,44.96287860972177],[-71.71529538292566,44.96278237382143],[-71.71465667485604,44.96275441744174],[-71.71415942576687,44.963110658868935],[-71.71354043943059,44.963385510598364],[-71.71281119909968,44.96360901190394],[-71.7123021768937,44.96365231868827],[-71.71164989837801,44.9640386611099],[-71.71118642298528,44.96415761807599],[-71.71059992952006,44.96414257894967],[-71.70976259373832,44.96399891598653],[-71.70917308230348,44.963824882042665],[-71.70861647425237,44.96345329144383],[-71.70831657654242,44.963613336168414],[-71.70808499785268,44.963931036041735],[-71.70781794244934,44.964140120651],[-71.70721762429795,44.96448670262671],[-71.70653077350954,44.96466123783802],[-71.70604069929811,44.96463088598555],[-71.70577969676063,44.96452988559214],[-71.70550149997595,44.96431802693778],[-71.70537120938563,44.964128351915306],[-71.70528877323258,44.96384105797372],[-71.70531172201497,44.9633732958419],[-71.70559982943553,44.963000961423376],[-71.70554080116592,44.96266294095558],[-71.70566341660121,44.96234682527353],[-71.70548649027936,44.96201635071313],[-71.70550212265186,44.96161208096679],[-71.70565793242736,44.96119713208782],[-71.70600779290004,44.96085766906597],[-71.70610621372974,44.96067388608111],[-71.70610982513483,44.96017068536352],[-71.7058485095934,44.95944877455927],[-71.70574080793125,44.95859106924695],[-71.7054220557181,44.95825902656585],[-71.70536387502449,44.95780527467653],[-71.7055456353381,44.95735751426187],[-71.70589394236661,44.95705880833274],[-71.70615762995648,44.95696145689541],[-71.70649645454222,44.95692073304151],[-71.70744521250569,44.95698698833268],[-71.70794477671402,44.95681341804777],[-71.7086248823275,44.956518618909556],[-71.70899847320261,44.95592946333832],[-71.70885397084037,44.95507345555636],[-71.70850367965328,44.953954112742004],[-71.70827708319165,44.95367206902346],[-71.70790056291322,44.95296925502789],[-71.70787228061991,44.952854854287274],[-71.70769781070787,44.95168645123327],[-71.7077783080266,44.951260007670385],[-71.70815805585187,44.95067755788087],[-71.70843197263547,44.95002769269975],[-71.70908633994497,44.949139269447386],[-71.7091459930019,44.94884542329663],[-71.7094984238609,44.948340373859814],[-71.70968810503099,44.94786772366877],[-71.71005540540285,44.94737403544037],[-71.71085454682583,44.946805590898705],[-71.7117962995049,44.94656453517359],[-71.71211331131451,44.94636352600117],[-71.71247268947857,44.94624709022959],[-71.713616155938,44.94620675562728],[-71.71400622974116,44.946064643341685],[-71.71448204734298,44.946022224372],[-71.71524062905955,44.946099159628304],[-71.71572931079598,44.94608590326222]],[[-71.71413947066807,44.946852696417466],[-71.71382416097326,44.94692107263359],[-71.71330278779163,44.94687942025781],[-71.71293312468954,44.94697469022241],[-71.71268530512867,44.9469159291215],[-71.71252980248538,44.94705667513671],[-71.71223652725519,44.94719071235804],[-71.7113435173408,44.94739683239379],[-71.71120327542359,44.94757025827958],[-71.71077443266584,44.94783167623846],[-71.71055413411335,44.948178497040395],[-71.71040244190758,44.94861334669665],[-71.71006290836058,44.949060302345465],[-71.71002053827108,44.94938684211177],[-71.70977870962822,44.94963047787357],[-71.70932137689408,44.950294563372715],[-71.70903135353586,44.950992475773205],[-71.70889181816317,44.95112226519445],[-71.70869523982019,44.95147490942616],[-71.70866193398287,44.951648716644584],[-71.7087680298594,44.95257829719154],[-71.709177769235,44.95342485541001],[-71.70941933273721,44.95370963219395],[-71.70985634760085,44.95511006235416],[-71.70998576040088,44.95602316391644],[-71.70941680121348,44.95695869242033],[-71.7089378334769,44.957227941267384],[-71.70758457673074,44.957711510555065],[-71.70652687422917,44.957606080411686],[-71.70642668097834,44.95763822681647],[-71.70637214250077,44.95775204688912],[-71.70634486675459,44.95805691101257],[-71.70642190558516,44.957975649883764],[-71.70668804428377,44.958151890445194],[-71.7067585425296,44.959133690609875],[-71.7070767232518,44.96007743627517],[-71.70710434197665,44.96071311689409],[-71.70687550389592,44.96115876093864],[-71.7068929407982,44.96134695593618],[-71.70660212551562,44.961397220166205],[-71.70644834267176,44.961749350931086],[-71.70644587186602,44.96193749492823],[-71.70692534897353,44.96249955902317],[-71.70676185959387,44.962627282300716],[-71.70653594783083,44.9626394826962],[-71.70650046856137,44.96274011257079],[-71.70661652047988,44.96305596176278],[-71.70653045495095,44.963267912317114],[-71.70623767523904,44.96358848393976],[-71.70626503253986,44.96384729594742],[-71.7063669350712,44.96398550256425],[-71.70668632589165,44.96391411143822],[-71.70677710676098,44.96376509268522],[-71.70714313466961,44.963647863554286],[-71.70734111306449,44.96348303542297],[-71.7075051857982,44.96312872259293],[-71.7076697216929,44.963035915100406],[-71.70789996967831,44.96299396312371],[-71.7080529606179,44.962763665664355],[-71.70829768000924,44.96264667134528],[-71.7086356388799,44.962670967931],[-71.70875110332545,44.96262533378063],[-71.7090267511092,44.962692754795505],[-71.70918464661536,44.962897939853434],[-71.70951446140468,44.96305410026063],[-71.7096783300356,44.96324051597584],[-71.71010210487425,44.96335701159433],[-71.71102252103282,44.96348188718309],[-71.71111855342956,44.96346608297841],[-71.71114361761612,44.963376634417436],[-71.71144354103097,44.96327242930145],[-71.71184816689212,44.9630016610207],[-71.71201054516891,44.96294537342334],[-71.71250074593634,44.96295972783244],[-71.71338584721906,44.962653934560834],[-71.71385949813943,44.962367258705854],[-71.71396545527006,44.962209880784044],[-71.71436036416401,44.9620642968692],[-71.71549736565555,44.962106042871376],[-71.71641501105742,44.962200890292145],[-71.71689264611086,44.96231863015185],[-71.7174455843467,44.96214676395475],[-71.71753480123748,44.962054687699904],[-71.71785581108203,44.96216046003749],[-71.71814381274373,44.96212131258435],[-71.71842267800321,44.961830491728065],[-71.71882741013799,44.96154871915078],[-71.71944028296505,44.96156388913178],[-71.71993512671081,44.96145955580706],[-71.72064016202327,44.96152988281487],[-71.72115710171613,44.96143136057268],[-71.7227015713716,44.960920857316424],[-71.72349952480943,44.960492098075875],[-71.72403551783839,44.96010735789197],[-71.72439427927448,44.95981986019918],[-71.72492944110829,44.959261070556316],[-71.72501898134436,44.959020697235246],[-71.72502433277909,44.95862307687079],[-71.72516883231143,44.95871656413495],[-71.72518125529047,44.95890454242824],[-71.72528182031276,44.958853480301414],[-71.72540383487069,44.95862034415488],[-71.725662031786,44.958561892880695],[-71.72571434481458,44.95866852597158],[-71.72580649466484,44.958658171390795],[-71.7258909392806,44.95861788698118],[-71.72593927548692,44.95850132044713],[-71.72629502456807,44.958379733446904],[-71.72667998395391,44.958319618076146],[-71.72672280889378,44.95825466469602],[-71.72692053256102,44.9583384315737],[-71.72717737294836,44.958268093885444],[-71.72744932977234,44.958307637678125],[-71.72759112861804,44.958073276903015],[-71.72770317365752,44.95815781270153],[-71.72799520687583,44.95811875312456],[-71.72828398459369,44.95826522786206],[-71.72840906509516,44.958266072137114],[-71.72825233033717,44.9581401082161],[-71.72796634376355,44.95802182543601],[-71.727776032159,44.95804609504458],[-71.72776016947986,44.95799109562877],[-71.72764161672981,44.95796644280234],[-71.7274785168475,44.958012676436404],[-71.72737916584279,44.95821888293181],[-71.72719476127428,44.95815275626958],[-71.72688737126435,44.95821249866393],[-71.72692216442107,44.95809430843969],[-71.72721840899493,44.9580437619048],[-71.72720630379436,44.95800129245048],[-71.7269956894427,44.957989881149764],[-71.72689131657022,44.957918898263394],[-71.72674725207521,44.95790675998188],[-71.72679378202126,44.9576884962772],[-71.72581171073836,44.95767626539365],[-71.72574010875861,44.957525053306554],[-71.7258901849191,44.957260334176745],[-71.72576063577229,44.957299319351215],[-71.72561393462863,44.95748342911835],[-71.72561120164387,44.95768642157084],[-71.72545717302806,44.957651633621644],[-71.7254507627633,44.95754441456303],[-71.72590611323292,44.957018289437435],[-71.72599274272486,44.95675827023124],[-71.72608663833742,44.956675043058915],[-71.72635534455637,44.95659785500106],[-71.72637226011814,44.95646109733138],[-71.72593359388904,44.956510676414275],[-71.72581916307382,44.956660541920016],[-71.72550354482946,44.955919157340645],[-71.72494855004075,44.95518676502954],[-71.72459731665693,44.95480445216725],[-71.72437905408906,44.95465611359824],[-71.72406988611718,44.95455790436108],[-71.7238279876945,44.954292242616084],[-71.72369854629609,44.95390045841323],[-71.72331949818756,44.953345896922855],[-71.7232557372739,44.95297147732874],[-71.72307356167865,44.952619738797296],[-71.72291200796506,44.95243929237292],[-71.72253868215932,44.95227846659358],[-71.72250991021822,44.95211907881774],[-71.72267691678643,44.95206469358692],[-71.72266330773692,44.951852054725315],[-71.72249916995601,44.95174151018127],[-71.72242475876953,44.951565079410365],[-71.72201613180528,44.95143829216751],[-71.72192826567546,44.95131981026893],[-71.72192217677613,44.95113268711712],[-71.72107452750039,44.95031684709096],[-71.7209161660719,44.95020129855535],[-71.72073026083818,44.950182484420814],[-71.72053694503782,44.95001873902339],[-71.72022295557811,44.94986676579098],[-71.71961893287173,44.949721631572885],[-71.71942640413016,44.94955644716501],[-71.71880579442002,44.94929888845414],[-71.71854851612683,44.949002334430155],[-71.7177505333882,44.94838891441988],[-71.7175019248272,44.948033112156665],[-71.71731282104908,44.94756055011799],[-71.7171388059113,44.947423297451],[-71.7169017327253,44.947329166878085],[-71.71653434197269,44.94702428785806],[-71.7161526053952,44.94685267306024],[-71.71582332130497,44.94683943487974],[-71.71556385911293,44.94676142918176],[-71.71520230759566,44.94679152591617],[-71.71447091323166,44.94670784480532],[-71.71423297098602,44.9467331149593],[-71.71413947066807,44.946852696417466]]],[[[-71.6894232795555,44.97168240476876],[-71.68962370682429,44.97205806119119],[-71.69026728222562,44.97268890457176],[-71.69082856348722,44.972664571294146],[-71.69132650613007,44.97277410930667],[-71.6918180475847,44.97301351303],[-71.69243189025697,44.97323034966737],[-71.6928208461888,44.973492395863246],[-71.69314762057964,44.97356898296885],[-71.69361601664845,44.97378544330725],[-71.69410700193004,44.97369945233416],[-71.69457806432014,44.973736093247716],[-71.69511602844703,44.97390173113229],[-71.69550325144782,44.97410575940319],[-71.69598993744027,44.974236618229135],[-71.6963719137955,44.974245470961556],[-71.69638459102966,44.9737562502012],[-71.69653358661938,44.97318885589282],[-71.69668446381898,44.97290126634313],[-71.69696287292827,44.97267032392737],[-71.69724057805944,44.97254011261617],[-71.69751710013328,44.97200032499133],[-71.6979128328833,44.97162785159551],[-71.69834936596666,44.97146678243963],[-71.6988410542728,44.971479237000544],[-71.69916409669776,44.971594283436396],[-71.6993803257616,44.971739160421755],[-71.69958631306805,44.97206173525876],[-71.69980702585947,44.972229252061595],[-71.70004900253635,44.97257400621689],[-71.70027296326988,44.972765017039166],[-71.70073020148548,44.972928859132395],[-71.7009554640088,44.97307869791205],[-71.70140617563207,44.973673095093304],[-71.70204964405697,44.97406730103937],[-71.70253958769135,44.97474211637364],[-71.70375702187398,44.97573663514058],[-71.70391309578028,44.97596836584669],[-71.70397015170599,44.97618837287887],[-71.70473687240444,44.976783463325134],[-71.70500552294978,44.976894165721205],[-71.70564340535356,44.977312669046924],[-71.70593045399465,44.9777142590666],[-71.70636121613276,44.97805303302278],[-71.70712787106902,44.97888139306945],[-71.70752347850521,44.97921996258711],[-71.70777529952865,44.979674253403644],[-71.70805271523695,44.98001657688993],[-71.70851905840402,44.9810000530273],[-71.70957873667149,44.98223040611547],[-71.70984237980849,44.982706212406015],[-71.7106347304235,44.98320772502827],[-71.71094803990088,44.98352134423695],[-71.71234688132428,44.98354681419882],[-71.7126930139394,44.983637598572386],[-71.71334933914906,44.98392700056581],[-71.71452795460803,44.984827303678706],[-71.71490742301098,44.98494489717475],[-71.71552873406728,44.98538082677661],[-71.71603094546525,44.985565822783705],[-71.7171805807893,44.98632785703166],[-71.71786133301205,44.986966833991765],[-71.71815771148698,44.98743193670694],[-71.71763329054653,44.98804340316853],[-71.71754241735208,44.988006773309095],[-71.71726888674773,44.98771865035506],[-71.71704111694552,44.98732924462224],[-71.71648087418644,44.98680068896819],[-71.71600596253954,44.986467898389186],[-71.71551387472617,44.98623271517635],[-71.71540489957722,44.98608808140401],[-71.7149782012069,44.985995697755435],[-71.7146558441074,44.985691129673235],[-71.71436034162608,44.98551002540156],[-71.71400568258615,44.9854263251728],[-71.71272328352438,44.98444923196585],[-71.71216445090987,44.984220144919384],[-71.71146129900073,44.984242286101846],[-71.71111007051175,44.98419648406021],[-71.7106812680717,44.9842588532556],[-71.71039923001517,44.98419706416169],[-71.71023252929312,44.984092962123015],[-71.71007872745689,44.98392650637113],[-71.71005771320817,44.98378526002119],[-71.70929298459708,44.98327010733783],[-71.70917057526287,44.98323667912354],[-71.70869283214157,44.982709919579605],[-71.70871037993614,44.98253096843922],[-71.70842411142723,44.98225227256184],[-71.70840265360209,44.98214387065777],[-71.70811263028968,44.98179730063547],[-71.7078551923523,44.98161644335073],[-71.70788159543153,44.98154076674962],[-71.70760232513265,44.98127021971463],[-71.70714273394626,44.98024684972165],[-71.70693191246549,44.9800147479138],[-71.70670331572268,44.979582306113336],[-71.70636460191619,44.97932069984302],[-71.70559971444546,44.97847490038621],[-71.70505551464754,44.978055466196054],[-71.70488006461646,44.97773290180955],[-71.70439002618686,44.97742263376082],[-71.70407704183074,44.977354943307034],[-71.70378140077482,44.97702434140208],[-71.70314231588463,44.976592442719415],[-71.70296252828996,44.97612667686325],[-71.70178075790723,44.975189039409166],[-71.70129745085183,44.97449753062824],[-71.70080918803326,44.97428156390786],[-71.70020191270989,44.9735076591374],[-71.70001012444934,44.97350622309635],[-71.69980774263166,44.973427689125785],[-71.69966213844096,44.973295465199655],[-71.6994418703434,44.97334593371727],[-71.6992317523138,44.973303967357026],[-71.6992072227945,44.97324476215106],[-71.69928429558432,44.973227219711156],[-71.69944934294146,44.97327372932586],[-71.69943271606512,44.973101464239065],[-71.69919681582131,44.97308190288106],[-71.69921182102671,44.972914363410794],[-71.699074773738,44.97268708257116],[-71.6987759282775,44.972462454043786],[-71.6985619264223,44.972135649729125],[-71.69835301872519,44.97234394203367],[-71.69850922449828,44.972506112310164],[-71.69845116119674,44.972579493149034],[-71.6985217635303,44.97262570382174],[-71.69833445373588,44.97270294584989],[-71.6981894589781,44.97270075988229],[-71.69820186325563,44.97283861961928],[-71.69800310718095,44.973000910141224],[-71.69752037127705,44.97324489474892],[-71.69734072841234,44.97385392063819],[-71.6973532331908,44.974493727953686],[-71.69710155080053,44.97480448224078],[-71.69710682805508,44.974889915082215],[-71.69701764942909,44.9749118729698],[-71.69682805729622,44.97509753062138],[-71.69615479186594,44.97491273069393],[-71.69567101931626,44.97494811324988],[-71.6954573322994,44.97480802463215],[-71.69507264006678,44.974784256871274],[-71.69481860237185,44.974592327358785],[-71.69436014896102,44.97440407922237],[-71.69414731874134,44.97438449201187],[-71.69395595735973,44.974460528413964],[-71.69336612332636,44.97448362793351],[-71.69268515687922,44.97417097176642],[-71.69233841343532,44.974207846054014],[-71.69210429818192,44.97412430109975],[-71.69212724940296,44.974006488864],[-71.69190429024907,44.97380469326428],[-71.6913175252074,44.973609852983195],[-71.69074439188633,44.97334762241098],[-71.68979252346735,44.97348656194664],[-71.68965470514355,44.97336149486313],[-71.6896478340924,44.97322790465816],[-71.68933945769815,44.97301649828528],[-71.68936566801703,44.97295594138479],[-71.68917678057014,44.972757436428964],[-71.68903573471557,44.97276264580099],[-71.68896571266063,44.97255887171776],[-71.68877871134916,44.97249707139509],[-71.68873812976499,44.972345244264154],[-71.68856316934578,44.97216654524141],[-71.68865991230835,44.97210253381411],[-71.68833890875327,44.97204968101458],[-71.68767138145014,44.97213608690961],[-71.68731235483996,44.9722623055614],[-71.68671532071994,44.97250965955279],[-71.6861658443214,44.972871091880826],[-71.68605920198911,44.97285511956462],[-71.6859204584585,44.972634748836676],[-71.68591298542579,44.972938938574444],[-71.68540123643855,44.973321963929024],[-71.6845764041125,44.974111917720336],[-71.68413566362065,44.97473391223944],[-71.68416803990598,44.97496271018368],[-71.68404779782918,44.975065333313644],[-71.68405552078264,44.975128471085505],[-71.68485691413156,44.976012287722554],[-71.68511515091647,44.976406740616056],[-71.68561709896792,44.976879962557845],[-71.68584613590157,44.97733189156179],[-71.6860949032158,44.97754594104215],[-71.68640533686015,44.9776753098852],[-71.68681540324144,44.97765392966257],[-71.68698753452982,44.97757641856537],[-71.68703101291347,44.977819155294526],[-71.68741259254851,44.97789331610934],[-71.68783523636345,44.97821154738633],[-71.6884508045666,44.97833569599162],[-71.68855813621299,44.97858194271085],[-71.68908155601251,44.97890268779165],[-71.68933191075743,44.97946373233358],[-71.68950515108149,44.97959543924073],[-71.68954099561343,44.97980491742457],[-71.69008189643128,44.98033463224167],[-71.69012811637248,44.980536530422434],[-71.69058011431463,44.98091570333642],[-71.69076582700177,44.98123394838849],[-71.69145609103093,44.981792260727104],[-71.69214895813023,44.98222910243743],[-71.69247852682503,44.98263331237553],[-71.69268255655561,44.98272249199807],[-71.69280100442042,44.98353429069151],[-71.69306074072506,44.98377432207832],[-71.69332531437398,44.984238538566586],[-71.69392751255188,44.98503269505075],[-71.69471382158846,44.98576434610178],[-71.69501738945715,44.98620768840194],[-71.69531851340217,44.98638249596371],[-71.69566570510109,44.98671708540906],[-71.69606001679644,44.98697452427284],[-71.69734967814043,44.98820542955439],[-71.69812982341712,44.98881274269623],[-71.69865884416038,44.98934234344572],[-71.70040629965604,44.99072652642812],[-71.70163130098261,44.9915492940799],[-71.70190336569104,44.991819444936446],[-71.7021834011232,44.9919729417932],[-71.70226684588211,44.99212830257663],[-71.70267448801758,44.99227989545288],[-71.70325636220294,44.992734065881706],[-71.70408362085702,44.99326293190265],[-71.70466752446312,44.99384731798287],[-71.70499047659236,44.993998317199335],[-71.7053980540402,44.99432996207715],[-71.70604350287644,44.99460135143875],[-71.7062869785802,44.99475908420455],[-71.7063405472398,44.99490208340248],[-71.70660675904095,44.99514032878028],[-71.70652154153164,44.995286862921965],[-71.70661571190827,44.99558474636789],[-71.70652844061604,44.99569635055561],[-71.70671433067552,44.99601142326434],[-71.70719861765613,44.996254154117246],[-71.70744134771195,44.996292370781966],[-71.70770014311388,44.996259253579645],[-71.7077939433713,44.99629931841536],[-71.70817728292707,44.996671730772114],[-71.70977197054759,44.996331290159695],[-71.71050217208447,44.996030118206285],[-71.71045897087653,44.99588862795134],[-71.7106098221678,44.995819930317964],[-71.71076734528731,44.99554206437163],[-71.71075317041142,44.99518876739554],[-71.71087921823204,44.99501389741264],[-71.71154190171924,44.99483516931372],[-71.71198001090741,44.99463502970624],[-71.70994203873494,44.99701127034977],[-71.70853066646033,44.99733117029069],[-71.70804383854885,44.99735082731021],[-71.70761258961036,44.99724046664099],[-71.70725791943339,44.996967538077584],[-71.70670808276572,44.9968477003167],[-71.70602812073572,44.996494206921284],[-71.7057666474783,44.99623463580084],[-71.70562179025605,44.99598099824938],[-71.70555678407129,44.995306312845926],[-71.70544826959922,44.99516463356024],[-71.70476800013246,44.994849844437425],[-71.70437495233695,44.99454863933854],[-71.70400217158145,44.99434456166126],[-71.7034002292365,44.9937618614302],[-71.7020908319051,44.99284017438417],[-71.70160351665722,44.99262689276096],[-71.70089773816306,44.992009706400204],[-71.69967313875141,44.99117315141052],[-71.69793926170843,44.989799936565106],[-71.69531799022357,44.98742840028077],[-71.69425934493809,44.98663282801402],[-71.6938897420666,44.98616406701228],[-71.69308197438045,44.98536446543092],[-71.69218159073668,44.984082164749246],[-71.69192109769077,44.98381746065817],[-71.69179620434586,44.98350385044952],[-71.6917404318752,44.983075233138386],[-71.6914584848529,44.982724600735],[-71.69074100526579,44.98225332520407],[-71.69010204557331,44.981741109119035],[-71.68991752018056,44.98156207466457],[-71.68978894569514,44.98132647885132],[-71.6892328713401,44.9807991296484],[-71.68914101172649,44.980591890301305],[-71.68893596972313,44.98043073829928],[-71.68865192124211,44.98007318189534],[-71.68827250598902,44.97933638058459],[-71.6877127524689,44.97892170342242],[-71.68727118322698,44.978768204576774],[-71.68688016140153,44.97851741744982],[-71.68570494605866,44.97818414355449],[-71.6854316012114,44.97804444412608],[-71.68510725131625,44.977773521257404],[-71.68472324026392,44.97719206883131],[-71.68429733893466,44.976771703646605],[-71.68401688538101,44.97636196069772],[-71.68314397938407,44.975355442559554],[-71.68308797324839,44.9749879630273],[-71.68332586947606,44.974333133833696],[-71.68379610599703,44.973707738442286],[-71.68462324918912,44.972915546261454],[-71.68493212726445,44.97269640594323],[-71.68497830337597,44.9724448729598],[-71.68513886797427,44.972231884128156],[-71.68551980107183,44.97201084466673],[-71.68580606841391,44.971953903175404],[-71.68612829035978,44.97196585383041],[-71.68738326160015,44.97148162743649],[-71.68820422871725,44.97136008982526],[-71.68888793941433,44.971418230159045],[-71.68915595086676,44.97150962901767],[-71.6894232795555,44.97168240476876]]],[[[-71.6836259280861,44.98126493678332],[-71.68403660934176,44.98134689015765],[-71.68458316557671,44.981658983416004],[-71.68484816998688,44.98203174315271],[-71.68497014476637,44.982530631927986],[-71.68482222006621,44.983301056752005],[-71.68493471151126,44.98385765644064],[-71.68544646197782,44.98474986815634],[-71.68556004119213,44.98526858864587],[-71.68544310050645,44.98576525328052],[-71.68508532682063,44.98620957923219],[-71.68510664511543,44.98652457498559],[-71.68482958892857,44.98748677703312],[-71.68431669902026,44.988051637970194],[-71.6836136995525,44.98841075276046],[-71.68292462246107,44.98877004110146],[-71.6822357438045,44.988882377222446],[-71.68102263311863,44.98883012672739],[-71.68018362497911,44.98864228418235],[-71.67990035765878,44.98847284092902],[-71.67943426833143,44.98802494974517],[-71.67863332809343,44.986974700367995],[-71.67819519497542,44.98623487589229],[-71.67804618631683,44.98591427244042],[-71.67779816787203,44.984677946828604],[-71.67794218651976,44.984008461080954],[-71.6782154544325,44.98348198439061],[-71.6786621379722,44.98295689384219],[-71.67906285305013,44.98204880778719],[-71.67963016611228,44.98149031076173],[-71.68046615508749,44.98109619601456],[-71.68127262084293,44.981018239865634],[-71.6817982390903,44.981047799878006],[-71.68223773065473,44.98099686940419],[-71.6827043549017,44.98109352165807],[-71.6831257463873,44.9810846602236],[-71.6836259280861,44.98126493678332]],[[-71.68137439588283,44.981706036439874],[-71.68123475397785,44.98177144827406],[-71.68083837230944,44.98172891971525],[-71.68067371652974,44.98184984783842],[-71.68048331088092,44.981874131432185],[-71.68034937519447,44.98194812557345],[-71.68026852344596,44.98212329207614],[-71.67994415298661,44.982329734323024],[-71.67991369185826,44.98255448155554],[-71.6797474509413,44.98278661876053],[-71.67964774075541,44.983119032553574],[-71.67893612534077,44.9840188259127],[-71.67884237598489,44.984351106314385],[-71.67886450587818,44.98449695573758],[-71.67876012796266,44.984614083273016],[-71.67899390084078,44.985780825666005],[-71.6795047825043,44.986678692433614],[-71.67977245349422,44.986954895583985],[-71.68027992690268,44.987693283247],[-71.68060992415583,44.98791188494802],[-71.68063253391082,44.98802543486972],[-71.68091789510241,44.98811962289448],[-71.68125851496583,44.988154280673086],[-71.68217089946017,44.98819825544275],[-71.68253691352929,44.98814085403548],[-71.68293427825151,44.98789416384917],[-71.68362690951298,44.98757147858517],[-71.68392899888305,44.98723843376585],[-71.68415349319511,44.986412252995194],[-71.68414991014009,44.98591424103968],[-71.68434212353121,44.985772087985374],[-71.68456059191458,44.98547803735501],[-71.6845958810425,44.985224532221515],[-71.68453004766587,44.98496705919792],[-71.68424955062697,44.98453023918393],[-71.68416068485945,44.984519976682314],[-71.68415976076281,44.98437004680678],[-71.68406987545958,44.98432450215599],[-71.68389603787803,44.98349322601214],[-71.68379030581534,44.98328684977686],[-71.68398638940545,44.98276452643148],[-71.68400454925771,44.98255696767939],[-71.68391147573215,44.982199687800126],[-71.68381961102217,44.982079076236616],[-71.68369335456005,44.982050369705085],[-71.68357395955073,44.98194881831457],[-71.68342516963577,44.98201623262016],[-71.68312105961724,44.981966910031424],[-71.68294296242213,44.98175794740309],[-71.6825447563004,44.98185255063772],[-71.68221690007337,44.98177956461422],[-71.68221218218892,44.98168315230817],[-71.68194220080852,44.98178389622812],[-71.68185225847074,44.981734030938284],[-71.68137439588283,44.981706036439874]]]]}},{"type":"Feature","properties":{"OBJECT_ID":825,"County":"Essex","RPC":"NVDA","Municipal_Name":"Averill","GEO_ID":"5000902125","District_Name":"Forest, Agriculture, And Single Family Home District","Abbreviated_District_Name":"Fasf","District_Type":"Mixed with Residential","Bylaw_Date":null,"Elderly_Housing_District":"No","District_Mapped":"Yes","Overlay_District":"No","Base_Density":null,"FIPS6":null,"GIS_ID":null,"Last_Update":null,"Shape_Length":68859.11317165675,"Shape_Area":93985048.41219838,"F1F_Allowance":"Permitted","F1F_Front_Setback":null,"F1F_Side_Setback":null,"F1F_Rear_Setback":null,"F1F_Frontage":null,"F1F_Max_Height":null,"F1F_Max_Stories":null,"F1F_Min_Lot_Size":5.0,"F1F_Max_Lot_Building_Coverage":null,"F1F_Max_Lot_Impervious_Coverage":null,"F1F_Min_Parking_Spaces":null,"F1F_Elderly_Housing_Only":null,"F1F_Affordable_Housing_Only":null,"F2F_Allowance":"Prohibited","F2F_Front_Setback":null,"F2F_Side_Setback":null,"F2F_Rear_Setback":null,"F2F_Frontage":null,"F2F_Max_Density":null,"F2F_Max_Height":null,"F2F_Max_Stories":null,"F2F_Min_Lot_Size":null,"F2F_Max_Lot_Building_Coverage":null,"F2F_Max_Lot_Impervious_Coverage":null,"F2F_Min_Parking_Spaces_per_1BR":null,"F2F_Min_Parking_Spaces_per_mult_BR":null,"F2F_Elderly_Housing_Only":null,"F2F_Affordable_Housing_Only":null,"F3F_Allowance":"Prohibited","F3F_Front_Setback":null,"F3F_Side_Setback":null,"F3F_Rear_Setback":null,"F3F_Frontage":null,"F3F_Max_Density":null,"F3F_Max_Height":null,"F3F_Max_Stories":null,"F3F_Min_Lot_Size":null,"F3F_Max_Lot_Building_Coverage":null,"F3F_Max_Lot_Impervious_Coverage":null,"F3F_Min_Parking_Spaces_per_1BR":null,"F3F_Min_Parking_Spaces_per_mult_BR":null,"F3F_Affordable_Housing_Only":null,"F3F_Proximity_to_Public_Transit_Required":null,"F3F_Connection_to_Sewage/Water_Required":null,"F4F_Allowance":"Prohibited","F4F_Front_Setback":null,"F4F_Side_Setback":null,"F4F_Rear_Setback":null,"F4F_Frontage":null,"F1F_Max_Density":null,"F4F_Max_Density":null,"F4F_Max_Height":null,"F4F_Max_Stories":null,"F4F_Min_Lot_Size":null,"F4F_Max_Lot_Building_Coverage":null,"F4F_Max_Lot_Impervious_Coverage":null,"F4F_Min_Parking_Spaces_per_1BR":null,"F4F_Min_Parking_Spaces_per_mult_BR":null,"F3F_Elderly_Housing_Only":null,"F4F_Elderly_Housing_Only":null,"F4F_Affordable_Housing_Only":null,"F4F_Proximity_to_Public_Transit_Required":null,"F4F_Connection_to_Sewage/Water_Required":null,"ADU_Allowance":"Allowed/Conditional","ADU_Elderly_Housing_Only":"No","ADU_Max_Size_as_Percent_of_Primary_Strcture":30.0,"ADU_Max_Size_in_sq_ft":600.0,"ADU_Min_Lot_Size":5.0,"ADU_Max_Bedrooms":1.0,"ADU_Min_Parking_Spaces":null,"ADU_Owner_Occupancy_Required":"Yes","ADU_Renter_Occupancy_Prohibited":"No","ADU_Employee_or_Family_Occupancy_Required":"No","ADU_Restricted_to_Primary_Structure":"No","Affordable_Housing_Allowance":"Not Mentioned","Affordable_Housing_District":"No","Affordable_Housing_Elderly_Only":null,"Affordable_Housing_Min_Lot_Size":null,"Affordable_Housing_Max_Density":null,"Affordable_Housing_Min_Parking_Spaces_per_mult_BR":null,"Affordable_Housing_Max_Units_per_Building":null,"Affordable_Housing_Min_Parking_Spaces_per_1BR":null,"PRD_Allowance":"Not Mentioned","PRD_Max_Density":null,"PRD_Max_Units":null,"PRD_Min_Lot_Size":null,"PRD_Mobile_or_Manufactured_Home_Park":null,"PUD_Allowance":"Yes","PUD_Required_with_Subdivision":"No","PUD_Requires_Land_Conservation":"Yes","PUD_Threshold_Number":null,"Notes":"  Minimum Lot Width Is 500'"},"geometry":{"type":"MultiPolygon","coordinates":[[[[-71.68514873014597,44.88988540195207],[-71.69587862113514,44.89532289700286],[-71.70661054162976,44.90075939291202],[-71.7173444919323,44.90619488910663],[-71.72808047234483,44.911629385013576],[-71.7388184831691,44.917062880059746],[-71.74955852470642,44.92249537367193],[-71.76652097259577,44.931155212687216],[-71.7593677023775,44.9394463857932],[-71.75221236314593,44.94773708524642],[-71.74961655989235,44.95075146037486],[-71.74175562526243,44.95992243900796],[-71.73389217336963,44.96909284495129],[-71.72602620263706,44.9782626776895],[-71.71815771148698,44.98743193670694],[-71.71786133301205,44.986966833991765],[-71.7171805807893,44.98632785703166],[-71.71603094546525,44.985565822783705],[-71.71552873406728,44.98538082677661],[-71.71490742301098,44.98494489717475],[-71.71452795460803,44.984827303678706],[-71.71334933914906,44.98392700056581],[-71.7126930139394,44.983637598572386],[-71.71234688132428,44.98354681419882],[-71.71094803990088,44.98352134423695],[-71.7106347304235,44.98320772502827],[-71.70984237980849,44.982706212406015],[-71.70957873667149,44.98223040611547],[-71.70851905840402,44.9810000530273],[-71.70805271523695,44.98001657688993],[-71.70777529952865,44.979674253403644],[-71.70752347850521,44.97921996258711],[-71.70712787106902,44.97888139306945],[-71.70636121613276,44.97805303302278],[-71.70593045399465,44.9777142590666],[-71.70564340535356,44.977312669046924],[-71.70500552294978,44.976894165721205],[-71.70473687240444,44.976783463325134],[-71.70397015170599,44.97618837287887],[-71.70391309578028,44.97596836584669],[-71.70375702187398,44.97573663514058],[-71.70253958769135,44.97474211637364],[-71.70204964405697,44.97406730103937],[-71.70140617563207,44.973673095093304],[-71.7009554640088,44.97307869791205],[-71.70073020148548,44.972928859132395],[-71.70027296326988,44.972765017039166],[-71.70004900253635,44.97257400621689],[-71.69980702585947,44.972229252061595],[-71.69958631306805,44.97206173525876],[-71.6993803257616,44.971739160421755],[-71.69916409669776,44.971594283436396],[-71.6988410542728,44.971479237000544],[-71.69834936596666,44.97146678243963],[-71.6979128328833,44.97162785159551],[-71.69751710013328,44.97200032499133],[-71.69724057805944,44.97254011261617],[-71.69696287292827,44.97267032392737],[-71.69668446381898,44.97290126634313],[-71.69653358661938,44.97318885589282],[-71.69638459102966,44.9737562502012],[-71.6963719137955,44.974245470961556],[-71.69598993744027,44.974236618229135],[-71.69550325144782,44.97410575940319],[-71.69511602844703,44.97390173113229],[-71.69457806432014,44.973736093247716],[-71.69410700193004,44.97369945233416],[-71.69361601664845,44.97378544330725],[-71.69314762057964,44.97356898296885],[-71.6928208461888,44.973492395863246],[-71.69243189025697,44.97323034966737],[-71.6918180475847,44.97301351303],[-71.69132650613007,44.97277410930667],[-71.69082856348722,44.972664571294146],[-71.69026728222562,44.97268890457176],[-71.68962370682429,44.97205806119119],[-71.6894232795555,44.97168240476876],[-71.68915595086676,44.97150962901767],[-71.68888793941433,44.971418230159045],[-71.68820422871725,44.97136008982526],[-71.68738326160015,44.97148162743649],[-71.68612829035978,44.97196585383041],[-71.68580606841391,44.971953903175404],[-71.68551980107183,44.97201084466673],[-71.68513886797427,44.972231884128156],[-71.68497830337597,44.9724448729598],[-71.68493212726445,44.97269640594323],[-71.68462324918912,44.972915546261454],[-71.68379610599703,44.973707738442286],[-71.68332586947606,44.974333133833696],[-71.68308797324839,44.9749879630273],[-71.68314397938407,44.975355442559554],[-71.68401688538101,44.97636196069772],[-71.68429733893466,44.976771703646605],[-71.68472324026392,44.97719206883131],[-71.68510725131625,44.977773521257404],[-71.6854316012114,44.97804444412608],[-71.68570494605866,44.97818414355449],[-71.68688016140153,44.97851741744982],[-71.68727118322698,44.978768204576774],[-71.6877127524689,44.97892170342242],[-71.68827250598902,44.97933638058459],[-71.68865192124211,44.98007318189534],[-71.68893596972313,44.98043073829928],[-71.68914101172649,44.980591890301305],[-71.6892328713401,44.9807991296484],[-71.68887747331509,44.9809935932664],[-71.68863422972022,44.98119966187521],[-71.6883387650119,44.981691940562285],[-71.68833119884411,44.982226975946176],[-71.68861274498502,44.982723335092],[-71.6895298620309,44.98343781012164],[-71.69037983690163,44.98384772936239],[-71.69063451674161,44.98438502314303],[-71.6912078277427,44.98520213379501],[-71.69275390241845,44.98682004827613],[-71.6936439487067,44.987900242689186],[-71.69439213128875,44.98840677042145],[-71.69500292300806,44.988980217943535],[-71.69603494134505,44.9896518261231],[-71.69629179460927,44.98997031055532],[-71.69756719734814,44.99117249575327],[-71.69792641674368,44.99145710841004],[-71.69836285173935,44.99169980089236],[-71.69874939659022,44.99212076057308],[-71.69973546602846,44.99301014813865],[-71.70058476727745,44.99354980876296],[-71.7011260728141,44.99378695169467],[-71.7016357954076,44.994300777931784],[-71.70250028174516,44.9947548910376],[-71.70306529752568,44.995564742338985],[-71.70352007797389,44.996085660765225],[-71.70405584387929,44.99656347674629],[-71.70439432824296,44.997014411044795],[-71.7031761436092,44.99697484356256],[-71.70011538255694,44.99702570808481],[-71.69984224589825,44.99699391101162],[-71.69857105032158,44.99663454637026],[-71.69773127701734,44.99649747116285],[-71.69535040990684,44.99629002004175],[-71.69459561473997,44.99613822007791],[-71.69359721996594,44.99574429798934],[-71.69224826805454,44.99530672558655],[-71.69113883860608,44.994859251805295],[-71.69007217296203,44.99417595475595],[-71.6887252356513,44.993070965828565],[-71.68728437838612,44.99151441095634],[-71.68488726884922,44.98948633411314],[-71.68451489008172,44.989107721301096],[-71.6836136995525,44.98841075276046],[-71.68431669902026,44.988051637970194],[-71.68482958892857,44.98748677703312],[-71.68510664511543,44.98652457498559],[-71.68508532682063,44.98620957923219],[-71.68544310050645,44.98576525328052],[-71.68556004119213,44.98526858864587],[-71.68544646197782,44.98474986815634],[-71.68493471151126,44.98385765644064],[-71.68482222006621,44.983301056752005],[-71.68497014476637,44.982530631927986],[-71.68484816998688,44.98203174315271],[-71.68458316557671,44.981658983416004],[-71.68403660934176,44.98134689015765],[-71.6836259280861,44.98126493678332],[-71.6831257463873,44.9810846602236],[-71.6827043549017,44.98109352165807],[-71.68223773065473,44.98099686940419],[-71.6817982390903,44.981047799878006],[-71.68127262084293,44.981018239865634],[-71.68046615508749,44.98109619601456],[-71.67963016611228,44.98149031076173],[-71.67906285305013,44.98204880778719],[-71.6786621379722,44.98295689384219],[-71.6782154544325,44.98348198439061],[-71.67794218651976,44.984008461080954],[-71.67779816787203,44.984677946828604],[-71.67804618631683,44.98591427244042],[-71.67819519497542,44.98623487589229],[-71.67703548991328,44.98600988241653],[-71.67504292509733,44.985485171440196],[-71.67327737560568,44.9848337653537],[-71.67110338528036,44.98426156638832],[-71.66893999269705,44.98353166895706],[-71.66798280354716,44.98296607682182],[-71.66753959583095,44.98276959585878],[-71.66691429587173,44.98257729483142],[-71.66607655131448,44.98243750955795],[-71.6649315469385,44.98241159424121],[-71.66410109919009,44.982502047432696],[-71.66341809576548,44.98267468435963],[-71.66303649972608,44.98267218613348],[-71.6616651338215,44.98249200900229],[-71.6607618228554,44.982442264256],[-71.65984003765095,44.98194385457416],[-71.65879387375756,44.98081151385125],[-71.65791885464067,44.98007942326667],[-71.65756711802409,44.97991937559872],[-71.65566549851759,44.9793424238067],[-71.65457502813541,44.979074949391425],[-71.65396690441845,44.97833437527913],[-71.65358923874385,44.97761439979749],[-71.65316334293888,44.977191595101914],[-71.65313073425685,44.97711711145323],[-71.65281305759775,44.97670701495003],[-71.65240636371365,44.97643772518911],[-71.65108442678947,44.975791885241854],[-71.64973135897871,44.97527393402765],[-71.6485123008871,44.97466578862332],[-71.64738235896309,44.974272700959126],[-71.64630933879629,44.973978331987865],[-71.64545164834294,44.973805456662106],[-71.64476191209414,44.97357726887524],[-71.6442518309693,44.973389256247344],[-71.64343479071161,44.97295780506521],[-71.64243969185914,44.972418009404414],[-71.64146805255417,44.971352629235795],[-71.64056599530224,44.970713636446945],[-71.63994503442215,44.970090901561875],[-71.63901627751285,44.969436662087986],[-71.63788446470726,44.968916704053626],[-71.63626617721835,44.968538984614206],[-71.63566610197958,44.96790938590771],[-71.63520848274784,44.967520652957354],[-71.63417226205634,44.96696031444987],[-71.63363038512423,44.96682946798136],[-71.6329028427246,44.9667410123124],[-71.63134815364329,44.96676507129913],[-71.62999521684739,44.96698077263194],[-71.62877535376639,44.96726115522033],[-71.62698041681269,44.96749490619732],[-71.62648631604326,44.967676062764745],[-71.6260909834447,44.967940378632825],[-71.62070655186574,44.96515780996788],[-71.60993431225603,44.959662390488845],[-71.59916413708058,44.95416596589341],[-71.59804381352862,44.953594105376034],[-71.59827346085477,44.95327905334789],[-71.61139558534609,44.93832407444902],[-71.62451086113572,44.92336749617975],[-71.63431258541814,44.91227881217992],[-71.6441105206762,44.90118923695819],[-71.65390466974858,44.890098771481796],[-71.66369503547224,44.879007416717315],[-71.6744208683594,44.88444690833263],[-71.68514873014597,44.88988540195207]],[[-71.713616155938,44.94620675562728],[-71.71247268947857,44.94624709022959],[-71.71211331131451,44.94636352600117],[-71.7117962995049,44.94656453517359],[-71.71085454682583,44.946805590898705],[-71.71005540540285,44.94737403544037],[-71.70968810503099,44.94786772366877],[-71.7094984238609,44.948340373859814],[-71.7091459930019,44.94884542329663],[-71.70908633994497,44.949139269447386],[-71.70843197263547,44.95002769269975],[-71.70815805585187,44.95067755788087],[-71.7077783080266,44.951260007670385],[-71.70769781070787,44.95168645123327],[-71.70787228061991,44.952854854287274],[-71.70790056291322,44.95296925502789],[-71.70827708319165,44.95367206902346],[-71.70850367965328,44.953954112742004],[-71.70885397084037,44.95507345555636],[-71.70899847320261,44.95592946333832],[-71.7086248823275,44.956518618909556],[-71.70794477671402,44.95681341804777],[-71.70744521250569,44.95698698833268],[-71.70649645454222,44.95692073304151],[-71.70615762995648,44.95696145689541],[-71.70589394236661,44.95705880833274],[-71.7055456353381,44.95735751426187],[-71.70536387502449,44.95780527467653],[-71.7054220557181,44.95825902656585],[-71.70574080793125,44.95859106924695],[-71.7058485095934,44.95944877455927],[-71.70610982513483,44.96017068536352],[-71.70610621372974,44.96067388608111],[-71.70600779290004,44.96085766906597],[-71.70565793242736,44.96119713208782],[-71.70550212265186,44.96161208096679],[-71.70548649027936,44.96201635071313],[-71.70566341660121,44.96234682527353],[-71.70554080116592,44.96266294095558],[-71.70559982943553,44.963000961423376],[-71.70531172201497,44.9633732958419],[-71.70528877323258,44.96384105797372],[-71.70537120938563,44.964128351915306],[-71.70550149997595,44.96431802693778],[-71.70577969676063,44.96452988559214],[-71.70604069929811,44.96463088598555],[-71.70653077350954,44.96466123783802],[-71.70721762429795,44.96448670262671],[-71.70781794244934,44.964140120651],[-71.70808499785268,44.963931036041735],[-71.70831657654242,44.963613336168414],[-71.70861647425237,44.96345329144383],[-71.70917308230348,44.963824882042665],[-71.70976259373832,44.96399891598653],[-71.71059992952006,44.96414257894967],[-71.71118642298528,44.96415761807599],[-71.71164989837801,44.9640386611099],[-71.7123021768937,44.96365231868827],[-71.71281119909968,44.96360901190394],[-71.71354043943059,44.963385510598364],[-71.71415942576687,44.963110658868935],[-71.71465667485604,44.96275441744174],[-71.71529538292566,44.96278237382143],[-71.71625264978363,44.96287860972177],[-71.71675940749013,44.96299773871811],[-71.71705660768133,44.9629943495662],[-71.71767754059857,44.962833520991246],[-71.71805510374712,44.962845335029044],[-71.71853693149183,44.962747601102635],[-71.71890647774615,44.96255911916115],[-71.71922042411244,44.96224495160799],[-71.71958428468433,44.96224189732841],[-71.72001497631787,44.962152606625516],[-71.72079714243648,44.9622079321659],[-71.72148625729805,44.96207598396653],[-71.72319813600556,44.96150895325781],[-71.72415430584677,44.960996118005355],[-71.7251457673315,44.96025051867468],[-71.72598070236643,44.95933225342531],[-71.72631343027392,44.95924515358977],[-71.72664307420601,44.95904790116794],[-71.72680442802884,44.95901860598721],[-71.7275658251155,44.95898895421066],[-71.72792857274939,44.958901935726146],[-71.72836174577195,44.958958468786925],[-71.72876435583409,44.958903642616754],[-71.72909421347458,44.95874928411012],[-71.72930944233308,44.95851403828172],[-71.7293729730315,44.95830788896216],[-71.72934334925422,44.95806878042537],[-71.72904423815945,44.957717770733666],[-71.72837844167807,44.95740172056838],[-71.72757459242,44.95728322466966],[-71.72734049190404,44.957123287940405],[-71.72709513175423,44.9570377622836],[-71.727255677805,44.95684584161138],[-71.7273364660623,44.956608006879605],[-71.72732782470736,44.956362037812326],[-71.7272401515123,44.95616039887251],[-71.72691895847969,44.95589589171458],[-71.72644467670793,44.9557687029366],[-71.72625052871625,44.955438811219274],[-71.72540614896778,44.95442508578791],[-71.72506533336178,44.95416573508611],[-71.72474146187416,44.95401182839572],[-71.7245918746689,44.95364010244985],[-71.72426289411894,44.9531668194049],[-71.72419185314406,44.952803207826584],[-71.72398081930429,44.95238496040075],[-71.72365548270483,44.952000603145294],[-71.72358465747423,44.95164120578502],[-71.72321437443726,44.95116290271547],[-71.72284550562811,44.95093134855311],[-71.72248660717112,44.95048538726736],[-71.7215717286502,44.94969605328311],[-71.72069109942836,44.94926706834463],[-71.72019906113061,44.949144477337285],[-71.7199581115951,44.948983499420855],[-71.71952284803953,44.94881199195253],[-71.71927476944843,44.94855047776902],[-71.71860574472598,44.94806192972023],[-71.71807566786123,44.94714022685132],[-71.7171411705037,44.94649099300732],[-71.71652495205485,44.946220068055055],[-71.71572931079598,44.94608590326222],[-71.71524062905955,44.946099159628304],[-71.71448204734298,44.946022224372],[-71.71400622974116,44.946064643341685],[-71.713616155938,44.94620675562728]]],[[[-71.6349907964363,44.97113251666804],[-71.63619352517965,44.97138654787089],[-71.63652983793423,44.97155580644368],[-71.63710939417244,44.971960100631236],[-71.63769792661327,44.97255733395574],[-71.63848004738925,44.97309356039429],[-71.63917452948041,44.97388891027038],[-71.63962383952195,44.974309080404225],[-71.64131257543161,44.975260363872636],[-71.64218052965742,44.975712599952004],[-71.64309209557163,44.976050796871746],[-71.64405642289182,44.97636761594881],[-71.64509261826348,44.97658313759662],[-71.64652238587279,44.97702126058984],[-71.647684254288,44.97760558740372],[-71.64902771999088,44.97811574235379],[-71.64969949471451,44.97845947190226],[-71.65020291349282,44.978959310120814],[-71.65031407661358,44.979251888881414],[-71.65115702015268,44.980354507185936],[-71.65127364571954,44.9805084406227],[-71.65190023520859,44.9810772399194],[-71.652417861119,44.981366845794646],[-71.65303805682656,44.98159644381119],[-71.6542639119487,44.98189974778506],[-71.65552429290598,44.9822861510013],[-71.65664979433791,44.983499356592006],[-71.65704752966306,44.98384642130397],[-71.65840486619578,44.98464111566682],[-71.65916612367522,44.984943267281736],[-71.6599294013012,44.98513387484575],[-71.66109581048157,44.98520857597851],[-71.66278436655841,44.985412841779805],[-71.663844515201,44.98541581544195],[-71.66446771430373,44.98533683400418],[-71.66504896858467,44.98516877061103],[-71.66567877114235,44.985177794646745],[-71.66699653307184,44.98592122628673],[-71.66949000484995,44.98675473504324],[-71.6717569982206,44.98735553940625],[-71.67368247399742,44.98805464912668],[-71.67581385223525,44.988613808371746],[-71.67877663030809,44.98919269188263],[-71.67982880720731,44.98961569203005],[-71.68148980785023,44.990820102967945],[-71.68190696830176,44.99123453256782],[-71.68318566533131,44.99226753886005],[-71.68420608543231,44.99317430556048],[-71.68562760824483,44.99471662676655],[-71.68722673866766,44.99603418387485],[-71.68886845286416,44.997089002756226],[-71.69044551872292,44.99773414031403],[-71.69186295594982,44.99819666782543],[-71.69305338332326,44.99866297304386],[-71.69453837530182,44.99897549168233],[-71.69702120581883,44.99919530018387],[-71.69746565811835,44.999266077166816],[-71.6987375957136,44.99963365062839],[-71.69973305522514,44.99975871642306],[-71.7035720057451,44.99972040084603],[-71.70459778009426,45.000235955589],[-71.70391323718786,45.00109858415985],[-71.70357173109677,45.00141102333812],[-71.70281574860522,45.0017044487586],[-71.70228433929927,45.00174850366879],[-71.70064495299947,45.00170442296256],[-71.69865247719954,45.00137483060893],[-71.698103605941,45.00132507932757],[-71.69742988616437,45.00131049844287],[-71.69644198857252,45.00136706028511],[-71.69456640122965,45.001599991890444],[-71.69355241898417,45.00180052104843],[-71.69254366027815,45.002200877734],[-71.69197736639266,45.00250591994511],[-71.69166672401286,45.00273810203861],[-71.67438543405086,44.99357776515967],[-71.65710966720135,44.98441483925359],[-71.64663533088783,44.97906452642382],[-71.63193938356976,44.97121475342693],[-71.62965044942004,44.969933268841295],[-71.63181017083083,44.969497966879864],[-71.63249751763436,44.969484901415136],[-71.63313265984303,44.97019131488966],[-71.63410015878067,44.97082242640974],[-71.6349907964363,44.97113251666804]]],[[[-71.70028081458896,45.004435523651104],[-71.70226096824375,45.004492347929784],[-71.70360414439124,45.004401146732825],[-71.70089113959686,45.00756446436969],[-71.70085353145134,45.00760924297515],[-71.69483629551152,45.00441871068057],[-71.69533741289375,45.00428790739079],[-71.697539616319,45.00405259027368],[-71.69790399860881,45.00406664410466],[-71.69892392234246,45.0042614067879],[-71.70028081458896,45.004435523651104]]]]}}]}