{"type": "FeatureCollection", "name": "Essex_Ferdinand", "features": [{"type": "Feature", "properties": {"OBJECT_ID": 109, "County": "Essex", "RPC": "NVDA", "Municipal_Name": "Ferdinand ", "GEO_ID": "5000925975", "District_Name": "Commercial, Industrial, Residential District", "Abbreviated_District_Name": "Cir", "District_Type": "Mixed with Residential", "Bylaw_Date": null, "Elderly_Housing_District": "No", "District_Mapped": "Yes", "Overlay_District": "No", "Base_Density": null, "GIS_ID": null, "Last_Update": null, "Shape_Length": 16109.923752418938, "Shape_Area": 2354406.249280744, "F1F_Allowance": "Permitted", "F1F_Front_Setback": null, "F1F_Side_Setback": null, "F1F_Rear_Setback": null, "F1F_Frontage": null, "F1F_Max_Height": null, "F1F_Max_Stories": null, "F1F_Min_Lot_Size": 1.0, "F1F_Max_Lot_Building_Coverage": null, "F1F_Max_Lot_Impervious_Coverage": null, "F1F_Min_Parking_Spaces": null, "F1F_Elderly_Housing_Only": null, "F1F_Affordable_Housing_Only": null, "F2F_Allowance": "Permitted", "F2F_Front_Setback": null, "F2F_Side_Setback": null, "F2F_Rear_Setback": null, "F2F_Frontage": null, "F2F_Max_Density": null, "F2F_Max_Height": null, "F2F_Max_Stories": null, "F2F_Min_Lot_Size": null, "F2F_Max_Lot_Building_Coverage": null, "F2F_Max_Lot_Impervious_Coverage": null, "F2F_Min_Parking_Spaces_per_1BR": null, "F2F_Min_Parking_Spaces_per_mult_BR": null, "F2F_Elderly_Housing_Only": "No", "F2F_Affordable_Housing_Only": "No", "F3F_Allowance": "Public Hearing", "F3F_Front_Setback": null, "F3F_Side_Setback": null, "F3F_Rear_Setback": null, "F3F_Frontage": null, "F3F_Max_Density": null, "F3F_Max_Height": null, "F3F_Max_Stories": null, "F3F_Min_Lot_Size": null, "F3F_Max_Lot_Building_Coverage": null, "F3F_Max_Lot_Impervious_Coverage": null, "F3F_Min_Parking_Spaces_per_1BR": null, "F3F_Min_Parking_Spaces_per_mult_BR": null, "F3F_Affordable_Housing_Only": "No", "F3F_Proximity_to_Public_Transit_Required": null, "F3F_Connection_to_Sewage/Water_Required": null, "F4F_Allowance": "Public Hearing", "F4F_Front_Setback": null, "F4F_Side_Setback": null, "F4F_Rear_Setback": null, "F4F_Frontage": null, "F1F_Max_Density": null, "F4F_Max_Density": null, "F4F_Max_Height": null, "F4F_Max_Stories": null, "F4F_Min_Lot_Size": null, "F4F_Max_Lot_Building_Coverage": null, "F4F_Max_Lot_Impervious_Coverage": null, "F4F_Min_Parking_Spaces_per_1BR": null, "F4F_Min_Parking_Spaces_per_mult_BR": null, "F3F_Elderly_Housing_Only": "No", "F4F_Elderly_Housing_Only": "No", "F4F_Affordable_Housing_Only": "No", "F4F_Proximity_to_Public_Transit_Required": null, "F4F_Connection_to_Sewage/Water_Required": null, "ADU_Allowance": "Allowed/Conditional", "ADU_Elderly_Housing_Only": "No", "ADU_Max_Size_as_Percent_of_Primary_Strcture": 30.0, "ADU_Max_Size_in_sq_ft": 600.0, "ADU_Min_Lot_Size": 1.0, "ADU_Max_Bedrooms": 1.0, "ADU_Min_Parking_Spaces": null, "ADU_Owner_Occupancy_Required": "Yes", "ADU_Renter_Occupancy_Prohibited": "No", "ADU_Employee_or_Family_Occupancy_Required": "No", "ADU_Restricted_to_Primary_Structure": "No", "Affordable_Housing_Allowance": "Not Mentioned", "Affordable_Housing_District": "No", "Affordable_Housing_Elderly_Only": null, "Affordable_Housing_Min_Lot_Size": null, "Affordable_Housing_Max_Density": null, "Affordable_Housing_Min_Parking_Spaces_per_mult_BR": null, "Affordable_Housing_Max_Units_per_Building": null, "Affordable_Housing_Min_Parking_Spaces_per_1BR": null, "PRD_Allowance": "Not Mentioned", "PRD_Max_Density": null, "PRD_Max_Units": null, "PRD_Min_Lot_Size": null, "PRD_Mobile_or_Manufactured_Home_Park": null, "PUD_Allowance": "Yes", "PUD_Required_with_Subdivision": "No", "PUD_Requires_Land_Conservation": "Yes", "PUD_Threshold_Number": null, "Notes": "Minimum Lot Width Of 200'", "FIPS6": null}, "geometry": {"type": "MultiPolygon", "coordinates": [[[[-71.71973978364355, 44.76160898239442], [-71.72553196359179, 44.76138461066919], [-71.72609789680246, 44.76141082237379], [-71.72718578892118, 44.761921034820205], [-71.7298119317505, 44.76335585578171], [-71.73355467877414, 44.765694225411856], [-71.73538908512515, 44.766935717698814], [-71.73604977532375, 44.767662556413576], [-71.73745893153321, 44.76982117576341], [-71.73805567870103, 44.77053651486333], [-71.7387916605008, 44.77115052683387], [-71.74110328843952, 44.772803497009726], [-71.74216588299674, 44.773789149605015], [-71.74309913989909, 44.77455693045145], [-71.74719321568722, 44.777194750040515], [-71.75038457278721, 44.77899082289325], [-71.75182165174262, 44.77955239074753], [-71.75711855562925, 44.780831408027694], [-71.75897182024421, 44.781140865103616], [-71.7609223246757, 44.78128037440974], [-71.77056010959116, 44.781759227799796], [-71.77170192572248, 44.78175417941435], [-71.7724410192069, 44.78167839540495], [-71.77752096696496, 44.780674888417145], [-71.77834446614462, 44.780640963086285], [-71.77941361122839, 44.78072967425727], [-71.78029943197919, 44.780924556597135], [-71.78948583395821, 44.78360598941565], [-71.79776522087177, 44.78610555802373], [-71.79969715574556, 44.78656252169663], [-71.8019954253978, 44.78696127763192], [-71.80476061854459, 44.784504415737366], [-71.8029176832565, 44.784297925066994], [-71.80115080497798, 44.78400023343424], [-71.7997696400453, 44.78370999333091], [-71.79863449187748, 44.78340159388978], [-71.79401805793947, 44.78196852498393], [-71.78262866471788, 44.77863518470066], [-71.78115023986501, 44.7782217587374], [-71.78014896008958, 44.778037018777965], [-71.77841551954229, 44.77789758702949], [-71.77703056965835, 44.777953085120565], [-71.77594566078238, 44.778111667295114], [-71.77168719534586, 44.778986734043166], [-71.77075603382838, 44.77901981235083], [-71.75954584183818, 44.77842839869213], [-71.7582323406862, 44.778205714867795], [-71.7533302626921, 44.77702851685475], [-71.75285140562016, 44.776860775371084], [-71.75222455971452, 44.77655010920228], [-71.74962037295434, 44.775065347924325], [-71.74585165113368, 44.77263873821147], [-71.74397773110968, 44.77097823107182], [-71.74117297075307, 44.76892553408709], [-71.73929659602894, 44.766177509429745], [-71.7387804921727, 44.7655901371628], [-71.73811554623101, 44.764992395340464], [-71.73676219360755, 44.76406518642345], [-71.73309255039568, 44.76172974655738], [-71.72945781609293, 44.75970680733863], [-71.72838474486056, 44.75917995220842], [-71.72772820093857, 44.758922418586295], [-71.72702267005288, 44.75874566141035], [-71.72633533220916, 44.758661102025435], [-71.72537243332657, 44.75864399637221], [-71.72027105686593, 44.75886904007287], [-71.71837307079831, 44.75890276225546], [-71.71973978364355, 44.76160898239442]]]]}}, {"type": "Feature", "properties": {"OBJECT_ID": 110, "County": "Essex", "RPC": "NVDA", "Municipal_Name": "Ferdinand ", "GEO_ID": "5000925975", "District_Name": "Forest, Agriculture, And Single Family Home District", "Abbreviated_District_Name": "Fasf", "District_Type": "Mixed with Residential", "Bylaw_Date": null, "Elderly_Housing_District": "No", "District_Mapped": "Yes", "Overlay_District": "No", "Base_Density": null, "GIS_ID": null, "Last_Update": null, "Shape_Length": 79657.81473446537, "Shape_Area": 136014583.85798493, "F1F_Allowance": "Permitted", "F1F_Front_Setback": null, "F1F_Side_Setback": null, "F1F_Rear_Setback": null, "F1F_Frontage": null, "F1F_Max_Height": null, "F1F_Max_Stories": null, "F1F_Min_Lot_Size": 5.0, "F1F_Max_Lot_Building_Coverage": null, "F1F_Max_Lot_Impervious_Coverage": null, "F1F_Min_Parking_Spaces": null, "F1F_Elderly_Housing_Only": null, "F1F_Affordable_Housing_Only": null, "F2F_Allowance": "Prohibited", "F2F_Front_Setback": null, "F2F_Side_Setback": null, "F2F_Rear_Setback": null, "F2F_Frontage": null, "F2F_Max_Density": null, "F2F_Max_Height": null, "F2F_Max_Stories": null, "F2F_Min_Lot_Size": null, "F2F_Max_Lot_Building_Coverage": null, "F2F_Max_Lot_Impervious_Coverage": null, "F2F_Min_Parking_Spaces_per_1BR": null, "F2F_Min_Parking_Spaces_per_mult_BR": null, "F2F_Elderly_Housing_Only": null, "F2F_Affordable_Housing_Only": null, "F3F_Allowance": "Prohibited", "F3F_Front_Setback": null, "F3F_Side_Setback": null, "F3F_Rear_Setback": null, "F3F_Frontage": null, "F3F_Max_Density": null, "F3F_Max_Height": null, "F3F_Max_Stories": null, "F3F_Min_Lot_Size": null, "F3F_Max_Lot_Building_Coverage": null, "F3F_Max_Lot_Impervious_Coverage": null, "F3F_Min_Parking_Spaces_per_1BR": null, "F3F_Min_Parking_Spaces_per_mult_BR": null, "F3F_Affordable_Housing_Only": null, "F3F_Proximity_to_Public_Transit_Required": null, "F3F_Connection_to_Sewage/Water_Required": null, "F4F_Allowance": "Prohibited", "F4F_Front_Setback": null, "F4F_Side_Setback": null, "F4F_Rear_Setback": null, "F4F_Frontage": null, "F1F_Max_Density": null, "F4F_Max_Density": null, "F4F_Max_Height": null, "F4F_Max_Stories": null, "F4F_Min_Lot_Size": null, "F4F_Max_Lot_Building_Coverage": null, "F4F_Max_Lot_Impervious_Coverage": null, "F4F_Min_Parking_Spaces_per_1BR": null, "F4F_Min_Parking_Spaces_per_mult_BR": null, "F3F_Elderly_Housing_Only": null, "F4F_Elderly_Housing_Only": null, "F4F_Affordable_Housing_Only": null, "F4F_Proximity_to_Public_Transit_Required": null, "F4F_Connection_to_Sewage/Water_Required": null, "ADU_Allowance": "Allowed/Conditional", "ADU_Elderly_Housing_Only": "No", "ADU_Max_Size_as_Percent_of_Primary_Strcture": 30.0, "ADU_Max_Size_in_sq_ft": 600.0, "ADU_Min_Lot_Size": 5.0, "ADU_Max_Bedrooms": 1.0, "ADU_Min_Parking_Spaces": null, "ADU_Owner_Occupancy_Required": "Yes", "ADU_Renter_Occupancy_Prohibited": "No", "ADU_Employee_or_Family_Occupancy_Required": "No", "ADU_Restricted_to_Primary_Structure": "No", "Affordable_Housing_Allowance": "Not Mentioned", "Affordable_Housing_District": "No", "Affordable_Housing_Elderly_Only": null, "Affordable_Housing_Min_Lot_Size": null, "Affordable_Housing_Max_Density": null, "Affordable_Housing_Min_Parking_Spaces_per_mult_BR": null, "Affordable_Housing_Max_Units_per_Building": null, "Affordable_Housing_Min_Parking_Spaces_per_1BR": null, "PRD_Allowance": "Not Mentioned", "PRD_Max_Density": null, "PRD_Max_Units": null, "PRD_Min_Lot_Size": null, "PRD_Mobile_or_Manufactured_Home_Park": null, "PUD_Allowance": "Yes", "PUD_Required_with_Subdivision": "No", "PUD_Requires_Land_Conservation": "Yes", "PUD_Threshold_Number": null, "Notes": "Minimum Lot Width Is 500'", "FIPS6": null}, "geometry": {"type": "MultiPolygon", "coordinates": [[[[-71.68401540439855, 44.63861903012599], [-71.68909369710784, 44.64147627269708], [-71.70525922455279, 44.64980330009815], [-71.71441915220315, 44.65444258359661], [-71.73539184343889, 44.66525227794001], [-71.74953659618036, 44.67238155941539], [-71.75664762323781, 44.676112229595745], [-71.77517390220613, 44.68532459064796], [-71.78495681896065, 44.690281700775515], [-71.79547161428556, 44.69550157088465], [-71.81429611517855, 44.704945351809464], [-71.83312675656096, 44.714386050819904], [-71.84529510863851, 44.72064621113533], [-71.85746609238423, 44.726905083152836], [-71.85014067253819, 44.73429236560398], [-71.83873353609478, 44.74595868214563], [-71.83465229975909, 44.750031431590706], [-71.82093149633172, 44.76209521933517], [-71.80720497070101, 44.77415729781402], [-71.8102668835591, 44.779612125128], [-71.80476061854459, 44.784504415737366], [-71.8029176832565, 44.784297925066994], [-71.80115080497798, 44.78400023343424], [-71.7997696400453, 44.78370999333091], [-71.79863449187748, 44.78340159388978], [-71.79401805793947, 44.78196852498393], [-71.78262866471788, 44.77863518470066], [-71.78115023986501, 44.7782217587374], [-71.78014896008958, 44.778037018777965], [-71.77841551954229, 44.77789758702949], [-71.77703056965835, 44.777953085120565], [-71.77594566078238, 44.778111667295114], [-71.77168719534586, 44.778986734043166], [-71.77075603382838, 44.77901981235083], [-71.75954584183818, 44.77842839869213], [-71.7582323406862, 44.778205714867795], [-71.7533302626921, 44.77702851685475], [-71.75285140562016, 44.776860775371084], [-71.75222455971452, 44.77655010920228], [-71.74962037295434, 44.775065347924325], [-71.74585165113368, 44.77263873821147], [-71.74397773110968, 44.77097823107182], [-71.74117297075307, 44.76892553408709], [-71.73929659602894, 44.766177509429745], [-71.7387804921727, 44.7655901371628], [-71.73811554623101, 44.764992395340464], [-71.73676219360755, 44.76406518642345], [-71.73309255039568, 44.76172974655738], [-71.72945781609293, 44.75970680733863], [-71.72838474486056, 44.75917995220842], [-71.72772820093857, 44.758922418586295], [-71.72702267005288, 44.75874566141035], [-71.72633533220916, 44.758661102025435], [-71.72537243332657, 44.75864399637221], [-71.72027105686593, 44.75886904007287], [-71.71837307079831, 44.75890276225546], [-71.7176095724699, 44.757390963449936], [-71.71796365906916, 44.757481510797966], [-71.71842870211042, 44.757450466629535], [-71.71889552101112, 44.75775151561343], [-71.71959150498976, 44.75798519011526], [-71.71997177081141, 44.75800851283581], [-71.72041444565217, 44.757927931054994], [-71.72070173990203, 44.7577683603078], [-71.72151916334143, 44.75704430618567], [-71.72160338018512, 44.75671693684999], [-71.72181001940099, 44.75651963762766], [-71.7219087382232, 44.756312420169394], [-71.72196666277944, 44.75602072890528], [-71.72191537056506, 44.755792428691585], [-71.7214976887026, 44.75516986859121], [-71.72109162073991, 44.754848070665915], [-71.72074516435737, 44.754742416280216], [-71.72032340273596, 44.75474595210256], [-71.72009571036261, 44.75461911738489], [-71.71982539136293, 44.75454630645152], [-71.71940990343026, 44.75454276712665], [-71.71904325243621, 44.75462220735244], [-71.71866539776374, 44.754807950866976], [-71.71806974694086, 44.755434003974976], [-71.71790410171636, 44.755756446819625], [-71.71732737314008, 44.75607380414302], [-71.7170771886165, 44.756336792002884], [-71.71388257363809, 44.7500111534368], [-71.7126421054308, 44.74725601131721], [-71.7104784597301, 44.74276521916542], [-71.70875953553538, 44.73924018343574], [-71.7059357465813, 44.73378515268385], [-71.70132779475287, 44.72430795836689], [-71.69976220107785, 44.72112932217717], [-71.69216182753382, 44.70249574022203], [-71.68456625093577, 44.68386162761813], [-71.67821930525513, 44.66841854199165], [-71.6718756752616, 44.65297508718946], [-71.66697835290441, 44.63982876743791], [-71.6620832014222, 44.62668222428852], [-71.66927516082669, 44.63063673771349], [-71.68401540439855, 44.63861903012599]], [[-71.72099666689948, 44.663001138059144], [-71.72075835900914, 44.66365878342791], [-71.72078429890801, 44.66485190922085], [-71.72093589056097, 44.665392035003656], [-71.72097369029674, 44.66595326944644], [-71.72109863919036, 44.666195401060136], [-71.72117902285318, 44.666674669811144], [-71.72135603631659, 44.666975096386835], [-71.72136946741477, 44.66723254698175], [-71.72161587269487, 44.66759725838816], [-71.72200502485138, 44.6677999021223], [-71.72251675850217, 44.66785231014747], [-71.72301965732797, 44.667715800216136], [-71.72382778955637, 44.66710022801983], [-71.72417403569028, 44.66645315413525], [-71.72442584435504, 44.66616645020386], [-71.72454915249683, 44.665836919128864], [-71.72463397548267, 44.66549331019737], [-71.72461179735934, 44.66517166344772], [-71.72435414654656, 44.66468374634861], [-71.7243064935391, 44.6642276219668], [-71.72436011232256, 44.66388555063227], [-71.7241073206127, 44.6633552446792], [-71.72377912838436, 44.66299834275087], [-71.72306079994921, 44.66256461790843], [-71.72268816663366, 44.662454850798674], [-71.72197709346877, 44.66244931041983], [-71.72138984646035, 44.66266335367153], [-71.72099666689948, 44.663001138059144]], [[-71.74283330738159, 44.70171748861506], [-71.74257574321467, 44.70193832059961], [-71.74229235339497, 44.70243829415474], [-71.74217329930553, 44.70310252493997], [-71.74224175286089, 44.70337707403943], [-71.74273620418255, 44.70427199442983], [-71.74254732019176, 44.70449076998935], [-71.74248250837151, 44.70472436189029], [-71.74209907550535, 44.70479968087147], [-71.7415106092014, 44.705060304566416], [-71.74106896023505, 44.705392605159446], [-71.74087357632301, 44.70571662424711], [-71.7407822003216, 44.70602557794027], [-71.74086662912164, 44.70671321092401], [-71.74115285288896, 44.70707473085174], [-71.74156067324533, 44.70737444909041], [-71.74220946975933, 44.707717809815556], [-71.74273933465659, 44.70790076120481], [-71.74326320840213, 44.708032986589046], [-71.74366878466009, 44.70802710168192], [-71.7439447613717, 44.70796171207118], [-71.74418039505593, 44.70784015957583], [-71.74465681818376, 44.70773900756674], [-71.74615015740551, 44.70706031927295], [-71.74669805439146, 44.70719079768089], [-71.74717504774159, 44.70711967162183], [-71.74761384491511, 44.706905991804675], [-71.74800538436095, 44.70655245091204], [-71.74811172540392, 44.706373535262536], [-71.74813280702719, 44.70578570762249], [-71.74789849836955, 44.70518595370474], [-71.74778555096172, 44.704459744994026], [-71.74766954254278, 44.70426555940279], [-71.74688681413973, 44.7037362706892], [-71.74645218409069, 44.70336300665139], [-71.74611788707963, 44.702938613427015], [-71.74593095184004, 44.70279290845152], [-71.74565682557125, 44.7026616179951], [-71.7450553742637, 44.702527832375765], [-71.74472748913175, 44.70240392532877], [-71.74451214809982, 44.701878012082], [-71.74426553308068, 44.70168656121345], [-71.74393671762624, 44.70157432477011], [-71.74351522787556, 44.70154838516167], [-71.74315031386313, 44.70158923869942], [-71.74283330738159, 44.70171748861506]], [[-71.71678922487266, 44.73828801683695], [-71.71613909664066, 44.73820501435471], [-71.71526607214724, 44.73817714830194], [-71.71499648246095, 44.73824240324695], [-71.71473442604395, 44.7383829351489], [-71.71444020163713, 44.738668334220655], [-71.71427813677624, 44.73906445012105], [-71.71426316214004, 44.73940667466199], [-71.71434948457231, 44.73970418238548], [-71.71420018312337, 44.74025303231852], [-71.71424895923279, 44.74050262994438], [-71.71448524085739, 44.74077480827324], [-71.71488861438961, 44.74096438438835], [-71.71532005187255, 44.74147897620061], [-71.71594904731245, 44.74183240272784], [-71.71631426780077, 44.74194830118786], [-71.71701341066516, 44.741949846337185], [-71.7179031639355, 44.74186485392808], [-71.71892640114076, 44.74167662612353], [-71.71944409924349, 44.74145355255936], [-71.71993046079557, 44.74114623666491], [-71.72042967555448, 44.740979040645186], [-71.72096749766645, 44.74067919702825], [-71.72126475811429, 44.74030342986356], [-71.72126644171195, 44.739743365558624], [-71.72105143478532, 44.739103832200676], [-71.72068510682345, 44.73875706966039], [-71.71981755705211, 44.738362446427416], [-71.71864277364854, 44.73809873174984], [-71.71813490061706, 44.73805815178693], [-71.7175188529242, 44.73810207107432], [-71.71678922487266, 44.73828801683695]], [[-71.74012467644842, 44.76113320321939], [-71.7396513760388, 44.76119045979595], [-71.73902915280271, 44.761413855552874], [-71.73869358978304, 44.761600075612826], [-71.73773372828748, 44.7615672876719], [-71.73739255982579, 44.76166660166253], [-71.73718543035427, 44.761797806252076], [-71.73690870700581, 44.761782557985605], [-71.7365826224227, 44.76183851858232], [-71.73620977582196, 44.762026381779485], [-71.73600723511476, 44.76227852661382], [-71.73597048569582, 44.76260466881526], [-71.73609596960198, 44.76291939756456], [-71.73644710104941, 44.76323836087187], [-71.73685784411543, 44.763413212555825], [-71.73754307257873, 44.76383796162889], [-71.73786850177252, 44.764137934674096], [-71.73809595733456, 44.76426166081053], [-71.7387892743866, 44.76450911094089], [-71.7394632911538, 44.76451444303648], [-71.74029760163037, 44.76486020480177], [-71.74062422366804, 44.76508019824842], [-71.74120310182313, 44.76519759375559], [-71.74140267135473, 44.765347277326626], [-71.74167834073191, 44.765459341573646], [-71.7419476685682, 44.76550294086662], [-71.7423126349393, 44.76547379074613], [-71.74275947770572, 44.765357641794175], [-71.74301903272841, 44.7652238527088], [-71.74322870651763, 44.765009940043996], [-71.74331636316703, 44.764732344270534], [-71.74326985826606, 44.7643079026877], [-71.74314621712455, 44.7640688218262], [-71.74290138366446, 44.76383133477686], [-71.74262072930814, 44.76368299055757], [-71.74251120366003, 44.76332272285811], [-71.74231691621124, 44.763012480670994], [-71.74162275802924, 44.762401160252594], [-71.74160051069933, 44.76229487090043], [-71.74177034784857, 44.76188456264679], [-71.74177776040052, 44.76170113357526], [-71.74164444345368, 44.761400699821365], [-71.74141003971243, 44.761196837868354], [-71.74100832354625, 44.76103662919938], [-71.7404368404935, 44.76103956900739], [-71.74012467644842, 44.76113320321939]], [[-71.79636438101036, 44.77611369972297], [-71.7958240397174, 44.77668656508457], [-71.79565178963023, 44.777217776356046], [-71.79571224157986, 44.777968577161374], [-71.79591141543064, 44.7783290046452], [-71.79597932473364, 44.778924911885674], [-71.79625298522986, 44.77931472513879], [-71.79673297003112, 44.77957561195153], [-71.79778112234547, 44.77983345940058], [-71.7989055157893, 44.77981373066128], [-71.80002440929748, 44.779638229589914], [-71.8007546674915, 44.77967006284612], [-71.80112428393745, 44.77959200126622], [-71.80143350104332, 44.77944036134569], [-71.80211500020393, 44.77938476659453], [-71.80261019719813, 44.779253800260165], [-71.80290308899139, 44.779072170102225], [-71.80308373421374, 44.77880420634292], [-71.80326788857154, 44.77830125587364], [-71.80317735548122, 44.777916966597424], [-71.80295600522649, 44.77770803236861], [-71.80251183140219, 44.77744883108796], [-71.80239750561815, 44.77725558758265], [-71.80186406170351, 44.77672412723324], [-71.80138397941579, 44.77649052912317], [-71.80107852632253, 44.776407381206454], [-71.800572689024, 44.77635387555822], [-71.79995886075882, 44.776142146811424], [-71.7994862885353, 44.776130038562904], [-71.79898825952189, 44.77591392501075], [-71.79842084602127, 44.77590017456192], [-71.79785610076712, 44.77570015124736], [-71.79737568681003, 44.7756937751057], [-71.79694651324644, 44.775771293293474], [-71.79636438101036, 44.77611369972297]]], [[[-71.72718578892118, 44.761921034820205], [-71.7298119317505, 44.76335585578171], [-71.73355467877414, 44.765694225411856], [-71.73538908512515, 44.766935717698814], [-71.73604977532375, 44.767662556413576], [-71.73745893153321, 44.76982117576341], [-71.73805567870103, 44.77053651486333], [-71.7387916605008, 44.77115052683387], [-71.74110328843952, 44.772803497009726], [-71.74216588299674, 44.773789149605015], [-71.74309913989909, 44.77455693045145], [-71.74719321568722, 44.777194750040515], [-71.75038457278721, 44.77899082289325], [-71.75182165174262, 44.77955239074753], [-71.75711855562925, 44.780831408027694], [-71.75897182024421, 44.781140865103616], [-71.7609223246757, 44.78128037440974], [-71.77056010959116, 44.781759227799796], [-71.77170192572248, 44.78175417941435], [-71.7724410192069, 44.78167839540495], [-71.77752096696496, 44.780674888417145], [-71.77834446614462, 44.780640963086285], [-71.77941361122839, 44.78072967425727], [-71.78029943197919, 44.780924556597135], [-71.78948583395821, 44.78360598941565], [-71.79776522087177, 44.78610555802373], [-71.79969715574556, 44.78656252169663], [-71.8019954253978, 44.78696127763192], [-71.79296561649122, 44.794988678132], [-71.78393329850952, 44.80301533741186], [-71.77489847022089, 44.81104125487651], [-71.76586113039305, 44.81906642993078], [-71.74941977080972, 44.81030185729914], [-71.74153919758868, 44.80620566318877], [-71.73590713503481, 44.79362186122304], [-71.72782125202707, 44.777615714853845], [-71.71973978364355, 44.76160898239442], [-71.72553196359179, 44.76138461066919], [-71.72609789680246, 44.76141082237379], [-71.72718578892118, 44.761921034820205]]]]}}, {"type": "Feature", "properties": {"OBJECT_ID": 111, "County": "Essex", "RPC": "NVDA", "Municipal_Name": "Ferdinand ", "GEO_ID": "5000925975", "District_Name": "Shore Land District", "Abbreviated_District_Name": "Sl", "District_Type": "Mixed with Residential", "Bylaw_Date": null, "Elderly_Housing_District": "No", "District_Mapped": "Yes", "Overlay_District": "No", "Base_Density": null, "GIS_ID": null, "Last_Update": null, "Shape_Length": 17931.42306850292, "Shape_Area": 1518221.0005008702, "F1F_Allowance": "Permitted", "F1F_Front_Setback": 100.0, "F1F_Side_Setback": null, "F1F_Rear_Setback": null, "F1F_Frontage": null, "F1F_Max_Height": 30.0, "F1F_Max_Stories": null, "F1F_Min_Lot_Size": 1.5, "F1F_Max_Lot_Building_Coverage": null, "F1F_Max_Lot_Impervious_Coverage": null, "F1F_Min_Parking_Spaces": null, "F1F_Elderly_Housing_Only": null, "F1F_Affordable_Housing_Only": null, "F2F_Allowance": "Public Hearing", "F2F_Front_Setback": 100.0, "F2F_Side_Setback": null, "F2F_Rear_Setback": null, "F2F_Frontage": null, "F2F_Max_Density": null, "F2F_Max_Height": null, "F2F_Max_Stories": null, "F2F_Min_Lot_Size": null, "F2F_Max_Lot_Building_Coverage": null, "F2F_Max_Lot_Impervious_Coverage": null, "F2F_Min_Parking_Spaces_per_1BR": null, "F2F_Min_Parking_Spaces_per_mult_BR": null, "F2F_Elderly_Housing_Only": "No", "F2F_Affordable_Housing_Only": "No", "F3F_Allowance": "Prohibited", "F3F_Front_Setback": null, "F3F_Side_Setback": null, "F3F_Rear_Setback": null, "F3F_Frontage": null, "F3F_Max_Density": null, "F3F_Max_Height": null, "F3F_Max_Stories": null, "F3F_Min_Lot_Size": null, "F3F_Max_Lot_Building_Coverage": null, "F3F_Max_Lot_Impervious_Coverage": null, "F3F_Min_Parking_Spaces_per_1BR": null, "F3F_Min_Parking_Spaces_per_mult_BR": null, "F3F_Affordable_Housing_Only": null, "F3F_Proximity_to_Public_Transit_Required": null, "F3F_Connection_to_Sewage/Water_Required": null, "F4F_Allowance": "Prohibited", "F4F_Front_Setback": null, "F4F_Side_Setback": null, "F4F_Rear_Setback": null, "F4F_Frontage": null, "F1F_Max_Density": null, "F4F_Max_Density": null, "F4F_Max_Height": null, "F4F_Max_Stories": null, "F4F_Min_Lot_Size": null, "F4F_Max_Lot_Building_Coverage": null, "F4F_Max_Lot_Impervious_Coverage": null, "F4F_Min_Parking_Spaces_per_1BR": null, "F4F_Min_Parking_Spaces_per_mult_BR": null, "F3F_Elderly_Housing_Only": null, "F4F_Elderly_Housing_Only": null, "F4F_Affordable_Housing_Only": null, "F4F_Proximity_to_Public_Transit_Required": null, "F4F_Connection_to_Sewage/Water_Required": null, "ADU_Allowance": "Allowed/Conditional", "ADU_Elderly_Housing_Only": "No", "ADU_Max_Size_as_Percent_of_Primary_Strcture": 30.0, "ADU_Max_Size_in_sq_ft": 600.0, "ADU_Min_Lot_Size": 1.5, "ADU_Max_Bedrooms": 1.0, "ADU_Min_Parking_Spaces": null, "ADU_Owner_Occupancy_Required": "Yes", "ADU_Renter_Occupancy_Prohibited": "No", "ADU_Employee_or_Family_Occupancy_Required": "No", "ADU_Restricted_to_Primary_Structure": "No", "Affordable_Housing_Allowance": "Not Mentioned", "Affordable_Housing_District": "No", "Affordable_Housing_Elderly_Only": null, "Affordable_Housing_Min_Lot_Size": null, "Affordable_Housing_Max_Density": null, "Affordable_Housing_Min_Parking_Spaces_per_mult_BR": null, "Affordable_Housing_Max_Units_per_Building": null, "Affordable_Housing_Min_Parking_Spaces_per_1BR": null, "PRD_Allowance": "Not Mentioned", "PRD_Max_Density": null, "PRD_Max_Units": null, "PRD_Min_Lot_Size": null, "PRD_Mobile_or_Manufactured_Home_Park": null, "PUD_Allowance": "Yes", "PUD_Required_with_Subdivision": "No", "PUD_Requires_Land_Conservation": "Yes", "PUD_Threshold_Number": null, "Notes": "Minimum Lot Width Of 200'", "FIPS6": null}, "geometry": {"type": "MultiPolygon", "coordinates": [[[[-71.72377912838436, 44.66299834275087], [-71.7241073206127, 44.6633552446792], [-71.72436011232256, 44.66388555063227], [-71.7243064935391, 44.6642276219668], [-71.72435414654656, 44.66468374634861], [-71.72461179735934, 44.66517166344772], [-71.72463397548267, 44.66549331019737], [-71.72454915249683, 44.665836919128864], [-71.72442584435504, 44.66616645020386], [-71.72417403569028, 44.66645315413525], [-71.72382778955637, 44.66710022801983], [-71.72301965732797, 44.667715800216136], [-71.72251675850217, 44.66785231014747], [-71.72200502485138, 44.6677999021223], [-71.72161587269487, 44.66759725838816], [-71.72136946741477, 44.66723254698175], [-71.72135603631659, 44.666975096386835], [-71.72117902285318, 44.666674669811144], [-71.72109863919036, 44.666195401060136], [-71.72097369029674, 44.66595326944644], [-71.72093589056097, 44.665392035003656], [-71.72078429890801, 44.66485190922085], [-71.72075835900914, 44.66365878342791], [-71.72099666689948, 44.663001138059144], [-71.72138984646035, 44.66266335367153], [-71.72197709346877, 44.66244931041983], [-71.72268816663366, 44.662454850798674], [-71.72306079994921, 44.66256461790843], [-71.72377912838436, 44.66299834275087]], [[-71.72184091223534, 44.66361541043386], [-71.72169293572252, 44.66381787239725], [-71.72179687212625, 44.6642208390786], [-71.7217335750288, 44.6643618872853], [-71.72173047820635, 44.66471660082591], [-71.7219269803354, 44.66547729228297], [-71.721922075476, 44.665842903132585], [-71.72207947516044, 44.665954855037825], [-71.72210155369207, 44.666482893831834], [-71.72234252917958, 44.666840435793645], [-71.72231185142763, 44.66709868471887], [-71.72235878218859, 44.66716236741356], [-71.72251814497227, 44.66712808032806], [-71.72253714082736, 44.666979448048295], [-71.72267809248567, 44.66679405100122], [-71.72292073692701, 44.66678344183227], [-71.72302058159413, 44.66672807256278], [-71.7233073300533, 44.666097372706346], [-71.72352483358652, 44.6659282194298], [-71.72367711386423, 44.66539408410667], [-71.72363532456409, 44.6652085989514], [-71.72337910117955, 44.66481072064427], [-71.72333569389197, 44.664104622410925], [-71.72340906506476, 44.663983179911796], [-71.72327975021874, 44.66395062881072], [-71.7232091283286, 44.66360152241937], [-71.72315773927905, 44.663521421319324], [-71.72301449783755, 44.66347464468443], [-71.72252713145954, 44.66313486143477], [-71.7222301182436, 44.66311086307033], [-71.72201744407157, 44.66318258494046], [-71.72183753732565, 44.66334964912692], [-71.72184091223534, 44.66361541043386]]], [[[-71.74472748913175, 44.70240392532877], [-71.7450553742637, 44.702527832375765], [-71.74565682557125, 44.7026616179951], [-71.74593095184004, 44.70279290845152], [-71.74611788707963, 44.702938613427015], [-71.74645218409069, 44.70336300665139], [-71.74688681413973, 44.7037362706892], [-71.74766954254278, 44.70426555940279], [-71.74778555096172, 44.704459744994026], [-71.74789849836955, 44.70518595370474], [-71.74813280702719, 44.70578570762249], [-71.74811172540392, 44.706373535262536], [-71.74800538436095, 44.70655245091204], [-71.74761384491511, 44.706905991804675], [-71.74717504774159, 44.70711967162183], [-71.74669805439146, 44.70719079768089], [-71.74615015740551, 44.70706031927295], [-71.74465681818376, 44.70773900756674], [-71.74418039505593, 44.70784015957583], [-71.7439447613717, 44.70796171207118], [-71.74366878466009, 44.70802710168192], [-71.74326320840213, 44.708032986589046], [-71.74273933465659, 44.70790076120481], [-71.74220946975933, 44.707717809815556], [-71.74156067324533, 44.70737444909041], [-71.74115285288896, 44.70707473085174], [-71.74086662912164, 44.70671321092401], [-71.7407822003216, 44.70602557794027], [-71.74087357632301, 44.70571662424711], [-71.74106896023505, 44.705392605159446], [-71.7415106092014, 44.705060304566416], [-71.74209907550535, 44.70479968087147], [-71.74248250837151, 44.70472436189029], [-71.74254732019176, 44.70449076998935], [-71.74273620418255, 44.70427199442983], [-71.74224175286089, 44.70337707403943], [-71.74217329930553, 44.70310252493997], [-71.74229235339497, 44.70243829415474], [-71.74257574321467, 44.70193832059961], [-71.74283330738159, 44.70171748861506], [-71.74315031386313, 44.70158923869942], [-71.74351522787556, 44.70154838516167], [-71.74393671762624, 44.70157432477011], [-71.74426553308068, 44.70168656121345], [-71.74451214809982, 44.701878012082], [-71.74472748913175, 44.70240392532877]], [[-71.74314178382936, 44.70313584044855], [-71.74361477045069, 44.70383908679427], [-71.74372053573748, 44.704339632811894], [-71.74356346984453, 44.70465757673779], [-71.74344626050502, 44.704734125154395], [-71.74338211915533, 44.70519209492358], [-71.74307114889581, 44.705466865657804], [-71.74258359351961, 44.705406378112926], [-71.74216335508015, 44.70556378871138], [-71.74186235043881, 44.70578001739084], [-71.74174245517823, 44.706060891593985], [-71.74178125717624, 44.70650166169108], [-71.74195316498096, 44.706682236038965], [-71.7420920558217, 44.7067246401459], [-71.74214493882442, 44.70682983155379], [-71.74271211264355, 44.707133277595126], [-71.74344108196509, 44.70735912710857], [-71.74364831192221, 44.70720301005383], [-71.74421281937634, 44.707130792200495], [-71.74478223504288, 44.70681696907831], [-71.74493743784672, 44.70679865534928], [-71.74525731552912, 44.706615843616234], [-71.74549835149416, 44.70655659517695], [-71.74603018160367, 44.70629905705198], [-71.74625068753151, 44.70631444144144], [-71.74676337346105, 44.706499977647844], [-71.74707194643142, 44.706303211438964], [-71.74719852859049, 44.7060969009163], [-71.74717816388707, 44.70586765125323], [-71.74693502867287, 44.705359224008404], [-71.74692646204734, 44.705124361033604], [-71.74684330988357, 44.70495824261695], [-71.74685352237383, 44.7046282290164], [-71.74609626105818, 44.70419243441571], [-71.74599038893864, 44.703998440911825], [-71.74575754675107, 44.70389330292569], [-71.74554432399917, 44.70361022781033], [-71.74543231997967, 44.70357629281152], [-71.74526573266466, 44.703288032227725], [-71.74472498596559, 44.70318501984046], [-71.74423172341135, 44.703002213564574], [-71.74390392392921, 44.70280583489591], [-71.74366281477337, 44.702232082089196], [-71.74345756223458, 44.70223900894761], [-71.7432803190951, 44.702458847415585], [-71.74313217907627, 44.7029810685991], [-71.74314178382936, 44.70313584044855]]], [[[-71.72105143478532, 44.739103832200676], [-71.72126644171195, 44.739743365558624], [-71.72126475811429, 44.74030342986356], [-71.72096749766645, 44.74067919702825], [-71.72042967555448, 44.740979040645186], [-71.71993046079557, 44.74114623666491], [-71.71944409924349, 44.74145355255936], [-71.71892640114076, 44.74167662612353], [-71.7179031639355, 44.74186485392808], [-71.71701341066516, 44.741949846337185], [-71.71631426780077, 44.74194830118786], [-71.71594904731245, 44.74183240272784], [-71.71532005187255, 44.74147897620061], [-71.71488861438961, 44.74096438438835], [-71.71448524085739, 44.74077480827324], [-71.71424895923279, 44.74050262994438], [-71.71420018312337, 44.74025303231852], [-71.71434948457231, 44.73970418238548], [-71.71426316214004, 44.73940667466199], [-71.71427813677624, 44.73906445012105], [-71.71444020163713, 44.738668334220655], [-71.71473442604395, 44.7383829351489], [-71.71499648246095, 44.73824240324695], [-71.71526607214724, 44.73817714830194], [-71.71613909664066, 44.73820501435471], [-71.71678922487266, 44.73828801683695], [-71.7175188529242, 44.73810207107432], [-71.71813490061706, 44.73805815178693], [-71.71864277364854, 44.73809873174984], [-71.71981755705211, 44.738362446427416], [-71.72068510682345, 44.73875706966039], [-71.72105143478532, 44.739103832200676]], [[-71.71697674405455, 44.73896844241551], [-71.7165740483911, 44.73898144065661], [-71.71602497843841, 44.73888587874718], [-71.71557607254996, 44.73889844824453], [-71.71543795094341, 44.73885169065161], [-71.71532091749381, 44.73894430574554], [-71.71521952015152, 44.73920583240591], [-71.71530965953032, 44.73976728534887], [-71.7152903326909, 44.74005682392895], [-71.71516134031772, 44.74028684327224], [-71.71530477810283, 44.74032446588415], [-71.71537500622709, 44.74026628359661], [-71.71550771793063, 44.74043313332526], [-71.71569186520554, 44.740513236141354], [-71.7159825151276, 44.74098173187028], [-71.71649055774229, 44.74126562626634], [-71.71665496182624, 44.74127404691831], [-71.71694193810072, 44.74126602338094], [-71.71736487459467, 44.741177232181656], [-71.7177208700443, 44.741191639144105], [-71.71856394999719, 44.74104145129861], [-71.71884976539673, 44.74091427659626], [-71.71948570618126, 44.7404768559385], [-71.71960115630459, 44.7405014870155], [-71.71990995423485, 44.74040192370158], [-71.72033538201963, 44.74012611481584], [-71.72031057146748, 44.739820880271374], [-71.72017408550528, 44.73959442130769], [-71.72017425025449, 44.73938538613996], [-71.71999371222323, 44.739233854608784], [-71.71947096147781, 44.7390020840833], [-71.71890874565612, 44.738924974342815], [-71.71873891762127, 44.73884040943288], [-71.71853813137093, 44.738842713573256], [-71.71842603873495, 44.73876679808865], [-71.71774571914749, 44.73876843940977], [-71.71717289631786, 44.73891669365401], [-71.7170199755692, 44.739001849041856], [-71.71697674405455, 44.73896844241551]]], [[[-71.72032340273596, 44.75474595210256], [-71.72074516435737, 44.754742416280216], [-71.72109162073991, 44.754848070665915], [-71.7214976887026, 44.75516986859121], [-71.72191537056506, 44.755792428691585], [-71.72196666277944, 44.75602072890528], [-71.7219087382232, 44.756312420169394], [-71.72181001940099, 44.75651963762766], [-71.72160338018512, 44.75671693684999], [-71.72151916334143, 44.75704430618567], [-71.72070173990203, 44.7577683603078], [-71.72041444565217, 44.757927931054994], [-71.71997177081141, 44.75800851283581], [-71.71959150498976, 44.75798519011526], [-71.71889552101112, 44.75775151561343], [-71.71842870211042, 44.757450466629535], [-71.71796365906916, 44.757481510797966], [-71.7176095724699, 44.757390963449936], [-71.7170771886165, 44.756336792002884], [-71.71732737314008, 44.75607380414302], [-71.71790410171636, 44.755756446819625], [-71.71806974694086, 44.755434003974976], [-71.71866539776374, 44.754807950866976], [-71.71904325243621, 44.75462220735244], [-71.71940990343026, 44.75454276712665], [-71.71982539136293, 44.75454630645152], [-71.72009571036261, 44.75461911738489], [-71.72032340273596, 44.75474595210256]], [[-71.7190381623809, 44.75561746057262], [-71.71902378020194, 44.75571887394844], [-71.71891176546147, 44.755766072683436], [-71.71885334886136, 44.75586359063762], [-71.7188855311486, 44.7560716729878], [-71.71869389551311, 44.75625321959456], [-71.71846232556238, 44.75631446267606], [-71.71835772311117, 44.756475470978984], [-71.71816314671626, 44.75649068375463], [-71.7179785328961, 44.756619647316334], [-71.71810574801665, 44.756803455081055], [-71.7184883342607, 44.75669880279001], [-71.7187367012013, 44.75673192586882], [-71.71884811472093, 44.75683345729877], [-71.71919589640646, 44.75698720105834], [-71.71939068897973, 44.75716221839709], [-71.71985461575136, 44.757264191576866], [-71.71986159653126, 44.75732706685714], [-71.71991349851974, 44.75731805431732], [-71.7199783089064, 44.75731670260175], [-71.72017772949204, 44.75713889213336], [-71.72019470717841, 44.75703190796517], [-71.72032198073175, 44.75701604957579], [-71.72029278372615, 44.75687745242437], [-71.72045834216048, 44.75690630235343], [-71.72063905806908, 44.75676706099638], [-71.72064225016717, 44.756717226378015], [-71.72051530075264, 44.75671823714531], [-71.72051492048104, 44.75664346884285], [-71.72066600478801, 44.756406203965646], [-71.72094846379915, 44.75621409867328], [-71.72100420576196, 44.75602325859806], [-71.72096360235699, 44.75596206271095], [-71.72085434048141, 44.75598165061646], [-71.72089483593518, 44.75586186367344], [-71.72054712072995, 44.75541342085632], [-71.72032018809917, 44.75551527868179], [-71.72013470296056, 44.755427264247786], [-71.72002188151603, 44.75552439956965], [-71.71975467063939, 44.75554100694888], [-71.71967994086428, 44.755509101446826], [-71.71991212813717, 44.755392534980444], [-71.71966158671674, 44.755333486892134], [-71.71958802228602, 44.75521662136845], [-71.7193484419785, 44.75529067382901], [-71.7192198329943, 44.75540624383624], [-71.7190381623809, 44.75561746057262]]], [[[-71.74177034784857, 44.76188456264679], [-71.74160051069933, 44.76229487090043], [-71.74162275802924, 44.762401160252594], [-71.74231691621124, 44.763012480670994], [-71.74251120366003, 44.76332272285811], [-71.74262072930814, 44.76368299055757], [-71.74290138366446, 44.76383133477686], [-71.74314621712455, 44.7640688218262], [-71.74326985826606, 44.7643079026877], [-71.74331636316703, 44.764732344270534], [-71.74322870651763, 44.765009940043996], [-71.74301903272841, 44.7652238527088], [-71.74275947770572, 44.765357641794175], [-71.7423126349393, 44.76547379074613], [-71.7419476685682, 44.76550294086662], [-71.74167834073191, 44.765459341573646], [-71.74140267135473, 44.765347277326626], [-71.74120310182313, 44.76519759375559], [-71.74062422366804, 44.76508019824842], [-71.74029760163037, 44.76486020480177], [-71.7394632911538, 44.76451444303648], [-71.7387892743866, 44.76450911094089], [-71.73809595733456, 44.76426166081053], [-71.73786850177252, 44.764137934674096], [-71.73754307257873, 44.76383796162889], [-71.73685784411543, 44.763413212555825], [-71.73644710104941, 44.76323836087187], [-71.73609596960198, 44.76291939756456], [-71.73597048569582, 44.76260466881526], [-71.73600723511476, 44.76227852661382], [-71.73620977582196, 44.762026381779485], [-71.7365826224227, 44.76183851858232], [-71.73690870700581, 44.761782557985605], [-71.73718543035427, 44.761797806252076], [-71.73739255982579, 44.76166660166253], [-71.73773372828748, 44.7615672876719], [-71.73869358978304, 44.761600075612826], [-71.73902915280271, 44.761413855552874], [-71.7396513760388, 44.76119045979595], [-71.74012467644842, 44.76113320321939], [-71.7404368404935, 44.76103956900739], [-71.74100832354625, 44.76103662919938], [-71.74141003971243, 44.761196837868354], [-71.74164444345368, 44.761400699821365], [-71.74177776040052, 44.76170113357526], [-71.74177034784857, 44.76188456264679]], [[-71.73973170124897, 44.76197948228771], [-71.73952553708024, 44.76200131987821], [-71.73947828280279, 44.762117629771275], [-71.73937493062382, 44.7620912105599], [-71.73941708171625, 44.76218931691791], [-71.739358714434, 44.76223004468721], [-71.73910596584528, 44.762219820898224], [-71.73902768480549, 44.76231369989883], [-71.73888373720476, 44.76227160431332], [-71.73875035533744, 44.762339283299745], [-71.73844337886774, 44.76232267261335], [-71.73791938175584, 44.76224025302443], [-71.73785473667186, 44.76239253764694], [-71.73770592636558, 44.76245084165821], [-71.73760521961934, 44.76259765338754], [-71.73746794385396, 44.7625950441514], [-71.73719658910015, 44.76269427382959], [-71.73704409033573, 44.76258185178564], [-71.7369961530264, 44.76247087330134], [-71.73692934181422, 44.762480935953185], [-71.73695556547196, 44.76260951094787], [-71.73706173082265, 44.76271066007916], [-71.7375201960501, 44.76282881493155], [-71.7376692167843, 44.76304263473317], [-71.73828266864993, 44.76337359124502], [-71.73855830684003, 44.76366032294573], [-71.73876516410179, 44.763692660402036], [-71.73907013136973, 44.76385325817503], [-71.73936660160713, 44.763833007423514], [-71.73950498772672, 44.76374977386539], [-71.73967087819187, 44.763776719124785], [-71.74047230907344, 44.76410719009567], [-71.7406227173656, 44.764214634275504], [-71.74075174206763, 44.76419229178893], [-71.74104573553593, 44.764379612179326], [-71.74112608557351, 44.76449506355079], [-71.74123108401744, 44.7643859813488], [-71.74144713255511, 44.76444059717671], [-71.74138480627748, 44.764232663200445], [-71.74148615241536, 44.76421949319306], [-71.74168279909476, 44.76437611492404], [-71.74176716191599, 44.76456024236952], [-71.74192583032416, 44.76458883901232], [-71.7419927192773, 44.76480553740821], [-71.74206093873313, 44.764756215747674], [-71.74214349400029, 44.76470349396449], [-71.74234913658273, 44.76473149643579], [-71.74229340640439, 44.76438618817867], [-71.7421547588732, 44.76429599796715], [-71.74220526273875, 44.764490271760685], [-71.74216549217913, 44.764586102024396], [-71.74208827541568, 44.76459765816869], [-71.74205014781863, 44.76438458473673], [-71.74175188499689, 44.76434831314162], [-71.74166535566383, 44.764058507559895], [-71.74155745057199, 44.764013253057946], [-71.74151306662495, 44.76390991506148], [-71.74165960771941, 44.76376331069526], [-71.74165901257658, 44.763712734976615], [-71.74151951871897, 44.76369803740389], [-71.7415939447718, 44.7635303256897], [-71.74147116720914, 44.76352088380587], [-71.74139076488183, 44.76341063464162], [-71.74145699127813, 44.76332009359628], [-71.741198509554, 44.76318961940335], [-71.74065033943465, 44.76255962985129], [-71.74066377594333, 44.762449846591494], [-71.7405781102877, 44.762375493115485], [-71.74050387546777, 44.762063451647556], [-71.7406949599174, 44.76200819766464], [-71.74076854652183, 44.761905649948496], [-71.74056531128284, 44.76197306011864], [-71.74041207242975, 44.7618982544326], [-71.74065247520767, 44.76175046407], [-71.74082079887118, 44.76177389263135], [-71.74075434008905, 44.76169804443648], [-71.74031651052121, 44.76184604540698], [-71.74006628584512, 44.76181693809461], [-71.73985107408357, 44.76188246119505], [-71.73973170124897, 44.76197948228771]]], [[[-71.7994862885353, 44.776130038562904], [-71.79995886075882, 44.776142146811424], [-71.800572689024, 44.77635387555822], [-71.80107852632253, 44.776407381206454], [-71.80138397941579, 44.77649052912317], [-71.80186406170351, 44.77672412723324], [-71.80239750561815, 44.77725558758265], [-71.80251183140219, 44.77744883108796], [-71.80295600522649, 44.77770803236861], [-71.80317735548122, 44.777916966597424], [-71.80326788857154, 44.77830125587364], [-71.80308373421374, 44.77880420634292], [-71.80290308899139, 44.779072170102225], [-71.80261019719813, 44.779253800260165], [-71.80211500020393, 44.77938476659453], [-71.80143350104332, 44.77944036134569], [-71.80112428393745, 44.77959200126622], [-71.8007546674915, 44.77967006284612], [-71.80002440929748, 44.779638229589914], [-71.7989055157893, 44.77981373066128], [-71.79778112234547, 44.77983345940058], [-71.79673297003112, 44.77957561195153], [-71.79625298522986, 44.77931472513879], [-71.79597932473364, 44.778924911885674], [-71.79591141543064, 44.7783290046452], [-71.79571224157986, 44.777968577161374], [-71.79565178963023, 44.777217776356046], [-71.7958240397174, 44.77668656508457], [-71.79636438101036, 44.77611369972297], [-71.79694651324644, 44.775771293293474], [-71.79737568681003, 44.7756937751057], [-71.79785610076712, 44.77570015124736], [-71.79842084602127, 44.77590017456192], [-71.79898825952189, 44.77591392501075], [-71.7994862885353, 44.776130038562904]], [[-71.79706054468026, 44.77658740066413], [-71.79679552893387, 44.77693763707208], [-71.79670113784103, 44.776969274019834], [-71.7966104289748, 44.77728079423186], [-71.79669892443017, 44.7774424095723], [-71.79661673548168, 44.77761541841151], [-71.79668955178441, 44.77763321783451], [-71.79677418524481, 44.777831919376396], [-71.7966690704918, 44.777893259831956], [-71.79672766235645, 44.77793808469554], [-71.7967839761694, 44.777888926202706], [-71.79687346309566, 44.77795886484314], [-71.79682787671437, 44.777988293444224], [-71.79690529225671, 44.77820933543126], [-71.79686013747005, 44.77849404745346], [-71.79695641699287, 44.77857769371471], [-71.79688897990906, 44.77868986944619], [-71.79702896102758, 44.77890886227779], [-71.7974134352014, 44.779044864207314], [-71.79765351671116, 44.7790439139427], [-71.79771201149462, 44.77909627975111], [-71.79801743880462, 44.77915521208926], [-71.79806338106789, 44.77909602103895], [-71.7982723375155, 44.77907749840602], [-71.79834796027389, 44.779144812970166], [-71.79850467474468, 44.779130850881096], [-71.79847754063132, 44.77907624659863], [-71.79860661009012, 44.77904985342021], [-71.79866135933543, 44.77912936999603], [-71.7987933641763, 44.77913270390748], [-71.79968610260664, 44.77895730123308], [-71.80047936003136, 44.778942290448235], [-71.80068775798465, 44.778980810888505], [-71.80078559368415, 44.77893426601703], [-71.8008003349484, 44.778865045127944], [-71.80122681033274, 44.77869425922178], [-71.80123495997933, 44.7785950375924], [-71.80139971384676, 44.778499487249455], [-71.80154593804936, 44.77851757242092], [-71.80165134511391, 44.77859840976732], [-71.80160744350847, 44.77867668631267], [-71.80147799830691, 44.77872405094053], [-71.80153077555205, 44.77875784009862], [-71.80172387506731, 44.778681813186815], [-71.8018830057453, 44.7787192283869], [-71.801994279437, 44.778648471840874], [-71.80213733779115, 44.77865671000414], [-71.80212782775027, 44.77859691567228], [-71.801898980562, 44.77858820710787], [-71.8018954314401, 44.77853725200956], [-71.80176580094202, 44.77860045586029], [-71.80163555107193, 44.778545849053494], [-71.80155313356323, 44.778465795723754], [-71.80179383807422, 44.77841273729082], [-71.801798681717, 44.778293786707614], [-71.80158583354509, 44.778352065748976], [-71.80141209315804, 44.77833363323149], [-71.8013950037685, 44.77802127259825], [-71.80166594349296, 44.778047676024066], [-71.80171006834917, 44.7781397247765], [-71.80190417409823, 44.778157097964964], [-71.80198455585825, 44.7782712627879], [-71.8021249890648, 44.77832890289657], [-71.80204660435659, 44.77820604385205], [-71.80218489520841, 44.7782739161491], [-71.8023123037825, 44.77821791543777], [-71.8020105223972, 44.77815046511719], [-71.80200021471877, 44.778030001874534], [-71.80165947753974, 44.778008124601065], [-71.80140335521872, 44.77790486320045], [-71.80134216592387, 44.77779298323525], [-71.80159421614538, 44.777655868423274], [-71.80158077870914, 44.77761861139759], [-71.80139714577128, 44.77756052457743], [-71.80128520983585, 44.777601868687846], [-71.80129664920169, 44.77752265843005], [-71.80123758799152, 44.77751743221351], [-71.80119015030874, 44.77741805311356], [-71.80127050351277, 44.77738625457735], [-71.80122695293976, 44.777247219102556], [-71.80099188165057, 44.77711699859295], [-71.80082555667452, 44.77706892108092], [-71.80061873699232, 44.777194006887726], [-71.80058575953879, 44.77705746294318], [-71.80039425623842, 44.777066185242944], [-71.80008616810501, 44.77694542343223], [-71.79986323802213, 44.776971326592225], [-71.79972258652899, 44.776806872366464], [-71.79966953614232, 44.77686845114752], [-71.79960768072047, 44.77681120355364], [-71.79920372010952, 44.77684588403306], [-71.79906583776147, 44.77674585900331], [-71.79896828285385, 44.77675769591452], [-71.79870964554654, 44.77657027959517], [-71.79848236710235, 44.776663003303256], [-71.79808656912643, 44.776598672620246], [-71.79801956081265, 44.77668501107592], [-71.79790894880264, 44.77661746136657], [-71.79792003644184, 44.776567848771], [-71.79769159820631, 44.77647483618642], [-71.79780349871479, 44.77642602170608], [-71.79762331106517, 44.776365436570266], [-71.79737963639393, 44.776383658038526], [-71.79739276639805, 44.77645560570684], [-71.79728722142951, 44.77654424075577], [-71.79706054468026, 44.77658740066413]]]]}}]}