{"type":"FeatureCollection","name":"Essex_Lewis","features":[{"type":"Feature","properties":{"OBJECT_ID":315,"County":"Essex","RPC":"NVDA","Municipal_Name":"Lewis","GEO_ID":"5000939775","District_Name":"Forest, Agriculture, And Single Family Home District","Abbreviated_District_Name":"Fasf","District_Type":"Mixed with Residential","Bylaw_Date":null,"Elderly_Housing_District":"No","District_Mapped":"Yes","Overlay_District":"No","Base_Density":null,"FIPS6":null,"GIS_ID":null,"Last_Update":null,"Shape_Length":43179.593776196234,"Shape_Area":100582055.03726852,"F1F_Allowance":"Permitted","F1F_Front_Setback":null,"F1F_Side_Setback":null,"F1F_Rear_Setback":null,"F1F_Frontage":null,"F1F_Max_Height":null,"F1F_Max_Stories":null,"F1F_Min_Lot_Size":5.0,"F1F_Max_Lot_Building_Coverage":null,"F1F_Max_Lot_Impervious_Coverage":null,"F1F_Min_Parking_Spaces":null,"F1F_Elderly_Housing_Only":null,"F1F_Affordable_Housing_Only":null,"F2F_Allowance":"Prohibited","F2F_Front_Setback":null,"F2F_Side_Setback":null,"F2F_Rear_Setback":null,"F2F_Frontage":null,"F2F_Max_Density":null,"F2F_Max_Height":null,"F2F_Max_Stories":null,"F2F_Min_Lot_Size":null,"F2F_Max_Lot_Building_Coverage":null,"F2F_Max_Lot_Impervious_Coverage":null,"F2F_Min_Parking_Spaces_per_1BR":null,"F2F_Min_Parking_Spaces_per_mult_BR":null,"F2F_Elderly_Housing_Only":null,"F2F_Affordable_Housing_Only":null,"F3F_Allowance":"Prohibited","F3F_Front_Setback":null,"F3F_Side_Setback":null,"F3F_Rear_Setback":null,"F3F_Frontage":null,"F3F_Max_Density":null,"F3F_Max_Height":null,"F3F_Max_Stories":null,"F3F_Min_Lot_Size":null,"F3F_Max_Lot_Building_Coverage":null,"F3F_Max_Lot_Impervious_Coverage":null,"F3F_Min_Parking_Spaces_per_1BR":null,"F3F_Min_Parking_Spaces_per_mult_BR":null,"F3F_Affordable_Housing_Only":null,"F3F_Proximity_to_Public_Transit_Required":null,"F3F_Connection_to_Sewage/Water_Required":null,"F4F_Allowance":"Prohibited","F4F_Front_Setback":null,"F4F_Side_Setback":null,"F4F_Rear_Setback":null,"F4F_Frontage":null,"F1F_Max_Density":null,"F4F_Max_Density":null,"F4F_Max_Height":null,"F4F_Max_Stories":null,"F4F_Min_Lot_Size":null,"F4F_Max_Lot_Building_Coverage":null,"F4F_Max_Lot_Impervious_Coverage":null,"F4F_Min_Parking_Spaces_per_1BR":null,"F4F_Min_Parking_Spaces_per_mult_BR":null,"F3F_Elderly_Housing_Only":null,"F4F_Elderly_Housing_Only":null,"F4F_Affordable_Housing_Only":null,"F4F_Proximity_to_Public_Transit_Required":null,"F4F_Connection_to_Sewage/Water_Required":null,"ADU_Allowance":"Allowed/Conditional","ADU_Elderly_Housing_Only":"No","ADU_Max_Size_as_Percent_of_Primary_Strcture":30.0,"ADU_Max_Size_in_sq_ft":600.0,"ADU_Min_Lot_Size":5.0,"ADU_Max_Bedrooms":1.0,"ADU_Min_Parking_Spaces":null,"ADU_Owner_Occupancy_Required":"Yes","ADU_Renter_Occupancy_Prohibited":"No","ADU_Employee_or_Family_Occupancy_Required":"No","ADU_Restricted_to_Primary_Structure":"No","Affordable_Housing_Allowance":"Not Mentioned","Affordable_Housing_District":"No","Affordable_Housing_Elderly_Only":null,"Affordable_Housing_Min_Lot_Size":null,"Affordable_Housing_Max_Density":null,"Affordable_Housing_Min_Parking_Spaces_per_mult_BR":null,"Affordable_Housing_Max_Units_per_Building":null,"Affordable_Housing_Min_Parking_Spaces_per_1BR":null,"PRD_Allowance":"Not Mentioned","PRD_Max_Density":null,"PRD_Max_Units":null,"PRD_Min_Lot_Size":null,"PRD_Mobile_or_Manufactured_Home_Park":null,"PUD_Allowance":"Yes","PUD_Required_with_Subdivision":"No","PUD_Requires_Land_Conservation":"Yes","PUD_Threshold_Number":null,"Notes":"  Minimum Lot Width Is 500'"},"geometry":{"type":"MultiPolygon","coordinates":[[[[-71.74955852470642,44.92249537367193],[-71.76652097259577,44.931155212687216],[-71.77873825983002,44.91713265829172],[-71.79094957842618,44.90310872530094],[-71.80315493406916,44.88908341561566],[-71.81535433243918,44.875056731135054],[-71.82482045829528,44.86514461184929],[-71.83428332461244,44.855231671556616],[-71.81716972882852,44.84619417718055],[-71.80006149887832,44.83715413717138],[-71.78295863324085,44.82811155394852],[-71.76586113039305,44.81906642993078],[-71.74941977080972,44.81030185729914],[-71.74153919758868,44.80620566318877],[-71.73049101518825,44.80045800207339],[-71.71874518438804,44.81454929853794],[-71.70699360055981,44.82863931189652],[-71.70495296201096,44.83122490902612],[-71.69551712666957,44.84218686868007],[-71.68607769347852,44.85314800186378],[-71.67663465975325,44.86410830768962],[-71.66718802280734,44.87506778526954],[-71.66369503547224,44.879007416717315],[-71.6744208683594,44.88444690833263],[-71.68514873014597,44.88988540195207],[-71.69587862113514,44.89532289700286],[-71.70661054162976,44.90075939291202],[-71.7173444919323,44.90619488910663],[-71.72808047234483,44.911629385013576],[-71.7388184831691,44.917062880059746],[-71.74955852470642,44.92249537367193]],[[-71.77997857487023,44.887468167580536],[-71.77963125213759,44.887394923411534],[-71.77931713380794,44.887254950882316],[-71.77892500663215,44.886988046978196],[-71.7787270940292,44.88675961374484],[-71.77828525831262,44.886558236260825],[-71.77805744507872,44.886288776213966],[-71.77766870460577,44.883778725560454],[-71.7768510358166,44.882327902200046],[-71.7766933533346,44.881466812331716],[-71.77685538629753,44.87904416435254],[-71.77691798600432,44.87886420784725],[-71.77718874103333,44.87855755331503],[-71.77755074491844,44.878314335895304],[-71.7780715557227,44.87811843655888],[-71.77860621378387,44.87799995202916],[-71.77911447272052,44.878004271077415],[-71.77974579468768,44.878145699174894],[-71.78005358065012,44.87830293828619],[-71.78040983247847,44.8785759514442],[-71.78116962773696,44.87883868903343],[-71.78156854510348,44.87914484344907],[-71.7817747978429,44.87940471964939],[-71.78190665310592,44.8797484467674],[-71.78229777344619,44.8799095603288],[-71.78268088292255,44.88029537262697],[-71.78279555583451,44.88060060891141],[-71.78294581533035,44.88166169962916],[-71.78422268830825,44.88357075339559],[-71.78502941838096,44.88426782945122],[-71.78520374643453,44.88462151101192],[-71.78510248114286,44.88536127725092],[-71.78484695859353,44.88595365391879],[-71.78453014449816,44.88638375531494],[-71.78417496500421,44.8866544963101],[-71.78373983887964,44.88684275820409],[-71.78340088429104,44.88691351057467],[-71.78226092673742,44.88687949655539],[-71.78192837309267,44.887050231124],[-71.78117059027039,44.88723187715193],[-71.78070894907341,44.887417016160725],[-71.77997857487023,44.887468167580536]]]]}},{"type":"Feature","properties":{"OBJECT_ID":316,"County":"Essex","RPC":"NVDA","Municipal_Name":"Lewis","GEO_ID":"5000939775","District_Name":"Shore Land District","Abbreviated_District_Name":"Sl","District_Type":"Mixed with Residential","Bylaw_Date":null,"Elderly_Housing_District":"No","District_Mapped":"Yes","Overlay_District":"No","Base_Density":null,"FIPS6":null,"GIS_ID":null,"Last_Update":null,"Shape_Length":5175.5926896403025,"Shape_Area":197038.77950410312,"F1F_Allowance":"Permitted","F1F_Front_Setback":100.0,"F1F_Side_Setback":null,"F1F_Rear_Setback":null,"F1F_Frontage":null,"F1F_Max_Height":30.0,"F1F_Max_Stories":null,"F1F_Min_Lot_Size":1.5,"F1F_Max_Lot_Building_Coverage":null,"F1F_Max_Lot_Impervious_Coverage":null,"F1F_Min_Parking_Spaces":null,"F1F_Elderly_Housing_Only":null,"F1F_Affordable_Housing_Only":null,"F2F_Allowance":"Public Hearing","F2F_Front_Setback":100.0,"F2F_Side_Setback":null,"F2F_Rear_Setback":null,"F2F_Frontage":null,"F2F_Max_Density":null,"F2F_Max_Height":null,"F2F_Max_Stories":null,"F2F_Min_Lot_Size":null,"F2F_Max_Lot_Building_Coverage":null,"F2F_Max_Lot_Impervious_Coverage":null,"F2F_Min_Parking_Spaces_per_1BR":null,"F2F_Min_Parking_Spaces_per_mult_BR":null,"F2F_Elderly_Housing_Only":"No","F2F_Affordable_Housing_Only":"No","F3F_Allowance":"Prohibited","F3F_Front_Setback":null,"F3F_Side_Setback":null,"F3F_Rear_Setback":null,"F3F_Frontage":null,"F3F_Max_Density":null,"F3F_Max_Height":null,"F3F_Max_Stories":null,"F3F_Min_Lot_Size":null,"F3F_Max_Lot_Building_Coverage":null,"F3F_Max_Lot_Impervious_Coverage":null,"F3F_Min_Parking_Spaces_per_1BR":null,"F3F_Min_Parking_Spaces_per_mult_BR":null,"F3F_Affordable_Housing_Only":null,"F3F_Proximity_to_Public_Transit_Required":null,"F3F_Connection_to_Sewage/Water_Required":null,"F4F_Allowance":"Prohibited","F4F_Front_Setback":null,"F4F_Side_Setback":null,"F4F_Rear_Setback":null,"F4F_Frontage":null,"F1F_Max_Density":null,"F4F_Max_Density":null,"F4F_Max_Height":null,"F4F_Max_Stories":null,"F4F_Min_Lot_Size":null,"F4F_Max_Lot_Building_Coverage":null,"F4F_Max_Lot_Impervious_Coverage":null,"F4F_Min_Parking_Spaces_per_1BR":null,"F4F_Min_Parking_Spaces_per_mult_BR":null,"F3F_Elderly_Housing_Only":null,"F4F_Elderly_Housing_Only":null,"F4F_Affordable_Housing_Only":null,"F4F_Proximity_to_Public_Transit_Required":null,"F4F_Connection_to_Sewage/Water_Required":null,"ADU_Allowance":"Allowed/Conditional","ADU_Elderly_Housing_Only":"No","ADU_Max_Size_as_Percent_of_Primary_Strcture":30.0,"ADU_Max_Size_in_sq_ft":600.0,"ADU_Min_Lot_Size":1.5,"ADU_Max_Bedrooms":1.0,"ADU_Min_Parking_Spaces":null,"ADU_Owner_Occupancy_Required":"Yes","ADU_Renter_Occupancy_Prohibited":"No","ADU_Employee_or_Family_Occupancy_Required":"No","ADU_Restricted_to_Primary_Structure":"No","Affordable_Housing_Allowance":"Not Mentioned","Affordable_Housing_District":"No","Affordable_Housing_Elderly_Only":null,"Affordable_Housing_Min_Lot_Size":null,"Affordable_Housing_Max_Density":null,"Affordable_Housing_Min_Parking_Spaces_per_mult_BR":null,"Affordable_Housing_Max_Units_per_Building":null,"Affordable_Housing_Min_Parking_Spaces_per_1BR":null,"PRD_Allowance":"Not Mentioned","PRD_Max_Density":null,"PRD_Max_Units":null,"PRD_Min_Lot_Size":null,"PRD_Mobile_or_Manufactured_Home_Park":null,"PUD_Allowance":"Yes","PUD_Required_with_Subdivision":"No","PUD_Requires_Land_Conservation":"Yes","PUD_Threshold_Number":null,"Notes":"  Minimum Lot Width Of 200'"},"geometry":{"type":"MultiPolygon","coordinates":[[[[-71.77997857487023,44.887468167580536],[-71.78070894907341,44.887417016160725],[-71.78117059027039,44.88723187715193],[-71.78192837309267,44.887050231124],[-71.78226092673742,44.88687949655539],[-71.78340088429104,44.88691351057467],[-71.78373983887964,44.88684275820409],[-71.78417496500421,44.8866544963101],[-71.78453014449816,44.88638375531494],[-71.78484695859353,44.88595365391879],[-71.78510248114286,44.88536127725092],[-71.78520374643453,44.88462151101192],[-71.78502941838096,44.88426782945122],[-71.78422268830825,44.88357075339559],[-71.78294581533035,44.88166169962916],[-71.78279555583451,44.88060060891141],[-71.78268088292255,44.88029537262697],[-71.78229777344619,44.8799095603288],[-71.78190665310592,44.8797484467674],[-71.7817747978429,44.87940471964939],[-71.78156854510348,44.87914484344907],[-71.78116962773696,44.87883868903343],[-71.78040983247847,44.8785759514442],[-71.78005358065012,44.87830293828619],[-71.77974579468768,44.878145699174894],[-71.77911447272052,44.878004271077415],[-71.77860621378387,44.87799995202916],[-71.7780715557227,44.87811843655888],[-71.77755074491844,44.878314335895304],[-71.77718874103333,44.87855755331503],[-71.77691798600432,44.87886420784725],[-71.77685538629753,44.87904416435254],[-71.7766933533346,44.881466812331716],[-71.7768510358166,44.882327902200046],[-71.77766870460577,44.883778725560454],[-71.77805744507872,44.886288776213966],[-71.77828525831262,44.886558236260825],[-71.7787270940292,44.88675961374484],[-71.77892500663215,44.886988046978196],[-71.77931713380794,44.887254950882316],[-71.77963125213759,44.887394923411534],[-71.77997857487023,44.887468167580536]],[[-71.78014957864202,44.88678089317166],[-71.77995790330543,44.88674242967306],[-71.77966814000098,44.886550817115335],[-71.77940976919707,44.886258074231044],[-71.77916315521125,44.886128825430575],[-71.77901028722127,44.88610509339274],[-71.7789483620976,44.886026052684265],[-71.7788725163729,44.88481226198565],[-71.77874662302311,44.884706720599986],[-71.77864953240928,44.88368402042451],[-71.77844815600211,44.8833190146562],[-71.77845433259853,44.88321970659897],[-71.77778145896418,44.882147202032634],[-71.77774628279155,44.88196421509402],[-71.77772854216482,44.88149040255926],[-71.77765488065982,44.88138888066437],[-71.77777375124145,44.880466801203255],[-71.77772096934126,44.88030502919834],[-71.77783177546455,44.8796226265843],[-71.77781443417,44.87911687412651],[-71.7781118905353,44.87887200670543],[-71.7786995028264,44.87868233372185],[-71.77903377579251,44.87869146542231],[-71.77938695153664,44.878798440093654],[-71.77966222189873,44.87903261668902],[-71.7796684716941,44.879130202597985],[-71.77954555295355,44.879182701220564],[-71.78001188134188,44.87920867920474],[-71.78057011299116,44.8793755270401],[-71.78089321132673,44.87968271342888],[-71.7809535029041,44.87985173033752],[-71.78086906439509,44.88011729240585],[-71.78090061716357,44.880195600978254],[-71.78102433007962,44.88027260003795],[-71.78137807816717,44.88032450105838],[-71.78169834495016,44.88046320822487],[-71.78184133224929,44.88070014602069],[-71.78188818207282,44.881655036859655],[-71.78202337565578,44.8819184728251],[-71.78232958739247,44.88228242056469],[-71.78269438526145,44.88295368557691],[-71.7829533351656,44.88320008085798],[-71.78307102096493,44.88347762373431],[-71.78327050302788,44.88369187726386],[-71.78335435419977,44.883972717914816],[-71.78383093593025,44.88427734836144],[-71.78423930140515,44.88466325773074],[-71.78415872917424,44.88521987011445],[-71.78398831601672,44.8854778789126],[-71.78395320677983,44.88569588032039],[-71.78360756050554,44.88610000865776],[-71.78317391120414,44.88624099784946],[-71.78285609171252,44.886228475659],[-71.7826799774009,44.88615006877006],[-71.7822939872252,44.886194077564404],[-71.78225414297428,44.8861407349815],[-71.78185077373053,44.88609626368328],[-71.78154840172189,44.88641903943708],[-71.78133073997313,44.88642432901992],[-71.7810807642083,44.88654423977461],[-71.78057206736439,44.88662211658719],[-71.78038311162358,44.88677174636919],[-71.78014957864202,44.88678089317166]]]]}}]}