{"type": "FeatureCollection", "name": "Essex_AverysGore", "features": [{"type": "Feature", "properties": {"OBJECT_ID": 1738, "County": "Essex", "RPC": "NVDA", "Municipal_Name": "Averys Gore ", "GEO_ID": "5000902162", "District_Name": "Forest, Agriculture, and Single Family Home District", "Abbreviated_District_Name": "FASF", "District_Type": "Mixed with Residential", "Bylaw_Date": null, "Elderly_Housing_District": "No", "District_Mapped": "Yes", "Overlay_District": "No", "Base_Density": null, "GIS_ID": null, "Last_Update": null, "Shape_Length": 32336.565819238218, "Shape_Area": 47068570.13450121, "F1F_Allowance": "Permitted", "F1F_Front_Setback": null, "F1F_Side_Setback": null, "F1F_Rear_Setback": null, "F1F_Frontage": null, "F1F_Max_Height": null, "F1F_Max_Stories": null, "F1F_Min_Lot_Size": 5.0, "F1F_Max_Lot_Building_Coverage": null, "F1F_Max_Lot_Impervious_Coverage": null, "F1F_Min_Parking_Spaces": null, "F1F_Elderly_Housing_Only": null, "F1F_Affordable_Housing_Only": null, "F2F_Allowance": "Prohibited", "F2F_Front_Setback": null, "F2F_Side_Setback": null, "F2F_Rear_Setback": null, "F2F_Frontage": null, "F2F_Max_Density": null, "F2F_Max_Height": null, "F2F_Max_Stories": null, "F2F_Min_Lot_Size": null, "F2F_Max_Lot_Building_Coverage": null, "F2F_Max_Lot_Impervious_Coverage": null, "F2F_Min_Parking_Spaces_per_1BR": null, "F2F_Min_Parking_Spaces_per_mult_BR": null, "F2F_Elderly_Housing_Only": null, "F2F_Affordable_Housing_Only": null, "F3F_Allowance": "Prohibited", "F3F_Front_Setback": null, "F3F_Side_Setback": null, "F3F_Rear_Setback": null, "F3F_Frontage": null, "F3F_Max_Density": null, "F3F_Max_Height": null, "F3F_Max_Stories": null, "F3F_Min_Lot_Size": null, "F3F_Max_Lot_Building_Coverage": null, "F3F_Max_Lot_Impervious_Coverage": null, "F3F_Min_Parking_Spaces_per_1BR": null, "F3F_Min_Parking_Spaces_per_mult_BR": null, "F3F_Affordable_Housing_Only": null, "F3F_Proximity_to_Public_Transit_Required": null, "F3F_Connection_to_Sewage/Water_Required": null, "F4F_Allowance": "Prohibited", "F4F_Front_Setback": null, "F4F_Side_Setback": null, "F4F_Rear_Setback": null, "F4F_Frontage": null, "F1F_Max_Density": null, "F4F_Max_Density": null, "F4F_Max_Height": null, "F4F_Max_Stories": null, "F4F_Min_Lot_Size": null, "F4F_Max_Lot_Building_Coverage": null, "F4F_Max_Lot_Impervious_Coverage": null, "F4F_Min_Parking_Spaces_per_1BR": null, "F4F_Min_Parking_Spaces_per_mult_BR": null, "F3F_Elderly_Housing_Only": null, "F4F_Elderly_Housing_Only": null, "F4F_Affordable_Housing_Only": null, "F4F_Proximity_to_Public_Transit_Required": null, "F4F_Connection_to_Sewage/Water_Required": null, "ADU_Allowance": "Permitted", "ADU_Elderly_Housing_Only": "No", "ADU_Max_Size_as_Percent_of_Primary_Strcture": 30.0, "ADU_Max_Size_in_sq_ft": 600.0, "ADU_Min_Lot_Size": 5.0, "ADU_Max_Bedrooms": 1.0, "ADU_Min_Parking_Spaces": null, "ADU_Owner_Occupancy_Required": "Yes", "ADU_Renter_Occupancy_Prohibited": "No", "ADU_Employee_or_Family_Occupancy_Required": "No", "ADU_Restricted_to_Primary_Structure": null, "Affordable_Housing_Allowance": "Not Mentioned", "Affordable_Housing_District": "No", "Affordable_Housing_Elderly_Only": null, "Affordable_Housing_Min_Lot_Size": null, "Affordable_Housing_Max_Density": null, "Affordable_Housing_Min_Parking_Spaces_per_mult_BR": null, "Affordable_Housing_Max_Units_per_Building": null, "Affordable_Housing_Min_Parking_Spaces_per_1BR": null, "PRD_Allowance": "Not Mentioned", "PRD_Max_Density": null, "PRD_Max_Units": null, "PRD_Min_Lot_Size": null, "PRD_Mobile_or_Manufactured_Home_Park": null, "PUD_Allowance": null, "PUD_Required_with_Subdivision": null, "PUD_Requires_Land_Conservation": null, "PUD_Threshold_Number": null, "Notes": "None", "FIPS6": null}, "geometry": {"type": "MultiPolygon", "coordinates": [[[[-71.84666045284767, 44.94270734689662], [-71.85238166123942, 44.90888970558361], [-71.85809594206366, 44.8750715415703], [-71.85796594139423, 44.86803965003855], [-71.84612331662575, 44.86163627067734], [-71.83428332461244, 44.855231671556616], [-71.82482045766265, 44.865144611845544], [-71.81535433243918, 44.875056731135054], [-71.80315493375271, 44.88908341561373], [-71.79094957779311, 44.90310872529702], [-71.77873826014664, 44.91713265829371], [-71.76652097259577, 44.931155212687216], [-71.75936770174405, 44.93944638578908], [-71.75221236314593, 44.94773708524642], [-71.7742045794346, 44.94738966658517], [-71.79619658245993, 44.94703801274195], [-71.82030933363761, 44.946559249580424], [-71.84442174223537, 44.94607539356488], [-71.84454754311965, 44.94532130912146], [-71.8449923784733, 44.94459221386282], [-71.84563123532543, 44.94369061695768], [-71.84633836418428, 44.94292581539224], [-71.84666045284767, 44.94270734689662]], [[-71.84426331175679, 44.91206376386827], [-71.84422060211747, 44.912085975994366], [-71.84411705787258, 44.912136768930885], [-71.84405044872513, 44.91216666457529], [-71.84398062098025, 44.91219260742284], [-71.84390805299275, 44.912214405842064], [-71.84383321230376, 44.9122319284322], [-71.84377247029694, 44.912244225404535], [-71.84369540641418, 44.912257349121276], [-71.8436170820762, 44.912265942751915], [-71.8435380248861, 44.91226993913616], [-71.84345876717515, 44.9122693008383], [-71.84337987094915, 44.91226405358621], [-71.84326916602065, 44.91225341576694], [-71.84317042132311, 44.91224007860372], [-71.8430990148491, 44.91222558478841], [-71.84299960711985, 44.91220242508881], [-71.84297296059172, 44.91219589614901], [-71.84280716430048, 44.912153002426074], [-71.84275600804996, 44.91213858443316], [-71.84255833691557, 44.91207814824299], [-71.84251268722666, 44.91206504866758], [-71.84245798187406, 44.91204792666992], [-71.8424429927849, 44.91204271465743], [-71.84224837897816, 44.91197365309949], [-71.84217605870109, 44.91194517472937], [-71.84210960117778, 44.911913538218116], [-71.84196050009108, 44.911835999626796], [-71.84180346979323, 44.911754091223536], [-71.84178904842697, 44.91174641672963], [-71.84172268952554, 44.91170695611594], [-71.84155348668168, 44.91159683439737], [-71.84154408125576, 44.911590624998674], [-71.84150692993528, 44.911564409694485], [-71.8414173826341, 44.91149768295286], [-71.8412735719905, 44.91140982986287], [-71.84121143492507, 44.91136835057716], [-71.84115471647429, 44.91132312842705], [-71.84102053940809, 44.9112061790225], [-71.8409764319234, 44.911164602069654], [-71.84089083791285, 44.911076848660656], [-71.84084638308073, 44.91103133178266], [-71.84083228239491, 44.91101889505989], [-71.84078350128405, 44.91097197817104], [-71.84074059051801, 44.91092223443472], [-71.84070388616003, 44.91087006444396], [-71.84067366910872, 44.91081581987919], [-71.84065015479453, 44.91075992943175], [-71.84063352075962, 44.910702812574414], [-71.84062629447854, 44.91068269275644], [-71.84062397988268, 44.91067734941043], [-71.84059916487168, 44.910607858772046], [-71.84058548086196, 44.91055855368983], [-71.8405743322025, 44.91050425811935], [-71.84055889035814, 44.91046117004432], [-71.84051968748979, 44.91040427739684], [-71.84050274847716, 44.910374180317355], [-71.84048713312664, 44.91034438873922], [-71.84046648780267, 44.91030042741384], [-71.84045042238084, 44.91025551526645], [-71.84043905197939, 44.91020988333277], [-71.84041063235846, 44.9101620697088], [-71.84039005773131, 44.91011227036244], [-71.84038034171509, 44.91008674767179], [-71.84036456302763, 44.91003836723387], [-71.84035417081674, 44.909989262908205], [-71.84034921484496, 44.90993973284364], [-71.84033402081405, 44.9098869643683], [-71.8403250149016, 44.90983346673863], [-71.84032227742154, 44.90977963456703], [-71.84032582070046, 44.90972582787667], [-71.84032269417551, 44.90967257387873], [-71.84032310975722, 44.909657388122554], [-71.84032570600982, 44.90959647861536], [-71.84033135273899, 44.909540339888814], [-71.84034345942723, 44.90948471991119], [-71.84036192804118, 44.90942999516353], [-71.84038666569623, 44.90937653495649], [-71.84044181699527, 44.909272012188055], [-71.84046842799867, 44.909226583402756], [-71.84049957701173, 44.90918263502194], [-71.84053506289051, 44.90914037015294], [-71.84054035021629, 44.90913457576795], [-71.84057369923505, 44.909074192981144], [-71.84061544977071, 44.90901650973713], [-71.84066514687865, 44.90896210742177], [-71.84070935978103, 44.908918088624034], [-71.84077346307531, 44.908861299259186], [-71.84083528470839, 44.90881644258291], [-71.84084364704366, 44.9088106092399], [-71.8408969227854, 44.908772458596026], [-71.84089445389253, 44.908768875426595], [-71.84085811154856, 44.90870951212211], [-71.84083002672882, 44.90864795036986], [-71.84081041970917, 44.908584747572604], [-71.8407995054195, 44.90852048539735], [-71.84079736913829, 44.90845578795503], [-71.8408040370417, 44.90839124301827], [-71.84080634541671, 44.90837374829413], [-71.84080739665555, 44.908366197177045], [-71.84081063476009, 44.90835089542553], [-71.8408274740844, 44.908285423829156], [-71.84085329228857, 44.90822143306218], [-71.84088782631787, 44.90815955601515], [-71.84093074756657, 44.908100400002034], [-71.84095617513623, 44.90803821841216], [-71.84098972987137, 44.90797802295445], [-71.84103114103453, 44.90792034388822], [-71.8410800468487, 44.90786570014765], [-71.8411359831434, 44.90781459567732], [-71.84119847269956, 44.90776745785627], [-71.8412669342384, 44.90772473416042], [-71.84134076829619, 44.90768680177064], [-71.84141930897401, 44.90765397899329], [-71.84150187262102, 44.90762658673308], [-71.84158770564967, 44.90760486090451], [-71.8416525797604, 44.90759082784126], [-71.84171940535323, 44.90757822329972], [-71.84174097146654, 44.907575016256025], [-71.84182747401894, 44.90756085129226], [-71.84191545754975, 44.90755250441764], [-71.84200416401947, 44.90755004775089], [-71.84209280288916, 44.90755351633079], [-71.84218059601137, 44.90756285798164], [-71.84226677814593, 44.90757799900734], [-71.84229737212772, 44.90758440867008], [-71.84239323301357, 44.907608620331615], [-71.84241639480084, 44.90761572686614], [-71.84242850477813, 44.907619577888575], [-71.84251009391281, 44.90764885188405], [-71.842587389652, 44.9076835228783], [-71.8426596724479, 44.907723284378825], [-71.84272627806548, 44.907767753722965], [-71.84274946755266, 44.907780328015434], [-71.84276762501742, 44.90779232621731], [-71.84283114062116, 44.90783060814463], [-71.84288951558622, 44.90787285142187], [-71.8429422274007, 44.9079186814004], [-71.84298886487223, 44.90796773307105], [-71.84300721002948, 44.90798349560908], [-71.84302090590968, 44.907996317588996], [-71.84302680568516, 44.90800198027347], [-71.84303455550958, 44.90800908980763], [-71.84304308015413, 44.9080177695883], [-71.84312129772258, 44.90805340479312], [-71.84319418194136, 44.908094357252665], [-71.8432610245777, 44.908140215258946], [-71.84332116579499, 44.908190542186375], [-71.84337401221802, 44.908244846899215], [-71.84338822527029, 44.90826097256483], [-71.84342748845016, 44.90830990966378], [-71.84346094038233, 44.90836097934948], [-71.84348837984915, 44.908413835816575], [-71.84350960587626, 44.9084681116632], [-71.84352448207503, 44.90852343895811], [-71.84352828034079, 44.90852928300988], [-71.84354730227574, 44.90856026540596], [-71.8435561045669, 44.908575828119034], [-71.8435991575209, 44.90859044485392], [-71.84361739847982, 44.90859837144594], [-71.84363832541752, 44.908602615869206], [-71.84365052774963, 44.90860527585225], [-71.84383948832469, 44.90864748078269], [-71.8439208614076, 44.90866855372526], [-71.84395596291627, 44.90867953232735], [-71.84406522675869, 44.90871552160252], [-71.84413190498385, 44.90873977205299], [-71.84419573879717, 44.908767613745624], [-71.84425635883595, 44.90879890058363], [-71.84440775043228, 44.90888362230292], [-71.8444769121709, 44.90891367303057], [-71.84448404099547, 44.90891717668479], [-71.84467864165762, 44.909013695102324], [-71.84483363341134, 44.90908748628462], [-71.8449016366487, 44.90912302386922], [-71.84496500936372, 44.9091626553996], [-71.84502326264905, 44.90920605592269], [-71.8450759453654, 44.909252919599794], [-71.84535687781961, 44.9095264710774], [-71.84537827576393, 44.90954816563433], [-71.84543066725391, 44.90960355832817], [-71.84551810484783, 44.90966675402705], [-71.84555917810762, 44.90969837178599], [-71.8455974097993, 44.90973177030538], [-71.84566791461381, 44.909797501003865], [-71.84572500289366, 44.90983140256638], [-71.84574545985681, 44.90983236565117], [-71.84589796189769, 44.90983323742505], [-71.84597239613883, 44.90983570195664], [-71.84601064250488, 44.90983857922779], [-71.84614612921584, 44.90985068810348], [-71.84621613800878, 44.9098588152731], [-71.84628512283172, 44.90987058644726], [-71.84635270601304, 44.9098859175771], [-71.84646597232609, 44.909914903901516], [-71.84654450693776, 44.90993783587381], [-71.84661989096462, 44.90996557221767], [-71.84669157065129, 44.90999792259662], [-71.84675895267617, 44.91003461186028], [-71.8467911273101, 44.91005379144021], [-71.84679903183336, 44.91005647599689], [-71.84683660396749, 44.91005964069564], [-71.8469600503127, 44.910073034958614], [-71.84705173727563, 44.91008615572052], [-71.84714104211781, 44.9101058903988], [-71.84722702249343, 44.91013203383948], [-71.8473137589887, 44.91015078993164], [-71.84739748396606, 44.910175494045696], [-71.84747738962162, 44.910205913003274], [-71.84755272327799, 44.91024175365112], [-71.84757448977292, 44.91025313098863], [-71.8476467397636, 44.91029481216867], [-71.84771301453453, 44.91034125462845], [-71.84777267068152, 44.91039201916236], [-71.84782516788053, 44.91044662125974], [-71.84787001793174, 44.91050455781002], [-71.84788408335982, 44.91052505097848], [-71.84791913559924, 44.91058266159705], [-71.84794661608991, 44.910642310392], [-71.84796630745018, 44.9107035092932], [-71.84797805495366, 44.910765716594085], [-71.84798174007516, 44.910828436687055], [-71.84797732847363, 44.91089112045078], [-71.84797629658433, 44.91089983888383], [-71.84796392160959, 44.91096592191565], [-71.84794258489477, 44.911030851425416], [-71.84791247717592, 44.911093995882496], [-71.84787387996877, 44.91115475936807], [-71.84782717077746, 44.91121256900694], [-71.84777277479337, 44.911266890889884], [-71.84775870231525, 44.91127958969578], [-71.84771032142065, 44.91131992309268], [-71.8476577168794, 44.91135747691402], [-71.84760118361775, 44.91139203956766], [-71.84754104825265, 44.911423396942936], [-71.84751496344857, 44.91143592900198], [-71.84743390738568, 44.91147087068996], [-71.84734842397854, 44.91149999269972], [-71.84725932824333, 44.91152300811912], [-71.84722136526031, 44.91153135077412], [-71.84719880307934, 44.91153608115077], [-71.84714298128141, 44.91154601706482], [-71.84709599308894, 44.91155332541578], [-71.84705759351156, 44.91156264368832], [-71.84704845107464, 44.91156503098752], [-71.84697704179338, 44.911581525100964], [-71.84696942655596, 44.91158302214783], [-71.84683452721136, 44.91160924344322], [-71.84674286830639, 44.911623619362516], [-71.84666026662562, 44.91165508712616], [-71.84657370607043, 44.91168063797346], [-71.84648404304548, 44.91170002123073], [-71.84642793337785, 44.91171007933085], [-71.8464053425795, 44.91171743433277], [-71.84639603513702, 44.911722755139515], [-71.84636594124665, 44.9117395852075], [-71.84629894554394, 44.91177389655745], [-71.8462667936085, 44.91178883767192], [-71.84618543177397, 44.911822713964476], [-71.84609211803078, 44.911852874556004], [-71.84606942077009, 44.91186201514069], [-71.84603566993071, 44.911877680435424], [-71.84602067413735, 44.91188453622599], [-71.84599267154951, 44.91189706235328], [-71.84592516694828, 44.91192462237907], [-71.84591786042031, 44.911927254970834], [-71.84583725973951, 44.91196142603472], [-71.84575234626936, 44.91198984910639], [-71.84566394643741, 44.912012237350716], [-71.8456296449253, 44.91201960878851], [-71.84559995290836, 44.912025989766704], [-71.84550533878432, 44.91204268744177], [-71.84540883724273, 44.91205250724657], [-71.84532911443333, 44.912057723090825], [-71.84530739817247, 44.91205896641377], [-71.84525057845053, 44.91206057630354], [-71.84513987791459, 44.91206137597955], [-71.84509737802092, 44.91206102428138], [-71.84502912618439, 44.91205765156507], [-71.84498736936975, 44.91205453876082], [-71.84489465689613, 44.91204439356044], [-71.8448038194032, 44.91202772322386], [-71.84471579834558, 44.91200470683404], [-71.84463141697745, 44.91197556059331], [-71.84461429484728, 44.91197104032994], [-71.84453908387495, 44.91198430843234], [-71.84446249031646, 44.911992755998185], [-71.84438514944922, 44.911996312881826], [-71.84437185546058, 44.91200316832686], [-71.84436072948381, 44.9120098049483], [-71.84433952397924, 44.9120218162669], [-71.84426331175679, 44.91206376386827]]]]}}, {"type": "Feature", "properties": {"OBJECT_ID": 828, "County": "Essex", "RPC": "NVDA", "Municipal_Name": "Averys Gore ", "GEO_ID": "5000902162", "District_Name": "Shore Land District", "Abbreviated_District_Name": "Sl", "District_Type": "Mixed with Residential", "Bylaw_Date": null, "Elderly_Housing_District": "No", "District_Mapped": "Yes", "Overlay_District": "No", "Base_Density": null, "GIS_ID": null, "Last_Update": null, "Shape_Length": 3155.552681789423, "Shape_Area": 119836.27922518199, "F1F_Allowance": "Permitted", "F1F_Front_Setback": 100.0, "F1F_Side_Setback": null, "F1F_Rear_Setback": null, "F1F_Frontage": null, "F1F_Max_Height": 30.0, "F1F_Max_Stories": null, "F1F_Min_Lot_Size": 1.5, "F1F_Max_Lot_Building_Coverage": null, "F1F_Max_Lot_Impervious_Coverage": null, "F1F_Min_Parking_Spaces": null, "F1F_Elderly_Housing_Only": null, "F1F_Affordable_Housing_Only": null, "F2F_Allowance": "Public Hearing", "F2F_Front_Setback": 100.0, "F2F_Side_Setback": null, "F2F_Rear_Setback": null, "F2F_Frontage": null, "F2F_Max_Density": null, "F2F_Max_Height": null, "F2F_Max_Stories": null, "F2F_Min_Lot_Size": null, "F2F_Max_Lot_Building_Coverage": null, "F2F_Max_Lot_Impervious_Coverage": null, "F2F_Min_Parking_Spaces_per_1BR": null, "F2F_Min_Parking_Spaces_per_mult_BR": null, "F2F_Elderly_Housing_Only": "No", "F2F_Affordable_Housing_Only": "No", "F3F_Allowance": "Prohibited", "F3F_Front_Setback": null, "F3F_Side_Setback": null, "F3F_Rear_Setback": null, "F3F_Frontage": null, "F3F_Max_Density": null, "F3F_Max_Height": null, "F3F_Max_Stories": null, "F3F_Min_Lot_Size": null, "F3F_Max_Lot_Building_Coverage": null, "F3F_Max_Lot_Impervious_Coverage": null, "F3F_Min_Parking_Spaces_per_1BR": null, "F3F_Min_Parking_Spaces_per_mult_BR": null, "F3F_Affordable_Housing_Only": null, "F3F_Proximity_to_Public_Transit_Required": null, "F3F_Connection_to_Sewage/Water_Required": null, "F4F_Allowance": "Prohibited", "F4F_Front_Setback": null, "F4F_Side_Setback": null, "F4F_Rear_Setback": null, "F4F_Frontage": null, "F1F_Max_Density": null, "F4F_Max_Density": null, "F4F_Max_Height": null, "F4F_Max_Stories": null, "F4F_Min_Lot_Size": null, "F4F_Max_Lot_Building_Coverage": null, "F4F_Max_Lot_Impervious_Coverage": null, "F4F_Min_Parking_Spaces_per_1BR": null, "F4F_Min_Parking_Spaces_per_mult_BR": null, "F3F_Elderly_Housing_Only": null, "F4F_Elderly_Housing_Only": null, "F4F_Affordable_Housing_Only": null, "F4F_Proximity_to_Public_Transit_Required": null, "F4F_Connection_to_Sewage/Water_Required": null, "ADU_Allowance": "Allowed/Conditional", "ADU_Elderly_Housing_Only": "No", "ADU_Max_Size_as_Percent_of_Primary_Strcture": 30.0, "ADU_Max_Size_in_sq_ft": 600.0, "ADU_Min_Lot_Size": 1.5, "ADU_Max_Bedrooms": 1.0, "ADU_Min_Parking_Spaces": null, "ADU_Owner_Occupancy_Required": "Yes", "ADU_Renter_Occupancy_Prohibited": "No", "ADU_Employee_or_Family_Occupancy_Required": "No", "ADU_Restricted_to_Primary_Structure": "No", "Affordable_Housing_Allowance": "Not Mentioned", "Affordable_Housing_District": "No", "Affordable_Housing_Elderly_Only": null, "Affordable_Housing_Min_Lot_Size": null, "Affordable_Housing_Max_Density": null, "Affordable_Housing_Min_Parking_Spaces_per_mult_BR": null, "Affordable_Housing_Max_Units_per_Building": null, "Affordable_Housing_Min_Parking_Spaces_per_1BR": null, "PRD_Allowance": "Not Mentioned", "PRD_Max_Density": null, "PRD_Max_Units": null, "PRD_Min_Lot_Size": null, "PRD_Mobile_or_Manufactured_Home_Park": null, "PUD_Allowance": "Yes", "PUD_Required_with_Subdivision": "No", "PUD_Requires_Land_Conservation": "Yes", "PUD_Threshold_Number": null, "Notes": "  Minimum Lot Width Of 200'", "FIPS6": null}, "geometry": {"type": "MultiPolygon", "coordinates": [[[[-71.84224837897816, 44.91197365309949], [-71.84299960711985, 44.91220242508881], [-71.84345876717515, 44.9122693008383], [-71.84390805299275, 44.912214405842064], [-71.84438514944922, 44.911996312881826], [-71.84461429484728, 44.91197104032994], [-71.84509737802092, 44.91206102428138], [-71.84559995290836, 44.912025989766704], [-71.84642793337785, 44.91171007933085], [-71.84734842397854, 44.91149999269972], [-71.84760118361775, 44.91139203956766], [-71.84791247717592, 44.911093995882496], [-71.84797805495366, 44.910765716594085], [-71.84782516788053, 44.91044662125974], [-71.84757448977292, 44.91025313098863], [-71.84714104211781, 44.9101058903988], [-71.84679903183336, 44.91005647599689], [-71.84635270601304, 44.9098859175771], [-71.84572500289366, 44.90983140256638], [-71.8449016366487, 44.90912302386922], [-71.84413190498385, 44.90873977205299], [-71.8435561045669, 44.908575828119034], [-71.84332116579499, 44.908190542186375], [-71.8426596724479, 44.907723284378825], [-71.84229737212772, 44.90758440867008], [-71.84191545754975, 44.90755250441764], [-71.84134076829619, 44.90768680177064], [-71.84098972987137, 44.90797802295445], [-71.8408040370417, 44.90839124301827], [-71.8408969227854, 44.908772458596026], [-71.84061544977071, 44.90901650973713], [-71.84044181699527, 44.909272012188055], [-71.84033135273899, 44.909540339888814], [-71.8403250149016, 44.90983346673863], [-71.84065015479453, 44.91075992943175], [-71.84078350128405, 44.91097197817104], [-71.84121143492507, 44.91136835057716], [-71.84178904842697, 44.91174641672963], [-71.84224837897816, 44.91197365309949]], [[-71.84389319841249, 44.91138140815825], [-71.84350919863395, 44.91158455278105], [-71.84287410656263, 44.9114292706183], [-71.84220526202343, 44.91109120422312], [-71.84158414443715, 44.91058909209921], [-71.84131180699876, 44.90990775316178], [-71.84129017839122, 44.90961723838173], [-71.84134531935719, 44.90951272142077], [-71.84156135243327, 44.9092689301349], [-71.84217156062871, 44.909327608393895], [-71.84233931137977, 44.90929752783008], [-71.84240746940306, 44.909095269361956], [-71.8420467240269, 44.90864847042363], [-71.84176095795723, 44.90846720780132], [-71.84186854588285, 44.90826085566676], [-71.84203460709398, 44.90824552562624], [-71.8423955902003, 44.90855986289897], [-71.8425563605348, 44.90860893117867], [-71.84279776751421, 44.90911605270768], [-71.84365938592953, 44.909337608739015], [-71.8442965166843, 44.90965712530462], [-71.84467980459563, 44.91003889608513], [-71.84517499001575, 44.91040294789456], [-71.84547077401726, 44.910506687977225], [-71.84602566780515, 44.910531014970495], [-71.84652365073778, 44.91072787944634], [-71.84681439776286, 44.910750869894876], [-71.84701680482888, 44.91082563838249], [-71.84592643973127, 44.91110690903508], [-71.84532040936739, 44.91136971058092], [-71.84508825099421, 44.911372608888506], [-71.84472343117622, 44.91120340870157], [-71.84466697501269, 44.911256898394214], [-71.84445397456213, 44.91123452696736], [-71.84435039242143, 44.91131186182743], [-71.84400741346539, 44.91132680993464], [-71.84389319841249, 44.91138140815825]]]]}}, {"type": "Feature", "properties": {"OBJECT_ID": 827, "County": "Essex", "RPC": "NVDA", "Municipal_Name": "Averys Gore ", "GEO_ID": "5000902162", "District_Name": "Commercial, Industrial, Residential District", "Abbreviated_District_Name": "Cir", "District_Type": "Mixed with Residential", "Bylaw_Date": null, "Elderly_Housing_District": "No", "District_Mapped": "Yes", "Overlay_District": "No", "Base_Density": null, "GIS_ID": null, "Last_Update": null, "Shape_Length": 926.881777654075, "Shape_Area": 33303.2830231063, "F1F_Allowance": "Permitted", "F1F_Front_Setback": null, "F1F_Side_Setback": null, "F1F_Rear_Setback": null, "F1F_Frontage": null, "F1F_Max_Height": null, "F1F_Max_Stories": null, "F1F_Min_Lot_Size": 1.0, "F1F_Max_Lot_Building_Coverage": null, "F1F_Max_Lot_Impervious_Coverage": null, "F1F_Min_Parking_Spaces": null, "F1F_Elderly_Housing_Only": null, "F1F_Affordable_Housing_Only": null, "F2F_Allowance": "Permitted", "F2F_Front_Setback": null, "F2F_Side_Setback": null, "F2F_Rear_Setback": null, "F2F_Frontage": null, "F2F_Max_Density": null, "F2F_Max_Height": null, "F2F_Max_Stories": null, "F2F_Min_Lot_Size": null, "F2F_Max_Lot_Building_Coverage": null, "F2F_Max_Lot_Impervious_Coverage": null, "F2F_Min_Parking_Spaces_per_1BR": null, "F2F_Min_Parking_Spaces_per_mult_BR": null, "F2F_Elderly_Housing_Only": "No", "F2F_Affordable_Housing_Only": "No", "F3F_Allowance": "Public Hearing", "F3F_Front_Setback": null, "F3F_Side_Setback": null, "F3F_Rear_Setback": null, "F3F_Frontage": null, "F3F_Max_Density": null, "F3F_Max_Height": null, "F3F_Max_Stories": null, "F3F_Min_Lot_Size": null, "F3F_Max_Lot_Building_Coverage": null, "F3F_Max_Lot_Impervious_Coverage": null, "F3F_Min_Parking_Spaces_per_1BR": null, "F3F_Min_Parking_Spaces_per_mult_BR": null, "F3F_Affordable_Housing_Only": "No", "F3F_Proximity_to_Public_Transit_Required": null, "F3F_Connection_to_Sewage/Water_Required": null, "F4F_Allowance": "Public Hearing", "F4F_Front_Setback": null, "F4F_Side_Setback": null, "F4F_Rear_Setback": null, "F4F_Frontage": null, "F1F_Max_Density": null, "F4F_Max_Density": null, "F4F_Max_Height": null, "F4F_Max_Stories": null, "F4F_Min_Lot_Size": null, "F4F_Max_Lot_Building_Coverage": null, "F4F_Max_Lot_Impervious_Coverage": null, "F4F_Min_Parking_Spaces_per_1BR": null, "F4F_Min_Parking_Spaces_per_mult_BR": null, "F3F_Elderly_Housing_Only": "No", "F4F_Elderly_Housing_Only": "No", "F4F_Affordable_Housing_Only": "No", "F4F_Proximity_to_Public_Transit_Required": null, "F4F_Connection_to_Sewage/Water_Required": null, "ADU_Allowance": "Allowed/Conditional", "ADU_Elderly_Housing_Only": "No", "ADU_Max_Size_as_Percent_of_Primary_Strcture": 30.0, "ADU_Max_Size_in_sq_ft": 600.0, "ADU_Min_Lot_Size": 1.0, "ADU_Max_Bedrooms": 1.0, "ADU_Min_Parking_Spaces": null, "ADU_Owner_Occupancy_Required": "Yes", "ADU_Renter_Occupancy_Prohibited": "No", "ADU_Employee_or_Family_Occupancy_Required": "No", "ADU_Restricted_to_Primary_Structure": "No", "Affordable_Housing_Allowance": "Not Mentioned", "Affordable_Housing_District": "No", "Affordable_Housing_Elderly_Only": null, "Affordable_Housing_Min_Lot_Size": null, "Affordable_Housing_Max_Density": null, "Affordable_Housing_Min_Parking_Spaces_per_mult_BR": null, "Affordable_Housing_Max_Units_per_Building": null, "Affordable_Housing_Min_Parking_Spaces_per_1BR": null, "PRD_Allowance": "Not Mentioned", "PRD_Max_Density": null, "PRD_Max_Units": null, "PRD_Min_Lot_Size": null, "PRD_Mobile_or_Manufactured_Home_Park": null, "PUD_Allowance": "Yes", "PUD_Required_with_Subdivision": "No", "PUD_Requires_Land_Conservation": "Yes", "PUD_Threshold_Number": null, "Notes": "  Minimum Lot Width Of 200'", "FIPS6": null}, "geometry": {"type": "MultiPolygon", "coordinates": [[[[-71.84609598851532, 44.946041604961], [-71.84665967011476, 44.94270787784356], [-71.84633836418428, 44.94292581539224], [-71.84563123532543, 44.94369061695768], [-71.8449923784733, 44.94459221386282], [-71.84454754311965, 44.94532130912146], [-71.84442180206226, 44.94607503575878], [-71.84609598851532, 44.946041604961]]]]}}]}