{"type":"FeatureCollection","name":"Essex_WarrenGore","features":[{"type":"Feature","properties":{"OBJECT_ID":746,"County":"Essex","RPC":"NVDA","Municipal_Name":"Warren Gore","GEO_ID":"5000976562","District_Name":"Forest, Agriculture, And Single Family Home District","Abbreviated_District_Name":"Fasf","District_Type":"Mixed with Residential","Bylaw_Date":null,"Elderly_Housing_District":"No","District_Mapped":"Yes","Overlay_District":"No","Base_Density":null,"FIPS6":null,"GIS_ID":null,"Last_Update":null,"Shape_Length":40224.18888238626,"Shape_Area":21736842.58063977,"F1F_Allowance":"Permitted","F1F_Front_Setback":null,"F1F_Side_Setback":null,"F1F_Rear_Setback":null,"F1F_Frontage":null,"F1F_Max_Height":null,"F1F_Max_Stories":null,"F1F_Min_Lot_Size":5.0,"F1F_Max_Lot_Building_Coverage":null,"F1F_Max_Lot_Impervious_Coverage":null,"F1F_Min_Parking_Spaces":null,"F1F_Elderly_Housing_Only":null,"F1F_Affordable_Housing_Only":null,"F2F_Allowance":"Prohibited","F2F_Front_Setback":null,"F2F_Side_Setback":null,"F2F_Rear_Setback":null,"F2F_Frontage":null,"F2F_Max_Density":null,"F2F_Max_Height":null,"F2F_Max_Stories":null,"F2F_Min_Lot_Size":null,"F2F_Max_Lot_Building_Coverage":null,"F2F_Max_Lot_Impervious_Coverage":null,"F2F_Min_Parking_Spaces_per_1BR":null,"F2F_Min_Parking_Spaces_per_mult_BR":null,"F2F_Elderly_Housing_Only":null,"F2F_Affordable_Housing_Only":null,"F3F_Allowance":"Prohibited","F3F_Front_Setback":null,"F3F_Side_Setback":null,"F3F_Rear_Setback":null,"F3F_Frontage":null,"F3F_Max_Density":null,"F3F_Max_Height":null,"F3F_Max_Stories":null,"F3F_Min_Lot_Size":null,"F3F_Max_Lot_Building_Coverage":null,"F3F_Max_Lot_Impervious_Coverage":null,"F3F_Min_Parking_Spaces_per_1BR":null,"F3F_Min_Parking_Spaces_per_mult_BR":null,"F3F_Affordable_Housing_Only":null,"F3F_Proximity_to_Public_Transit_Required":null,"F3F_Connection_to_Sewage/Water_Required":null,"F4F_Allowance":"Prohibited","F4F_Front_Setback":null,"F4F_Side_Setback":null,"F4F_Rear_Setback":null,"F4F_Frontage":null,"F1F_Max_Density":null,"F4F_Max_Density":null,"F4F_Max_Height":null,"F4F_Max_Stories":null,"F4F_Min_Lot_Size":null,"F4F_Max_Lot_Building_Coverage":null,"F4F_Max_Lot_Impervious_Coverage":null,"F4F_Min_Parking_Spaces_per_1BR":null,"F4F_Min_Parking_Spaces_per_mult_BR":null,"F3F_Elderly_Housing_Only":null,"F4F_Elderly_Housing_Only":null,"F4F_Affordable_Housing_Only":null,"F4F_Proximity_to_Public_Transit_Required":null,"F4F_Connection_to_Sewage/Water_Required":null,"ADU_Allowance":"Allowed/Conditional","ADU_Elderly_Housing_Only":"No","ADU_Max_Size_as_Percent_of_Primary_Strcture":30.0,"ADU_Max_Size_in_sq_ft":600.0,"ADU_Min_Lot_Size":5.0,"ADU_Max_Bedrooms":1.0,"ADU_Min_Parking_Spaces":null,"ADU_Owner_Occupancy_Required":"Yes","ADU_Renter_Occupancy_Prohibited":"No","ADU_Employee_or_Family_Occupancy_Required":"No","ADU_Restricted_to_Primary_Structure":"No","Affordable_Housing_Allowance":"Not Mentioned","Affordable_Housing_District":"No","Affordable_Housing_Elderly_Only":null,"Affordable_Housing_Min_Lot_Size":null,"Affordable_Housing_Max_Density":null,"Affordable_Housing_Min_Parking_Spaces_per_mult_BR":null,"Affordable_Housing_Max_Units_per_Building":null,"Affordable_Housing_Min_Parking_Spaces_per_1BR":null,"PRD_Allowance":"Not Mentioned","PRD_Max_Density":null,"PRD_Max_Units":null,"PRD_Min_Lot_Size":null,"PRD_Mobile_or_Manufactured_Home_Park":null,"PUD_Allowance":"Yes","PUD_Required_with_Subdivision":"No","PUD_Requires_Land_Conservation":"Yes","PUD_Threshold_Number":null,"Notes":"  Minimum Lot Width Is 500'"},"geometry":{"type":"MultiPolygon","coordinates":[[[[-71.89672182436897,44.888992277787715],[-71.89622701107268,44.890101738088866],[-71.89535875798936,44.891304036428],[-71.89411377562456,44.892395606139665],[-71.89307821856539,44.89351998976289],[-71.89207834969234,44.89438079043037],[-71.89111205712454,44.89562323527723],[-71.89021101035662,44.89647927731541],[-71.88921529503477,44.8976162921822],[-71.88747594143466,44.89941273105606],[-71.8854707823206,44.90127092135497],[-71.88378007049704,44.902420585848056],[-71.88260265053624,44.90370822523132],[-71.88093103761187,44.90495106265283],[-71.87951611615433,44.90637787202688],[-71.87923923231929,44.90678418729347],[-71.87852703255919,44.90818902628703],[-71.87740103046791,44.911715293214506],[-71.8772877411085,44.91226505029015],[-71.87728679735032,44.91266801345045],[-71.87750528039204,44.914266063944865],[-71.87746706551123,44.91476048359427],[-71.87730758319621,44.91537010763928],[-71.87709231719373,44.915804318083005],[-71.87624743899178,44.91712034944547],[-71.8756739751588,44.91785089336884],[-71.87469208149714,44.918863750792326],[-71.87354035416773,44.9197913846754],[-71.87396217001054,44.92010485557622],[-71.87456143874874,44.920166521342196],[-71.87579591846425,44.9206502985657],[-71.87622515002151,44.92030016731523],[-71.8763618481145,44.920118976685195],[-71.87601526252126,44.91981900633889],[-71.87589808745342,44.91955112765825],[-71.87588013233047,44.91901020317725],[-71.8759934359778,44.91847780416103],[-71.87633051477593,44.917992859376646],[-71.87685605667215,44.91762363057807],[-71.876996049345,44.91725948943373],[-71.87690942058322,44.9168569280131],[-71.87710181252636,44.91646952456566],[-71.87739280822777,44.91622665414927],[-71.87800884671323,44.91598284242617],[-71.878353632246,44.91592049455567],[-71.8787553293113,44.915938125047504],[-71.8790351045961,44.91600898494397],[-71.87933631945138,44.9161903244082],[-71.87950711727208,44.91640885111267],[-71.87956564793812,44.916615754081285],[-71.87954674986125,44.9168341345581],[-71.87941042342756,44.91714083258385],[-71.87964236340993,44.91696554661178],[-71.87989239399697,44.916863725436286],[-71.88057438498838,44.91674629309225],[-71.88119375548374,44.916834048584946],[-71.8815846463896,44.91704579790531],[-71.8820013037815,44.917541316889434],[-71.88202537632989,44.917820171679764],[-71.88216568109142,44.91816881992351],[-71.88218276554238,44.91852996934517],[-71.88193196825104,44.91984420078035],[-71.88171975649507,44.92022486644353],[-71.88168589578592,44.92056509410243],[-71.88150620116882,44.92081631975558],[-71.88113256221946,44.92102744141504],[-71.8810519577599,44.92150354893461],[-71.88124426592813,44.921661623191206],[-71.88136113920068,44.921855642643834],[-71.88134313334257,44.92228237477837],[-71.88113670226885,44.92256592789463],[-71.88075460830605,44.922771053348185],[-71.8800449881899,44.9229208744078],[-71.8795301336005,44.92290027875565],[-71.87942938693087,44.923586090815405],[-71.87907197409504,44.92416000801553],[-71.87982408694113,44.9245912537053],[-71.88047003920124,44.92462821444127],[-71.88087849079628,44.92478179684669],[-71.88115500815128,44.925037276757],[-71.88126616261441,44.92534986713063],[-71.88152887091802,44.92562331111778],[-71.8815868496804,44.925883166559665],[-71.8821955447784,44.92615259501567],[-71.8827802870738,44.926675858359765],[-71.88289861699938,44.92687496734419],[-71.88387959316246,44.927092135285434],[-71.88440169242024,44.9273474929791],[-71.88474414032092,44.927585795271526],[-71.8852291662825,44.92814091502728],[-71.88540037711503,44.9287312535636],[-71.88565397410173,44.92903370576008],[-71.88574995900072,44.92929033575382],[-71.88568649357265,44.92967990699801],[-71.88518663434901,44.93025364241935],[-71.88544422456482,44.930468798859174],[-71.88595851718286,44.93054534786926],[-71.8863969412511,44.9306782943025],[-71.8868176026673,44.93094520265482],[-71.88693451452198,44.931139216298995],[-71.88699664515887,44.93144122860823],[-71.88758600958474,44.9321002351937],[-71.88771298052299,44.93247791792471],[-71.88767043063478,44.932817850782556],[-71.88730717446754,44.93325537910993],[-71.88656111167373,44.933655979575484],[-71.88627143838853,44.93370290040311],[-71.88597785731623,44.93368838570118],[-71.88499109987082,44.93396448319223],[-71.88463944191716,44.9339717874057],[-71.8842386633993,44.933903340566694],[-71.88412913711805,44.93393642779379],[-71.88402089627756,44.93423156009446],[-71.88405162702061,44.934448191703495],[-71.88398864583486,44.9346544372207],[-71.88384034318283,44.93483730797173],[-71.88359058070564,44.93499443713691],[-71.88332053373955,44.93508244570589],[-71.88302559428517,44.935107950620804],[-71.882508007288,44.93498900273285],[-71.8821675249164,44.93473703917069],[-71.88196400071355,44.93434629831448],[-71.88198136429324,44.933630195131315],[-71.88189000098987,44.93333655731068],[-71.88169736914263,44.93306757757607],[-71.88163459442075,44.93275919416418],[-71.88176590220293,44.93232309475898],[-71.88119409569194,44.93225144984003],[-71.88083955047297,44.932131774080936],[-71.88061287178267,44.93199534940054],[-71.88036159907398,44.931727180434294],[-71.88020156537368,44.93144659919644],[-71.87988284417982,44.9311558397468],[-71.87965004114817,44.93068983191277],[-71.87969675311003,44.930186840944266],[-71.87985353003506,44.92993336499667],[-71.8799037611698,44.929700442133274],[-71.88016282805306,44.92934282504871],[-71.88055057409845,44.92902496721623],[-71.88056061419152,44.928888635575],[-71.88029810381471,44.9287875123428],[-71.87994498984423,44.92854425612994],[-71.87907067922504,44.92856941133752],[-71.87850948930155,44.92851468872849],[-71.87815934276394,44.92838515956847],[-71.87795509708026,44.928234231385375],[-71.8775385455634,44.92816370972102],[-71.87722782203728,44.92799676514696],[-71.87698898774885,44.928498561586075],[-71.87651581005407,44.92896283042619],[-71.87650110803877,44.92927345842032],[-71.87627874910396,44.92956575132799],[-71.87505689590043,44.93022549529791],[-71.8747858793874,44.93031394458717],[-71.87448949962382,44.93034380018679],[-71.87428175720612,44.930573966200384],[-71.87413695602669,44.930854239005704],[-71.87394125877121,44.93103906356586],[-71.87349702549342,44.931329699790346],[-71.87313454817168,44.93148363663446],[-71.87278906749404,44.93175858284628],[-71.87232350962078,44.93190466013639],[-71.87209656231524,44.932100116344934],[-71.8720827376036,44.93257535093136],[-71.87244356081382,44.93281544039711],[-71.87263655365571,44.93325666216736],[-71.87257240444434,44.93365485189745],[-71.8722980562441,44.93409439741877],[-71.87152446110103,44.934778322277054],[-71.8712295919611,44.93516297322337],[-71.87066273476651,44.93547333217016],[-71.87073563687771,44.93570412256562],[-71.87066779966754,44.93607880490117],[-71.87046863449908,44.93648072601964],[-71.87000118864236,44.937073956254615],[-71.86928606792253,44.93756358397417],[-71.86853150989617,44.937838538213605],[-71.86834653800413,44.93821940043392],[-71.8679264423971,44.93852057407014],[-71.86658017769172,44.939937556658904],[-71.8653670334507,44.941478042574865],[-71.86524243445619,44.94170810477894],[-71.86515745918635,44.94217738461902],[-71.86494955247224,44.94243836824213],[-71.86465821563777,44.94261809938685],[-71.8643940413358,44.943208481769645],[-71.86401261574892,44.943527419694796],[-71.86366978214626,44.94365555789184],[-71.86363195654384,44.94410243582819],[-71.8634795385644,44.944380172862125],[-71.8631146546493,44.94463404007927],[-71.86255435532749,44.94475800944094],[-71.86231813875085,44.944935811409536],[-71.86199318423016,44.94505964039257],[-71.86225120721643,44.945382924007134],[-71.86231022539822,44.94565845734108],[-71.8745220254185,44.94536988756103],[-71.89166208580671,44.9450161390043],[-71.89314100153241,44.93828683087744],[-71.89795701296235,44.915251235914155],[-71.90276908279735,44.89221532475199],[-71.89795669376115,44.88965446379757],[-71.89672182436897,44.888992277787715]]],[[[-71.85796594139423,44.86803965003855],[-71.85809594206366,44.8750715415703],[-71.85514814088505,44.892522343813575],[-71.85219849739387,44.90997300652616],[-71.84924700912991,44.92742352956986],[-71.84629367362926,44.9448739128063],[-71.84708077393542,44.94413378013786],[-71.84889730591247,44.94207134971706],[-71.8494399882562,44.941259252931715],[-71.84979977339162,44.94083372225939],[-71.85037743191012,44.94029332641203],[-71.85617861852849,44.935902658964864],[-71.85705857914023,44.935163166101106],[-71.8583527824981,44.933874201018845],[-71.85935797362711,44.93305730883736],[-71.86109801112718,44.932000528020176],[-71.86372766069282,44.93057264035915],[-71.86460571609642,44.93002945702417],[-71.86538361693613,44.92946091699426],[-71.8657778528942,44.92907212718988],[-71.86626997453838,44.92824018185616],[-71.86645464100818,44.92773430085381],[-71.86670626643301,44.92663409141495],[-71.86722218354731,44.92573097816521],[-71.86762458065854,44.92456461210912],[-71.86820572127147,44.922649834828405],[-71.8684637138302,44.92081979509666],[-71.86885883074137,44.9198681733669],[-71.8692253374829,44.91928046272712],[-71.86967427041583,44.918766897695065],[-71.87022371305775,44.918274566152526],[-71.87130897334818,44.9174826548077],[-71.87211971824368,44.91671292957141],[-71.8727653744136,44.91593558958231],[-71.87359500187635,44.914610343804085],[-71.87364366890708,44.91422293959663],[-71.87342885582314,44.91276296120117],[-71.87350354755883,44.9116425434184],[-71.87373131761635,44.91076521590829],[-71.87477923399842,44.90753111509424],[-71.8757280969286,44.9056438485992],[-71.87614233821937,44.905042101331546],[-71.87668471679149,44.90442028631727],[-71.87797186144317,44.90318794382687],[-71.87950295138488,44.90207005058927],[-71.88088004128939,44.9006029293467],[-71.88253516020643,44.899489838216915],[-71.88379952763336,44.89835264818205],[-71.88601425718221,44.89608420106341],[-71.88700977660321,44.89494544898875],[-71.88785513638008,44.894142638653356],[-71.88854248266036,44.89320727296271],[-71.8889607659566,44.892762848327145],[-71.8899640886436,44.891899669783726],[-71.89100019184085,44.890772560659954],[-71.89211856458547,44.88981031530626],[-71.89276994367101,44.88885362976633],[-71.89318640159557,44.88769720257811],[-71.8934270946712,44.887225371643055],[-71.8876822569899,44.884144030632825],[-71.87785847131131,44.878771449881704],[-71.8745547125917,44.877042814761715],[-71.85796594139423,44.86803965003855]]]]}},{"type":"Feature","properties":{"OBJECT_ID":745,"County":"Essex","RPC":"NVDA","Municipal_Name":"Warren Gore","GEO_ID":"5000976562","District_Name":"Commercial, Industrial, Residential District","Abbreviated_District_Name":"Cir","District_Type":"Mixed with Residential","Bylaw_Date":null,"Elderly_Housing_District":"No","District_Mapped":"Yes","Overlay_District":"No","Base_Density":null,"FIPS6":null,"GIS_ID":null,"Last_Update":null,"Shape_Length":16055.711294487395,"Shape_Area":1810627.9479725377,"F1F_Allowance":"Permitted","F1F_Front_Setback":null,"F1F_Side_Setback":null,"F1F_Rear_Setback":null,"F1F_Frontage":null,"F1F_Max_Height":null,"F1F_Max_Stories":null,"F1F_Min_Lot_Size":1.0,"F1F_Max_Lot_Building_Coverage":null,"F1F_Max_Lot_Impervious_Coverage":null,"F1F_Min_Parking_Spaces":null,"F1F_Elderly_Housing_Only":null,"F1F_Affordable_Housing_Only":null,"F2F_Allowance":"Permitted","F2F_Front_Setback":null,"F2F_Side_Setback":null,"F2F_Rear_Setback":null,"F2F_Frontage":null,"F2F_Max_Density":null,"F2F_Max_Height":null,"F2F_Max_Stories":null,"F2F_Min_Lot_Size":null,"F2F_Max_Lot_Building_Coverage":null,"F2F_Max_Lot_Impervious_Coverage":null,"F2F_Min_Parking_Spaces_per_1BR":null,"F2F_Min_Parking_Spaces_per_mult_BR":null,"F2F_Elderly_Housing_Only":"No","F2F_Affordable_Housing_Only":"No","F3F_Allowance":"Public Hearing","F3F_Front_Setback":null,"F3F_Side_Setback":null,"F3F_Rear_Setback":null,"F3F_Frontage":null,"F3F_Max_Density":null,"F3F_Max_Height":null,"F3F_Max_Stories":null,"F3F_Min_Lot_Size":null,"F3F_Max_Lot_Building_Coverage":null,"F3F_Max_Lot_Impervious_Coverage":null,"F3F_Min_Parking_Spaces_per_1BR":null,"F3F_Min_Parking_Spaces_per_mult_BR":null,"F3F_Affordable_Housing_Only":"No","F3F_Proximity_to_Public_Transit_Required":null,"F3F_Connection_to_Sewage/Water_Required":null,"F4F_Allowance":"Public Hearing","F4F_Front_Setback":null,"F4F_Side_Setback":null,"F4F_Rear_Setback":null,"F4F_Frontage":null,"F1F_Max_Density":null,"F4F_Max_Density":null,"F4F_Max_Height":null,"F4F_Max_Stories":null,"F4F_Min_Lot_Size":null,"F4F_Max_Lot_Building_Coverage":null,"F4F_Max_Lot_Impervious_Coverage":null,"F4F_Min_Parking_Spaces_per_1BR":null,"F4F_Min_Parking_Spaces_per_mult_BR":null,"F3F_Elderly_Housing_Only":"No","F4F_Elderly_Housing_Only":"No","F4F_Affordable_Housing_Only":"No","F4F_Proximity_to_Public_Transit_Required":null,"F4F_Connection_to_Sewage/Water_Required":null,"ADU_Allowance":"Allowed/Conditional","ADU_Elderly_Housing_Only":"No","ADU_Max_Size_as_Percent_of_Primary_Strcture":30.0,"ADU_Max_Size_in_sq_ft":600.0,"ADU_Min_Lot_Size":1.0,"ADU_Max_Bedrooms":1.0,"ADU_Min_Parking_Spaces":null,"ADU_Owner_Occupancy_Required":"Yes","ADU_Renter_Occupancy_Prohibited":"No","ADU_Employee_or_Family_Occupancy_Required":"No","ADU_Restricted_to_Primary_Structure":"No","Affordable_Housing_Allowance":"Not Mentioned","Affordable_Housing_District":"No","Affordable_Housing_Elderly_Only":null,"Affordable_Housing_Min_Lot_Size":null,"Affordable_Housing_Max_Density":null,"Affordable_Housing_Min_Parking_Spaces_per_mult_BR":null,"Affordable_Housing_Max_Units_per_Building":null,"Affordable_Housing_Min_Parking_Spaces_per_1BR":null,"PRD_Allowance":"Not Mentioned","PRD_Max_Density":null,"PRD_Max_Units":null,"PRD_Min_Lot_Size":null,"PRD_Mobile_or_Manufactured_Home_Park":null,"PUD_Allowance":"Yes","PUD_Required_with_Subdivision":"No","PUD_Requires_Land_Conservation":"Yes","PUD_Threshold_Number":null,"Notes":"  Minimum Lot Width Of 200'"},"geometry":{"type":"MultiPolygon","coordinates":[[[[-71.84629367362926,44.9448739128063],[-71.84609598851532,44.946041604961],[-71.84751860273555,44.9460079876798],[-71.84767014536037,44.94559633528537],[-71.8479908510384,44.94518638378035],[-71.84855019462167,44.9448070162654],[-71.84888311876342,44.94404843089588],[-71.84916397847589,44.943773408917416],[-71.84968491099748,44.94308918169494],[-71.85056039428801,44.94213053116544],[-71.85079806015325,44.94194920537036],[-71.85094815272998,44.94172548776536],[-71.85137742945912,44.94141885868785],[-71.85163342246823,44.94096770000614],[-71.8525402142445,44.9402117427729],[-71.85290164416932,44.94002167266372],[-71.85370875715506,44.939812298934626],[-71.8545287707712,44.93917924879618],[-71.85499542747306,44.93890347506719],[-71.8556507538762,44.93876442375277],[-71.85624358484017,44.93876812073294],[-71.85636805818258,44.93819210628469],[-71.85662881071876,44.9377657869133],[-71.85728111783227,44.93720820901587],[-71.85771290748346,44.937027402198005],[-71.85787507284319,44.936567398294414],[-71.85849958695292,44.935900148574184],[-71.86006032706302,44.93494774676128],[-71.86095313261363,44.93410430706753],[-71.8620918980165,44.933427552297054],[-71.86264039342753,44.93291910495186],[-71.8632533771886,44.93255767259932],[-71.8636778150466,44.93242181655452],[-71.86401952852482,44.93217547410457],[-71.86482024830897,44.931947678877016],[-71.86520082089949,44.93134581559461],[-71.86556509578365,44.931028381323074],[-71.86701097024235,44.93019577397397],[-71.86724523884773,44.930000687829356],[-71.8673614786498,44.92961519690395],[-71.8678950894071,44.92909537057592],[-71.86805793908731,44.9286213226946],[-71.8681825171361,44.927876829121026],[-71.86832034800393,44.92758123357233],[-71.86864758830832,44.92726841763983],[-71.86895063384054,44.927135098557734],[-71.86915580675038,44.926457455421165],[-71.8692906863249,44.92626942074622],[-71.86967273254658,44.92604718997045],[-71.86999217782252,44.92566798458452],[-71.87033509590403,44.92546927714947],[-71.87014283686594,44.924475108663586],[-71.87022660342652,44.924200976863126],[-71.87038809322513,44.92402369440518],[-71.87035854850787,44.923737634377034],[-71.87049021085643,44.92345377237471],[-71.87020828242817,44.923188237299875],[-71.87013640410919,44.92284274170582],[-71.87023654724914,44.92256046536755],[-71.87077743913694,44.92194106668997],[-71.87100965272927,44.921197462717004],[-71.8712985308374,44.920789468900885],[-71.87122612342768,44.92052395922697],[-71.87133347453938,44.92017543203546],[-71.8716706592424,44.919857276910406],[-71.87245148033473,44.919595790560265],[-71.87305358319828,44.919608180034295],[-71.87354035416773,44.9197913846754],[-71.87469208149714,44.918863750792326],[-71.8756739751588,44.91785089336884],[-71.87624743899178,44.91712034944547],[-71.87709231719373,44.915804318083005],[-71.87730758319621,44.91537010763928],[-71.87746706551123,44.91476048359427],[-71.87750528039204,44.914266063944865],[-71.87728679735032,44.91266801345045],[-71.8772877411085,44.91226505029015],[-71.87740103046791,44.911715293214506],[-71.87852703255919,44.90818902628703],[-71.87923923231929,44.90678418729347],[-71.87951611615433,44.90637787202688],[-71.88093103761187,44.90495106265283],[-71.88260265053624,44.90370822523132],[-71.88378007049704,44.902420585848056],[-71.8854707823206,44.90127092135497],[-71.88747594143466,44.89941273105606],[-71.88921529503477,44.8976162921822],[-71.89021101035662,44.89647927731541],[-71.89111205712454,44.89562323527723],[-71.89207834969234,44.89438079043037],[-71.89307821856539,44.89351998976289],[-71.89411377562456,44.892395606139665],[-71.89535875798936,44.891304036428],[-71.89622701107268,44.890101738088866],[-71.89672182436897,44.888992277787715],[-71.8934270946712,44.887225371643055],[-71.89318640159557,44.88769720257811],[-71.89276994367101,44.88885362976633],[-71.89211856458547,44.88981031530626],[-71.89100019184085,44.890772560659954],[-71.8899640886436,44.891899669783726],[-71.8889607659566,44.892762848327145],[-71.88854248266036,44.89320727296271],[-71.88785513638008,44.894142638653356],[-71.88700977660321,44.89494544898875],[-71.88601425718221,44.89608420106341],[-71.88379952763336,44.89835264818205],[-71.88253516020643,44.899489838216915],[-71.88088004128939,44.9006029293467],[-71.87950295138488,44.90207005058927],[-71.87797186144317,44.90318794382687],[-71.87668471679149,44.90442028631727],[-71.87614233821937,44.905042101331546],[-71.8757280969286,44.9056438485992],[-71.87477923399842,44.90753111509424],[-71.87373131761635,44.91076521590829],[-71.87350354755883,44.9116425434184],[-71.87342885582314,44.91276296120117],[-71.87364366890708,44.91422293959663],[-71.87359500187635,44.914610343804085],[-71.8727653744136,44.91593558958231],[-71.87211971824368,44.91671292957141],[-71.87130897334818,44.9174826548077],[-71.87022371305775,44.918274566152526],[-71.86967427041583,44.918766897695065],[-71.8692253374829,44.91928046272712],[-71.86885883074137,44.9198681733669],[-71.8684637138302,44.92081979509666],[-71.86820572127147,44.922649834828405],[-71.86762458065854,44.92456461210912],[-71.86722218354731,44.92573097816521],[-71.86670626643301,44.92663409141495],[-71.86645464100818,44.92773430085381],[-71.86626997453838,44.92824018185616],[-71.8657778528942,44.92907212718988],[-71.86538361693613,44.92946091699426],[-71.86460571609642,44.93002945702417],[-71.86372766069282,44.93057264035915],[-71.86109801112718,44.932000528020176],[-71.85935797362711,44.93305730883736],[-71.8583527824981,44.933874201018845],[-71.85705857914023,44.935163166101106],[-71.85617861852849,44.935902658964864],[-71.85037743191012,44.94029332641203],[-71.84979977339162,44.94083372225939],[-71.8494399882562,44.941259252931715],[-71.84889730591247,44.94207134971706],[-71.84708077393542,44.94413378013786],[-71.84629367362926,44.9448739128063]]]]}},{"type":"Feature","properties":{"OBJECT_ID":747,"County":"Essex","RPC":"NVDA","Municipal_Name":"Warren Gore","GEO_ID":"5000976562","District_Name":"Shore Land District","Abbreviated_District_Name":"Sl","District_Type":"Mixed with Residential","Bylaw_Date":null,"Elderly_Housing_District":"No","District_Mapped":"Yes","Overlay_District":"No","Base_Density":null,"FIPS6":null,"GIS_ID":null,"Last_Update":null,"Shape_Length":29991.849341417976,"Shape_Area":1026121.4807517712,"F1F_Allowance":"Permitted","F1F_Front_Setback":100.0,"F1F_Side_Setback":null,"F1F_Rear_Setback":null,"F1F_Frontage":null,"F1F_Max_Height":30.0,"F1F_Max_Stories":null,"F1F_Min_Lot_Size":1.5,"F1F_Max_Lot_Building_Coverage":null,"F1F_Max_Lot_Impervious_Coverage":null,"F1F_Min_Parking_Spaces":null,"F1F_Elderly_Housing_Only":null,"F1F_Affordable_Housing_Only":null,"F2F_Allowance":"Public Hearing","F2F_Front_Setback":100.0,"F2F_Side_Setback":null,"F2F_Rear_Setback":null,"F2F_Frontage":null,"F2F_Max_Density":null,"F2F_Max_Height":null,"F2F_Max_Stories":null,"F2F_Min_Lot_Size":null,"F2F_Max_Lot_Building_Coverage":null,"F2F_Max_Lot_Impervious_Coverage":null,"F2F_Min_Parking_Spaces_per_1BR":null,"F2F_Min_Parking_Spaces_per_mult_BR":null,"F2F_Elderly_Housing_Only":"No","F2F_Affordable_Housing_Only":"No","F3F_Allowance":"Prohibited","F3F_Front_Setback":null,"F3F_Side_Setback":null,"F3F_Rear_Setback":null,"F3F_Frontage":null,"F3F_Max_Density":null,"F3F_Max_Height":null,"F3F_Max_Stories":null,"F3F_Min_Lot_Size":null,"F3F_Max_Lot_Building_Coverage":null,"F3F_Max_Lot_Impervious_Coverage":null,"F3F_Min_Parking_Spaces_per_1BR":null,"F3F_Min_Parking_Spaces_per_mult_BR":null,"F3F_Affordable_Housing_Only":null,"F3F_Proximity_to_Public_Transit_Required":null,"F3F_Connection_to_Sewage/Water_Required":null,"F4F_Allowance":"Prohibited","F4F_Front_Setback":null,"F4F_Side_Setback":null,"F4F_Rear_Setback":null,"F4F_Frontage":null,"F1F_Max_Density":null,"F4F_Max_Density":null,"F4F_Max_Height":null,"F4F_Max_Stories":null,"F4F_Min_Lot_Size":null,"F4F_Max_Lot_Building_Coverage":null,"F4F_Max_Lot_Impervious_Coverage":null,"F4F_Min_Parking_Spaces_per_1BR":null,"F4F_Min_Parking_Spaces_per_mult_BR":null,"F3F_Elderly_Housing_Only":null,"F4F_Elderly_Housing_Only":null,"F4F_Affordable_Housing_Only":null,"F4F_Proximity_to_Public_Transit_Required":null,"F4F_Connection_to_Sewage/Water_Required":null,"ADU_Allowance":"Allowed/Conditional","ADU_Elderly_Housing_Only":"No","ADU_Max_Size_as_Percent_of_Primary_Strcture":30.0,"ADU_Max_Size_in_sq_ft":600.0,"ADU_Min_Lot_Size":1.5,"ADU_Max_Bedrooms":1.0,"ADU_Min_Parking_Spaces":null,"ADU_Owner_Occupancy_Required":"Yes","ADU_Renter_Occupancy_Prohibited":"No","ADU_Employee_or_Family_Occupancy_Required":"No","ADU_Restricted_to_Primary_Structure":"No","Affordable_Housing_Allowance":"Not Mentioned","Affordable_Housing_District":"No","Affordable_Housing_Elderly_Only":null,"Affordable_Housing_Min_Lot_Size":null,"Affordable_Housing_Max_Density":null,"Affordable_Housing_Min_Parking_Spaces_per_mult_BR":null,"Affordable_Housing_Max_Units_per_Building":null,"Affordable_Housing_Min_Parking_Spaces_per_1BR":null,"PRD_Allowance":"Not Mentioned","PRD_Max_Density":null,"PRD_Max_Units":null,"PRD_Min_Lot_Size":null,"PRD_Mobile_or_Manufactured_Home_Park":null,"PUD_Allowance":"Yes","PUD_Required_with_Subdivision":"No","PUD_Requires_Land_Conservation":"Yes","PUD_Threshold_Number":null,"Notes":"  Minimum Lot Width Of 200'"},"geometry":{"type":"MultiPolygon","coordinates":[[[[-71.85915636045313,44.94566795127649],[-71.85885292045363,44.945740153817546],[-71.85962211934932,44.94572197819264],[-71.85915636045313,44.94566795127649]]],[[[-71.86067044262737,44.942689489887826],[-71.86040674215697,44.94269134105909],[-71.86019802562315,44.942876539401304],[-71.86009050323597,44.94306634755624],[-71.86013977319064,44.94340992364108],[-71.86039140905238,44.94329615301718],[-71.86039203858893,44.94309134528512],[-71.8604867502587,44.94297146988878],[-71.86079817349395,44.94281412020392],[-71.86067044262737,44.942689489887826]]],[[[-71.86999349984507,44.93350229303097],[-71.8698524246358,44.933589517087356],[-71.86991234255353,44.9337636162913],[-71.86997311234389,44.93377942941399],[-71.87006096691951,44.93371548388958],[-71.87008378912283,44.93358665765642],[-71.86999349984507,44.93350229303097]]],[[[-71.87211749673276,44.92976015613194],[-71.87200560291173,44.92979913542154],[-71.87184836890444,44.930126277213446],[-71.87147600116452,44.93029484669523],[-71.87122931709737,44.9303330824077],[-71.87081910714488,44.93048632257255],[-71.87047399833102,44.930906278838265],[-71.87025352419516,44.93101529985162],[-71.87007028180543,44.931194801595986],[-71.87001724393386,44.93134164228885],[-71.8694701846151,44.93183211493181],[-71.86912201453146,44.93254253439243],[-71.86886760970923,44.93278741920804],[-71.86847624458164,44.9330220182744],[-71.86851293307205,44.933142081842156],[-71.86884318529806,44.933062649674646],[-71.86944884678746,44.93277524384042],[-71.86965000236164,44.93263795528564],[-71.86971547785154,44.93251287493715],[-71.87008637203702,44.93226070560715],[-71.87006603142989,44.93201285679937],[-71.86993570556689,44.93169708964211],[-71.87000971255557,44.93152103233002],[-71.8703557930768,44.931220675437956],[-71.87074986309074,44.93102622101227],[-71.87109964436439,44.93096686983062],[-71.87140724083476,44.930791915932474],[-71.8715334122946,44.93061740724312],[-71.87177639576015,44.93054675409376],[-71.87189877496785,44.93036007311004],[-71.87213861229432,44.93015981707535],[-71.87211749673276,44.92976015613194]]],[[[-71.87559377822346,44.92672216043798],[-71.87534944093399,44.92676806325561],[-71.8751994028007,44.927100107626],[-71.87517718979903,44.9273146092758],[-71.87492520515218,44.92748114363755],[-71.87474161095963,44.92754367256176],[-71.87454376661088,44.92753070722438],[-71.87400579566501,44.927716288180434],[-71.87350517866797,44.927751428656656],[-71.87328719474125,44.92784300715244],[-71.87313678571972,44.92798651907489],[-71.8731076713695,44.92812494467793],[-71.87327435663568,44.928300887240596],[-71.87335595865632,44.9286482318411],[-71.87397260001599,44.92895307223164],[-71.87440882511109,44.92895771596481],[-71.87463883015475,44.92899586699911],[-71.8751768489077,44.92873704155811],[-71.87580396989254,44.92807483443744],[-71.87600063358954,44.92760095095579],[-71.87617970101248,44.92744148041584],[-71.87640087617385,44.92741767359545],[-71.87641696875353,44.927311481588816],[-71.8762836890842,44.9271266408823],[-71.87632317125258,44.926989359916234],[-71.87611741497615,44.92691147481636],[-71.87599391821135,44.926758271960374],[-71.87559377822346,44.92672216043798]]],[[[-71.87963361949558,44.92593005528038],[-71.87955079080135,44.925963892401846],[-71.87979178489374,44.92660555257192],[-71.87992160476593,44.9266894051945],[-71.88006559942153,44.92668047098039],[-71.8799810856602,44.92623502242208],[-71.87963361949558,44.92593005528038]]],[[[-71.87935059854317,44.925674845938666],[-71.87936319694306,44.925751670268646],[-71.87949573459393,44.92579486374216],[-71.87946679807493,44.92569464025324],[-71.87935059854317,44.925674845938666]]],[[[-71.87403376244406,44.92558454000608],[-71.87394458282101,44.92578310833156],[-71.8741957768107,44.92561908510672],[-71.87403376244406,44.92558454000608]]],[[[-71.8773889724637,44.91846568840565],[-71.8770024145938,44.91864275042768],[-71.87696219965449,44.91877786632449],[-71.87705473594785,44.91885225557073],[-71.8771191052831,44.918756136199995],[-71.87726064697613,44.918772930428304],[-71.8771711609857,44.91870926922609],[-71.87733796393007,44.918638911201135],[-71.87729266568536,44.91859933326445],[-71.8774119581938,44.91853024405322],[-71.8773889724637,44.91846568840565]]],[[[-71.878353632246,44.91592049455567],[-71.87800884671323,44.91598284242617],[-71.87739280822777,44.91622665414927],[-71.87710181252636,44.91646952456566],[-71.87690942058322,44.9168569280131],[-71.876996049345,44.91725948943373],[-71.87685605667215,44.91762363057807],[-71.87633051477593,44.917992859376646],[-71.8759934359778,44.91847780416103],[-71.87588013233047,44.91901020317725],[-71.87589808745342,44.91955112765825],[-71.87601526252126,44.91981900633889],[-71.8763618481145,44.920118976685195],[-71.87622515002151,44.92030016731523],[-71.87579591846425,44.9206502985657],[-71.87456143874874,44.920166521342196],[-71.87396217001054,44.92010485557622],[-71.87354035416773,44.9197913846754],[-71.87305358319828,44.919608180034295],[-71.87245148033473,44.919595790560265],[-71.8716706592424,44.919857276910406],[-71.87133347453938,44.92017543203546],[-71.87122612342768,44.92052395922697],[-71.8712985308374,44.920789468900885],[-71.87100965272927,44.921197462717004],[-71.87077743913694,44.92194106668997],[-71.87023654724914,44.92256046536755],[-71.87013640410919,44.92284274170582],[-71.87020828242817,44.923188237299875],[-71.87049021085643,44.92345377237471],[-71.87035854850787,44.923737634377034],[-71.87038809322513,44.92402369440518],[-71.87022660342652,44.924200976863126],[-71.87014283686594,44.924475108663586],[-71.87033509590403,44.92546927714947],[-71.86999217782252,44.92566798458452],[-71.86967273254658,44.92604718997045],[-71.8692906863249,44.92626942074622],[-71.86915580675038,44.926457455421165],[-71.86895063384054,44.927135098557734],[-71.86864758830832,44.92726841763983],[-71.86832034800393,44.92758123357233],[-71.8681825171361,44.927876829121026],[-71.86805793908731,44.9286213226946],[-71.8678950894071,44.92909537057592],[-71.8673614786498,44.92961519690395],[-71.86724523884773,44.930000687829356],[-71.86701097024235,44.93019577397397],[-71.86556509578365,44.931028381323074],[-71.86520082089949,44.93134581559461],[-71.86482024830897,44.931947678877016],[-71.86401952852482,44.93217547410457],[-71.8636778150466,44.93242181655452],[-71.8632533771886,44.93255767259932],[-71.86264039342753,44.93291910495186],[-71.8620918980165,44.933427552297054],[-71.86095313261363,44.93410430706753],[-71.86006032706302,44.93494774676128],[-71.85849958695292,44.935900148574184],[-71.85787507284319,44.936567398294414],[-71.85771290748346,44.937027402198005],[-71.85728111783227,44.93720820901587],[-71.85662881071876,44.9377657869133],[-71.85636805818258,44.93819210628469],[-71.85624358484017,44.93876812073294],[-71.8556507538762,44.93876442375277],[-71.85499542747306,44.93890347506719],[-71.8545287707712,44.93917924879618],[-71.85370875715506,44.939812298934626],[-71.85290164416932,44.94002167266372],[-71.8525402142445,44.9402117427729],[-71.85163342246823,44.94096770000614],[-71.85137742945912,44.94141885868785],[-71.85094815272998,44.94172548776536],[-71.85079806015325,44.94194920537036],[-71.85056039428801,44.94213053116544],[-71.84968491099748,44.94308918169494],[-71.84916397847589,44.943773408917416],[-71.84888311876342,44.94404843089588],[-71.84855019462167,44.9448070162654],[-71.8479908510384,44.94518638378035],[-71.84767014536037,44.94559633528537],[-71.84751860273555,44.9460079876798],[-71.84849107642441,44.945985008296816],[-71.84877325785335,44.94558816106293],[-71.84930838699769,44.94526104510546],[-71.84949564914095,44.94501573108297],[-71.84954621270278,44.94474605615299],[-71.84976468927351,44.94432804744743],[-71.84998854829988,44.94414061744035],[-71.85052407660076,44.943428264767554],[-71.85099407815667,44.942974883445316],[-71.85134267037257,44.94253385609232],[-71.85152075853152,44.942403844051704],[-71.85166899199223,44.94239424624239],[-71.85173052862874,44.94212724215054],[-71.85189430772989,44.94199706370331],[-71.85200522666837,44.941992654730555],[-71.85227730917536,44.941739892965835],[-71.85242180621522,44.94136348525628],[-71.85289029602825,44.94103066691767],[-71.85326027605478,44.94066849103529],[-71.85371092413703,44.940592306839044],[-71.85426661451665,44.94039109062424],[-71.85546119809936,44.93950407935484],[-71.85583810539923,44.9394380845592],[-71.85605917300222,44.93949701323156],[-71.85620697793254,44.93945609238432],[-71.85641924108177,44.93958822139203],[-71.85673579390887,44.939673875857544],[-71.85695815990417,44.93962788566143],[-71.85715821250817,44.93950320770736],[-71.85724314154702,44.939205016556016],[-71.85720731693614,44.93879321058396],[-71.85728537708434,44.93840580584324],[-71.85746518225024,44.93810824016921],[-71.85793124913454,44.9377150948308],[-71.85827171537846,44.93764366872315],[-71.85847165774041,44.9375399593828],[-71.85859216378692,44.937310083884896],[-71.85876412422238,44.937158882557476],[-71.85875657753687,44.93684694271812],[-71.85885257158033,44.936815900581195],[-71.8592196467275,44.936356859588614],[-71.85941915673178,44.93627951517109],[-71.85948677645008,44.936180007440164],[-71.85982771040597,44.93607735364052],[-71.85993942415024,44.93593120842434],[-71.86019579556807,44.93579901538879],[-71.8603224733041,44.93566330218525],[-71.86059665091793,44.93557043802643],[-71.86081299818449,44.93541444637547],[-71.86108181294537,44.935096225040155],[-71.86128231699608,44.93499773044986],[-71.86142824394715,44.934770514580016],[-71.86169682704721,44.93454146808578],[-71.86289193622088,44.933872069016175],[-71.86324736919418,44.93345227713737],[-71.86358052734515,44.93331771224393],[-71.86387829564907,44.933093863400096],[-71.86410027761417,44.93307961910173],[-71.864306201822,44.93314348685189],[-71.86455355673843,44.93274667313017],[-71.8652752117299,44.93258024811285],[-71.86561539074371,44.93245111823498],[-71.86569760637674,44.93239389379438],[-71.86574471452009,44.932142457576674],[-71.86603715765511,44.93168820535384],[-71.86625981144562,44.93160035256488],[-71.86625029987619,44.93182050112032],[-71.86644258055732,44.93175326744535],[-71.86653611561533,44.93159927318437],[-71.86633014680785,44.93154054298098],[-71.86630163616105,44.93147208062756],[-71.8669542339208,44.931166688105414],[-71.86715582284205,44.93097900697387],[-71.86769013119738,44.93070426943765],[-71.86811853473459,44.93033705805394],[-71.86821585600931,44.930195865163235],[-71.86824327594552,44.92989609275443],[-71.86881838046057,44.929405329992136],[-71.86886667914851,44.92904393499707],[-71.86899336883937,44.92889255423817],[-71.86907821765702,44.92823521456364],[-71.86919300350402,44.927874282040165],[-71.8692977103766,44.9277752422649],[-71.86972619739836,44.927698958687074],[-71.86986770465548,44.927558279937195],[-71.86995442622806,44.92737787879591],[-71.86991221312537,44.92718363259009],[-71.87002459061263,44.92704270382375],[-71.87007298406607,44.92667105460191],[-71.87034637174709,44.92665672173117],[-71.87058439267066,44.92645889388208],[-71.87060518172404,44.92622575690605],[-71.87081354598013,44.9260643009974],[-71.87099092815845,44.92606023882382],[-71.87128491799061,44.92617713276647],[-71.87155026867076,44.926167881161355],[-71.87167678739075,44.92610054936361],[-71.87176705920547,44.925964889290796],[-71.87167338803506,44.92569162141266],[-71.87160048401955,44.92562850158987],[-71.87145347403107,44.9256119429313],[-71.87130700753168,44.92546427777116],[-71.8712985180321,44.925220546275],[-71.87115488774045,44.924894900038055],[-71.87120831288227,44.924711617581295],[-71.87110797674734,44.92448043030964],[-71.87135669510671,44.92431144943854],[-71.87150622989915,44.92410799956977],[-71.87132437576273,44.9238604359945],[-71.8713403604245,44.923776744562474],[-71.87177655175354,44.923711026004895],[-71.87194761715588,44.92356528338966],[-71.8719935893857,44.92340292756533],[-71.87169761588079,44.92317867097011],[-71.87140312117236,44.92310892879863],[-71.87109563696,44.92291853263243],[-71.8711179019642,44.92283991781346],[-71.87122196879788,44.922809085132],[-71.87140138581341,44.922605891657504],[-71.8714772164417,44.922412204664816],[-71.87164031727592,44.92233427296735],[-71.87175599066036,44.92218067224647],[-71.87179069411113,44.921750807412444],[-71.87193918456144,44.9216417527483],[-71.87192675744548,44.921411042300804],[-71.87206196403827,44.921207334624434],[-71.87213304094368,44.92114725457178],[-71.87256770094227,44.921139204869434],[-71.87266488879341,44.92107683826856],[-71.87265789789282,44.920998332374836],[-71.87230682480741,44.92073966562892],[-71.87222687272234,44.920602806566535],[-71.87219881527447,44.92049268642859],[-71.87228861180155,44.9203883434272],[-71.87266588295427,44.920264342764696],[-71.87282794873559,44.9202810734488],[-71.87310674186168,44.92041893738778],[-71.87308216569983,44.920628650258024],[-71.87356618534612,44.92096128856125],[-71.87374256493206,44.92097809736001],[-71.87391483852078,44.920790338586336],[-71.87419097124243,44.92079968191481],[-71.87542546637236,44.92128346317484],[-71.87532807255874,44.921434741557086],[-71.87545222403604,44.921514155332225],[-71.87564338002277,44.92154670076329],[-71.87552403959364,44.92205168557947],[-71.87541916529558,44.922145690036515],[-71.8752340670488,44.92258210507058],[-71.87485410711385,44.922941689024036],[-71.87458719295824,44.923388543566254],[-71.87448525362714,44.92425006809441],[-71.87452821994496,44.9243760188956],[-71.87443739393692,44.92457466141938],[-71.87442029754432,44.924831667018246],[-71.87418597043943,44.92534385093704],[-71.87436210285178,44.92545504815862],[-71.87452442984201,44.92546088664639],[-71.87466514174969,44.92540406603101],[-71.87476220244193,44.925284285773124],[-71.87475530763517,44.92423841233138],[-71.87489151313196,44.92387245369912],[-71.8751511640177,44.92372170999549],[-71.87559283063047,44.92388663983228],[-71.8756538216364,44.924020605883115],[-71.87563683457158,44.92420921895881],[-71.87551687517096,44.92439726359681],[-71.87560427554695,44.92516822033705],[-71.87579637680876,44.925185017421434],[-71.87622954723282,44.92532884480465],[-71.87632645431106,44.925292834582464],[-71.87606139239377,44.92484360995829],[-71.87592992687506,44.92433905159797],[-71.87566736474315,44.92372930163193],[-71.87533621138245,44.92346571480823],[-71.87524819256605,44.92303167086462],[-71.87549966352137,44.92254846256034],[-71.87569878569835,44.92236048801081],[-71.87572563380154,44.92214988718247],[-71.87606555122792,44.921604076023065],[-71.87650379472886,44.9211242244325],[-71.87704758974937,44.92068625579849],[-71.87736329948125,44.92018629591598],[-71.87740018629331,44.919925079050714],[-71.87734686296693,44.91980825691315],[-71.87685879270549,44.91948587106833],[-71.8768393107785,44.91908594830619],[-71.87691161499201,44.91868895690562],[-71.87711275420378,44.91839444526106],[-71.87763825181659,44.91804104599422],[-71.87778347504927,44.91785763055794],[-71.87788276721653,44.917528908939765],[-71.8781178164099,44.91724888374241],[-71.87811906588472,44.9171328117102],[-71.87787530830603,44.91697625335975],[-71.87793799844212,44.91681182901893],[-71.87841122762295,44.91660608220355],[-71.87857504931515,44.91661174040136],[-71.87856579613242,44.916800936166126],[-71.87840710127709,44.916989049559454],[-71.87843938909383,44.9171538993351],[-71.87825330514636,44.91729804118314],[-71.8781115694429,44.917522863403555],[-71.87819155933491,44.91766863191417],[-71.87845068318644,44.91764583488859],[-71.87835416410749,44.917776151758645],[-71.87835339790946,44.91785848639714],[-71.87846791125062,44.91795107987912],[-71.87835690804253,44.918120011754596],[-71.87844394387656,44.91827094143003],[-71.87876990310157,44.91842767935326],[-71.87887950927404,44.918399294971614],[-71.87911099829576,44.91815560796548],[-71.87923356807421,44.91814673557839],[-71.87925157023781,44.91840365580563],[-71.87911970042613,44.918582286351814],[-71.87921390273691,44.91865532769296],[-71.87981831318417,44.91832421706639],[-71.88009533841516,44.91788487377008],[-71.88021568248666,44.91751711791341],[-71.8805918681623,44.917431867142156],[-71.8808233811807,44.91746722705158],[-71.88106622010169,44.91771088498047],[-71.88102908080914,44.917996482148716],[-71.88112012215609,44.91805771819491],[-71.88119970575268,44.918242352597886],[-71.8812173874121,44.91851862444205],[-71.88109455930908,44.91889329508592],[-71.88104095331501,44.91939225839371],[-71.88076704191522,44.91954087306276],[-71.88095930181939,44.91969462637983],[-71.88094457900227,44.91981567097013],[-71.88060270947582,44.919876896891964],[-71.88044520864065,44.91995361197683],[-71.88051823000588,44.920147842580256],[-71.88075528367891,44.92027034079101],[-71.8807540351605,44.92038668725682],[-71.88061071510184,44.920380873419916],[-71.88047638923238,44.92021051163622],[-71.88033260182155,44.920272727439915],[-71.88017569497154,44.92056523684348],[-71.88006626458449,44.92058884596421],[-71.87998320895264,44.92073849730113],[-71.87998936617609,44.92082572523369],[-71.88017144786119,44.92097213467915],[-71.88011677735786,44.92133287136637],[-71.87956212645376,44.921533409811786],[-71.8793742811233,44.9218522054488],[-71.87992828870969,44.922017731726214],[-71.88033163918679,44.92197627610764],[-71.8804259810976,44.92202519955912],[-71.88041172840904,44.92210269433396],[-71.88015169639763,44.92220791869666],[-71.87987112455781,44.92224527289543],[-71.87955113712589,44.92219007859048],[-71.87942343010694,44.92206331282864],[-71.8791166120262,44.922032673620485],[-71.87878736358856,44.92216648918813],[-71.87849224774061,44.9223780661593],[-71.87831839012856,44.922643756107504],[-71.87854369625533,44.92266909908493],[-71.87850516311181,44.92338851823425],[-71.87807121560778,44.92405746391435],[-71.87807239377813,44.924311954561475],[-71.8781795923918,44.92449665576404],[-71.87842924611417,44.92469652581926],[-71.87930117158021,44.92518360198785],[-71.87992029237118,44.92532752779965],[-71.88025456184316,44.925304955628164],[-71.88032737229207,44.925542919926116],[-71.88016143433136,44.9257310825569],[-71.88028310893094,44.925818849128454],[-71.8806231520862,44.92586028932586],[-71.88043941509146,44.926161286704456],[-71.8805116835357,44.926437942592315],[-71.88060671033034,44.92650621691335],[-71.88119323227775,44.926514439406645],[-71.88149920065788,44.92662740799451],[-71.88171818228659,44.92687831032726],[-71.88196194149963,44.927039449585465],[-71.88197411907265,44.92715586858616],[-71.88240969050689,44.927587110427325],[-71.88278535826456,44.92755512425103],[-71.88335639635798,44.927674651218254],[-71.88396735911863,44.92799281518238],[-71.88433517972302,44.92839947116923],[-71.88447236305286,44.92895768292603],[-71.88479775572951,44.929412348316006],[-71.88420857163585,44.93001748895697],[-71.88399992040185,44.93035075843011],[-71.88398483527757,44.93050554207415],[-71.8842387996674,44.930674287674634],[-71.88449785823362,44.93073354799134],[-71.88488948483216,44.931060514033575],[-71.88567252853377,44.93120025110717],[-71.88599922131782,44.93130882414933],[-71.88599341203606,44.93148570485507],[-71.88609976928106,44.93175263799432],[-71.88668021562167,44.93233725807055],[-71.88673883417563,44.93263822573759],[-71.88662097040209,44.93277310858574],[-71.88632754163837,44.93289472964218],[-71.88620421910272,44.933018877804145],[-71.88611045530729,44.93298489665753],[-71.88605708404039,44.9328693339195],[-71.88594852641008,44.93286875027032],[-71.88579928776512,44.932988085592314],[-71.88524594438347,44.93311721176696],[-71.88487918439913,44.93328341909226],[-71.88423108428321,44.93317410199672],[-71.88372927040336,44.93330592561227],[-71.88337434850655,44.933253618576494],[-71.88318210788717,44.93353127179664],[-71.88316456354956,44.93391560462699],[-71.88303431753872,44.93409487429474],[-71.88308797395008,44.93440768808806],[-71.88301124568815,44.93440385855593],[-71.88291494112298,44.93422830981033],[-71.88293459185726,44.933434278830276],[-71.88277244171279,44.933043124862444],[-71.88261916865847,44.93286402926352],[-71.88259851697015,44.932722457211845],[-71.88265898025789,44.932612552938984],[-71.88323640964548,44.93245846194696],[-71.88313434687846,44.93230070156248],[-71.88276037326325,44.93209963027471],[-71.88273692814688,44.931923759674895],[-71.88278145835717,44.93183482358977],[-71.88304161672815,44.93172095079477],[-71.88313091136386,44.9315798836371],[-71.88341368609652,44.931424294235654],[-71.88367419252889,44.931195149606],[-71.88374857143887,44.931122122938945],[-71.88375004366168,44.93099641915775],[-71.8834555968739,44.930905743116654],[-71.88296898390854,44.931251454154626],[-71.88179866264929,44.93163324218261],[-71.88159198356895,44.93162672304401],[-71.8813427729172,44.93154663238004],[-71.88093910528269,44.930939282174414],[-71.8807265240809,44.930822672882265],[-71.88059639124819,44.93055470587051],[-71.88064008003232,44.93033222357743],[-71.880795712425,44.930207082217464],[-71.88082103073984,44.92991395537201],[-71.88090396399156,44.92978842237325],[-71.88135026210442,44.929444928628165],[-71.881475178439,44.92945603931028],[-71.88156796543169,44.92974504741008],[-71.8817208181723,44.929950325927315],[-71.88189799138905,44.92996667196385],[-71.8822097659567,44.92976426533564],[-71.88232032089694,44.929791047928774],[-71.88244406760721,44.92992273998283],[-71.88259337375229,44.929797478265485],[-71.88256565526045,44.92928646798004],[-71.88217500846767,44.92923710819537],[-71.88203090994972,44.928948012792546],[-71.88180917770316,44.92895221199937],[-71.88157197763893,44.92907664042948],[-71.8815134663354,44.92899254511359],[-71.8815815424212,44.92884614310455],[-71.88184059521647,44.928763676270854],[-71.88210574047228,44.928833139978735],[-71.8822097693661,44.92872382882466],[-71.88250594835925,44.928652091661185],[-71.88277859920402,44.92869531981144],[-71.8831949143238,44.92908028363343],[-71.88320857747273,44.929200672638565],[-71.88328882831554,44.92925383876333],[-71.88348065011668,44.92923903395622],[-71.88355573056724,44.92917114406939],[-71.88327699225111,44.929033487918346],[-71.8832857131221,44.928881450577],[-71.88357313088186,44.92888300322684],[-71.88385945334709,44.929057503602884],[-71.88394053054812,44.929021317848175],[-71.88389759729111,44.92889015518631],[-71.88285428555992,44.928512422299946],[-71.88268631457545,44.92836987757701],[-71.8824391485069,44.928313647028396],[-71.88117042724336,44.9283433124018],[-71.88088333024683,44.928242232750634],[-71.88042593996732,44.927933251719296],[-71.88020476669573,44.92787428314015],[-71.87994010178967,44.92783073134813],[-71.87965148252347,44.927871277230324],[-71.87880287365023,44.927861442435976],[-71.8784149651357,44.92757101414944],[-71.87795441590376,44.927544928865665],[-71.87783016698263,44.92746047175673],[-71.87780988378985,44.92729775542305],[-71.87800502176336,44.92696334813405],[-71.8779766129691,44.9268847196935],[-71.87782201907082,44.92683132658918],[-71.8775994458799,44.92691388866663],[-71.87717565292414,44.92722626673689],[-71.87653097631485,44.92746373769129],[-71.87634165853406,44.92762270196675],[-71.87612894141395,44.92818729133456],[-71.87559614552427,44.92869028980462],[-71.87544034816231,44.92874711902225],[-71.87529821016943,44.928935047386446],[-71.87531161569709,44.92901889556715],[-71.87551815537127,44.92902542711265],[-71.87556960209471,44.92909373724386],[-71.87549456354361,44.92915631734098],[-71.8751392333844,44.9292854883127],[-71.87503501429819,44.92941053890149],[-71.87447100767854,44.92965914539123],[-71.87436091401268,44.92964810915218],[-71.8743031726781,44.92950614785151],[-71.8741044675401,44.92943163003075],[-71.87407953460705,44.9292081891775],[-71.87393044401615,44.9291950922357],[-71.87384372750554,44.929307011313064],[-71.8738798234146,44.92941212934615],[-71.87362201412424,44.92937922174343],[-71.87345357365162,44.92929443112015],[-71.87315771685452,44.92933474089597],[-71.87319254364832,44.929487013774235],[-71.87334657237562,44.929592872782564],[-71.87338965962468,44.92970829331199],[-71.87365532831204,44.92974106366778],[-71.87369076933446,44.92982530644133],[-71.87369673554952,44.929940615051706],[-71.8734244919262,44.9302090826311],[-71.8732961095983,44.930517489095905],[-71.87288691950118,44.93079834015178],[-71.87243825546864,44.93099240928195],[-71.87223741023294,44.93119584625092],[-71.87169760178847,44.93131328463117],[-71.87116317636362,44.93188950214212],[-71.8711099755315,44.93205181758596],[-71.87113519044117,44.932434312609686],[-71.87095699585254,44.932871208780746],[-71.8712278802662,44.933076884043565],[-71.87162506700821,44.933178957235604],[-71.87164084036773,44.93347510388683],[-71.87151365957347,44.933589675363656],[-71.87143794864639,44.93378309180016],[-71.87091983495841,44.934244217286626],[-71.87053514088394,44.934378159574756],[-71.87051959979568,44.93442027715574],[-71.87062278145628,44.93447312768804],[-71.8704941726672,44.934718710148275],[-71.87017493553152,44.934879468331076],[-71.86990954779702,44.93488853384543],[-71.8696521647479,44.935115142713855],[-71.86972537948004,44.935220470427815],[-71.86960198087839,44.93564947961297],[-71.86969081541127,44.93562387717436],[-71.86977120244052,44.93573410555926],[-71.86973620263484,44.935899037645974],[-71.86960729777704,44.936170805569354],[-71.86922176151963,44.93666928340739],[-71.86860537976251,44.937064339072556],[-71.86822017402916,44.937161735755204],[-71.86771635846024,44.93740028935448],[-71.86750387405155,44.93757450099106],[-71.86756917795304,44.937684826426384],[-71.86754534352161,44.93783686682234],[-71.86720331936354,44.93803942276527],[-71.86684072972194,44.93846448990525],[-71.86647631881256,44.93876653562778],[-71.86630317946796,44.93903806058945],[-71.86609516379416,44.939162617687856],[-71.8660236676719,44.93932725956288],[-71.86574756138941,44.93958272966569],[-71.86446758287676,44.941184677861756],[-71.86429385048841,44.94157695675048],[-71.86425675612662,44.94193048890613],[-71.86381065786794,44.94223702227583],[-71.86352694787654,44.94290395860746],[-71.86339997026624,44.94299747034444],[-71.86318588266644,44.94302767694262],[-71.86304817407539,44.9427962758219],[-71.8626572292375,44.94277843328812],[-71.8619977077356,44.94297389186596],[-71.86167106885514,44.94315563993631],[-71.86176069236632,44.94342601567229],[-71.86191515344974,44.943495088327474],[-71.8625636150041,44.94357736041687],[-71.86270940906114,44.94371963693315],[-71.86266896877622,44.94400763717265],[-71.86247651545415,44.94407468341],[-71.8622414642218,44.943994810249556],[-71.86190915744298,44.94402445138144],[-71.86181197209923,44.944081678412125],[-71.86176537590318,44.944364247370856],[-71.86159439366928,44.94442628642999],[-71.86128461695121,44.94443490375852],[-71.86122886222192,44.944114955932505],[-71.86104431897422,44.94410852432773],[-71.86105259508092,44.94436809416484],[-71.86087672473217,44.94493852971963],[-71.86093690422933,44.94515627321446],[-71.86106096935734,44.94524614395775],[-71.86133958027199,44.945681393661935],[-71.86231022539822,44.94565845734108],[-71.86225120721643,44.945382924007134],[-71.86199318423016,44.94505964039257],[-71.86231813875085,44.944935811409536],[-71.86255435532749,44.94475800944094],[-71.8631146546493,44.94463404007927],[-71.8634795385644,44.944380172862125],[-71.86363195654384,44.94410243582819],[-71.86366978214626,44.94365555789184],[-71.86401261574892,44.943527419694796],[-71.8643940413358,44.943208481769645],[-71.86465821563777,44.94261809938685],[-71.86494955247224,44.94243836824213],[-71.86515745918635,44.94217738461902],[-71.86524243445619,44.94170810477894],[-71.8653670334507,44.941478042574865],[-71.86658017769172,44.939937556658904],[-71.8679264423971,44.93852057407014],[-71.86834653800413,44.93821940043392],[-71.86853150989617,44.937838538213605],[-71.86928606792253,44.93756358397417],[-71.87000118864236,44.937073956254615],[-71.87046863449908,44.93648072601964],[-71.87066779966754,44.93607880490117],[-71.87073563687771,44.93570412256562],[-71.87066273476651,44.93547333217016],[-71.8712295919611,44.93516297322337],[-71.87152446110103,44.934778322277054],[-71.8722980562441,44.93409439741877],[-71.87257240444434,44.93365485189745],[-71.87263655365571,44.93325666216736],[-71.87244356081382,44.93281544039711],[-71.8720827376036,44.93257535093136],[-71.87209656231524,44.932100116344934],[-71.87232350962078,44.93190466013639],[-71.87278906749404,44.93175858284628],[-71.87313454817168,44.93148363663446],[-71.87349702549342,44.931329699790346],[-71.87394125877121,44.93103906356586],[-71.87413695602669,44.930854239005704],[-71.87428175720612,44.930573966200384],[-71.87448949962382,44.93034380018679],[-71.8747858793874,44.93031394458717],[-71.87505689590043,44.93022549529791],[-71.87627874910396,44.92956575132799],[-71.87650110803877,44.92927345842032],[-71.87651581005407,44.92896283042619],[-71.87698898774885,44.928498561586075],[-71.87722782203728,44.92799676514696],[-71.8775385455634,44.92816370972102],[-71.87795509708026,44.928234231385375],[-71.87815934276394,44.92838515956847],[-71.87850948930155,44.92851468872849],[-71.87907067922504,44.92856941133752],[-71.87994498984423,44.92854425612994],[-71.88029810381471,44.9287875123428],[-71.88056061419152,44.928888635575],[-71.88055057409845,44.92902496721623],[-71.88016282805306,44.92934282504871],[-71.8799037611698,44.929700442133274],[-71.87985353003506,44.92993336499667],[-71.87969675311003,44.930186840944266],[-71.87965004114817,44.93068983191277],[-71.87988284417982,44.9311558397468],[-71.88020156537368,44.93144659919644],[-71.88036159907398,44.931727180434294],[-71.88061287178267,44.93199534940054],[-71.88083955047297,44.932131774080936],[-71.88119409569194,44.93225144984003],[-71.88176590220293,44.93232309475898],[-71.88163459442075,44.93275919416418],[-71.88169736914263,44.93306757757607],[-71.88189000098987,44.93333655731068],[-71.88198136429324,44.933630195131315],[-71.88196400071355,44.93434629831448],[-71.8821675249164,44.93473703917069],[-71.882508007288,44.93498900273285],[-71.88302559428517,44.935107950620804],[-71.88332053373955,44.93508244570589],[-71.88359058070564,44.93499443713691],[-71.88384034318283,44.93483730797173],[-71.88398864583486,44.9346544372207],[-71.88405162702061,44.934448191703495],[-71.88402089627756,44.93423156009446],[-71.88412913711805,44.93393642779379],[-71.8842386633993,44.933903340566694],[-71.88463944191716,44.9339717874057],[-71.88499109987082,44.93396448319223],[-71.88597785731623,44.93368838570118],[-71.88627143838853,44.93370290040311],[-71.88656111167373,44.933655979575484],[-71.88730717446754,44.93325537910993],[-71.88767043063478,44.932817850782556],[-71.88771298052299,44.93247791792471],[-71.88758600958474,44.9321002351937],[-71.88699664515887,44.93144122860823],[-71.88693451452198,44.931139216298995],[-71.8868176026673,44.93094520265482],[-71.8863969412511,44.9306782943025],[-71.88595851718286,44.93054534786926],[-71.88544422456482,44.930468798859174],[-71.88518663434901,44.93025364241935],[-71.88568649357265,44.92967990699801],[-71.88574995900072,44.92929033575382],[-71.88565397410173,44.92903370576008],[-71.88540037711503,44.9287312535636],[-71.8852291662825,44.92814091502728],[-71.88474414032092,44.927585795271526],[-71.88440169242024,44.9273474929791],[-71.88387959316246,44.927092135285434],[-71.88289861699938,44.92687496734419],[-71.8827802870738,44.926675858359765],[-71.8821955447784,44.92615259501567],[-71.8815868496804,44.925883166559665],[-71.88152887091802,44.92562331111778],[-71.88126616261441,44.92534986713063],[-71.88115500815128,44.925037276757],[-71.88087849079628,44.92478179684669],[-71.88047003920124,44.92462821444127],[-71.87982408694113,44.9245912537053],[-71.87907197409504,44.92416000801553],[-71.87942938693087,44.923586090815405],[-71.8795301336005,44.92290027875565],[-71.8800449881899,44.9229208744078],[-71.88075460830605,44.922771053348185],[-71.88113670226885,44.92256592789463],[-71.88134313334257,44.92228237477837],[-71.88136113920068,44.921855642643834],[-71.88124426592813,44.921661623191206],[-71.8810519577599,44.92150354893461],[-71.88113256221946,44.92102744141504],[-71.88150620116882,44.92081631975558],[-71.88168589578592,44.92056509410243],[-71.88171975649507,44.92022486644353],[-71.88193196825104,44.91984420078035],[-71.88218276554238,44.91852996934517],[-71.88216568109142,44.91816881992351],[-71.88202537632989,44.917820171679764],[-71.8820013037815,44.917541316889434],[-71.8815846463896,44.91704579790531],[-71.88119375548374,44.916834048584946],[-71.88057438498838,44.91674629309225],[-71.87989239399697,44.916863725436286],[-71.87964236340993,44.91696554661178],[-71.87941042342756,44.91714083258385],[-71.87954674986125,44.9168341345581],[-71.87956564793812,44.916615754081285],[-71.87950711727208,44.91640885111267],[-71.87933631945138,44.9161903244082],[-71.8790351045961,44.91600898494397],[-71.8787553293113,44.915938125047504],[-71.878353632246,44.91592049455567]]]]}}]}