{"type": "FeatureCollection", "crs": {"type": "name", "properties": {"name": "urn:ogc:def:crs:OGC:1.3:CRS84"}}, "features": [{"type": "Feature", "properties": {"ABB_DIST_NAME": "FASF", "Jurisdiction_County": "Essex", "Jurisdiction_District_Name": "Averys Gore"}, "geometry": {"type": "Polygon", "coordinates": [[[-71.84666045284767, 44.94270734689662], [-71.85238166122933, 44.90888970648346], [-71.85809594206366, 44.8750715415703], [-71.85796594139423, 44.86803965003855], [-71.84612331725327, 44.86163627113085], [-71.83428332460208, 44.85523167245643], [-71.82482045829002, 44.8651446122992], [-71.81535433243918, 44.875056731135054], [-71.80315493406916, 44.88908341561566], [-71.79094957842618, 44.90310872530094], [-71.77873825983002, 44.91713265829172], [-71.76652097259577, 44.931155212687216], [-71.7593677023775, 44.9394463857932], [-71.75221236314593, 44.94773708524642], [-71.77420457942327, 44.947389667484984], [-71.79619658245993, 44.94703801274195], [-71.8203093336323, 44.94655925003033], [-71.84442174223537, 44.94607539356488], [-71.84454754311965, 44.94532130912146], [-71.8449923784733, 44.94459221386282], [-71.84563123532543, 44.94369061695768], [-71.84633836418428, 44.94292581539224], [-71.84666045284767, 44.94270734689662]], [[-71.84426331175679, 44.91206376386827], [-71.84422060211747, 44.912085975994366], [-71.84411705787258, 44.912136768930885], [-71.84405044871488, 44.912166665475105], [-71.84398062099048, 44.912192606523014], [-71.84390805299275, 44.912214405842064], [-71.84383321231401, 44.91223192753239], [-71.84377247030719, 44.91224422450468], [-71.84369540641418, 44.912257349121276], [-71.8436170820762, 44.912265942751915], [-71.8435380248861, 44.91226993913616], [-71.84345876717515, 44.9122693008383], [-71.8433798709389, 44.91226405448602], [-71.84326916602065, 44.91225341576694], [-71.84317042132311, 44.91224007860372], [-71.8430990148491, 44.91222558478841], [-71.84299960711985, 44.91220242508881], [-71.84297296059172, 44.91219589614901], [-71.84280716430048, 44.912153002426074], [-71.84275600806022, 44.91213858353333], [-71.84255833691557, 44.91207814824299], [-71.84251268722666, 44.91206504866758], [-71.84245798187406, 44.91204792666992], [-71.8424429927849, 44.91204271465743], [-71.84224837897816, 44.91197365309949], [-71.84217605870109, 44.91194517472937], [-71.84210960117778, 44.911913538218116], [-71.84196050009108, 44.911835999626796], [-71.84180346979323, 44.911754091223536], [-71.84178904842697, 44.91174641672963], [-71.84172268952554, 44.91170695611594], [-71.84155348668168, 44.91159683439737], [-71.84154408125576, 44.911590624998674], [-71.84150692993528, 44.911564409694485], [-71.8414173826341, 44.91149768295286], [-71.8412735719905, 44.91140982986287], [-71.84121143492507, 44.91136835057716], [-71.84115471648458, 44.91132312752723], [-71.84102053940809, 44.9112061790225], [-71.8409764319234, 44.911164602069654], [-71.84089083791285, 44.911076848660656], [-71.84084638308073, 44.91103133178266], [-71.84083228239491, 44.91101889505989], [-71.84078350128405, 44.91097197817104], [-71.84074059051801, 44.91092223443472], [-71.84070388617032, 44.91087006354414], [-71.84067366910872, 44.91081581987919], [-71.84065015480482, 44.91075992853193], [-71.84063352075962, 44.910702812574414], [-71.84062629447854, 44.91068269275644], [-71.84062397988268, 44.91067734941043], [-71.84059916487168, 44.910607858772046], [-71.84058548086196, 44.91055855368983], [-71.8405743322025, 44.91050425811935], [-71.84055889035814, 44.91046117004432], [-71.84051968748979, 44.91040427739684], [-71.84050274847716, 44.910374180317355], [-71.84048713312664, 44.91034438873922], [-71.84046648780267, 44.91030042741384], [-71.84045042238084, 44.91025551526645], [-71.84043905197939, 44.91020988333277], [-71.84041063235846, 44.9101620697088], [-71.84039005773131, 44.91011227036244], [-71.84038034171509, 44.91008674767179], [-71.84036456302763, 44.91003836723387], [-71.84035417081674, 44.909989262908205], [-71.84034921484496, 44.90993973284364], [-71.84033402081405, 44.9098869643683], [-71.8403250149016, 44.90983346673863], [-71.84032227742154, 44.90977963456703], [-71.84032582070046, 44.90972582787667], [-71.84032269417551, 44.90967257387873], [-71.84032310975722, 44.909657388122554], [-71.84032570600982, 44.90959647861536], [-71.84033135273899, 44.909540339888814], [-71.84034345942723, 44.90948471991119], [-71.84036192804118, 44.90942999516353], [-71.84038666569623, 44.90937653495649], [-71.84044181699527, 44.909272012188055], [-71.84046842800896, 44.909226582502946], [-71.84049957701173, 44.90918263502194], [-71.84053506289051, 44.90914037015294], [-71.84054035021629, 44.90913457576795], [-71.84057369923505, 44.909074192981144], [-71.84061544977071, 44.90901650973713], [-71.84066514688892, 44.90896210652196], [-71.84070935978103, 44.908918088624034], [-71.84077346307531, 44.908861299259186], [-71.84083528469809, 44.90881644348273], [-71.84084364704366, 44.9088106092399], [-71.8408969227751, 44.908772459495836], [-71.84089445390283, 44.90876887452678], [-71.84085811154856, 44.90870951212211], [-71.84083002672882, 44.90864795036986], [-71.84081041970917, 44.908584747572604], [-71.8407995054195, 44.90852048539735], [-71.84079736913829, 44.90845578795503], [-71.8408040370417, 44.90839124301827], [-71.84080634541671, 44.90837374829413], [-71.84080739665555, 44.908366197177045], [-71.84081063477036, 44.9083508945257], [-71.8408274740844, 44.908285423829156], [-71.84085329228857, 44.90822143306218], [-71.84088782631787, 44.90815955601515], [-71.84093074756657, 44.908100400002034], [-71.84095617513623, 44.90803821841216], [-71.84098972987137, 44.90797802295445], [-71.84103114103453, 44.90792034388822], [-71.8410800468487, 44.90786570014765], [-71.8411359831434, 44.90781459567732], [-71.84119847269956, 44.90776745785627], [-71.8412669342384, 44.90772473416042], [-71.84134076829619, 44.90768680177064], [-71.84141930897401, 44.90765397899329], [-71.84150187262102, 44.90762658673308], [-71.84158770564967, 44.90760486090451], [-71.8416525797604, 44.90759082784126], [-71.84171940535323, 44.90757822329972], [-71.84174097146654, 44.907575016256025], [-71.84182747401894, 44.90756085129226], [-71.84191545754975, 44.90755250441764], [-71.84200416401947, 44.90755004775089], [-71.84209280288916, 44.90755351633079], [-71.84218059601137, 44.90756285798164], [-71.84226677814593, 44.90757799900734], [-71.84229737212772, 44.90758440867008], [-71.84239323301357, 44.907608620331615], [-71.84241639480084, 44.90761572686614], [-71.84242850477813, 44.907619577888575], [-71.84251009391281, 44.90764885188405], [-71.842587389652, 44.9076835228783], [-71.8426596724479, 44.907723284378825], [-71.84272627806548, 44.907767753722965], [-71.84274946755266, 44.907780328015434], [-71.84276762501742, 44.90779232621731], [-71.84283114062116, 44.90783060814463], [-71.84288951558622, 44.90787285142187], [-71.84294222741096, 44.90791868050059], [-71.84298886487223, 44.90796773307105], [-71.84300721002948, 44.90798349560908], [-71.84302090589944, 44.907996318488806], [-71.84302680568516, 44.90800198027347], [-71.84303455550958, 44.90800908980763], [-71.84304308014387, 44.90801777048812], [-71.84312129772258, 44.90805340479312], [-71.84319418194136, 44.908094357252665], [-71.8432610245777, 44.908140215258946], [-71.84332116579499, 44.908190542186375], [-71.84337401221802, 44.908244846899215], [-71.84338822526004, 44.90826097346466], [-71.84342748845016, 44.90830990966378], [-71.84346094038233, 44.90836097934948], [-71.84348837984915, 44.908413835816575], [-71.84350960587626, 44.9084681116632], [-71.84352448207503, 44.90852343895811], [-71.84352828034079, 44.90852928300988], [-71.84354730227574, 44.90856026540596], [-71.8435561045669, 44.908575828119034], [-71.8435991575209, 44.90859044485392], [-71.84361739847982, 44.90859837144594], [-71.84363832541752, 44.908602615869206], [-71.84365052774963, 44.90860527585225], [-71.84383948832469, 44.90864748078269], [-71.8439208614076, 44.90866855372526], [-71.84395596291627, 44.90867953232735], [-71.84406522675869, 44.90871552160252], [-71.84413190498385, 44.90873977205299], [-71.84419573879717, 44.908767613745624], [-71.84425635883595, 44.90879890058363], [-71.84440775043228, 44.90888362230292], [-71.8444769121709, 44.90891367303057], [-71.84448404099547, 44.90891717668479], [-71.84467864165762, 44.909013695102324], [-71.84483363341134, 44.90908748628462], [-71.8449016366487, 44.90912302386922], [-71.84496500936372, 44.9091626553996], [-71.84502326264905, 44.90920605592269], [-71.84507594535518, 44.90925292049962], [-71.84535687781961, 44.9095264710774], [-71.84537827576393, 44.90954816563433], [-71.84543066725391, 44.90960355832817], [-71.84551810484783, 44.90966675402705], [-71.84555917810762, 44.90969837178599], [-71.8455974097993, 44.90973177030538], [-71.84566791461381, 44.909797501003865], [-71.84572500289366, 44.90983140256638], [-71.84574545985681, 44.90983236565117], [-71.8458979619079, 44.90983323652524], [-71.84597239613883, 44.90983570195664], [-71.84601064250488, 44.90983857922779], [-71.84614612921584, 44.90985068810348], [-71.84621613800878, 44.9098588152731], [-71.8462851228419, 44.909870585547424], [-71.84635270601304, 44.9098859175771], [-71.84646597232609, 44.909914903901516], [-71.84654450693776, 44.90993783587381], [-71.84661989096462, 44.90996557221767], [-71.84669157064111, 44.90999792349643], [-71.84675895267617, 44.91003461186028], [-71.8467911273203, 44.910053790540395], [-71.84679903183336, 44.91005647599689], [-71.84683660396749, 44.91005964069564], [-71.8469600503127, 44.910073034958614], [-71.84705173727563, 44.91008615572052], [-71.84714104211781, 44.9101058903988], [-71.84722702249343, 44.91013203383948], [-71.8473137589887, 44.91015078993164], [-71.84739748396606, 44.910175494045696], [-71.84747738962162, 44.910205913003274], [-71.84755272327799, 44.91024175365112], [-71.84757448977292, 44.91025313098863], [-71.8476467397636, 44.91029481216867], [-71.84771301453453, 44.91034125462845], [-71.84777267068152, 44.91039201916236], [-71.84782516788053, 44.91044662125974], [-71.84787001793174, 44.91050455781002], [-71.84788408335982, 44.91052505097848], [-71.84791913559924, 44.91058266159705], [-71.84794661608991, 44.910642310392], [-71.84796630745018, 44.9107035092932], [-71.84797805494347, 44.9107657174939], [-71.84798174007516, 44.910828436687055], [-71.8479773284838, 44.91089111955094], [-71.84797629658433, 44.91089983888383], [-71.84796392160959, 44.91096592191565], [-71.84794258489477, 44.911030851425416], [-71.84791247717592, 44.911093995882496], [-71.84787387996877, 44.91115475936807], [-71.84782717077746, 44.91121256900694], [-71.84777277479337, 44.911266890889884], [-71.84775870231525, 44.91127958969578], [-71.84771032142065, 44.91131992309268], [-71.8476577168794, 44.91135747691402], [-71.84760118361775, 44.91139203956766], [-71.84754104825265, 44.911423396942936], [-71.84751496344857, 44.91143592900198], [-71.84743390738568, 44.91147087068996], [-71.84734842397854, 44.91149999269972], [-71.84725932824333, 44.91152300811912], [-71.84722136526031, 44.91153135077412], [-71.84719880307934, 44.91153608115077], [-71.84714298128141, 44.91154601706482], [-71.84709599308894, 44.91155332541578], [-71.84705759351156, 44.91156264368832], [-71.84704845107464, 44.91156503098752], [-71.84697704179338, 44.911581525100964], [-71.84696942655596, 44.91158302214783], [-71.84683452721136, 44.91160924344322], [-71.84674286830639, 44.911623619362516], [-71.84666026662562, 44.91165508712616], [-71.84657370607043, 44.91168063797346], [-71.84648404304548, 44.91170002123073], [-71.84642793337785, 44.91171007933085], [-71.8464053425795, 44.91171743433277], [-71.84639603513702, 44.911722755139515], [-71.84636594124665, 44.9117395852075], [-71.84629894553372, 44.91177389745727], [-71.8462667936085, 44.91178883767192], [-71.84618543177397, 44.911822713964476], [-71.84609211802058, 44.91185287545582], [-71.84606942077009, 44.91186201514069], [-71.84603566994092, 44.9118776795356], [-71.84602067413735, 44.91188453622599], [-71.84599267154951, 44.91189706235328], [-71.84592516694828, 44.91192462237907], [-71.84591786042031, 44.911927254970834], [-71.84583725973951, 44.91196142603472], [-71.84575234626936, 44.91198984910639], [-71.84566394643741, 44.912012237350716], [-71.8456296449253, 44.91201960878851], [-71.84559995290836, 44.912025989766704], [-71.84550533879454, 44.912042686541945], [-71.84540883724273, 44.91205250724657], [-71.84532911443333, 44.912057723090825], [-71.84530739817247, 44.91205896641377], [-71.84525057845053, 44.91206057630354], [-71.84513987791459, 44.91206137597955], [-71.84509737802092, 44.91206102428138], [-71.84502912618439, 44.91205765156507], [-71.84498736936975, 44.91205453876082], [-71.8448946568859, 44.91204439446026], [-71.8448038194032, 44.91202772322386], [-71.84471579834558, 44.91200470683404], [-71.84463141696722, 44.91197556149314], [-71.84461429484728, 44.91197104032994], [-71.84453908387495, 44.91198430843234], [-71.84446249031646, 44.911992755998185], [-71.84438514944922, 44.911996312881826], [-71.84437185546058, 44.91200316832686], [-71.84436072948381, 44.9120098049483], [-71.84433952397924, 44.9120218162669], [-71.84426331175679, 44.91206376386827]]]}}, {"type": "Feature", "properties": {"ABB_DIST_NAME": "SL", "Jurisdiction_County": "Essex", "Jurisdiction_District_Name": "Averys Gore"}, "geometry": {"type": "Polygon", "coordinates": [[[-71.84200416401947, 44.90755004775089], [-71.84191545754975, 44.90755250441764], [-71.84182747401894, 44.90756085129226], [-71.84174097146654, 44.907575016256025], [-71.84171940535323, 44.90757822329972], [-71.8416525797604, 44.90759082784126], [-71.84158770564967, 44.90760486090451], [-71.84150187262102, 44.90762658673308], [-71.84141930897401, 44.90765397899329], [-71.84134076829619, 44.90768680177064], [-71.8412669342384, 44.90772473416042], [-71.84119847269956, 44.90776745785627], [-71.8411359831434, 44.90781459567732], [-71.8410800468487, 44.90786570014765], [-71.84103114103453, 44.90792034388822], [-71.84098972987137, 44.90797802295445], [-71.84095617513623, 44.90803821841216], [-71.84093074756657, 44.908100400002034], [-71.84088782631787, 44.90815955601515], [-71.84085329228857, 44.90822143306218], [-71.8408274740844, 44.908285423829156], [-71.84081063477036, 44.9083508945257], [-71.84080739665555, 44.908366197177045], [-71.84080634541671, 44.90837374829413], [-71.8408040370417, 44.90839124301827], [-71.84079736913829, 44.90845578795503], [-71.8407995054195, 44.90852048539735], [-71.84081041970917, 44.908584747572604], [-71.84083002672882, 44.90864795036986], [-71.84085811154856, 44.90870951212211], [-71.84089445390283, 44.90876887452678], [-71.8408969227751, 44.908772459495836], [-71.84084364704366, 44.9088106092399], [-71.84083528469809, 44.90881644348273], [-71.84077346307531, 44.908861299259186], [-71.84070935978103, 44.908918088624034], [-71.84066514688892, 44.90896210652196], [-71.84061544977071, 44.90901650973713], [-71.84057369923505, 44.909074192981144], [-71.84054035021629, 44.90913457576795], [-71.84053506289051, 44.90914037015294], [-71.84049957701173, 44.90918263502194], [-71.84046842800896, 44.909226582502946], [-71.84044181699527, 44.909272012188055], [-71.84038666569623, 44.90937653495649], [-71.84036192804118, 44.90942999516353], [-71.84034345942723, 44.90948471991119], [-71.84033135273899, 44.909540339888814], [-71.84032570600982, 44.90959647861536], [-71.84032310975722, 44.909657388122554], [-71.84032269417551, 44.90967257387873], [-71.84032582070046, 44.90972582787667], [-71.84032227742154, 44.90977963456703], [-71.8403250149016, 44.90983346673863], [-71.84033402081405, 44.9098869643683], [-71.84034921484496, 44.90993973284364], [-71.84035417081674, 44.909989262908205], [-71.84036456302763, 44.91003836723387], [-71.84038034171509, 44.91008674767179], [-71.84039005773131, 44.91011227036244], [-71.84041063235846, 44.9101620697088], [-71.84043905197939, 44.91020988333277], [-71.84045042238084, 44.91025551526645], [-71.84046648780267, 44.91030042741384], [-71.84048713312664, 44.91034438873922], [-71.84050274847716, 44.910374180317355], [-71.84051968748979, 44.91040427739684], [-71.84055889035814, 44.91046117004432], [-71.8405743322025, 44.91050425811935], [-71.84058548086196, 44.91055855368983], [-71.84059916487168, 44.910607858772046], [-71.84062397988268, 44.91067734941043], [-71.84062629447854, 44.91068269275644], [-71.84063352075962, 44.910702812574414], [-71.84065015480482, 44.91075992853193], [-71.84067366910872, 44.91081581987919], [-71.84070388617032, 44.91087006354414], [-71.84074059051801, 44.91092223443472], [-71.84078350128405, 44.91097197817104], [-71.84083228239491, 44.91101889505989], [-71.84084638308073, 44.91103133178266], [-71.84089083791285, 44.911076848660656], [-71.8409764319234, 44.911164602069654], [-71.84102053940809, 44.9112061790225], [-71.84115471648458, 44.91132312752723], [-71.84121143492507, 44.91136835057716], [-71.8412735719905, 44.91140982986287], [-71.8414173826341, 44.91149768295286], [-71.84150692993528, 44.911564409694485], [-71.84154408125576, 44.911590624998674], [-71.84155348668168, 44.91159683439737], [-71.84172268952554, 44.91170695611594], [-71.84178904842697, 44.91174641672963], [-71.84180346979323, 44.911754091223536], [-71.84196050009108, 44.911835999626796], [-71.84210960117778, 44.911913538218116], [-71.84217605870109, 44.91194517472937], [-71.84224837897816, 44.91197365309949], [-71.8424429927849, 44.91204271465743], [-71.84245798187406, 44.91204792666992], [-71.84251268722666, 44.91206504866758], [-71.84255833691557, 44.91207814824299], [-71.84275600806022, 44.91213858353333], [-71.84280716430048, 44.912153002426074], [-71.84297296059172, 44.91219589614901], [-71.84299960711985, 44.91220242508881], [-71.8430990148491, 44.91222558478841], [-71.84317042132311, 44.91224007860372], [-71.84326916602065, 44.91225341576694], [-71.8433798709389, 44.91226405448602], [-71.84345876717515, 44.9122693008383], [-71.8435380248861, 44.91226993913616], [-71.8436170820762, 44.912265942751915], [-71.84369540641418, 44.912257349121276], [-71.84377247030719, 44.91224422450468], [-71.84383321231401, 44.91223192753239], [-71.84390805299275, 44.912214405842064], [-71.84398062099048, 44.912192606523014], [-71.84405044871488, 44.912166665475105], [-71.84411705787258, 44.912136768930885], [-71.84422060211747, 44.912085975994366], [-71.84426331175679, 44.91206376386827], [-71.84433952397924, 44.9120218162669], [-71.84436072948381, 44.9120098049483], [-71.84437185546058, 44.91200316832686], [-71.84438514944922, 44.911996312881826], [-71.84446249031646, 44.911992755998185], [-71.84453908387495, 44.91198430843234], [-71.84461429484728, 44.91197104032994], [-71.84463141696722, 44.91197556149314], [-71.84471579834558, 44.91200470683404], [-71.8448038194032, 44.91202772322386], [-71.8448946568859, 44.91204439446026], [-71.84498736936975, 44.91205453876082], [-71.84502912618439, 44.91205765156507], [-71.84509737802092, 44.91206102428138], [-71.84513987791459, 44.91206137597955], [-71.84525057845053, 44.91206057630354], [-71.84530739817247, 44.91205896641377], [-71.84532911443333, 44.912057723090825], [-71.84540883724273, 44.91205250724657], [-71.84550533879454, 44.912042686541945], [-71.84559995290836, 44.912025989766704], [-71.8456296449253, 44.91201960878851], [-71.84566394643741, 44.912012237350716], [-71.84575234626936, 44.91198984910639], [-71.84583725973951, 44.91196142603472], [-71.84591786042031, 44.911927254970834], [-71.84592516694828, 44.91192462237907], [-71.84599267154951, 44.91189706235328], [-71.84602067413735, 44.91188453622599], [-71.84603566994092, 44.9118776795356], [-71.84606942077009, 44.91186201514069], [-71.84609211802058, 44.91185287545582], [-71.84618543177397, 44.911822713964476], [-71.8462667936085, 44.91178883767192], [-71.84629894553372, 44.91177389745727], [-71.84636594124665, 44.9117395852075], [-71.84639603513702, 44.911722755139515], [-71.8464053425795, 44.91171743433277], [-71.84642793337785, 44.91171007933085], [-71.84648404304548, 44.91170002123073], [-71.84657370607043, 44.91168063797346], [-71.84666026662562, 44.91165508712616], [-71.84674286830639, 44.911623619362516], [-71.84683452721136, 44.91160924344322], [-71.84696942655596, 44.91158302214783], [-71.84697704179338, 44.911581525100964], [-71.84704845107464, 44.91156503098752], [-71.84705759351156, 44.91156264368832], [-71.84709599308894, 44.91155332541578], [-71.84714298128141, 44.91154601706482], [-71.84719880307934, 44.91153608115077], [-71.84722136526031, 44.91153135077412], [-71.84725932824333, 44.91152300811912], [-71.84734842397854, 44.91149999269972], [-71.84743390738568, 44.91147087068996], [-71.84751496344857, 44.91143592900198], [-71.84754104825265, 44.911423396942936], [-71.84760118361775, 44.91139203956766], [-71.8476577168794, 44.91135747691402], [-71.84771032142065, 44.91131992309268], [-71.84775870231525, 44.91127958969578], [-71.84777277479337, 44.911266890889884], [-71.84782717077746, 44.91121256900694], [-71.84787387996877, 44.91115475936807], [-71.84791247717592, 44.911093995882496], [-71.84794258489477, 44.911030851425416], [-71.84796392160959, 44.91096592191565], [-71.84797629658433, 44.91089983888383], [-71.8479773284838, 44.91089111955094], [-71.84798174007516, 44.910828436687055], [-71.84797805494347, 44.9107657174939], [-71.84796630745018, 44.9107035092932], [-71.84794661608991, 44.910642310392], [-71.84791913559924, 44.91058266159705], [-71.84788408335982, 44.91052505097848], [-71.84787001793174, 44.91050455781002], [-71.84782516788053, 44.91044662125974], [-71.84777267068152, 44.91039201916236], [-71.84771301453453, 44.91034125462845], [-71.8476467397636, 44.91029481216867], [-71.84757448977292, 44.91025313098863], [-71.84755272327799, 44.91024175365112], [-71.84747738962162, 44.910205913003274], [-71.84739748396606, 44.910175494045696], [-71.8473137589887, 44.91015078993164], [-71.84722702249343, 44.91013203383948], [-71.84714104211781, 44.9101058903988], [-71.84705173727563, 44.91008615572052], [-71.8469600503127, 44.910073034958614], [-71.84683660396749, 44.91005964069564], [-71.84679903183336, 44.91005647599689], [-71.8467911273203, 44.910053790540395], [-71.84675895267617, 44.91003461186028], [-71.84669157064111, 44.90999792349643], [-71.84661989096462, 44.90996557221767], [-71.84654450693776, 44.90993783587381], [-71.84646597232609, 44.909914903901516], [-71.84635270601304, 44.9098859175771], [-71.8462851228419, 44.909870585547424], [-71.84621613800878, 44.9098588152731], [-71.84614612921584, 44.90985068810348], [-71.84601064250488, 44.90983857922779], [-71.84597239613883, 44.90983570195664], [-71.8458979619079, 44.90983323652524], [-71.84574545985681, 44.90983236565117], [-71.84572500289366, 44.90983140256638], [-71.84566791461381, 44.909797501003865], [-71.8455974097993, 44.90973177030538], [-71.84555917810762, 44.90969837178599], [-71.84551810484783, 44.90966675402705], [-71.84543066725391, 44.90960355832817], [-71.84537827576393, 44.90954816563433], [-71.84535687781961, 44.9095264710774], [-71.84507594535518, 44.90925292049962], [-71.84502326264905, 44.90920605592269], [-71.84496500936372, 44.9091626553996], [-71.8449016366487, 44.90912302386922], [-71.84483363341134, 44.90908748628462], [-71.84467864165762, 44.909013695102324], [-71.84448404099547, 44.90891717668479], [-71.8444769121709, 44.90891367303057], [-71.84440775043228, 44.90888362230292], [-71.84425635883595, 44.90879890058363], [-71.84419573879717, 44.908767613745624], [-71.84413190498385, 44.90873977205299], [-71.84406522675869, 44.90871552160252], [-71.84395596291627, 44.90867953232735], [-71.8439208614076, 44.90866855372526], [-71.84383948832469, 44.90864748078269], [-71.84365052774963, 44.90860527585225], [-71.84363832541752, 44.908602615869206], [-71.84361739847982, 44.90859837144594], [-71.8435991575209, 44.90859044485392], [-71.8435561045669, 44.908575828119034], [-71.84354730227574, 44.90856026540596], [-71.84352828034079, 44.90852928300988], [-71.84352448207503, 44.90852343895811], [-71.84350960587626, 44.9084681116632], [-71.84348837984915, 44.908413835816575], [-71.84346094038233, 44.90836097934948], [-71.84342748845016, 44.90830990966378], [-71.84338822526004, 44.90826097346466], [-71.84337401221802, 44.908244846899215], [-71.84332116579499, 44.908190542186375], [-71.8432610245777, 44.908140215258946], [-71.84319418194136, 44.908094357252665], [-71.84312129772258, 44.90805340479312], [-71.84304308014387, 44.90801777048812], [-71.84303455550958, 44.90800908980763], [-71.84302680568516, 44.90800198027347], [-71.84302090589944, 44.907996318488806], [-71.84300721002948, 44.90798349560908], [-71.84298886487223, 44.90796773307105], [-71.84294222741096, 44.90791868050059], [-71.84288951558622, 44.90787285142187], [-71.84283114062116, 44.90783060814463], [-71.84276762501742, 44.90779232621731], [-71.84274946755266, 44.907780328015434], [-71.84272627806548, 44.907767753722965], [-71.8426596724479, 44.907723284378825], [-71.842587389652, 44.9076835228783], [-71.84251009391281, 44.90764885188405], [-71.84242850477813, 44.907619577888575], [-71.84241639480084, 44.90761572686614], [-71.84239323301357, 44.907608620331615], [-71.84229737212772, 44.90758440867008], [-71.84226677814593, 44.90757799900734], [-71.84218059601137, 44.90756285798164], [-71.84209280288916, 44.90755351633079], [-71.84200416401947, 44.90755004775089]], [[-71.84199419547971, 44.90823575407088], [-71.84202249446977, 44.908241675447066], [-71.84203460709398, 44.90824552562624], [-71.84204822416548, 44.90826180100438], [-71.84207575647322, 44.908290306716864], [-71.8421075208642, 44.908303267093736], [-71.84212537441365, 44.9083032790553], [-71.84215112160122, 44.908321876695176], [-71.84216902092452, 44.908329088846656], [-71.84217680418512, 44.90834613959617], [-71.84219846767631, 44.908367502427744], [-71.84221808755314, 44.908390291491116], [-71.84224578239582, 44.90840466999571], [-71.842257683508, 44.90841607791764], [-71.84227159395098, 44.908428845429704], [-71.84228317450733, 44.908457258318414], [-71.84231081865663, 44.90847586414724], [-71.84232857728868, 44.90848442618187], [-71.84235831421691, 44.908508625101426], [-71.84237003570965, 44.90852435049696], [-71.8423955902003, 44.90855986289897], [-71.84243316040055, 44.908585635799255], [-71.84246088697495, 44.90859713302098], [-71.8424847400161, 44.90860428851448], [-71.84250873743864, 44.90859866925053], [-71.84252666870393, 44.90860309100441], [-71.8425563605348, 44.90860893117867], [-71.84257023849604, 44.908624668967875], [-71.8425737912355, 44.908657264143635], [-71.84257365910562, 44.9086798521481], [-71.8425891652075, 44.90870828580298], [-71.8425947933835, 44.90873666619295], [-71.84260680462502, 44.90874942273066], [-71.84262821131078, 44.90878212157747], [-71.8426439240608, 44.90880354005678], [-71.84266294443377, 44.90883451449078], [-71.84266919145756, 44.908853267032846], [-71.84267888680259, 44.90888023012166], [-71.8426885667932, 44.90890854113997], [-71.84270801213583, 44.90894689881991], [-71.84273877611645, 44.909047682356466], [-71.84279776751421, 44.90911605270768], [-71.84289323588534, 44.90913927901644], [-71.84293680573693, 44.90916067686261], [-71.84298848363855, 44.90917087285095], [-71.84313879723881, 44.909193064651845], [-71.84320208560378, 44.909228883887536], [-71.84336116765141, 44.9092594038114], [-71.84355013261809, 44.909301614640476], [-71.84365938592953, 44.909337608739015], [-71.84387418114588, 44.909457807912], [-71.8439318062387, 44.90947946430456], [-71.84413391292144, 44.9095797027671], [-71.8442965166843, 44.90965712530462], [-71.84457744605916, 44.90993068226232], [-71.84467980459563, 44.91003889608513], [-71.84483002485904, 44.91014747259314], [-71.84496611075522, 44.91027432535943], [-71.8451394437048, 44.91037727569801], [-71.84517499001575, 44.91040294789456], [-71.84529777885214, 44.91046313298253], [-71.84547077401726, 44.910506687977225], [-71.84570986074533, 44.91051786849502], [-71.84589017957535, 44.91051890144513], [-71.84602566780515, 44.910531014970495], [-71.84613893132283, 44.91056000969902], [-71.84625176268227, 44.910627246690034], [-71.84628137219296, 44.91065153293774], [-71.84641459788222, 44.91068487108924], [-71.84644821352082, 44.910702071178406], [-71.84649197699825, 44.91071788952205], [-71.84652365073778, 44.91072787944634], [-71.84662119728252, 44.91074688419354], [-71.8466511622717, 44.91074003747295], [-71.84669095381302, 44.910737474589766], [-71.84681439776286, 44.910750869894876], [-71.84684219121148, 44.910768035667374], [-71.84687375189655, 44.910788015301954], [-71.8468896089689, 44.91079665393686], [-71.84695939737938, 44.91079561322406], [-71.84698132161742, 44.91079429878557], [-71.84700309838688, 44.91080567179027], [-71.84701680482888, 44.91082563838249], [-71.84701597374622, 44.910831931882], [-71.84701471284183, 44.91084263322963], [-71.84700063904634, 44.91085533103561], [-71.84697453657512, 44.910867870070476], [-71.8469365766494, 44.910876200950796], [-71.84682278311134, 44.91089390949076], [-71.84679076089465, 44.910903714989075], [-71.84675686933701, 44.91091062927376], [-71.84671482665183, 44.91092163726263], [-71.84657991477565, 44.910947861788166], [-71.84655011328523, 44.91094049314094], [-71.84651229829572, 44.910936136419124], [-71.84648035444724, 44.91095008262085], [-71.84645622767117, 44.91096695136104], [-71.84639617352403, 44.910980736668364], [-71.84631835873022, 44.91099729809702], [-71.84624815029952, 44.91103514195366], [-71.84615615170178, 44.91105162297487], [-71.84611428467197, 44.91105840051826], [-71.84605440390739, 44.91106804809612], [-71.84604840441808, 44.9110722413717], [-71.8460002652555, 44.91109608335242], [-71.84595839839079, 44.911102953527056], [-71.84592643973127, 44.91110690903508], [-71.8458433969274, 44.91113765918047], [-71.84582918086244, 44.91115170584454], [-71.84579892691713, 44.91118410724898], [-71.84576885078357, 44.91120094446196], [-71.84573880353356, 44.91121489952095], [-71.8456748224589, 44.911228750138974], [-71.8456368163886, 44.91124122156407], [-71.84560874738389, 44.91125950914135], [-71.84557275229352, 44.91127343007437], [-71.8455065520158, 44.911304276487996], [-71.84547854958053, 44.911316804291104], [-71.84544060548006, 44.91132369585815], [-71.84540848652333, 44.91134187018524], [-71.84538439220304, 44.9113559492599], [-71.84532040936739, 44.91136971058092], [-71.84524069765641, 44.9113749237281], [-71.84513000598349, 44.91137572794491], [-71.84508825099421, 44.911372608888506], [-71.84506645550967, 44.9113626752183], [-71.84504670688472, 44.91133988501771], [-71.84502479977378, 44.911339669389115], [-71.84500486990653, 44.911343875402075], [-71.84498695422528, 44.9113381016111], [-71.84496520655694, 44.91132384967798], [-71.84495737405784, 44.91131102647491], [-71.8449415324801, 44.911301036943456], [-71.84491964198382, 44.91129947157194], [-71.84488576850526, 44.9112936071271], [-71.84487397906769, 44.911283641731025], [-71.84483632424758, 44.91126506728994], [-71.84482054685742, 44.91124931978606], [-71.84482069101887, 44.911236631423634], [-71.84482085253967, 44.91122241516672], [-71.84479695260427, 44.91121948932524], [-71.8447870566602, 44.91122087145536], [-71.84478099262095, 44.911230736229356], [-71.84475101426722, 44.911227683716206], [-71.84473916266361, 44.91121204781371], [-71.84472343117622, 44.91120340870157], [-71.84471337712962, 44.911207671329684], [-71.84471308902394, 44.91123313624378], [-71.84468899687013, 44.91124712519651], [-71.84466697501269, 44.911256898394214], [-71.84465314422651, 44.91124827017937], [-71.84459746035535, 44.91123391161587], [-71.8445714847942, 44.91123511235734], [-71.84454552486531, 44.91124630183613], [-71.84451758693355, 44.911253250526016], [-71.84449961944695, 44.91125170669092], [-71.84447985372071, 44.91124169547106], [-71.84445397456213, 44.91123452696736], [-71.8444045648165, 44.91128094703648], [-71.84436853287943, 44.91129774789001], [-71.84435039242143, 44.91131186182743], [-71.84433660494116, 44.91131034286457], [-71.8443206189532, 44.9113017031358], [-71.8442567499957, 44.91130565583707], [-71.84421505830935, 44.91129686758912], [-71.84419109368285, 44.9112995186975], [-71.84416519684805, 44.911305040116154], [-71.84412109836173, 44.911318915854935], [-71.84404534109358, 44.91132127036704], [-71.84400741346539, 44.91132680993464], [-71.84397942501873, 44.91133807852016], [-71.84395722948436, 44.91136332669666], [-71.84394745264312, 44.91136570110447], [-71.84391722888014, 44.91137308555538], [-71.84389319841249, 44.91138140815825], [-71.84386497059, 44.91141382158922], [-71.84384084286985, 44.91143068887007], [-71.84380472060177, 44.911444610314405], [-71.84377666732571, 44.911461455925405], [-71.84374859889462, 44.91147974304799], [-71.84367239078718, 44.91152168848282], [-71.84356885725543, 44.91157247738933], [-71.84350919863395, 44.91158455278105], [-71.843399651201, 44.911574025227], [-71.84330025080996, 44.91155086492886], [-71.84313736665973, 44.911508714628525], [-71.84292977300414, 44.9114452488031], [-71.84287410656263, 44.9114292706183], [-71.84267949176045, 44.91136020978209], [-71.84253094150985, 44.91128295406107], [-71.84237445946229, 44.91120133575296], [-71.84220526202343, 44.91109120422312], [-71.84208270751195, 44.91099988046245], [-71.84190261784423, 44.9108898684049], [-71.84176845290159, 44.910772920840095], [-71.841683710645, 44.910686044011406], [-71.8416196233048, 44.910620433349145], [-71.84158414443715, 44.91058909209921], [-71.84158038309414, 44.910563604743444], [-71.84156683989492, 44.9105295112417], [-71.84155717640324, 44.91049966953755], [-71.84154556672792, 44.9104741360296], [-71.8415321861561, 44.910425914463524], [-71.841534648856, 44.91038768381299], [-71.84151913050478, 44.91034935038552], [-71.84150152141072, 44.910316674136986], [-71.84148637279826, 44.91024585451052], [-71.84143259406329, 44.91016473617536], [-71.84140697702122, 44.910134802455964], [-71.8413913599376, 44.9101050163895], [-71.84139580042718, 44.910071027476484], [-71.8413820370139, 44.91004547972955], [-71.84134509758665, 44.90996454935178], [-71.8413215208664, 44.90993327576159], [-71.84131180699876, 44.90990775316178], [-71.84131208370884, 44.90988363800314], [-71.84131642635022, 44.90985810738931], [-71.8413147394889, 44.909828402555696], [-71.8413010390609, 44.90980843531039], [-71.84128739856777, 44.909782889159786], [-71.84129512354491, 44.90971634357633], [-71.84128758445296, 44.90967814522438], [-71.84129017839122, 44.90961723838173], [-71.84134531935719, 44.90951272142077], [-71.84142995964066, 44.90941971122521], [-71.84145064433643, 44.909360347605826], [-71.8414930421191, 44.90931811869853], [-71.84152915226295, 44.90929421105327], [-71.84156135243327, 44.9092689301349], [-71.84161616602793, 44.90925934658523], [-71.84165615162871, 44.90925102914872], [-71.84182739084746, 44.90927046279197], [-71.84197279873372, 44.90928974824155], [-71.84201646739089, 44.90930268814506], [-71.8420581065227, 44.9093157054273], [-71.8421535965706, 44.90932615509669], [-71.84217156062871, 44.909327608393895], [-71.8421955396887, 44.90932351708524], [-71.84221759175753, 44.90931095580986], [-71.84223160156046, 44.90930392745913], [-71.84227936947735, 44.909312752329036], [-71.84233931137977, 44.90929752783008], [-71.8423395230069, 44.90927908152931], [-71.84234378433035, 44.90926074853754], [-71.84236995537896, 44.90923111505125], [-71.84238618380948, 44.909207090844184], [-71.8423845596805, 44.9091830538223], [-71.84240098591816, 44.90913068636252], [-71.84240746940306, 44.909095269361956], [-71.8424016159113, 44.90907543741781], [-71.84239375018382, 44.90906549345553], [-71.84238809071817, 44.90904008517757], [-71.84233585360643, 44.90899011104319], [-71.84231035967326, 44.90896026821725], [-71.8422532378332, 44.908894697105424], [-71.84222364630897, 44.90886906099083], [-71.84219200862098, 44.90884485198911], [-71.84218241227175, 44.90880934147771], [-71.84216468936073, 44.9087866506252], [-71.84211116354746, 44.908760876609804], [-71.84209757201485, 44.908742350790135], [-71.84207785830377, 44.90871668065387], [-71.84206019613542, 44.908699660272895], [-71.84205852763569, 44.90866842575563], [-71.84204672403717, 44.908648469523804], [-71.84202100706835, 44.90863842358665], [-71.84199511270987, 44.9086326051535], [-71.84198528732703, 44.90861707062076], [-71.84194269823551, 44.9086094453114], [-71.84193342976697, 44.90860048310069], [-71.84192170130898, 44.90856307143371], [-71.84190160566106, 44.90854846757847], [-71.84187755106244, 44.908536900494035], [-71.84183314301721, 44.90852233739195], [-71.84180098559872, 44.90851063360492], [-71.84177291782628, 44.90848455531454], [-71.84176095795723, 44.90846720780132], [-71.84176539840207, 44.90844428647744], [-71.84176719498244, 44.908442317098455], [-71.84181841201351, 44.90839284897456], [-71.84185592984127, 44.90830100845935], [-71.84186854588285, 44.90826085566676], [-71.84193341296682, 44.908246831403886], [-71.84197399910427, 44.90824130694049], [-71.84199419547971, 44.90823575407088]]]}}, {"type": "Feature", "properties": {"ABB_DIST_NAME": "CIR", "Jurisdiction_County": "Essex", "Jurisdiction_District_Name": "Averys Gore"}, "geometry": {"type": "Polygon", "coordinates": [[[-71.84666045284767, 44.94270734689662], [-71.84633836418428, 44.94292581539224], [-71.84563123532543, 44.94369061695768], [-71.8449923784733, 44.94459221386282], [-71.84454754311965, 44.94532130912146], [-71.84442174223537, 44.94607539356488], [-71.84609598851532, 44.946041604961], [-71.84666045284767, 44.94270734689662]]]}}]}