{"type": "FeatureCollection", "name": "Essex_Granby", "features": [{"type": "Feature", "properties": {"OBJECT_ID": 147, "County": "Essex", "RPC": "NVDA", "Municipal_Name": "Granby ", "GEO_ID": "5000929125", "District_Name": "Forest", "Abbreviated_District_Name": "F", "District_Type": "Mixed with Residential", "Bylaw_Date": null, "Elderly_Housing_District": "No", "District_Mapped": "Yes", "Overlay_District": "No", "Base_Density": null, "GIS_ID": null, "Last_Update": null, "Shape_Length": 74725.72045232047, "Shape_Area": 95008702.09628646, "F1F_Allowance": "Public Hearing", "F1F_Front_Setback": 100.0, "F1F_Side_Setback": 100.0, "F1F_Rear_Setback": 100.0, "F1F_Frontage": 300.0, "F1F_Max_Height": null, "F1F_Max_Stories": null, "F1F_Min_Lot_Size": 2.0, "F1F_Max_Lot_Building_Coverage": null, "F1F_Max_Lot_Impervious_Coverage": null, "F1F_Min_Parking_Spaces": null, "F1F_Elderly_Housing_Only": null, "F1F_Affordable_Housing_Only": null, "F2F_Allowance": "Prohibited", "F2F_Front_Setback": null, "F2F_Side_Setback": null, "F2F_Rear_Setback": null, "F2F_Frontage": null, "F2F_Max_Density": null, "F2F_Max_Height": null, "F2F_Max_Stories": null, "F2F_Min_Lot_Size": null, "F2F_Max_Lot_Building_Coverage": null, "F2F_Max_Lot_Impervious_Coverage": null, "F2F_Min_Parking_Spaces_per_1BR": null, "F2F_Min_Parking_Spaces_per_mult_BR": null, "F2F_Elderly_Housing_Only": null, "F2F_Affordable_Housing_Only": null, "F3F_Allowance": "Prohibited", "F3F_Front_Setback": null, "F3F_Side_Setback": null, "F3F_Rear_Setback": null, "F3F_Frontage": null, "F3F_Max_Density": null, "F3F_Max_Height": null, "F3F_Max_Stories": null, "F3F_Min_Lot_Size": null, "F3F_Max_Lot_Building_Coverage": null, "F3F_Max_Lot_Impervious_Coverage": null, "F3F_Min_Parking_Spaces_per_1BR": null, "F3F_Min_Parking_Spaces_per_mult_BR": null, "F3F_Affordable_Housing_Only": null, "F3F_Proximity_to_Public_Transit_Required": null, "F3F_Connection_to_Sewage/Water_Required": null, "F4F_Allowance": "Prohibited", "F4F_Front_Setback": null, "F4F_Side_Setback": null, "F4F_Rear_Setback": null, "F4F_Frontage": null, "F1F_Max_Density": null, "F4F_Max_Density": null, "F4F_Max_Height": null, "F4F_Max_Stories": null, "F4F_Min_Lot_Size": null, "F4F_Max_Lot_Building_Coverage": null, "F4F_Max_Lot_Impervious_Coverage": null, "F4F_Min_Parking_Spaces_per_1BR": null, "F4F_Min_Parking_Spaces_per_mult_BR": null, "F3F_Elderly_Housing_Only": null, "F4F_Elderly_Housing_Only": null, "F4F_Affordable_Housing_Only": null, "F4F_Proximity_to_Public_Transit_Required": null, "F4F_Connection_to_Sewage/Water_Required": null, "ADU_Allowance": "Allowed/Conditional", "ADU_Elderly_Housing_Only": "No", "ADU_Max_Size_as_Percent_of_Primary_Strcture": 50.0, "ADU_Max_Size_in_sq_ft": null, "ADU_Min_Lot_Size": 2.0, "ADU_Max_Bedrooms": 1.0, "ADU_Min_Parking_Spaces": null, "ADU_Owner_Occupancy_Required": "Yes", "ADU_Renter_Occupancy_Prohibited": "No", "ADU_Employee_or_Family_Occupancy_Required": "No", "ADU_Restricted_to_Primary_Structure": "No", "Affordable_Housing_Allowance": "Not Mentioned", "Affordable_Housing_District": "No", "Affordable_Housing_Elderly_Only": null, "Affordable_Housing_Min_Lot_Size": null, "Affordable_Housing_Max_Density": null, "Affordable_Housing_Min_Parking_Spaces_per_mult_BR": null, "Affordable_Housing_Max_Units_per_Building": null, "Affordable_Housing_Min_Parking_Spaces_per_1BR": null, "PRD_Allowance": "Not Mentioned", "PRD_Max_Density": null, "PRD_Max_Units": null, "PRD_Min_Lot_Size": null, "PRD_Mobile_or_Manufactured_Home_Park": null, "PUD_Allowance": null, "PUD_Required_with_Subdivision": null, "PUD_Requires_Land_Conservation": null, "PUD_Threshold_Number": null, "Notes": "None", "FIPS6": null}, "geometry": {"type": "MultiPolygon", "coordinates": [[[[-71.76278299450973, 44.56915612657505], [-71.7622506938701, 44.56946794083519], [-71.76107146337323, 44.57000885358019], [-71.76085932484051, 44.57017087514192], [-71.76232808477621, 44.5710641321038], [-71.7627553948653, 44.571434034580236], [-71.76293862270411, 44.57175427172961], [-71.76340598956799, 44.57300341116781], [-71.76465856874269, 44.57407565244955], [-71.76567336495165, 44.576225281869014], [-71.76609250000783, 44.57624878693063], [-71.76671679171305, 44.57641590941938], [-71.7669896830386, 44.576554900658785], [-71.76741393989695, 44.576922797622224], [-71.76797687442456, 44.577716096289585], [-71.76815688134289, 44.57810871969066], [-71.76815090044691, 44.578585504113654], [-71.76791708557263, 44.57903157964867], [-71.76772261849818, 44.57922663113111], [-71.7672080746191, 44.57952944840151], [-71.76657886227883, 44.57968837961216], [-71.76591235159339, 44.57968409835209], [-71.76522247360111, 44.579483374580114], [-71.76483089313093, 44.57989394956974], [-71.76440987193101, 44.58020743089005], [-71.76317748147855, 44.58080680986044], [-71.76258439775577, 44.58117673460937], [-71.7583856112065, 44.58441714559787], [-71.75809879597132, 44.584771146378124], [-71.75722275890605, 44.586410963895794], [-71.75660645864328, 44.587156759581454], [-71.7562317878748, 44.58772817339257], [-71.7552989571761, 44.58879186340434], [-71.75472115556745, 44.58957326412303], [-71.75303012114746, 44.592277478737444], [-71.75285485779901, 44.59299269941837], [-71.75017286521643, 44.59181103989048], [-71.74937126489635, 44.59137242266488], [-71.74938800231597, 44.59134151124044], [-71.75041061486844, 44.58980498890795], [-71.75127986446037, 44.58835668322579], [-71.75382392918354, 44.585134046645464], [-71.75457488181398, 44.583674341450596], [-71.75524688331389, 44.58283379965357], [-71.75613091754826, 44.58209892607888], [-71.75719407025505, 44.58133668471201], [-71.75991139291929, 44.5792060486931], [-71.76070475679866, 44.57870573673323], [-71.7615594543019, 44.578297414321305], [-71.7621937799409, 44.57745446158143], [-71.7612812536201, 44.57543989044525], [-71.75999444215167, 44.57433940902037], [-71.7598112243704, 44.57401902786772], [-71.75938348125281, 44.572877279428994], [-71.75852299371536, 44.57235367222277], [-71.75835943558566, 44.57463562401958], [-71.75798540482396, 44.57564547641944], [-71.75821299234025, 44.57625117377546], [-71.75821107406624, 44.57671153166806], [-71.7575194677293, 44.579423984272374], [-71.75737507079769, 44.579639449856195], [-71.75703436996237, 44.57994391307642], [-71.75373067087078, 44.582157012918344], [-71.75418899959288, 44.58244193777937], [-71.75437850827521, 44.58263919067524], [-71.75460099993441, 44.583088499348655], [-71.7545949072031, 44.58356528189738], [-71.75436018160443, 44.584011323319736], [-71.7539274011146, 44.58437381162566], [-71.75334671733971, 44.58460821728419], [-71.75268932384155, 44.584686598558186], [-71.75235512724852, 44.584663600396595], [-71.75177228634897, 44.58451326319311], [-71.75027747888734, 44.58391850602016], [-71.74972918770737, 44.583591774895666], [-71.74940161681877, 44.583176779780146], [-71.74931802505758, 44.58294520222246], [-71.74932823215306, 44.58202973118938], [-71.74956298973491, 44.581583558885214], [-71.75034616542689, 44.580717316345236], [-71.75064455784204, 44.58046251375644], [-71.75393954475176, 44.57825535188555], [-71.75435323475922, 44.57655057573876], [-71.75409061797036, 44.57585647843416], [-71.75406376077981, 44.575618243425374], [-71.75414820771348, 44.57522957305609], [-71.75453837459331, 44.57431672236727], [-71.75466578120317, 44.57228933399429], [-71.7541539059731, 44.5720750708706], [-71.75327007634779, 44.57165842011992], [-71.75285255678655, 44.57138880399447], [-71.7520413671805, 44.57052448174934], [-71.75126889917902, 44.570446299818194], [-71.74988681996845, 44.570475619105714], [-71.74913244691244, 44.57076482704975], [-71.74433891417588, 44.57368442326144], [-71.74030827877907, 44.57533042982935], [-71.74000324017847, 44.57542950217371], [-71.73950262577637, 44.57550041311035], [-71.73911185792683, 44.577225115660355], [-71.7368488431277, 44.58075784994617], [-71.73636171483416, 44.58123760332316], [-71.73667246174092, 44.58160724534576], [-71.73689481271967, 44.58205658762692], [-71.73688857550572, 44.5825333674192], [-71.7367982008077, 44.582763932950236], [-71.73645913502662, 44.583174368924006], [-71.7362208373551, 44.583341793987906], [-71.73564009398146, 44.58357610833636], [-71.73498268972025, 44.58365438761489], [-71.73432667092027, 44.583567029570155], [-71.73375217730073, 44.58332483562588], [-71.73351752772922, 44.58315410218881], [-71.73237724898412, 44.58183001573934], [-71.73223845505862, 44.58161225458741], [-71.73212895090566, 44.58114243084975], [-71.73216120571861, 44.580904166284064], [-71.73239608947911, 44.58045803006098], [-71.733534365772, 44.57935693316513], [-71.73540330479219, 44.57642275105473], [-71.7354867954363, 44.57605658823252], [-71.73490739241699, 44.57619402520181], [-71.73266405831949, 44.57623972002303], [-71.7306631903779, 44.577650679903726], [-71.73025897613707, 44.57786844011686], [-71.72789641948741, 44.578592825427585], [-71.72553621532073, 44.57949125839429], [-71.72153520957761, 44.57996745491956], [-71.72096160770954, 44.57990082932536], [-71.7187044792687, 44.579378496953694], [-71.71457764630081, 44.57762330890933], [-71.71366289781552, 44.57741354457658], [-71.71315140764288, 44.57735363657466], [-71.71071031219631, 44.57764515864433], [-71.71037617416951, 44.57762203801605], [-71.709752824069, 44.57745447370771], [-71.70948006683615, 44.57731534666627], [-71.70844036075296, 44.57651508243123], [-71.7081177219905, 44.57616707356742], [-71.70667879171518, 44.57394185285892], [-71.70490396979231, 44.57298781642585], [-71.70341128290299, 44.57344706623618], [-71.70004798749208, 44.575466260384964], [-71.69788612976261, 44.576339778791116], [-71.69646134478195, 44.576658097355406], [-71.69142536137281, 44.57708573639943], [-71.6861582411048, 44.5791280069006], [-71.68380183253453, 44.579707675032644], [-71.68329879374618, 44.579719405556204], [-71.6821415230268, 44.57963730175556], [-71.68151525080546, 44.579513995590624], [-71.68031135522013, 44.57911009578585], [-71.6777820316756, 44.57939100044091], [-71.67728145687083, 44.57933972709842], [-71.67541300668448, 44.57896360884791], [-71.67486625568503, 44.5787834697962], [-71.67369313327919, 44.57821140677895], [-71.6733585263681, 44.57794449045498], [-71.6727815822077, 44.577341859380084], [-71.66896012260176, 44.57563917162949], [-71.66320562989245, 44.58138016388772], [-71.65315764254373, 44.59133022721058], [-71.64437909961336, 44.599894919114405], [-71.63242057752767, 44.611758231954056], [-71.65028815746803, 44.620700044050764], [-71.65921616739125, 44.62511256486272], [-71.6620832014222, 44.62668222428852], [-71.66927516082669, 44.63063673771349], [-71.68401540439855, 44.63861903012599], [-71.68909369710784, 44.64147627269708], [-71.70525922455279, 44.64980330009815], [-71.71441915220315, 44.65444258359661], [-71.73539184343889, 44.66525227794001], [-71.74952171683277, 44.651729707023314], [-71.75944671063982, 44.642091696700064], [-71.76936840856253, 44.632452785983595], [-71.77686132511074, 44.62506720625795], [-71.78806598091171, 44.61388693116401], [-71.79402582485989, 44.607789045882875], [-71.79964729668521, 44.602176798722354], [-71.80341141416183, 44.59873509999697], [-71.80850867513881, 44.59449340015151], [-71.79207842278024, 44.584869061115526], [-71.78469600031539, 44.58085956981722], [-71.78446425529096, 44.581300641638286], [-71.78393399326521, 44.58186371164709], [-71.7835668628462, 44.5821516366055], [-71.78329132209552, 44.58228700670718], [-71.78285294593802, 44.58241615036649], [-71.78061480268548, 44.58285414876202], [-71.78038106059105, 44.58323683461485], [-71.77984878625645, 44.58370327072627], [-71.77975437920406, 44.58516632619239], [-71.77963806779914, 44.58591717402928], [-71.77940431035407, 44.58636327379314], [-71.77897087965786, 44.586725852789606], [-71.77782427405852, 44.58734940266126], [-71.77719500523858, 44.58750839358302], [-71.77652840364566, 44.58750417189663], [-71.77620571182554, 44.58743997637914], [-71.77563100365488, 44.58719799187939], [-71.7752074076783, 44.58683013026553], [-71.77506844149819, 44.58661242202846], [-71.77498474285053, 44.58638086179582], [-71.7749906660099, 44.58590435895766], [-71.77522445695737, 44.58545812802339], [-71.77541891839903, 44.585263205228316], [-71.77592973515972, 44.584944298090065], [-71.77604161048669, 44.58309607407664], [-71.77616174714991, 44.58267443102096], [-71.77630608441483, 44.582458799214656], [-71.77705856566338, 44.581815616327454], [-71.77751388994012, 44.58101770033767], [-71.77794649809435, 44.58065526169493], [-71.7785270450586, 44.58042072989128], [-71.7808984778974, 44.579952817727175], [-71.7810223611124, 44.57935148762398], [-71.78127611035929, 44.57902271314577], [-71.77401804757396, 44.57520508562721], [-71.76278299450973, 44.56915612657505]]], [[[-71.74437421008592, 44.55926551896962], [-71.74857149104793, 44.56324276698329], [-71.75253260665042, 44.56780216974561], [-71.75383200441101, 44.567957608448744], [-71.75440643405932, 44.56819956119454], [-71.75476076810001, 44.56848675813648], [-71.75572313753852, 44.56952865830368], [-71.75618996941965, 44.569756823858484], [-71.75642615380252, 44.569499349768385], [-71.75843185967315, 44.56800795744492], [-71.75955664599273, 44.567432500684085], [-71.74950108948858, 44.562104056922394], [-71.74437421008592, 44.55926551896962]]], [[[-71.70711621769443, 44.53884215607778], [-71.69799570370971, 44.54760301747347], [-71.6888724447392, 44.5563631170078], [-71.68052386267566, 44.564483909370146], [-71.67119439629884, 44.573426479304686], [-71.67538707307821, 44.57528636213045], [-71.67572167428948, 44.5755532725898], [-71.67645916832313, 44.57632283112634], [-71.67790850993009, 44.576614501400776], [-71.68027090487091, 44.576332114973326], [-71.68093815057732, 44.57633690226519], [-71.68140093812926, 44.57644371234178], [-71.6830692548861, 44.57700349083565], [-71.6845863861357, 44.5766149888713], [-71.69019484053587, 44.5744599071315], [-71.69060734170296, 44.57439125891931], [-71.6958038119595, 44.573950020729406], [-71.69646705802967, 44.57378623374864], [-71.69771412149186, 44.573282743214115], [-71.70137409113974, 44.57108556534985], [-71.70400530900181, 44.570279793639685], [-71.7046626032876, 44.57020155133782], [-71.70514900202015, 44.57024979377081], [-71.70644229201018, 44.570501909304845], [-71.70691246969642, 44.57064396185724], [-71.70946695817862, 44.57201016374334], [-71.7098908167066, 44.572378271863464], [-71.71145329084077, 44.574784434151994], [-71.71279258372758, 44.57461087506531], [-71.71344576585851, 44.57460693861387], [-71.71469947941979, 44.57476911688369], [-71.71595779820787, 44.57505758409075], [-71.71635347539487, 44.575185024776346], [-71.72029708951992, 44.576862264163594], [-71.72169195373516, 44.577184785161904], [-71.72427188100887, 44.57686275457781], [-71.72526291599526, 44.57648560640564], [-71.7254368430071, 44.57239420901973], [-71.72567095605176, 44.57194808075097], [-71.72586553626083, 44.57175324271738], [-71.72638022488479, 44.571450472848724], [-71.72700945457913, 44.57129176123092], [-71.7276758634399, 44.57129626975074], [-71.72829998945059, 44.57146360124923], [-71.72857276501043, 44.57160268360598], [-71.72899595531436, 44.57197071635089], [-71.72913471465141, 44.57218848066517], [-71.729244178832, 44.57265830772154], [-71.72916167102962, 44.57485358258258], [-71.73063417265983, 44.57382381068424], [-71.73121483818645, 44.57358952085836], [-71.731798948437, 44.57351161336683], [-71.73423344490371, 44.57346187541981], [-71.73710008059055, 44.57279936164982], [-71.73884264206961, 44.572767677594264], [-71.74212242839121, 44.57142862570463], [-71.74506723939524, 44.56963518933129], [-71.74306976011314, 44.56852039584377], [-71.7426420085829, 44.568377649435725], [-71.74048335173617, 44.56840943470325], [-71.73941504725518, 44.568092550579486], [-71.73889379811352, 44.5683628553334], [-71.73858958050599, 44.56846192859973], [-71.73793235051662, 44.56854022716438], [-71.73727649669996, 44.568452886075775], [-71.7367021385915, 44.56821070727581], [-71.73627892624623, 44.56784270269822], [-71.73605663269494, 44.567393359412], [-71.73606286975145, 44.5669168582974], [-71.7361524352189, 44.566686288200046], [-71.73649140577375, 44.56627585131052], [-71.7367304190432, 44.56610842995522], [-71.7382359961313, 44.565290123164296], [-71.73886512784426, 44.56513134357424], [-71.73953146819376, 44.56513578423921], [-71.74001934430132, 44.56525081959152], [-71.74123727831503, 44.56567415276966], [-71.7430460085968, 44.56561978510471], [-71.74370183972349, 44.56570709204425], [-71.7452619457369, 44.56626116879081], [-71.7474320215109, 44.5674731016596], [-71.74773494159662, 44.567473129186716], [-71.7454067499584, 44.56479790777482], [-71.74163258195088, 44.561227455420564], [-71.73906853980301, 44.56045164473089], [-71.73519137534728, 44.56101112426825], [-71.73452429607805, 44.561006655133006], [-71.73390105165703, 44.56083922289722], [-71.73339375402581, 44.56052942043612], [-71.73320438753925, 44.5603321320483], [-71.73298293220071, 44.55988278693569], [-71.73298919269966, 44.559406286433884], [-71.73307875834888, 44.55917571844959], [-71.73341770607448, 44.55876528909336], [-71.73393224055009, 44.558462483437324], [-71.73449590287454, 44.558312289686945], [-71.73895455551714, 44.55766882497764], [-71.73962081073155, 44.55767326274028], [-71.7399432967799, 44.55773756055642], [-71.74362296312901, 44.55884954291771], [-71.72845474962668, 44.55046572236614], [-71.7197302315633, 44.54574136586365], [-71.71100871000708, 44.54089928010717], [-71.70711621769443, 44.53884215607778]]]]}}, {"type": "Feature", "properties": {"OBJECT_ID": 149, "County": "Essex", "RPC": "NVDA", "Municipal_Name": "Granby ", "GEO_ID": "5000929125", "District_Name": "Village", "Abbreviated_District_Name": "V", "District_Type": "Mixed with Residential", "Bylaw_Date": null, "Elderly_Housing_District": "No", "District_Mapped": "Yes", "Overlay_District": "No", "Base_Density": null, "GIS_ID": null, "Last_Update": null, "Shape_Length": 4161.543665984666, "Shape_Area": 555726.9290231409, "F1F_Allowance": "Permitted", "F1F_Front_Setback": 30.0, "F1F_Side_Setback": 20.0, "F1F_Rear_Setback": 20.0, "F1F_Frontage": 100.0, "F1F_Max_Height": null, "F1F_Max_Stories": null, "F1F_Min_Lot_Size": 0.5, "F1F_Max_Lot_Building_Coverage": null, "F1F_Max_Lot_Impervious_Coverage": null, "F1F_Min_Parking_Spaces": null, "F1F_Elderly_Housing_Only": null, "F1F_Affordable_Housing_Only": null, "F2F_Allowance": "Permitted", "F2F_Front_Setback": 30.0, "F2F_Side_Setback": 20.0, "F2F_Rear_Setback": 20.0, "F2F_Frontage": 100.0, "F2F_Max_Density": 2.0, "F2F_Max_Height": null, "F2F_Max_Stories": null, "F2F_Min_Lot_Size": 1.0, "F2F_Max_Lot_Building_Coverage": null, "F2F_Max_Lot_Impervious_Coverage": null, "F2F_Min_Parking_Spaces_per_1BR": null, "F2F_Min_Parking_Spaces_per_mult_BR": null, "F2F_Elderly_Housing_Only": "No", "F2F_Affordable_Housing_Only": "No", "F3F_Allowance": "Prohibited", "F3F_Front_Setback": null, "F3F_Side_Setback": null, "F3F_Rear_Setback": null, "F3F_Frontage": null, "F3F_Max_Density": null, "F3F_Max_Height": null, "F3F_Max_Stories": null, "F3F_Min_Lot_Size": null, "F3F_Max_Lot_Building_Coverage": null, "F3F_Max_Lot_Impervious_Coverage": null, "F3F_Min_Parking_Spaces_per_1BR": null, "F3F_Min_Parking_Spaces_per_mult_BR": null, "F3F_Affordable_Housing_Only": null, "F3F_Proximity_to_Public_Transit_Required": null, "F3F_Connection_to_Sewage/Water_Required": null, "F4F_Allowance": "Prohibited", "F4F_Front_Setback": null, "F4F_Side_Setback": null, "F4F_Rear_Setback": null, "F4F_Frontage": null, "F1F_Max_Density": null, "F4F_Max_Density": null, "F4F_Max_Height": null, "F4F_Max_Stories": null, "F4F_Min_Lot_Size": null, "F4F_Max_Lot_Building_Coverage": null, "F4F_Max_Lot_Impervious_Coverage": null, "F4F_Min_Parking_Spaces_per_1BR": null, "F4F_Min_Parking_Spaces_per_mult_BR": null, "F3F_Elderly_Housing_Only": null, "F4F_Elderly_Housing_Only": null, "F4F_Affordable_Housing_Only": null, "F4F_Proximity_to_Public_Transit_Required": null, "F4F_Connection_to_Sewage/Water_Required": null, "ADU_Allowance": "Allowed/Conditional", "ADU_Elderly_Housing_Only": "No", "ADU_Max_Size_as_Percent_of_Primary_Strcture": 50.0, "ADU_Max_Size_in_sq_ft": null, "ADU_Min_Lot_Size": 0.5, "ADU_Max_Bedrooms": 1.0, "ADU_Min_Parking_Spaces": null, "ADU_Owner_Occupancy_Required": "Yes", "ADU_Renter_Occupancy_Prohibited": "No", "ADU_Employee_or_Family_Occupancy_Required": "No", "ADU_Restricted_to_Primary_Structure": "No", "Affordable_Housing_Allowance": "Not Mentioned", "Affordable_Housing_District": "No", "Affordable_Housing_Elderly_Only": null, "Affordable_Housing_Min_Lot_Size": null, "Affordable_Housing_Max_Density": null, "Affordable_Housing_Min_Parking_Spaces_per_mult_BR": null, "Affordable_Housing_Max_Units_per_Building": null, "Affordable_Housing_Min_Parking_Spaces_per_1BR": null, "PRD_Allowance": "Not Mentioned", "PRD_Max_Density": null, "PRD_Max_Units": null, "PRD_Min_Lot_Size": null, "PRD_Mobile_or_Manufactured_Home_Park": null, "PUD_Allowance": null, "PUD_Required_with_Subdivision": null, "PUD_Requires_Land_Conservation": null, "PUD_Threshold_Number": null, "Notes": "None", "FIPS6": null}, "geometry": {"type": "MultiPolygon", "coordinates": [[[[-71.7615594543019, 44.578297414321305], [-71.76130194283259, 44.57877806401573], [-71.76129591112135, 44.57925442561654], [-71.76151765677372, 44.57970371536016], [-71.76194190149884, 44.58007163237215], [-71.76251648216443, 44.580313684313744], [-71.7631725087608, 44.580400881413794], [-71.76382984058512, 44.580322439320945], [-71.7644104382585, 44.58008812089762], [-71.76484312375906, 44.57972545067247], [-71.76596437841539, 44.578238637954556], [-71.7661606307774, 44.57783928968228], [-71.76616662601604, 44.57736264578674], [-71.76567336495165, 44.576225281869014], [-71.76465856874269, 44.57407565244955], [-71.76340598956799, 44.57300341116781], [-71.76293862270411, 44.57175427172961], [-71.7627553948653, 44.571434034580236], [-71.76232808477621, 44.5710641321038], [-71.76085932484051, 44.57017087514192], [-71.76107146337323, 44.57000885358019], [-71.7622506938701, 44.56946794083519], [-71.76278299450973, 44.56915612657505], [-71.75955664599273, 44.567432500684085], [-71.75843185967315, 44.56800795744492], [-71.75642615380252, 44.569499349768385], [-71.75618996941965, 44.569756823858484], [-71.75542410475875, 44.56965480904453], [-71.75476609406876, 44.569733338879566], [-71.75418556008516, 44.56996775040673], [-71.75375288563069, 44.570330099256736], [-71.75351899317593, 44.57077628671377], [-71.75351289781007, 44.571252789422005], [-71.7537345537343, 44.57170209429454], [-71.7541539059731, 44.5720750708706], [-71.75466578120317, 44.57228933399429], [-71.75595999534946, 44.57255101894402], [-71.75662642305332, 44.57255535863982], [-71.75725558461767, 44.572396480830385], [-71.75798890107764, 44.572029041347974], [-71.75852299371536, 44.57235367222277], [-71.75938348125281, 44.572877279428994], [-71.7598112243704, 44.57401902786772], [-71.75999444215167, 44.57433940902037], [-71.7612812536201, 44.57543989044525], [-71.7621937799409, 44.57745446158143], [-71.7615594543019, 44.578297414321305]]]]}}, {"type": "Feature", "properties": {"OBJECT_ID": 148, "County": "Essex", "RPC": "NVDA", "Municipal_Name": "Granby ", "GEO_ID": "5000929125", "District_Name": "Rural Residential", "Abbreviated_District_Name": "Rr", "District_Type": "Mixed with Residential", "Bylaw_Date": null, "Elderly_Housing_District": "No", "District_Mapped": "Yes", "Overlay_District": "No", "Base_Density": null, "GIS_ID": null, "Last_Update": null, "Shape_Length": 35908.554746335954, "Shape_Area": 4969067.014870726, "F1F_Allowance": "Permitted", "F1F_Front_Setback": 50.0, "F1F_Side_Setback": 50.0, "F1F_Rear_Setback": 50.0, "F1F_Frontage": 250.0, "F1F_Max_Height": null, "F1F_Max_Stories": null, "F1F_Min_Lot_Size": 0.75, "F1F_Max_Lot_Building_Coverage": null, "F1F_Max_Lot_Impervious_Coverage": null, "F1F_Min_Parking_Spaces": null, "F1F_Elderly_Housing_Only": null, "F1F_Affordable_Housing_Only": null, "F2F_Allowance": "Permitted", "F2F_Front_Setback": 50.0, "F2F_Side_Setback": 50.0, "F2F_Rear_Setback": 50.0, "F2F_Frontage": 250.0, "F2F_Max_Density": 1.33, "F2F_Max_Height": null, "F2F_Max_Stories": null, "F2F_Min_Lot_Size": 1.5, "F2F_Max_Lot_Building_Coverage": null, "F2F_Max_Lot_Impervious_Coverage": null, "F2F_Min_Parking_Spaces_per_1BR": null, "F2F_Min_Parking_Spaces_per_mult_BR": null, "F2F_Elderly_Housing_Only": "No", "F2F_Affordable_Housing_Only": "No", "F3F_Allowance": "Prohibited", "F3F_Front_Setback": null, "F3F_Side_Setback": null, "F3F_Rear_Setback": null, "F3F_Frontage": null, "F3F_Max_Density": null, "F3F_Max_Height": null, "F3F_Max_Stories": null, "F3F_Min_Lot_Size": null, "F3F_Max_Lot_Building_Coverage": null, "F3F_Max_Lot_Impervious_Coverage": null, "F3F_Min_Parking_Spaces_per_1BR": null, "F3F_Min_Parking_Spaces_per_mult_BR": null, "F3F_Affordable_Housing_Only": null, "F3F_Proximity_to_Public_Transit_Required": null, "F3F_Connection_to_Sewage/Water_Required": null, "F4F_Allowance": "Prohibited", "F4F_Front_Setback": null, "F4F_Side_Setback": null, "F4F_Rear_Setback": null, "F4F_Frontage": null, "F1F_Max_Density": null, "F4F_Max_Density": null, "F4F_Max_Height": null, "F4F_Max_Stories": null, "F4F_Min_Lot_Size": null, "F4F_Max_Lot_Building_Coverage": null, "F4F_Max_Lot_Impervious_Coverage": null, "F4F_Min_Parking_Spaces_per_1BR": null, "F4F_Min_Parking_Spaces_per_mult_BR": null, "F3F_Elderly_Housing_Only": null, "F4F_Elderly_Housing_Only": null, "F4F_Affordable_Housing_Only": null, "F4F_Proximity_to_Public_Transit_Required": null, "F4F_Connection_to_Sewage/Water_Required": null, "ADU_Allowance": "Allowed/Conditional", "ADU_Elderly_Housing_Only": "No", "ADU_Max_Size_as_Percent_of_Primary_Strcture": 50.0, "ADU_Max_Size_in_sq_ft": null, "ADU_Min_Lot_Size": 0.75, "ADU_Max_Bedrooms": 1.0, "ADU_Min_Parking_Spaces": null, "ADU_Owner_Occupancy_Required": "Yes", "ADU_Renter_Occupancy_Prohibited": "No", "ADU_Employee_or_Family_Occupancy_Required": "No", "ADU_Restricted_to_Primary_Structure": "No", "Affordable_Housing_Allowance": "Not Mentioned", "Affordable_Housing_District": "No", "Affordable_Housing_Elderly_Only": null, "Affordable_Housing_Min_Lot_Size": null, "Affordable_Housing_Max_Density": null, "Affordable_Housing_Min_Parking_Spaces_per_mult_BR": null, "Affordable_Housing_Max_Units_per_Building": null, "Affordable_Housing_Min_Parking_Spaces_per_1BR": null, "PRD_Allowance": "Not Mentioned", "PRD_Max_Density": null, "PRD_Max_Units": null, "PRD_Min_Lot_Size": null, "PRD_Mobile_or_Manufactured_Home_Park": null, "PUD_Allowance": null, "PUD_Required_with_Subdivision": null, "PUD_Requires_Land_Conservation": null, "PUD_Threshold_Number": null, "Notes": "None", "FIPS6": null}, "geometry": {"type": "MultiPolygon", "coordinates": [[[[-71.78127611035929, 44.57902271314577], [-71.7810223611124, 44.57935148762398], [-71.7808984778974, 44.579952817727175], [-71.7785270450586, 44.58042072989128], [-71.77794649809435, 44.58065526169493], [-71.77751388994012, 44.58101770033767], [-71.77705856566338, 44.581815616327454], [-71.77630608441483, 44.582458799214656], [-71.77616174714991, 44.58267443102096], [-71.77604161048669, 44.58309607407664], [-71.77592973515972, 44.584944298090065], [-71.77541891839903, 44.585263205228316], [-71.77522445695737, 44.58545812802339], [-71.7749906660099, 44.58590435895766], [-71.77498474285053, 44.58638086179582], [-71.77506844149819, 44.58661242202846], [-71.7752074076783, 44.58683013026553], [-71.77563100365488, 44.58719799187939], [-71.77620571182554, 44.58743997637914], [-71.77652840364566, 44.58750417189663], [-71.77719500523858, 44.58750839358302], [-71.77782427405852, 44.58734940266126], [-71.77897087965786, 44.586725852789606], [-71.77940431035407, 44.58636327379314], [-71.77963806779914, 44.58591717402928], [-71.77975437920406, 44.58516632619239], [-71.77984878625645, 44.58370327072627], [-71.78038106059105, 44.58323683461485], [-71.78061480268548, 44.58285414876202], [-71.78285294593802, 44.58241615036649], [-71.78329132209552, 44.58228700670718], [-71.7835668628462, 44.5821516366055], [-71.78393399326521, 44.58186371164709], [-71.78446425529096, 44.581300641638286], [-71.78469600031539, 44.58085956981722], [-71.78127611035929, 44.57902271314577]]], [[[-71.76567336495165, 44.576225281869014], [-71.76616662601604, 44.57736264578674], [-71.7661606307774, 44.57783928968228], [-71.76596437841539, 44.578238637954556], [-71.76484312375906, 44.57972545067247], [-71.7644104382585, 44.58008812089762], [-71.76382984058512, 44.580322439320945], [-71.7631725087608, 44.580400881413794], [-71.76251648216443, 44.580313684313744], [-71.76194190149884, 44.58007163237215], [-71.76151765677372, 44.57970371536016], [-71.76129591112135, 44.57925442561654], [-71.76130194283259, 44.57877806401573], [-71.7615594543019, 44.578297414321305], [-71.76070475679866, 44.57870573673323], [-71.75991139291929, 44.5792060486931], [-71.75719407025505, 44.58133668471201], [-71.75613091754826, 44.58209892607888], [-71.75524688331389, 44.58283379965357], [-71.75457488181398, 44.583674341450596], [-71.75382392918354, 44.585134046645464], [-71.75127986446037, 44.58835668322579], [-71.75041061486844, 44.58980498890795], [-71.74938800231597, 44.59134151124044], [-71.74937126489635, 44.59137242266488], [-71.75017286521643, 44.59181103989048], [-71.75285485779901, 44.59299269941837], [-71.75303012114746, 44.592277478737444], [-71.75472115556745, 44.58957326412303], [-71.7552989571761, 44.58879186340434], [-71.7562317878748, 44.58772817339257], [-71.75660645864328, 44.587156759581454], [-71.75722275890605, 44.586410963895794], [-71.75809879597132, 44.584771146378124], [-71.7583856112065, 44.58441714559787], [-71.76258439775577, 44.58117673460937], [-71.76317748147855, 44.58080680986044], [-71.76440987193101, 44.58020743089005], [-71.76483089313093, 44.57989394956974], [-71.76522247360111, 44.579483374580114], [-71.76591235159339, 44.57968409835209], [-71.76657886227883, 44.57968837961216], [-71.7672080746191, 44.57952944840151], [-71.76772261849818, 44.57922663113111], [-71.76791708557263, 44.57903157964867], [-71.76815090044691, 44.578585504113654], [-71.76815688134289, 44.57810871969066], [-71.76797687442456, 44.577716096289585], [-71.76741393989695, 44.576922797622224], [-71.7669896830386, 44.576554900658785], [-71.76671679171305, 44.57641590941938], [-71.76609250000783, 44.57624878693063], [-71.76567336495165, 44.576225281869014]]], [[[-71.75798890107764, 44.572029041347974], [-71.75725558461767, 44.572396480830385], [-71.75662642305332, 44.57255535863982], [-71.75595999534946, 44.57255101894402], [-71.75466578120317, 44.57228933399429], [-71.75453837459331, 44.57431672236727], [-71.75414820771348, 44.57522957305609], [-71.75406376077981, 44.575618243425374], [-71.75409061797036, 44.57585647843416], [-71.75435323475922, 44.57655057573876], [-71.75393954475176, 44.57825535188555], [-71.75064455784204, 44.58046251375644], [-71.75034616542689, 44.580717316345236], [-71.74956298973491, 44.581583558885214], [-71.74932823215306, 44.58202973118938], [-71.74931802505758, 44.58294520222246], [-71.74940161681877, 44.583176779780146], [-71.74972918770737, 44.583591774895666], [-71.75027747888734, 44.58391850602016], [-71.75177228634897, 44.58451326319311], [-71.75235512724852, 44.584663600396595], [-71.75268932384155, 44.584686598558186], [-71.75334671733971, 44.58460821728419], [-71.7539274011146, 44.58437381162566], [-71.75436018160443, 44.584011323319736], [-71.7545949072031, 44.58356528189738], [-71.75460099993441, 44.583088499348655], [-71.75437850827521, 44.58263919067524], [-71.75418899959288, 44.58244193777937], [-71.75373067087078, 44.582157012918344], [-71.75703436996237, 44.57994391307642], [-71.75737507079769, 44.579639449856195], [-71.7575194677293, 44.579423984272374], [-71.75821107406624, 44.57671153166806], [-71.75821299234025, 44.57625117377546], [-71.75798540482396, 44.57564547641944], [-71.75835943558566, 44.57463562401958], [-71.75852299371536, 44.57235367222277], [-71.75798890107764, 44.572029041347974]]], [[[-71.73895455551714, 44.55766882497764], [-71.73449590287454, 44.558312289686945], [-71.73393224055009, 44.558462483437324], [-71.73341770607448, 44.55876528909336], [-71.73307875834888, 44.55917571844959], [-71.73298919269966, 44.559406286433884], [-71.73298293220071, 44.55988278693569], [-71.73320438753925, 44.5603321320483], [-71.73339375402581, 44.56052942043612], [-71.73390105165703, 44.56083922289722], [-71.73452429607805, 44.561006655133006], [-71.73519137534728, 44.56101112426825], [-71.73906853980301, 44.56045164473089], [-71.74163258195088, 44.561227455420564], [-71.7454067499584, 44.56479790777482], [-71.74773494159662, 44.567473129186716], [-71.7474320215109, 44.5674731016596], [-71.7452619457369, 44.56626116879081], [-71.74370183972349, 44.56570709204425], [-71.7430460085968, 44.56561978510471], [-71.74123727831503, 44.56567415276966], [-71.74001934430132, 44.56525081959152], [-71.73953146819376, 44.56513578423921], [-71.73886512784426, 44.56513134357424], [-71.7382359961313, 44.565290123164296], [-71.7367304190432, 44.56610842995522], [-71.73649140577375, 44.56627585131052], [-71.7361524352189, 44.566686288200046], [-71.73606286975145, 44.5669168582974], [-71.73605663269494, 44.567393359412], [-71.73627892624623, 44.56784270269822], [-71.7367021385915, 44.56821070727581], [-71.73727649669996, 44.568452886075775], [-71.73793235051662, 44.56854022716438], [-71.73858958050599, 44.56846192859973], [-71.73889379811352, 44.5683628553334], [-71.73941504725518, 44.568092550579486], [-71.74048335173617, 44.56840943470325], [-71.7426420085829, 44.568377649435725], [-71.74306976011314, 44.56852039584377], [-71.74506723939524, 44.56963518933129], [-71.74212242839121, 44.57142862570463], [-71.73884264206961, 44.572767677594264], [-71.73710008059055, 44.57279936164982], [-71.73423344490371, 44.57346187541981], [-71.731798948437, 44.57351161336683], [-71.73121483818645, 44.57358952085836], [-71.73063417265983, 44.57382381068424], [-71.72916167102962, 44.57485358258258], [-71.729244178832, 44.57265830772154], [-71.72913471465141, 44.57218848066517], [-71.72899595531436, 44.57197071635089], [-71.72857276501043, 44.57160268360598], [-71.72829998945059, 44.57146360124923], [-71.7276758634399, 44.57129626975074], [-71.72700945457913, 44.57129176123092], [-71.72638022488479, 44.571450472848724], [-71.72586553626083, 44.57175324271738], [-71.72567095605176, 44.57194808075097], [-71.7254368430071, 44.57239420901973], [-71.72526291599526, 44.57648560640564], [-71.72427188100887, 44.57686275457781], [-71.72169195373516, 44.577184785161904], [-71.72029708951992, 44.576862264163594], [-71.71635347539487, 44.575185024776346], [-71.71595779820787, 44.57505758409075], [-71.71469947941979, 44.57476911688369], [-71.71344576585851, 44.57460693861387], [-71.71279258372758, 44.57461087506531], [-71.71145329084077, 44.574784434151994], [-71.7098908167066, 44.572378271863464], [-71.70946695817862, 44.57201016374334], [-71.70691246969642, 44.57064396185724], [-71.70644229201018, 44.570501909304845], [-71.70514900202015, 44.57024979377081], [-71.7046626032876, 44.57020155133782], [-71.70400530900181, 44.570279793639685], [-71.70137409113974, 44.57108556534985], [-71.69771412149186, 44.573282743214115], [-71.69646705802967, 44.57378623374864], [-71.6958038119595, 44.573950020729406], [-71.69060734170296, 44.57439125891931], [-71.69019484053587, 44.5744599071315], [-71.6845863861357, 44.5766149888713], [-71.6830692548861, 44.57700349083565], [-71.68140093812926, 44.57644371234178], [-71.68093815057732, 44.57633690226519], [-71.68027090487091, 44.576332114973326], [-71.67790850993009, 44.576614501400776], [-71.67645916832313, 44.57632283112634], [-71.67572167428948, 44.5755532725898], [-71.67538707307821, 44.57528636213045], [-71.67119439629884, 44.573426479304686], [-71.67077122953852, 44.57383201665266], [-71.66896012260176, 44.57563917162949], [-71.6727815822077, 44.577341859380084], [-71.6733585263681, 44.57794449045498], [-71.67369313327919, 44.57821140677895], [-71.67486625568503, 44.5787834697962], [-71.67541300668448, 44.57896360884791], [-71.67728145687083, 44.57933972709842], [-71.6777820316756, 44.57939100044091], [-71.68031135522013, 44.57911009578585], [-71.68151525080546, 44.579513995590624], [-71.6821415230268, 44.57963730175556], [-71.68329879374618, 44.579719405556204], [-71.68380183253453, 44.579707675032644], [-71.6861582411048, 44.5791280069006], [-71.69142536137281, 44.57708573639943], [-71.69646134478195, 44.576658097355406], [-71.69788612976261, 44.576339778791116], [-71.70004798749208, 44.575466260384964], [-71.70341128290299, 44.57344706623618], [-71.70490396979231, 44.57298781642585], [-71.70667879171518, 44.57394185285892], [-71.7081177219905, 44.57616707356742], [-71.70844036075296, 44.57651508243123], [-71.70948006683615, 44.57731534666627], [-71.709752824069, 44.57745447370771], [-71.71037617416951, 44.57762203801605], [-71.71071031219631, 44.57764515864433], [-71.71315140764288, 44.57735363657466], [-71.71366289781552, 44.57741354457658], [-71.71457764630081, 44.57762330890933], [-71.7187044792687, 44.579378496953694], [-71.72096160770954, 44.57990082932536], [-71.72153520957761, 44.57996745491956], [-71.72553621532073, 44.57949125839429], [-71.72789641948741, 44.578592825427585], [-71.73025897613707, 44.57786844011686], [-71.7306631903779, 44.577650679903726], [-71.73266405831949, 44.57623972002303], [-71.73490739241699, 44.57619402520181], [-71.7354867954363, 44.57605658823252], [-71.73540330479219, 44.57642275105473], [-71.733534365772, 44.57935693316513], [-71.73239608947911, 44.58045803006098], [-71.73216120571861, 44.580904166284064], [-71.73212895090566, 44.58114243084975], [-71.73223845505862, 44.58161225458741], [-71.73237724898412, 44.58183001573934], [-71.73351752772922, 44.58315410218881], [-71.73375217730073, 44.58332483562588], [-71.73432667092027, 44.583567029570155], [-71.73498268972025, 44.58365438761489], [-71.73564009398146, 44.58357610833636], [-71.7362208373551, 44.583341793987906], [-71.73645913502662, 44.583174368924006], [-71.7367982008077, 44.582763932950236], [-71.73688857550572, 44.5825333674192], [-71.73689481271967, 44.58205658762692], [-71.73667246174092, 44.58160724534576], [-71.73636171483416, 44.58123760332316], [-71.7368488431277, 44.58075784994617], [-71.73911185792683, 44.577225115660355], [-71.73950262577637, 44.57550041311035], [-71.74000324017847, 44.57542950217371], [-71.74030827877907, 44.57533042982935], [-71.74433891417588, 44.57368442326144], [-71.74913244691244, 44.57076482704975], [-71.74988681996845, 44.570475619105714], [-71.75126889917902, 44.570446299818194], [-71.7520413671805, 44.57052448174934], [-71.75285255678655, 44.57138880399447], [-71.75327007634779, 44.57165842011992], [-71.7541539059731, 44.5720750708706], [-71.7537345537343, 44.57170209429454], [-71.75351289781007, 44.571252789422005], [-71.75351899317593, 44.57077628671377], [-71.75375288563069, 44.570330099256736], [-71.75418556008516, 44.56996775040673], [-71.75476609406876, 44.569733338879566], [-71.75542410475875, 44.56965480904453], [-71.75618996941965, 44.569756823858484], [-71.75572313753852, 44.56952865830368], [-71.75476076810001, 44.56848675813648], [-71.75440643405932, 44.56819956119454], [-71.75383200441101, 44.567957608448744], [-71.75253260665042, 44.56780216974561], [-71.74857149104793, 44.56324276698329], [-71.74437421008592, 44.55926551896962], [-71.74362296312901, 44.55884954291771], [-71.7399432967799, 44.55773756055642], [-71.73962081073155, 44.55767326274028], [-71.73895455551714, 44.55766882497764]]]]}}]}