{"type": "FeatureCollection", "name": "Essex_Guildhall", "features": [{"type": "Feature", "properties": {"OBJECT_ID": 174, "County": "Essex", "RPC": "NVDA", "Municipal_Name": "Guildhall ", "GEO_ID": "5000930775", "District_Name": "Village District", "Abbreviated_District_Name": "Vil", "District_Type": "Mixed with Residential", "Bylaw_Date": null, "Elderly_Housing_District": "No", "District_Mapped": "Yes", "Overlay_District": "No", "Base_Density": null, "GIS_ID": null, "Last_Update": null, "Shape_Length": 4101.364134057773, "Shape_Area": 661724.1872605535, "F1F_Allowance": "Permitted", "F1F_Front_Setback": 33.0, "F1F_Side_Setback": 10.0, "F1F_Rear_Setback": 10.0, "F1F_Frontage": 200.0, "F1F_Max_Height": null, "F1F_Max_Stories": null, "F1F_Min_Lot_Size": null, "F1F_Max_Lot_Building_Coverage": null, "F1F_Max_Lot_Impervious_Coverage": null, "F1F_Min_Parking_Spaces": 2.0, "F1F_Elderly_Housing_Only": null, "F1F_Affordable_Housing_Only": null, "F2F_Allowance": "Permitted", "F2F_Front_Setback": 33.0, "F2F_Side_Setback": 10.0, "F2F_Rear_Setback": 10.0, "F2F_Frontage": 200.0, "F2F_Max_Density": null, "F2F_Max_Height": null, "F2F_Max_Stories": null, "F2F_Min_Lot_Size": null, "F2F_Max_Lot_Building_Coverage": null, "F2F_Max_Lot_Impervious_Coverage": null, "F2F_Min_Parking_Spaces_per_1BR": 2.0, "F2F_Min_Parking_Spaces_per_mult_BR": 2.0, "F2F_Elderly_Housing_Only": "No", "F2F_Affordable_Housing_Only": "No", "F3F_Allowance": "Public Hearing", "F3F_Front_Setback": 33.0, "F3F_Side_Setback": 10.0, "F3F_Rear_Setback": 10.0, "F3F_Frontage": 200.0, "F3F_Max_Density": null, "F3F_Max_Height": null, "F3F_Max_Stories": null, "F3F_Min_Lot_Size": null, "F3F_Max_Lot_Building_Coverage": null, "F3F_Max_Lot_Impervious_Coverage": null, "F3F_Min_Parking_Spaces_per_1BR": 2.0, "F3F_Min_Parking_Spaces_per_mult_BR": 2.0, "F3F_Affordable_Housing_Only": "No", "F3F_Proximity_to_Public_Transit_Required": null, "F3F_Connection_to_Sewage/Water_Required": null, "F4F_Allowance": "Public Hearing", "F4F_Front_Setback": 33.0, "F4F_Side_Setback": 10.0, "F4F_Rear_Setback": 10.0, "F4F_Frontage": 200.0, "F1F_Max_Density": null, "F4F_Max_Density": null, "F4F_Max_Height": null, "F4F_Max_Stories": null, "F4F_Min_Lot_Size": null, "F4F_Max_Lot_Building_Coverage": null, "F4F_Max_Lot_Impervious_Coverage": null, "F4F_Min_Parking_Spaces_per_1BR": 2.0, "F4F_Min_Parking_Spaces_per_mult_BR": 2.0, "F3F_Elderly_Housing_Only": "No", "F4F_Elderly_Housing_Only": "No", "F4F_Affordable_Housing_Only": "No", "F4F_Proximity_to_Public_Transit_Required": null, "F4F_Connection_to_Sewage/Water_Required": null, "ADU_Allowance": "Allowed/Conditional", "ADU_Elderly_Housing_Only": "No", "ADU_Max_Size_as_Percent_of_Primary_Strcture": 50.0, "ADU_Max_Size_in_sq_ft": 1500.0, "ADU_Min_Lot_Size": null, "ADU_Max_Bedrooms": 1.0, "ADU_Min_Parking_Spaces": 2.0, "ADU_Owner_Occupancy_Required": "Yes", "ADU_Renter_Occupancy_Prohibited": "No", "ADU_Employee_or_Family_Occupancy_Required": "No", "ADU_Restricted_to_Primary_Structure": "No", "Affordable_Housing_Allowance": "Allowed/Conditional", "Affordable_Housing_District": "No", "Affordable_Housing_Elderly_Only": "No", "Affordable_Housing_Min_Lot_Size": null, "Affordable_Housing_Max_Density": null, "Affordable_Housing_Min_Parking_Spaces_per_mult_BR": 2.0, "Affordable_Housing_Max_Units_per_Building": null, "Affordable_Housing_Min_Parking_Spaces_per_1BR": 2.0, "PRD_Allowance": "Not Mentioned", "PRD_Max_Density": null, "PRD_Max_Units": null, "PRD_Min_Lot_Size": null, "PRD_Mobile_or_Manufactured_Home_Park": null, "PUD_Allowance": "Yes", "PUD_Required_with_Subdivision": "No", "PUD_Requires_Land_Conservation": "Yes", "PUD_Threshold_Number": null, "Notes": "None", "FIPS6": null}, "geometry": {"type": "MultiPolygon", "coordinates": [[[[-71.56073167027935, 44.57281157002265], [-71.56109392236601, 44.57301507940365], [-71.56212717528203, 44.57189866340186], [-71.56290223999294, 44.57078207241024], [-71.56364624547653, 44.56932183189703], [-71.56384401500587, 44.56834763358503], [-71.56489690617872, 44.56844554978834], [-71.56685399308421, 44.56853890763256], [-71.56877057341711, 44.568779939427266], [-71.56970141624463, 44.56881299294927], [-71.57008146547794, 44.56868511488355], [-71.57030126883329, 44.56851897277773], [-71.57127502526495, 44.56734368845342], [-71.57238933010804, 44.56620343317455], [-71.57264213843399, 44.5657885218789], [-71.57284141646556, 44.565218247676825], [-71.57035357235378, 44.56481683642951], [-71.56935774517414, 44.5646926022548], [-71.56888684912442, 44.564694702639315], [-71.56788109346464, 44.564597287098515], [-71.56723390116939, 44.56446300314831], [-71.56547622983264, 44.564290835254866], [-71.5649697556123, 44.564184854307456], [-71.56486865694872, 44.56405594642758], [-71.56488956615723, 44.56394843988344], [-71.56524545427017, 44.562983477410334], [-71.56261431057203, 44.56317165762909], [-71.56218667954421, 44.56325112057559], [-71.55987075248717, 44.563961654171685], [-71.55959154609018, 44.56415481430447], [-71.5589480181312, 44.564775153181294], [-71.55843568361357, 44.56504775025124], [-71.55849382283492, 44.56532198608978], [-71.55903359697477, 44.566439651017994], [-71.55923204792727, 44.567045409935375], [-71.55934631191923, 44.56770420186128], [-71.55924924651339, 44.56856355570831], [-71.55908660900127, 44.56883597582818], [-71.55871056088192, 44.569172240109665], [-71.55845544462055, 44.56950347337083], [-71.55846178515547, 44.56962555539037], [-71.55827455140336, 44.569876982214026], [-71.55829157364361, 44.57010930386295], [-71.55807797540939, 44.57044978518582], [-71.55788595946133, 44.57061504941143], [-71.55677248446084, 44.570493817080454], [-71.5576077657984, 44.57103917825767], [-71.5607313496115, 44.57281139009901], [-71.56073167027935, 44.57281157002265]]]]}}, {"type": "Feature", "properties": {"OBJECT_ID": 171, "County": "Essex", "RPC": "NVDA", "Municipal_Name": "Guildhall ", "GEO_ID": "5000930775", "District_Name": "Rural Lands One", "Abbreviated_District_Name": "Rl-1", "District_Type": "Mixed with Residential", "Bylaw_Date": null, "Elderly_Housing_District": "No", "District_Mapped": "Yes", "Overlay_District": "No", "Base_Density": null, "GIS_ID": null, "Last_Update": null, "Shape_Length": 6513.255137634144, "Shape_Area": 1251768.4423561562, "F1F_Allowance": "Permitted", "F1F_Front_Setback": null, "F1F_Side_Setback": 25.0, "F1F_Rear_Setback": 25.0, "F1F_Frontage": 200.0, "F1F_Max_Height": null, "F1F_Max_Stories": null, "F1F_Min_Lot_Size": null, "F1F_Max_Lot_Building_Coverage": null, "F1F_Max_Lot_Impervious_Coverage": null, "F1F_Min_Parking_Spaces": 2.0, "F1F_Elderly_Housing_Only": null, "F1F_Affordable_Housing_Only": null, "F2F_Allowance": "Permitted", "F2F_Front_Setback": null, "F2F_Side_Setback": 25.0, "F2F_Rear_Setback": 25.0, "F2F_Frontage": 200.0, "F2F_Max_Density": null, "F2F_Max_Height": null, "F2F_Max_Stories": null, "F2F_Min_Lot_Size": null, "F2F_Max_Lot_Building_Coverage": null, "F2F_Max_Lot_Impervious_Coverage": null, "F2F_Min_Parking_Spaces_per_1BR": 2.0, "F2F_Min_Parking_Spaces_per_mult_BR": 2.0, "F2F_Elderly_Housing_Only": "No", "F2F_Affordable_Housing_Only": "No", "F3F_Allowance": "Public Hearing", "F3F_Front_Setback": null, "F3F_Side_Setback": 25.0, "F3F_Rear_Setback": 25.0, "F3F_Frontage": 200.0, "F3F_Max_Density": null, "F3F_Max_Height": null, "F3F_Max_Stories": null, "F3F_Min_Lot_Size": null, "F3F_Max_Lot_Building_Coverage": null, "F3F_Max_Lot_Impervious_Coverage": null, "F3F_Min_Parking_Spaces_per_1BR": 2.0, "F3F_Min_Parking_Spaces_per_mult_BR": 2.0, "F3F_Affordable_Housing_Only": "No", "F3F_Proximity_to_Public_Transit_Required": null, "F3F_Connection_to_Sewage/Water_Required": null, "F4F_Allowance": "Public Hearing", "F4F_Front_Setback": null, "F4F_Side_Setback": 25.0, "F4F_Rear_Setback": 25.0, "F4F_Frontage": 200.0, "F1F_Max_Density": null, "F4F_Max_Density": null, "F4F_Max_Height": null, "F4F_Max_Stories": null, "F4F_Min_Lot_Size": null, "F4F_Max_Lot_Building_Coverage": null, "F4F_Max_Lot_Impervious_Coverage": null, "F4F_Min_Parking_Spaces_per_1BR": 2.0, "F4F_Min_Parking_Spaces_per_mult_BR": 2.0, "F3F_Elderly_Housing_Only": "No", "F4F_Elderly_Housing_Only": "No", "F4F_Affordable_Housing_Only": "No", "F4F_Proximity_to_Public_Transit_Required": null, "F4F_Connection_to_Sewage/Water_Required": null, "ADU_Allowance": "Allowed/Conditional", "ADU_Elderly_Housing_Only": "No", "ADU_Max_Size_as_Percent_of_Primary_Strcture": 50.0, "ADU_Max_Size_in_sq_ft": 1500.0, "ADU_Min_Lot_Size": null, "ADU_Max_Bedrooms": 1.0, "ADU_Min_Parking_Spaces": 2.0, "ADU_Owner_Occupancy_Required": "Yes", "ADU_Renter_Occupancy_Prohibited": "No", "ADU_Employee_or_Family_Occupancy_Required": "No", "ADU_Restricted_to_Primary_Structure": "No", "Affordable_Housing_Allowance": "Allowed/Conditional", "Affordable_Housing_District": "No", "Affordable_Housing_Elderly_Only": "No", "Affordable_Housing_Min_Lot_Size": null, "Affordable_Housing_Max_Density": null, "Affordable_Housing_Min_Parking_Spaces_per_mult_BR": 2.0, "Affordable_Housing_Max_Units_per_Building": null, "Affordable_Housing_Min_Parking_Spaces_per_1BR": 2.0, "PRD_Allowance": "Not Mentioned", "PRD_Max_Density": null, "PRD_Max_Units": null, "PRD_Min_Lot_Size": null, "PRD_Mobile_or_Manufactured_Home_Park": null, "PUD_Allowance": "Yes", "PUD_Required_with_Subdivision": "No", "PUD_Requires_Land_Conservation": "Yes", "PUD_Threshold_Number": null, "Notes": "None", "FIPS6": null}, "geometry": {"type": "MultiPolygon", "coordinates": [[[[-71.56970141624463, 44.56881299294927], [-71.57021018482823, 44.56884794984983], [-71.57230375700873, 44.56919164232037], [-71.575018820042, 44.569541379279514], [-71.57817711954442, 44.56986171432144], [-71.57928810188886, 44.56987927887325], [-71.5821917485275, 44.56972577681198], [-71.58499027081567, 44.569651966423336], [-71.5851767792096, 44.57024619658066], [-71.58571141644823, 44.5713554419919], [-71.58711326992825, 44.573422303136354], [-71.58738876712029, 44.57379523405191], [-71.58789727076909, 44.57429832672384], [-71.58810672926764, 44.574677350098156], [-71.5904935358332, 44.57397333772379], [-71.59204729017185, 44.57328990083042], [-71.59244985421385, 44.573182219253034], [-71.59299790706503, 44.572694319196046], [-71.5918958266064, 44.57210686440242], [-71.59151396554637, 44.57184547794285], [-71.59347076031747, 44.570932924976695], [-71.59325574335813, 44.5701746991167], [-71.59298088781499, 44.569205433427115], [-71.59387086377282, 44.56838609219556], [-71.59437532721435, 44.568115798140305], [-71.59470689517075, 44.56784413234309], [-71.59438382884136, 44.56756727815464], [-71.596590580368, 44.56593898610963], [-71.5982585617931, 44.56512927972995], [-71.59903854321186, 44.56431255139584], [-71.59880671360672, 44.563762137189556], [-71.59866336024973, 44.56376100589662], [-71.5975884911717, 44.564026816974604], [-71.59672326743721, 44.563745687584316], [-71.59626350757331, 44.563421699671146], [-71.59614540065097, 44.56349444513871], [-71.59471180046896, 44.56264387822535], [-71.59348053758653, 44.564125842603325], [-71.59266780252743, 44.56471172191047], [-71.59132915015415, 44.565391598278005], [-71.5903450538521, 44.565758763839305], [-71.58987707161202, 44.56586815856239], [-71.58930582493107, 44.565923089328535], [-71.5881273101761, 44.56593753369608], [-71.5870339844871, 44.56583349598585], [-71.58595914055765, 44.565610624752054], [-71.58426198888971, 44.56505518000767], [-71.58352360215976, 44.56492398733428], [-71.58247397601876, 44.56484455298525], [-71.5814921423727, 44.564800934267126], [-71.58008126084086, 44.56483979542002], [-71.57880958166983, 44.56515135966831], [-71.5778741755226, 44.565164780025654], [-71.577484103564, 44.56524190280072], [-71.57622339013503, 44.56519301594286], [-71.57587042590839, 44.56513652440894], [-71.5747726515872, 44.56479133155648], [-71.57393901083452, 44.56446435742641], [-71.57361386932898, 44.564714179237505], [-71.57318952883139, 44.56523512390051], [-71.57284141646556, 44.565218247676825], [-71.57264213843399, 44.5657885218789], [-71.57238933010804, 44.56620343317455], [-71.57127502526495, 44.56734368845342], [-71.57030126883329, 44.56851897277773], [-71.57008146547794, 44.56868511488355], [-71.56970141624463, 44.56881299294927]]]]}}, {"type": "Feature", "properties": {"OBJECT_ID": 172, "County": "Essex", "RPC": "NVDA", "Municipal_Name": "Guildhall ", "GEO_ID": "5000930775", "District_Name": "Rural Lands Three", "Abbreviated_District_Name": "Rl-3", "District_Type": "Primarily Residential", "Bylaw_Date": null, "Elderly_Housing_District": "No", "District_Mapped": "Yes", "Overlay_District": "No", "Base_Density": null, "GIS_ID": null, "Last_Update": null, "Shape_Length": 29143.151430670503, "Shape_Area": 8324054.282148626, "F1F_Allowance": "Permitted", "F1F_Front_Setback": null, "F1F_Side_Setback": 25.0, "F1F_Rear_Setback": 25.0, "F1F_Frontage": 300.0, "F1F_Max_Height": null, "F1F_Max_Stories": null, "F1F_Min_Lot_Size": 5.0, "F1F_Max_Lot_Building_Coverage": null, "F1F_Max_Lot_Impervious_Coverage": null, "F1F_Min_Parking_Spaces": 2.0, "F1F_Elderly_Housing_Only": null, "F1F_Affordable_Housing_Only": null, "F2F_Allowance": "Permitted", "F2F_Front_Setback": null, "F2F_Side_Setback": 25.0, "F2F_Rear_Setback": 25.0, "F2F_Frontage": 300.0, "F2F_Max_Density": null, "F2F_Max_Height": null, "F2F_Max_Stories": null, "F2F_Min_Lot_Size": null, "F2F_Max_Lot_Building_Coverage": null, "F2F_Max_Lot_Impervious_Coverage": null, "F2F_Min_Parking_Spaces_per_1BR": 2.0, "F2F_Min_Parking_Spaces_per_mult_BR": 2.0, "F2F_Elderly_Housing_Only": "No", "F2F_Affordable_Housing_Only": "No", "F3F_Allowance": "Prohibited", "F3F_Front_Setback": null, "F3F_Side_Setback": null, "F3F_Rear_Setback": null, "F3F_Frontage": null, "F3F_Max_Density": null, "F3F_Max_Height": null, "F3F_Max_Stories": null, "F3F_Min_Lot_Size": null, "F3F_Max_Lot_Building_Coverage": null, "F3F_Max_Lot_Impervious_Coverage": null, "F3F_Min_Parking_Spaces_per_1BR": null, "F3F_Min_Parking_Spaces_per_mult_BR": null, "F3F_Affordable_Housing_Only": null, "F3F_Proximity_to_Public_Transit_Required": null, "F3F_Connection_to_Sewage/Water_Required": null, "F4F_Allowance": "Prohibited", "F4F_Front_Setback": null, "F4F_Side_Setback": null, "F4F_Rear_Setback": null, "F4F_Frontage": null, "F1F_Max_Density": null, "F4F_Max_Density": null, "F4F_Max_Height": null, "F4F_Max_Stories": null, "F4F_Min_Lot_Size": null, "F4F_Max_Lot_Building_Coverage": null, "F4F_Max_Lot_Impervious_Coverage": null, "F4F_Min_Parking_Spaces_per_1BR": null, "F4F_Min_Parking_Spaces_per_mult_BR": null, "F3F_Elderly_Housing_Only": null, "F4F_Elderly_Housing_Only": null, "F4F_Affordable_Housing_Only": null, "F4F_Proximity_to_Public_Transit_Required": null, "F4F_Connection_to_Sewage/Water_Required": null, "ADU_Allowance": "Allowed/Conditional", "ADU_Elderly_Housing_Only": "No", "ADU_Max_Size_as_Percent_of_Primary_Strcture": 50.0, "ADU_Max_Size_in_sq_ft": 1500.0, "ADU_Min_Lot_Size": null, "ADU_Max_Bedrooms": 1.0, "ADU_Min_Parking_Spaces": 2.0, "ADU_Owner_Occupancy_Required": "Yes", "ADU_Renter_Occupancy_Prohibited": "No", "ADU_Employee_or_Family_Occupancy_Required": "No", "ADU_Restricted_to_Primary_Structure": "No", "Affordable_Housing_Allowance": "Allowed/Conditional", "Affordable_Housing_District": "No", "Affordable_Housing_Elderly_Only": "No", "Affordable_Housing_Min_Lot_Size": null, "Affordable_Housing_Max_Density": null, "Affordable_Housing_Min_Parking_Spaces_per_mult_BR": 2.0, "Affordable_Housing_Max_Units_per_Building": null, "Affordable_Housing_Min_Parking_Spaces_per_1BR": 2.0, "PRD_Allowance": "Not Mentioned", "PRD_Max_Density": null, "PRD_Max_Units": null, "PRD_Min_Lot_Size": null, "PRD_Mobile_or_Manufactured_Home_Park": null, "PUD_Allowance": "Yes", "PUD_Required_with_Subdivision": "No", "PUD_Requires_Land_Conservation": "Yes", "PUD_Threshold_Number": null, "Notes": "None", "FIPS6": null}, "geometry": {"type": "MultiPolygon", "coordinates": [[[[-71.61053382982557, 44.56113364767711], [-71.61204295005375, 44.56078490789877], [-71.61486734036404, 44.56028363809847], [-71.6172537255689, 44.560068140370504], [-71.61768701551165, 44.56006506402054], [-71.61925765150563, 44.56019951076264], [-71.61968019546339, 44.560277137236234], [-71.6205322681301, 44.56058058169516], [-71.6213761483154, 44.56080988420078], [-71.62193264083741, 44.560760693737706], [-71.6221665198124, 44.56085692700128], [-71.62298563632697, 44.562021959778384], [-71.62337608170402, 44.56233497516217], [-71.62392684708425, 44.56263586592868], [-71.62462873833839, 44.56291108730227], [-71.62721793856825, 44.56354549637946], [-71.62794843897728, 44.563800735865016], [-71.62933236259862, 44.56441829277861], [-71.63169094609096, 44.565340215046795], [-71.63252606926501, 44.56553569475938], [-71.63386067440777, 44.56571511313879], [-71.63578083829178, 44.565798363976604], [-71.63797951853759, 44.566133022925015], [-71.63896482076349, 44.56636336341771], [-71.6398066891291, 44.566727180155226], [-71.64033787705651, 44.56708169782817], [-71.64124264225174, 44.56822037122662], [-71.64211464271573, 44.569055761721074], [-71.64376236848243, 44.57086039973177], [-71.64459839006749, 44.57159447398847], [-71.64651700909444, 44.57296362040598], [-71.64764638080102, 44.573619271591866], [-71.648993822135, 44.574189157932544], [-71.64986584272927, 44.57444541294187], [-71.65175259207504, 44.57487152843554], [-71.6536421515893, 44.575122565569906], [-71.65475247421635, 44.575205650197574], [-71.6556257096426, 44.575387802296675], [-71.65800395037358, 44.57571679718565], [-71.65991091611177, 44.57606214010258], [-71.66522731015128, 44.57646852443762], [-71.66785011311319, 44.576746394434515], [-71.67077122953852, 44.57383201665266], [-71.67214885452283, 44.57251153335727], [-71.6700744802802, 44.57193529979984], [-71.66214604699093, 44.57112433708227], [-71.65658364077711, 44.570224276345385], [-71.65373469743584, 44.56929888538218], [-71.65243484180031, 44.568702508730006], [-71.65062355147796, 44.567691207034976], [-71.64961658688036, 44.56704331764493], [-71.64746511399166, 44.56551744816953], [-71.64594269009594, 44.56412462801383], [-71.64536049265017, 44.56342631156162], [-71.64464549218054, 44.56278750355649], [-71.64421054505118, 44.5623058590669], [-71.64379151717348, 44.5620061474036], [-71.64308088366852, 44.561683837893455], [-71.64314258084711, 44.56136113770831], [-71.6433851467264, 44.560918722694886], [-71.64358700390541, 44.560078697738206], [-71.64443957267703, 44.55859760125464], [-71.64460235761135, 44.558430599729164], [-71.64515338808884, 44.55813211317372], [-71.64571837378722, 44.55791313663467], [-71.64657917428279, 44.557725805901555], [-71.64931850851916, 44.5573403785609], [-71.6506335359042, 44.557042720129026], [-71.65124069949853, 44.55681258273898], [-71.65183121547994, 44.55646103534946], [-71.65209275688082, 44.55606601767239], [-71.65215757569054, 44.555608550619006], [-71.65204536744903, 44.55504166202118], [-71.65169398812726, 44.554155949426985], [-71.65126213302042, 44.553552414812195], [-71.65062183606345, 44.553014306954175], [-71.64983059514067, 44.55248826584486], [-71.64885037159743, 44.55199414359113], [-71.64831971597981, 44.551645659451104], [-71.64421421289899, 44.549471994556065], [-71.64180865590305, 44.5481089851224], [-71.64052878214656, 44.54752441561333], [-71.63862086195628, 44.546772266817236], [-71.63695898064188, 44.54596177414549], [-71.63505611786114, 44.54494016055568], [-71.634299324755, 44.54460295156205], [-71.63316298598383, 44.543905134920806], [-71.63160203209249, 44.542738490229546], [-71.63088992799732, 44.54202444793318], [-71.63043099425946, 44.54137342296243], [-71.62990682086652, 44.54017613658971], [-71.62956097021065, 44.53901421809625], [-71.62890056322296, 44.53754618544135], [-71.62844393257241, 44.536773918439714], [-71.62801780763212, 44.53588068708279], [-71.62752030010766, 44.534265990107784], [-71.62759052568984, 44.53352566078821], [-71.62775428320252, 44.5328199004391], [-71.63066603914936, 44.53222099020818], [-71.63157748036528, 44.531987220888375], [-71.63046626490548, 44.52982176200125], [-71.62984290252464, 44.528846200334854], [-71.62915189269799, 44.52797107432277], [-71.62891120574847, 44.52773316172566], [-71.62856272560181, 44.527736786614724], [-71.62827944288553, 44.527781408895834], [-71.62641403977058, 44.52837098215067], [-71.62559207705134, 44.52852529027434], [-71.62491560237923, 44.52789950564031], [-71.62325368586639, 44.52601195407745], [-71.62032391597178, 44.52233463279706], [-71.61919480473216, 44.521219735621564], [-71.61843268937399, 44.52065376590666], [-71.61666311852578, 44.5190211189449], [-71.61562280553996, 44.51821685128762], [-71.61306302131948, 44.51602463440335], [-71.61126512087597, 44.51494400976541], [-71.60943641442978, 44.51401127171766], [-71.60677542743849, 44.51171021320311], [-71.60566044214585, 44.510884963561146], [-71.60414968725432, 44.51008303043065], [-71.60338316757628, 44.509779628145644], [-71.60158420310857, 44.50930509382683], [-71.59980047023477, 44.50903275534294], [-71.59846370137085, 44.50903394527682], [-71.59711020730617, 44.50894169770398], [-71.59726041666934, 44.51313192589992], [-71.59746454257936, 44.51434631067032], [-71.59766555941206, 44.514967323910746], [-71.5989021809337, 44.515026409645905], [-71.60005589167288, 44.515266035125244], [-71.601076140269, 44.51559873131765], [-71.60167400593262, 44.51586018557523], [-71.60264214727087, 44.51647530883254], [-71.60334829714172, 44.51700045573687], [-71.60473022978407, 44.518171710175636], [-71.60624641237438, 44.51920945027319], [-71.60703327514516, 44.519964339210794], [-71.60838212778718, 44.5208860099228], [-71.61035185235218, 44.52237240937492], [-71.61242844808174, 44.52421002217184], [-71.61313799162994, 44.52508541808806], [-71.61372123204295, 44.525649803451], [-71.61568481289174, 44.52696765043983], [-71.61657475470611, 44.527763821084214], [-71.61715722195105, 44.528375334006064], [-71.61796519517397, 44.529015823235845], [-71.61947537506947, 44.53042381944452], [-71.620052922311, 44.53131818995807], [-71.62041237998062, 44.53229816376083], [-71.6204622433321, 44.53374687926097], [-71.6203394738653, 44.5348370241967], [-71.62041040559816, 44.536751410552526], [-71.6208887762165, 44.538372693185345], [-71.62284251292023, 44.54270929338224], [-71.62318835622206, 44.543359272610445], [-71.6237291040576, 44.54416604095034], [-71.62513324053114, 44.54565464504151], [-71.62581968851651, 44.54622701614493], [-71.62677728528482, 44.54690973765102], [-71.6283431162225, 44.54781377756597], [-71.62966179106998, 44.54833148758849], [-71.63118770435005, 44.54885114064542], [-71.6316083157064, 44.54903026061986], [-71.63231519436876, 44.54952195070659], [-71.63541041093843, 44.55077040001794], [-71.63644676727907, 44.55127863767184], [-71.63971894886143, 44.553161846013076], [-71.6403167365799, 44.55344363771831], [-71.64082292452613, 44.5535831047281], [-71.64025275212316, 44.55366120822705], [-71.63958107016347, 44.55385094139067], [-71.63852589521058, 44.55446171297363], [-71.63835390480638, 44.55461516269056], [-71.63816036462129, 44.55493677040836], [-71.63797978306827, 44.55562209193279], [-71.63768728687353, 44.556239155023675], [-71.63706292384475, 44.55815976436791], [-71.63671455887668, 44.55873596044655], [-71.63641904400686, 44.55895571903398], [-71.6362644531928, 44.55919684522456], [-71.63619439330276, 44.55945213657403], [-71.6360696867761, 44.559592507940586], [-71.63578456183221, 44.559751749169315], [-71.63526728439133, 44.55970706401727], [-71.63431047003039, 44.55947019563279], [-71.632873731091, 44.55920913266262], [-71.63183535568348, 44.55877629467772], [-71.63071159029634, 44.5583831376997], [-71.62882402025554, 44.55747185616829], [-71.62680754147087, 44.55638439745192], [-71.6254038981106, 44.55583397944922], [-71.6242232938331, 44.555467214967216], [-71.62277883013142, 44.555111690367376], [-71.6218139443748, 44.5548005815889], [-71.62116611453281, 44.55468066775172], [-71.6200598913153, 44.55437508894068], [-71.61742876277405, 44.553457357002536], [-71.6172611654698, 44.5533414740402], [-71.61724455634975, 44.55320666337202], [-71.61760238482886, 44.552637338911715], [-71.61793153639046, 44.551522361586976], [-71.61891940569858, 44.54998428537041], [-71.6185285049054, 44.54969867339646], [-71.61639388975713, 44.5493153917066], [-71.61321051047751, 44.5489499854484], [-71.61210331201993, 44.54833896045036], [-71.61097917392, 44.549044960335415], [-71.61053134806856, 44.549841840823696], [-71.6098336453955, 44.551928916288816], [-71.60977179318982, 44.55323435878134], [-71.60980081860828, 44.554282708077224], [-71.60989734195694, 44.55458870257349], [-71.61035394255924, 44.55535375705584], [-71.61057632775888, 44.55605600272525], [-71.61074116833278, 44.55630665158806], [-71.61112808873347, 44.55676809867145], [-71.6114251085669, 44.55699980208624], [-71.61171181730822, 44.557091774694214], [-71.61144002331494, 44.557283741747305], [-71.61076030381138, 44.55751050711955], [-71.60816622036812, 44.55824551662357], [-71.60865347354822, 44.55906025370115], [-71.60917119245923, 44.560263749674995], [-71.60935659637872, 44.56045392059382], [-71.61053382982557, 44.56113364767711]]]]}}, {"type": "Feature", "properties": {"OBJECT_ID": 169, "County": "Essex", "RPC": "NVDA", "Municipal_Name": "Guildhall ", "GEO_ID": "5000930775", "District_Name": "Forest Conservation District", "Abbreviated_District_Name": "Fc", "District_Type": "Mixed with Residential", "Bylaw_Date": null, "Elderly_Housing_District": "No", "District_Mapped": "Yes", "Overlay_District": "No", "Base_Density": null, "GIS_ID": null, "Last_Update": null, "Shape_Length": 73651.91165184506, "Shape_Area": 65172664.14975475, "F1F_Allowance": "Permitted", "F1F_Front_Setback": 50.0, "F1F_Side_Setback": 50.0, "F1F_Rear_Setback": 50.0, "F1F_Frontage": 500.0, "F1F_Max_Height": null, "F1F_Max_Stories": null, "F1F_Min_Lot_Size": 10.0, "F1F_Max_Lot_Building_Coverage": null, "F1F_Max_Lot_Impervious_Coverage": null, "F1F_Min_Parking_Spaces": 2.0, "F1F_Elderly_Housing_Only": null, "F1F_Affordable_Housing_Only": null, "F2F_Allowance": "Prohibited", "F2F_Front_Setback": null, "F2F_Side_Setback": null, "F2F_Rear_Setback": null, "F2F_Frontage": null, "F2F_Max_Density": null, "F2F_Max_Height": null, "F2F_Max_Stories": null, "F2F_Min_Lot_Size": null, "F2F_Max_Lot_Building_Coverage": null, "F2F_Max_Lot_Impervious_Coverage": null, "F2F_Min_Parking_Spaces_per_1BR": null, "F2F_Min_Parking_Spaces_per_mult_BR": null, "F2F_Elderly_Housing_Only": null, "F2F_Affordable_Housing_Only": null, "F3F_Allowance": "Prohibited", "F3F_Front_Setback": null, "F3F_Side_Setback": null, "F3F_Rear_Setback": null, "F3F_Frontage": null, "F3F_Max_Density": null, "F3F_Max_Height": null, "F3F_Max_Stories": null, "F3F_Min_Lot_Size": null, "F3F_Max_Lot_Building_Coverage": null, "F3F_Max_Lot_Impervious_Coverage": null, "F3F_Min_Parking_Spaces_per_1BR": null, "F3F_Min_Parking_Spaces_per_mult_BR": null, "F3F_Affordable_Housing_Only": null, "F3F_Proximity_to_Public_Transit_Required": null, "F3F_Connection_to_Sewage/Water_Required": null, "F4F_Allowance": "Prohibited", "F4F_Front_Setback": null, "F4F_Side_Setback": null, "F4F_Rear_Setback": null, "F4F_Frontage": null, "F1F_Max_Density": null, "F4F_Max_Density": null, "F4F_Max_Height": null, "F4F_Max_Stories": null, "F4F_Min_Lot_Size": null, "F4F_Max_Lot_Building_Coverage": null, "F4F_Max_Lot_Impervious_Coverage": null, "F4F_Min_Parking_Spaces_per_1BR": null, "F4F_Min_Parking_Spaces_per_mult_BR": null, "F3F_Elderly_Housing_Only": null, "F4F_Elderly_Housing_Only": null, "F4F_Affordable_Housing_Only": null, "F4F_Proximity_to_Public_Transit_Required": null, "F4F_Connection_to_Sewage/Water_Required": null, "ADU_Allowance": "Allowed/Conditional", "ADU_Elderly_Housing_Only": "No", "ADU_Max_Size_as_Percent_of_Primary_Strcture": 50.0, "ADU_Max_Size_in_sq_ft": 1500.0, "ADU_Min_Lot_Size": 10.0, "ADU_Max_Bedrooms": 1.0, "ADU_Min_Parking_Spaces": 2.0, "ADU_Owner_Occupancy_Required": "Yes", "ADU_Renter_Occupancy_Prohibited": "No", "ADU_Employee_or_Family_Occupancy_Required": "No", "ADU_Restricted_to_Primary_Structure": "No", "Affordable_Housing_Allowance": "Allowed/Conditional", "Affordable_Housing_District": "No", "Affordable_Housing_Elderly_Only": "No", "Affordable_Housing_Min_Lot_Size": 10.0, "Affordable_Housing_Max_Density": null, "Affordable_Housing_Min_Parking_Spaces_per_mult_BR": 2.0, "Affordable_Housing_Max_Units_per_Building": null, "Affordable_Housing_Min_Parking_Spaces_per_1BR": 2.0, "PRD_Allowance": "Not Mentioned", "PRD_Max_Density": null, "PRD_Max_Units": null, "PRD_Min_Lot_Size": null, "PRD_Mobile_or_Manufactured_Home_Park": null, "PUD_Allowance": "Yes", "PUD_Required_with_Subdivision": "No", "PUD_Requires_Land_Conservation": "Yes", "PUD_Threshold_Number": null, "Notes": "None", "FIPS6": null}, "geometry": {"type": "MultiPolygon", "coordinates": [[[[-71.56384401500587, 44.56834763358503], [-71.56364624547653, 44.56932183189703], [-71.56290223999294, 44.57078207241024], [-71.56212717528203, 44.57189866340186], [-71.56109392236601, 44.57301507940365], [-71.5813070609522, 44.58433000381112], [-71.58737323810062, 44.58751840196099], [-71.59162170341564, 44.58975641440564], [-71.59272111602387, 44.58871785710661], [-71.59359217168316, 44.587487539757596], [-71.59377886460287, 44.587078680074605], [-71.5937820320849, 44.58691040868493], [-71.59362571145117, 44.586706943426044], [-71.59279094498807, 44.586012238001416], [-71.59194537963681, 44.58539147496921], [-71.59178843331946, 44.585221661304665], [-71.59167144934632, 44.58493105465522], [-71.59171554953585, 44.58359179735584], [-71.59117645780883, 44.581708352166366], [-71.59097678452598, 44.578811634008446], [-71.59054555932892, 44.57720523945539], [-71.59006996246153, 44.57645338875904], [-71.58953507751194, 44.57584907036265], [-71.58860570260478, 44.5751870796249], [-71.58810672926764, 44.574677350098156], [-71.58789727076909, 44.57429832672384], [-71.58738876712029, 44.57379523405191], [-71.58711326992825, 44.573422303136354], [-71.58571141644823, 44.5713554419919], [-71.5851767792096, 44.57024619658066], [-71.58499027081567, 44.569651966423336], [-71.5821917485275, 44.56972577681198], [-71.57928810188886, 44.56987927887325], [-71.57817711954442, 44.56986171432144], [-71.575018820042, 44.569541379279514], [-71.57230375700873, 44.56919164232037], [-71.57021018482823, 44.56884794984983], [-71.56970141624463, 44.56881299294927], [-71.56877057341711, 44.568779939427266], [-71.56685399308421, 44.56853890763256], [-71.56489690617872, 44.56844554978834], [-71.56384401500587, 44.56834763358503]]], [[[-71.61768701551165, 44.56006506402054], [-71.6172537255689, 44.560068140370504], [-71.61486734036404, 44.56028363809847], [-71.61204295005375, 44.56078490789877], [-71.61053382982557, 44.56113364767711], [-71.60712913027078, 44.561759843413746], [-71.60488333739133, 44.56200999783823], [-71.60442153922222, 44.56197940825453], [-71.60523641663004, 44.562697004797066], [-71.60636237809551, 44.56342131912482], [-71.60741654591718, 44.563956441716], [-71.60820547768854, 44.564576555710445], [-71.60959158207243, 44.56600344439804], [-71.61026844763056, 44.5665753553391], [-71.61114562039418, 44.5675194248979], [-71.6115406633146, 44.56805499909334], [-71.6120928716323, 44.5692585359215], [-71.61096112534996, 44.569853713004676], [-71.60981401666531, 44.570260234292626], [-71.60865597710402, 44.570747426623306], [-71.60765208405856, 44.571047571339996], [-71.60710180043492, 44.5712645021654], [-71.60458485744788, 44.5723984758486], [-71.60415080450386, 44.571936558914096], [-71.60381431385544, 44.57129380436471], [-71.60338190789504, 44.57074438265638], [-71.60258403218322, 44.57009722266413], [-71.60228522394654, 44.56995972889542], [-71.60090442889548, 44.56976477409841], [-71.60087343286823, 44.569407678558555], [-71.60135848845877, 44.56764177322761], [-71.60138210672976, 44.56730973405116], [-71.60231720479409, 44.56649248967736], [-71.6022806325075, 44.565394773221826], [-71.60146791248637, 44.564514906158884], [-71.60041640972463, 44.563662489450444], [-71.59981843119257, 44.56328521205745], [-71.59944558919126, 44.56315570079289], [-71.59839662443122, 44.563012418426844], [-71.59740137387608, 44.56255733296498], [-71.59694693456409, 44.562962998163044], [-71.59626350757331, 44.563421699671146], [-71.59672326743721, 44.563745687584316], [-71.5975884911717, 44.564026816974604], [-71.59866336024973, 44.56376100589662], [-71.59880671360672, 44.563762137189556], [-71.59903854321186, 44.56431255139584], [-71.5982585617931, 44.56512927972995], [-71.596590580368, 44.56593898610963], [-71.59438382884136, 44.56756727815464], [-71.59470689517075, 44.56784413234309], [-71.59437532721435, 44.568115798140305], [-71.59387086377282, 44.56838609219556], [-71.59431134711446, 44.56873045413857], [-71.59502876426758, 44.56880435157946], [-71.59534328640554, 44.56944768898951], [-71.59583267784699, 44.56968101913819], [-71.59614812236725, 44.570035966927584], [-71.59692064996823, 44.57035908806257], [-71.59719382624917, 44.57016808758605], [-71.59828652564273, 44.57072971444652], [-71.59857437550474, 44.570974455233255], [-71.59947693299065, 44.57156205355912], [-71.60009751481023, 44.57212002295854], [-71.60067150419958, 44.57315552122817], [-71.60096816522595, 44.57391234976186], [-71.60124673514119, 44.57513351792092], [-71.60128697276933, 44.577012153565015], [-71.6014111254457, 44.57792890283831], [-71.60142315028457, 44.578797454942965], [-71.60140140347677, 44.57945699171333], [-71.60125067860258, 44.58046536287232], [-71.60131457302259, 44.58107859255722], [-71.60148922098963, 44.58181405622532], [-71.60152899794953, 44.582709802355964], [-71.60186326624311, 44.58347371856265], [-71.60276265493088, 44.5842430279456], [-71.60290794913456, 44.58453389336122], [-71.60319100497206, 44.585519474975285], [-71.60330138940938, 44.58616680641036], [-71.60328141646224, 44.5872370147136], [-71.60299544105939, 44.588425863716544], [-71.60223558963689, 44.58976502556356], [-71.60171335007729, 44.59048710332991], [-71.60078904755804, 44.59154867010407], [-71.59962606085043, 44.59277624807102], [-71.59877948924037, 44.59350215574391], [-71.5994578023937, 44.59385596294476], [-71.61641044792768, 44.6026517992936], [-71.62185351837347, 44.605603242034995], [-71.62453561300921, 44.606934035671834], [-71.63242057752767, 44.611758231954056], [-71.64437909961336, 44.599894919114405], [-71.65315764254373, 44.59133022721058], [-71.66320562989245, 44.58138016388772], [-71.66785011311319, 44.576746394434515], [-71.66522731015128, 44.57646852443762], [-71.65991091611177, 44.57606214010258], [-71.65800395037358, 44.57571679718565], [-71.6556257096426, 44.575387802296675], [-71.65475247421635, 44.575205650197574], [-71.6536421515893, 44.575122565569906], [-71.65175259207504, 44.57487152843554], [-71.64986584272927, 44.57444541294187], [-71.648993822135, 44.574189157932544], [-71.64764638080102, 44.573619271591866], [-71.64651700909444, 44.57296362040598], [-71.64459839006749, 44.57159447398847], [-71.64376236848243, 44.57086039973177], [-71.64211464271573, 44.569055761721074], [-71.64124264225174, 44.56822037122662], [-71.64033787705651, 44.56708169782817], [-71.6398066891291, 44.566727180155226], [-71.63896482076349, 44.56636336341771], [-71.63797951853759, 44.566133022925015], [-71.63578083829178, 44.565798363976604], [-71.63386067440777, 44.56571511313879], [-71.63252606926501, 44.56553569475938], [-71.63169094609096, 44.565340215046795], [-71.62933236259862, 44.56441829277861], [-71.62794843897728, 44.563800735865016], [-71.62721793856825, 44.56354549637946], [-71.62462873833839, 44.56291108730227], [-71.62392684708425, 44.56263586592868], [-71.62337608170402, 44.56233497516217], [-71.62298563632697, 44.562021959778384], [-71.6221665198124, 44.56085692700128], [-71.62193264083741, 44.560760693737706], [-71.6213761483154, 44.56080988420078], [-71.6205322681301, 44.56058058169516], [-71.61968019546339, 44.560277137236234], [-71.61925765150563, 44.56019951076264], [-71.61768701551165, 44.56006506402054]]], [[[-71.59766555941206, 44.514967323910746], [-71.59784798646622, 44.51606081830183], [-71.5978458369599, 44.51827698815965], [-71.59811574465851, 44.519351118267174], [-71.5982966316749, 44.521542236171406], [-71.59819539603616, 44.52313138333149], [-71.59804525817162, 44.52367584740379], [-71.59767381441185, 44.52450816574696], [-71.59735405977807, 44.52505795078687], [-71.59708533965933, 44.5253656185794], [-71.59634936886079, 44.526026456386695], [-71.59525388915456, 44.526785338432035], [-71.59316187281617, 44.52800746012336], [-71.59224601482381, 44.528720658017], [-71.59193902831947, 44.52906167958976], [-71.5916578589193, 44.52955113703441], [-71.59136970059096, 44.52989231487353], [-71.59087269528072, 44.530332795410054], [-71.59022057567152, 44.531041456871485], [-71.5897079287842, 44.531859084628245], [-71.58877411138992, 44.533656799409], [-71.58847848226398, 44.53444930118914], [-71.58772653058679, 44.53606663394588], [-71.58753625377703, 44.53675222599251], [-71.58674168169453, 44.53866563017457], [-71.58624872315887, 44.539995437870466], [-71.58586362211852, 44.54145290921027], [-71.5858306330895, 44.54269803241294], [-71.58592753638115, 44.5430490421417], [-71.58603754676022, 44.543204946321325], [-71.5866125530305, 44.54366156685014], [-71.5893914000608, 44.5445636141386], [-71.5914460961228, 44.54543168689978], [-71.5922655067369, 44.54591083138885], [-71.59345869003354, 44.547039850153105], [-71.59483284079825, 44.54856105842413], [-71.59617110940985, 44.549489477917724], [-71.59757657367244, 44.5503512063915], [-71.59881743023305, 44.550955520841356], [-71.59996631961592, 44.551444495819666], [-71.60097916337878, 44.552161050743976], [-71.60228359569243, 44.55339875210868], [-71.60278138391992, 44.55396900024832], [-71.60303530287948, 44.55448979389996], [-71.60388618806907, 44.55480758505105], [-71.60427065084957, 44.55489203427064], [-71.60468486071979, 44.55489597877007], [-71.60709693659868, 44.554804481428654], [-71.60844648869363, 44.55463553032402], [-71.60980081860828, 44.554282708077224], [-71.60977179318982, 44.55323435878134], [-71.6098336453955, 44.551928916288816], [-71.61053134806856, 44.549841840823696], [-71.61097917392, 44.549044960335415], [-71.61210331201993, 44.54833896045036], [-71.61321051047751, 44.5489499854484], [-71.61639388975713, 44.5493153917066], [-71.6185285049054, 44.54969867339646], [-71.61891940569858, 44.54998428537041], [-71.61793153639046, 44.551522361586976], [-71.61760238482886, 44.552637338911715], [-71.61724455634975, 44.55320666337202], [-71.6172611654698, 44.5533414740402], [-71.61742876277405, 44.553457357002536], [-71.6200598913153, 44.55437508894068], [-71.62116611453281, 44.55468066775172], [-71.6218139443748, 44.5548005815889], [-71.62277883013142, 44.555111690367376], [-71.6242232938331, 44.555467214967216], [-71.6254038981106, 44.55583397944922], [-71.62680754147087, 44.55638439745192], [-71.62882402025554, 44.55747185616829], [-71.63071159029634, 44.5583831376997], [-71.63183535568348, 44.55877629467772], [-71.632873731091, 44.55920913266262], [-71.63431047003039, 44.55947019563279], [-71.63526728439133, 44.55970706401727], [-71.63578456183221, 44.559751749169315], [-71.6360696867761, 44.559592507940586], [-71.63619439330276, 44.55945213657403], [-71.6362644531928, 44.55919684522456], [-71.63641904400686, 44.55895571903398], [-71.63671455887668, 44.55873596044655], [-71.63706292384475, 44.55815976436791], [-71.63768728687353, 44.556239155023675], [-71.63797978306827, 44.55562209193279], [-71.63816036462129, 44.55493677040836], [-71.63835390480638, 44.55461516269056], [-71.63852589521058, 44.55446171297363], [-71.63958107016347, 44.55385094139067], [-71.64025275212316, 44.55366120822705], [-71.64082292452613, 44.5535831047281], [-71.6403167365799, 44.55344363771831], [-71.63971894886143, 44.553161846013076], [-71.63644676727907, 44.55127863767184], [-71.63541041093843, 44.55077040001794], [-71.63231519436876, 44.54952195070659], [-71.6316083157064, 44.54903026061986], [-71.63118770435005, 44.54885114064542], [-71.62966179106998, 44.54833148758849], [-71.6283431162225, 44.54781377756597], [-71.62677728528482, 44.54690973765102], [-71.62581968851651, 44.54622701614493], [-71.62513324053114, 44.54565464504151], [-71.6237291040576, 44.54416604095034], [-71.62318835622206, 44.543359272610445], [-71.62284251292023, 44.54270929338224], [-71.6208887762165, 44.538372693185345], [-71.62041040559816, 44.536751410552526], [-71.6203394738653, 44.5348370241967], [-71.6204622433321, 44.53374687926097], [-71.62041237998062, 44.53229816376083], [-71.620052922311, 44.53131818995807], [-71.61947537506947, 44.53042381944452], [-71.61796519517397, 44.529015823235845], [-71.61715722195105, 44.528375334006064], [-71.61657475470611, 44.527763821084214], [-71.61568481289174, 44.52696765043983], [-71.61372123204295, 44.525649803451], [-71.61313799162994, 44.52508541808806], [-71.61242844808174, 44.52421002217184], [-71.61035185235218, 44.52237240937492], [-71.60838212778718, 44.5208860099228], [-71.60703327514516, 44.519964339210794], [-71.60624641237438, 44.51920945027319], [-71.60473022978407, 44.518171710175636], [-71.60334829714172, 44.51700045573687], [-71.60264214727087, 44.51647530883254], [-71.60167400593262, 44.51586018557523], [-71.601076140269, 44.51559873131765], [-71.60005589167288, 44.515266035125244], [-71.5989021809337, 44.515026409645905], [-71.59766555941206, 44.514967323910746]]], [[[-71.6135501898355, 44.48852478556178], [-71.61312491390869, 44.488588752933516], [-71.60910372201884, 44.48875431256112], [-71.60771773715827, 44.48890335958211], [-71.60595334358038, 44.48916345371814], [-71.60534864887931, 44.4892993922592], [-71.60443841584684, 44.48968177464102], [-71.60385809322936, 44.49003348774781], [-71.60199682558128, 44.49149841461257], [-71.6009214023701, 44.492694337716216], [-71.59951332424382, 44.495119922413124], [-71.599209180193, 44.49581095674982], [-71.59904279851307, 44.496691870567865], [-71.59840405312357, 44.49872033406863], [-71.59830328362075, 44.499615322833115], [-71.59794479189611, 44.500710023242995], [-71.597597246906, 44.50224266909962], [-71.59707026277684, 44.50380734310376], [-71.5968094078405, 44.50575168855439], [-71.5969379630501, 44.50697885305212], [-71.59692730984602, 44.50757153641396], [-71.59711020730617, 44.50894169770398], [-71.59846370137085, 44.50903394527682], [-71.59980047023477, 44.50903275534294], [-71.60158420310857, 44.50930509382683], [-71.60338316757628, 44.509779628145644], [-71.60414968725432, 44.51008303043065], [-71.60566044214585, 44.510884963561146], [-71.60677542743849, 44.51171021320311], [-71.60943641442978, 44.51401127171766], [-71.61126512087597, 44.51494400976541], [-71.61306302131948, 44.51602463440335], [-71.61562280553996, 44.51821685128762], [-71.61666311852578, 44.5190211189449], [-71.61843268937399, 44.52065376590666], [-71.61919480473216, 44.521219735621564], [-71.62032391597178, 44.52233463279706], [-71.62325368586639, 44.52601195407745], [-71.62491560237923, 44.52789950564031], [-71.62559207705134, 44.52852529027434], [-71.62641403977058, 44.52837098215067], [-71.62827944288553, 44.527781408895834], [-71.62856272560181, 44.527736786614724], [-71.62891120574847, 44.52773316172566], [-71.62915189269799, 44.52797107432277], [-71.62984290252464, 44.528846200334854], [-71.63046626490548, 44.52982176200125], [-71.63157748036528, 44.531987220888375], [-71.63066603914936, 44.53222099020818], [-71.62775428320252, 44.5328199004391], [-71.62759052568984, 44.53352566078821], [-71.62752030010766, 44.534265990107784], [-71.62801780763212, 44.53588068708279], [-71.62844393257241, 44.536773918439714], [-71.62890056322296, 44.53754618544135], [-71.62956097021065, 44.53901421809625], [-71.62990682086652, 44.54017613658971], [-71.63043099425946, 44.54137342296243], [-71.63088992799732, 44.54202444793318], [-71.63160203209249, 44.542738490229546], [-71.63316298598383, 44.543905134920806], [-71.634299324755, 44.54460295156205], [-71.63505611786114, 44.54494016055568], [-71.63695898064188, 44.54596177414549], [-71.63862086195628, 44.546772266817236], [-71.64052878214656, 44.54752441561333], [-71.64180865590305, 44.5481089851224], [-71.64421421289899, 44.549471994556065], [-71.64831971597981, 44.551645659451104], [-71.64885037159743, 44.55199414359113], [-71.64983059514067, 44.55248826584486], [-71.65062183606345, 44.553014306954175], [-71.65126213302042, 44.553552414812195], [-71.65169398812726, 44.554155949426985], [-71.65204536744903, 44.55504166202118], [-71.65215757569054, 44.555608550619006], [-71.65209275688082, 44.55606601767239], [-71.65183121547994, 44.55646103534946], [-71.65124069949853, 44.55681258273898], [-71.6506335359042, 44.557042720129026], [-71.64931850851916, 44.5573403785609], [-71.64657917428279, 44.557725805901555], [-71.64571837378722, 44.55791313663467], [-71.64515338808884, 44.55813211317372], [-71.64460235761135, 44.558430599729164], [-71.64443957267703, 44.55859760125464], [-71.64358700390541, 44.560078697738206], [-71.6433851467264, 44.560918722694886], [-71.64314258084711, 44.56136113770831], [-71.64308088366852, 44.561683837893455], [-71.64379151717348, 44.5620061474036], [-71.64421054505118, 44.5623058590669], [-71.64464549218054, 44.56278750355649], [-71.64536049265017, 44.56342631156162], [-71.64594269009594, 44.56412462801383], [-71.64746511399166, 44.56551744816953], [-71.64961658688036, 44.56704331764493], [-71.65062355147796, 44.567691207034976], [-71.65243484180031, 44.568702508730006], [-71.65373469743584, 44.56929888538218], [-71.65658364077711, 44.570224276345385], [-71.66214604699093, 44.57112433708227], [-71.6700744802802, 44.57193529979984], [-71.67214885452283, 44.57251153335727], [-71.68052386267566, 44.564483909370146], [-71.6888724447392, 44.5563631170078], [-71.69799570370971, 44.54760301747347], [-71.70711621769443, 44.53884215607778], [-71.70355577590401, 44.53678631573709], [-71.69244017382418, 44.53079050567354], [-71.68132685944032, 44.52479362440069], [-71.67196383850532, 44.51979601390062], [-71.66188729510642, 44.51420950411232], [-71.64935803634933, 44.50716926403806], [-71.63683180202919, 44.500127664426934], [-71.62518983694595, 44.49432681200335], [-71.6135501898355, 44.48852478556178]]]]}}, {"type": "Feature", "properties": {"OBJECT_ID": 168, "County": "Essex", "RPC": "NVDA", "Municipal_Name": "Guildhall ", "GEO_ID": "5000930775", "District_Name": "Agricultural District", "Abbreviated_District_Name": "Agr", "District_Type": "Mixed with Residential", "Bylaw_Date": null, "Elderly_Housing_District": "No", "District_Mapped": "Yes", "Overlay_District": "No", "Base_Density": null, "GIS_ID": null, "Last_Update": null, "Shape_Length": 31648.996730288727, "Shape_Area": 4567411.1038384065, "F1F_Allowance": "Permitted", "F1F_Front_Setback": 50.0, "F1F_Side_Setback": 50.0, "F1F_Rear_Setback": 50.0, "F1F_Frontage": 500.0, "F1F_Max_Height": null, "F1F_Max_Stories": null, "F1F_Min_Lot_Size": 25.0, "F1F_Max_Lot_Building_Coverage": null, "F1F_Max_Lot_Impervious_Coverage": null, "F1F_Min_Parking_Spaces": 2.0, "F1F_Elderly_Housing_Only": null, "F1F_Affordable_Housing_Only": null, "F2F_Allowance": "Prohibited", "F2F_Front_Setback": null, "F2F_Side_Setback": null, "F2F_Rear_Setback": null, "F2F_Frontage": null, "F2F_Max_Density": null, "F2F_Max_Height": null, "F2F_Max_Stories": null, "F2F_Min_Lot_Size": null, "F2F_Max_Lot_Building_Coverage": null, "F2F_Max_Lot_Impervious_Coverage": null, "F2F_Min_Parking_Spaces_per_1BR": null, "F2F_Min_Parking_Spaces_per_mult_BR": null, "F2F_Elderly_Housing_Only": null, "F2F_Affordable_Housing_Only": null, "F3F_Allowance": "Prohibited", "F3F_Front_Setback": null, "F3F_Side_Setback": null, "F3F_Rear_Setback": null, "F3F_Frontage": null, "F3F_Max_Density": null, "F3F_Max_Height": null, "F3F_Max_Stories": null, "F3F_Min_Lot_Size": null, "F3F_Max_Lot_Building_Coverage": null, "F3F_Max_Lot_Impervious_Coverage": null, "F3F_Min_Parking_Spaces_per_1BR": null, "F3F_Min_Parking_Spaces_per_mult_BR": null, "F3F_Affordable_Housing_Only": null, "F3F_Proximity_to_Public_Transit_Required": null, "F3F_Connection_to_Sewage/Water_Required": null, "F4F_Allowance": "Prohibited", "F4F_Front_Setback": null, "F4F_Side_Setback": null, "F4F_Rear_Setback": null, "F4F_Frontage": null, "F1F_Max_Density": null, "F4F_Max_Density": null, "F4F_Max_Height": null, "F4F_Max_Stories": null, "F4F_Min_Lot_Size": null, "F4F_Max_Lot_Building_Coverage": null, "F4F_Max_Lot_Impervious_Coverage": null, "F4F_Min_Parking_Spaces_per_1BR": null, "F4F_Min_Parking_Spaces_per_mult_BR": null, "F3F_Elderly_Housing_Only": null, "F4F_Elderly_Housing_Only": null, "F4F_Affordable_Housing_Only": null, "F4F_Proximity_to_Public_Transit_Required": null, "F4F_Connection_to_Sewage/Water_Required": null, "ADU_Allowance": "Allowed/Conditional", "ADU_Elderly_Housing_Only": "No", "ADU_Max_Size_as_Percent_of_Primary_Strcture": 50.0, "ADU_Max_Size_in_sq_ft": 1500.0, "ADU_Min_Lot_Size": 25.0, "ADU_Max_Bedrooms": 1.0, "ADU_Min_Parking_Spaces": 2.0, "ADU_Owner_Occupancy_Required": "Yes", "ADU_Renter_Occupancy_Prohibited": "No", "ADU_Employee_or_Family_Occupancy_Required": "No", "ADU_Restricted_to_Primary_Structure": "No", "Affordable_Housing_Allowance": "Allowed/Conditional", "Affordable_Housing_District": "No", "Affordable_Housing_Elderly_Only": "No", "Affordable_Housing_Min_Lot_Size": 25.0, "Affordable_Housing_Max_Density": null, "Affordable_Housing_Min_Parking_Spaces_per_mult_BR": 2.0, "Affordable_Housing_Max_Units_per_Building": null, "Affordable_Housing_Min_Parking_Spaces_per_1BR": 2.0, "PRD_Allowance": "Not Mentioned", "PRD_Max_Density": null, "PRD_Max_Units": null, "PRD_Min_Lot_Size": null, "PRD_Mobile_or_Manufactured_Home_Park": null, "PUD_Allowance": "Yes", "PUD_Required_with_Subdivision": "No", "PUD_Requires_Land_Conservation": "Yes", "PUD_Threshold_Number": null, "Notes": "None", "FIPS6": null}, "geometry": {"type": "MultiPolygon", "coordinates": [[[[-71.5904935358332, 44.57397333772379], [-71.58810672926764, 44.574677350098156], [-71.58860570260478, 44.5751870796249], [-71.58953507751194, 44.57584907036265], [-71.59006996246153, 44.57645338875904], [-71.59054555932892, 44.57720523945539], [-71.59097678452598, 44.578811634008446], [-71.59117645780883, 44.581708352166366], [-71.59171554953585, 44.58359179735584], [-71.59167144934632, 44.58493105465522], [-71.59178843331946, 44.585221661304665], [-71.59194537963681, 44.58539147496921], [-71.59279094498807, 44.586012238001416], [-71.59362571145117, 44.586706943426044], [-71.5937820320849, 44.58691040868493], [-71.59377886460287, 44.587078680074605], [-71.59359217168316, 44.587487539757596], [-71.59272111602387, 44.58871785710661], [-71.59162170341564, 44.58975641440564], [-71.59285189942834, 44.59040447030898], [-71.59448497457362, 44.589105090670074], [-71.59473228361743, 44.58897955757809], [-71.5955851528631, 44.588213565418236], [-71.59599100444547, 44.58767216462698], [-71.59617041024968, 44.58714878505932], [-71.59619822544508, 44.58667107566354], [-71.59613596038076, 44.586475247994194], [-71.5950251809665, 44.58542784101344], [-71.59453611735279, 44.584884575127525], [-71.59404549812099, 44.58392390322687], [-71.59371403576725, 44.58201553758127], [-71.59368848540893, 44.580870840693585], [-71.59344362329789, 44.57936723161495], [-71.5933199347645, 44.577932108139784], [-71.59278718021538, 44.57571212535124], [-71.59241236350198, 44.575109361762095], [-71.59157828015577, 44.57438772384917], [-71.59083853170146, 44.57415843220639], [-71.5904935358332, 44.57397333772379]]], [[[-71.59387086377282, 44.56838609219556], [-71.59298088781499, 44.569205433427115], [-71.59325574335813, 44.5701746991167], [-71.59530762204979, 44.57190580917765], [-71.59673269480663, 44.57275426783481], [-71.5973831551561, 44.57322502122483], [-71.59796892050716, 44.57413273502626], [-71.59832882126535, 44.57503155140657], [-71.59853919309832, 44.57586834294292], [-71.59879056222556, 44.57753357400109], [-71.59875895492912, 44.58022610156484], [-71.59908847836722, 44.58325195912731], [-71.59926940944835, 44.583650884036274], [-71.60054498144943, 44.58495564440935], [-71.60086443875089, 44.58550399466161], [-71.60094379502048, 44.58579423176849], [-71.60083248462523, 44.58670873043026], [-71.60059834366051, 44.58764224987568], [-71.5996682332902, 44.58951833324617], [-71.59856590447964, 44.59102922726706], [-71.59718354380755, 44.592669712841555], [-71.59877948924037, 44.59350215574391], [-71.59962606085043, 44.59277624807102], [-71.60078904755804, 44.59154867010407], [-71.60171335007729, 44.59048710332991], [-71.60223558963689, 44.58976502556356], [-71.60299544105939, 44.588425863716544], [-71.60328141646224, 44.5872370147136], [-71.60330138940938, 44.58616680641036], [-71.60319100497206, 44.585519474975285], [-71.60290794913456, 44.58453389336122], [-71.60276265493088, 44.5842430279456], [-71.60186326624311, 44.58347371856265], [-71.60152899794953, 44.582709802355964], [-71.60148922098963, 44.58181405622532], [-71.60131457302259, 44.58107859255722], [-71.60125067860258, 44.58046536287232], [-71.60140140347677, 44.57945699171333], [-71.60142315028457, 44.578797454942965], [-71.6014111254457, 44.57792890283831], [-71.60128697276933, 44.577012153565015], [-71.60124673514119, 44.57513351792092], [-71.60096816522595, 44.57391234976186], [-71.60067150419958, 44.57315552122817], [-71.60009751481023, 44.57212002295854], [-71.59947693299065, 44.57156205355912], [-71.59857437550474, 44.570974455233255], [-71.59828652564273, 44.57072971444652], [-71.59719382624917, 44.57016808758605], [-71.59692064996823, 44.57035908806257], [-71.59614812236725, 44.570035966927584], [-71.59583267784699, 44.56968101913819], [-71.59534328640554, 44.56944768898951], [-71.59502876426758, 44.56880435157946], [-71.59431134711446, 44.56873045413857], [-71.59387086377282, 44.56838609219556]]], [[[-71.5686184449883, 44.56275011707223], [-71.56710637354537, 44.56280626126282], [-71.56524545427017, 44.562983477410334], [-71.56488956615723, 44.56394843988344], [-71.56486865694872, 44.56405594642758], [-71.5649697556123, 44.564184854307456], [-71.56547622983264, 44.564290835254866], [-71.56723390116939, 44.56446300314831], [-71.56788109346464, 44.564597287098515], [-71.56888684912442, 44.564694702639315], [-71.56935774517414, 44.5646926022548], [-71.57035357235378, 44.56481683642951], [-71.57284141646556, 44.565218247676825], [-71.57318952883139, 44.56523512390051], [-71.57361386932898, 44.564714179237505], [-71.57393901083452, 44.56446435742641], [-71.57303100215034, 44.56382778016214], [-71.57240631388905, 44.56357864556377], [-71.5716959979675, 44.563212722118124], [-71.5707924086242, 44.562961312196904], [-71.5686184449883, 44.56275011707223]]], [[[-71.60980081860828, 44.554282708077224], [-71.60844648869363, 44.55463553032402], [-71.60709693659868, 44.554804481428654], [-71.60468486071979, 44.55489597877007], [-71.60427065084957, 44.55489203427064], [-71.60388618806907, 44.55480758505105], [-71.60303530287948, 44.55448979389996], [-71.60333529116917, 44.55506488436735], [-71.60362951609603, 44.55594959581527], [-71.60366203301548, 44.556730829297344], [-71.6034455936958, 44.55857502443567], [-71.60276035765544, 44.55861113443023], [-71.60252682427395, 44.559151001446274], [-71.60109389257325, 44.561503848575484], [-71.59981843119257, 44.56328521205745], [-71.60041640972463, 44.563662489450444], [-71.60146791248637, 44.564514906158884], [-71.60165561828107, 44.564339153812746], [-71.60253816795597, 44.562967500090785], [-71.60315440324936, 44.56176626342135], [-71.60357783753646, 44.56179008919584], [-71.60442153922222, 44.56197940825453], [-71.60488333739133, 44.56200999783823], [-71.60712913027078, 44.561759843413746], [-71.61053382982557, 44.56113364767711], [-71.60935659637872, 44.56045392059382], [-71.60917119245923, 44.560263749674995], [-71.60865347354822, 44.55906025370115], [-71.60816622036812, 44.55824551662357], [-71.61076030381138, 44.55751050711955], [-71.61144002331494, 44.557283741747305], [-71.61171181730822, 44.557091774694214], [-71.6114251085669, 44.55699980208624], [-71.61112808873347, 44.55676809867145], [-71.61074116833278, 44.55630665158806], [-71.61057632775888, 44.55605600272525], [-71.61035394255924, 44.55535375705584], [-71.60989734195694, 44.55458870257349], [-71.60980081860828, 44.554282708077224]]], [[[-71.58743222344202, 44.52223905509908], [-71.58584042872171, 44.522401901886205], [-71.58460445148742, 44.52269564112379], [-71.58331975488606, 44.52316752278538], [-71.58268219620282, 44.523498712364336], [-71.58118957457576, 44.52449572528789], [-71.57987718185029, 44.52562780967578], [-71.57913918901758, 44.526565627211625], [-71.5787038126853, 44.52725857585663], [-71.57685321790598, 44.52957114132043], [-71.57531600970664, 44.53100823423631], [-71.57409575352524, 44.53239126922569], [-71.57336517697578, 44.53358774932139], [-71.57287268652759, 44.5347326122095], [-71.57230696092184, 44.53629660633742], [-71.57199119093481, 44.536785136066925], [-71.57181397720379, 44.537200367243294], [-71.57184513217193, 44.53759947209301], [-71.57215038356117, 44.53827099815652], [-71.57296324501526, 44.53925444628947], [-71.57396336183609, 44.540166821785704], [-71.57574078059449, 44.541528597303866], [-71.57798167205151, 44.5429678894506], [-71.58132642766648, 44.54484811332095], [-71.58118735973444, 44.544129639299804], [-71.5811922788815, 44.54383324386784], [-71.58134964373463, 44.54229849229744], [-71.5817511594461, 44.53967438116087], [-71.58200778034252, 44.538969151355126], [-71.58258971198289, 44.53568631864103], [-71.58330541747907, 44.53342193795115], [-71.58387500503673, 44.5325846085787], [-71.5856026611468, 44.52949336172683], [-71.58752897398695, 44.52690905695925], [-71.58844752258126, 44.526034225429896], [-71.5890095398095, 44.525648200697006], [-71.58977383584667, 44.52498765033159], [-71.59171515315765, 44.523764322367214], [-71.59197270820799, 44.52356436756969], [-71.59235978587331, 44.52313397028529], [-71.5922900101272, 44.523131988430954], [-71.59219673038906, 44.52298239811084], [-71.5911335295789, 44.52286090887973], [-71.58968778869139, 44.5224653907161], [-71.58892841398007, 44.5223343348759], [-71.58743222344202, 44.52223905509908]]], [[[-71.58794634797837, 44.498175786975025], [-71.58739625884992, 44.49823087977714], [-71.58657755004705, 44.49846543017686], [-71.58604822900053, 44.49880047186818], [-71.58580318409368, 44.499048515425244], [-71.58568639687361, 44.499336282811825], [-71.58568763962768, 44.499634982589974], [-71.58605825123391, 44.50131408966033], [-71.58637677550838, 44.50210255808217], [-71.58638552860546, 44.502902856063386], [-71.58699046238786, 44.503848493252725], [-71.58753936669146, 44.50421141571929], [-71.5881716737839, 44.50473429282359], [-71.58850954302306, 44.505204329266284], [-71.58866717689952, 44.505708744260495], [-71.58870001212817, 44.50606304214331], [-71.58849799195373, 44.506478102620605], [-71.58804262753524, 44.506873142101895], [-71.58733729771106, 44.50706333402776], [-71.58700383404074, 44.50707632771762], [-71.5864281164701, 44.50692287367458], [-71.58567447261134, 44.50644662534578], [-71.58547367161901, 44.50625152940526], [-71.58514688584758, 44.505749353167104], [-71.5847833816163, 44.5046447338265], [-71.5841654416261, 44.503270519626525], [-71.5837339110898, 44.50287432394467], [-71.58246734286152, 44.50201749057321], [-71.58194575290162, 44.501864538652846], [-71.58137713647807, 44.50179148089023], [-71.5810175114896, 44.50165467730018], [-71.58068161359773, 44.50159239784475], [-71.57924955020454, 44.50142013097409], [-71.5788712878079, 44.501405203344156], [-71.57822133043194, 44.50148329213838], [-71.57758566776218, 44.501707375913256], [-71.57702586179943, 44.5021284364393], [-71.5768342635464, 44.50241261928558], [-71.57667757787681, 44.5031137551082], [-71.57679346759181, 44.50382797912939], [-71.57740949643706, 44.50469717698158], [-71.57779439537426, 44.50503761322943], [-71.57823097765878, 44.50535563920578], [-71.58100189578232, 44.506882489034226], [-71.5817708795017, 44.507357004314734], [-71.58300326179823, 44.50833920098257], [-71.58373995539063, 44.50910304536831], [-71.5845571843827, 44.51029868917281], [-71.58487883671695, 44.51100960900047], [-71.58529044161254, 44.51288505157576], [-71.58560568309237, 44.51374179793537], [-71.58627705996258, 44.51469966834655], [-71.58724423985574, 44.515362199152825], [-71.58826411219634, 44.51584947239017], [-71.58903303682737, 44.51615330911285], [-71.590250288856, 44.51679396032952], [-71.59176197349649, 44.51776145664108], [-71.59275678431771, 44.51858335309049], [-71.59267608119512, 44.51623541583882], [-71.59247180587975, 44.51503449383767], [-71.59245300130826, 44.51399021822656], [-71.59223319707462, 44.51260727518024], [-71.59230312202888, 44.5113415271168], [-71.59202887695561, 44.509324882095335], [-71.59196521759701, 44.50555204757597], [-71.59184151294413, 44.504062213935626], [-71.59192665402978, 44.50351737260887], [-71.59208331413059, 44.503182014842125], [-71.59221059533688, 44.50238832521033], [-71.59246776977201, 44.50154793916707], [-71.59219330205325, 44.50157288657479], [-71.59179078795977, 44.50151614077107], [-71.59136846445546, 44.50139074858702], [-71.59077053376303, 44.50106750056252], [-71.59029924376782, 44.500614317562885], [-71.58988344755608, 44.500078241108405], [-71.58961289156572, 44.49955816728031], [-71.58957338774604, 44.499050465086384], [-71.58965458124416, 44.498487027715434], [-71.5895321015149, 44.49833423113694], [-71.58903018958195, 44.49825076390197], [-71.58794634797837, 44.498175786975025]]], [[[-71.60614392258037, 44.48487343038204], [-71.60459279199146, 44.485209108426986], [-71.60369762949048, 44.48531376987339], [-71.60239513707074, 44.48538687455579], [-71.60121186006339, 44.48554720907255], [-71.60000374646161, 44.48592431033178], [-71.59965898619011, 44.48606684399148], [-71.59859764644943, 44.48694428711878], [-71.59838776050219, 44.487185435256045], [-71.59825767308674, 44.48742019261554], [-71.5979000528442, 44.48907369598599], [-71.59879203639495, 44.488633058331494], [-71.59955488984885, 44.487548799791384], [-71.59998479413561, 44.48718899177657], [-71.60086751269152, 44.48676597383844], [-71.60236249563052, 44.48630814279377], [-71.60505544968468, 44.485686101798336], [-71.607135879228, 44.485311902914574], [-71.60614392258037, 44.48487343038204]]]]}}, {"type": "Feature", "properties": {"OBJECT_ID": 173, "County": "Essex", "RPC": "NVDA", "Municipal_Name": "Guildhall ", "GEO_ID": "5000930775", "District_Name": "Rural Lands Two", "Abbreviated_District_Name": "Rl-2", "District_Type": "Mixed with Residential", "Bylaw_Date": null, "Elderly_Housing_District": "No", "District_Mapped": "Yes", "Overlay_District": "No", "Base_Density": null, "GIS_ID": null, "Last_Update": null, "Shape_Length": 27470.332693623594, "Shape_Area": 4781973.276464351, "F1F_Allowance": "Permitted", "F1F_Front_Setback": null, "F1F_Side_Setback": 25.0, "F1F_Rear_Setback": 25.0, "F1F_Frontage": 300.0, "F1F_Max_Height": null, "F1F_Max_Stories": null, "F1F_Min_Lot_Size": 2.0, "F1F_Max_Lot_Building_Coverage": null, "F1F_Max_Lot_Impervious_Coverage": null, "F1F_Min_Parking_Spaces": 2.0, "F1F_Elderly_Housing_Only": null, "F1F_Affordable_Housing_Only": null, "F2F_Allowance": "Permitted", "F2F_Front_Setback": null, "F2F_Side_Setback": 25.0, "F2F_Rear_Setback": 25.0, "F2F_Frontage": 300.0, "F2F_Max_Density": null, "F2F_Max_Height": null, "F2F_Max_Stories": null, "F2F_Min_Lot_Size": null, "F2F_Max_Lot_Building_Coverage": null, "F2F_Max_Lot_Impervious_Coverage": null, "F2F_Min_Parking_Spaces_per_1BR": 2.0, "F2F_Min_Parking_Spaces_per_mult_BR": 2.0, "F2F_Elderly_Housing_Only": "No", "F2F_Affordable_Housing_Only": "No", "F3F_Allowance": "Public Hearing", "F3F_Front_Setback": null, "F3F_Side_Setback": 25.0, "F3F_Rear_Setback": 25.0, "F3F_Frontage": 300.0, "F3F_Max_Density": null, "F3F_Max_Height": null, "F3F_Max_Stories": null, "F3F_Min_Lot_Size": null, "F3F_Max_Lot_Building_Coverage": null, "F3F_Max_Lot_Impervious_Coverage": null, "F3F_Min_Parking_Spaces_per_1BR": 2.0, "F3F_Min_Parking_Spaces_per_mult_BR": 2.0, "F3F_Affordable_Housing_Only": "No", "F3F_Proximity_to_Public_Transit_Required": null, "F3F_Connection_to_Sewage/Water_Required": null, "F4F_Allowance": "Public Hearing", "F4F_Front_Setback": null, "F4F_Side_Setback": 25.0, "F4F_Rear_Setback": 25.0, "F4F_Frontage": 300.0, "F1F_Max_Density": null, "F4F_Max_Density": null, "F4F_Max_Height": null, "F4F_Max_Stories": null, "F4F_Min_Lot_Size": null, "F4F_Max_Lot_Building_Coverage": null, "F4F_Max_Lot_Impervious_Coverage": null, "F4F_Min_Parking_Spaces_per_1BR": 2.0, "F4F_Min_Parking_Spaces_per_mult_BR": 2.0, "F3F_Elderly_Housing_Only": "No", "F4F_Elderly_Housing_Only": "No", "F4F_Affordable_Housing_Only": "No", "F4F_Proximity_to_Public_Transit_Required": null, "F4F_Connection_to_Sewage/Water_Required": null, "ADU_Allowance": "Allowed/Conditional", "ADU_Elderly_Housing_Only": "No", "ADU_Max_Size_as_Percent_of_Primary_Strcture": 50.0, "ADU_Max_Size_in_sq_ft": 1500.0, "ADU_Min_Lot_Size": null, "ADU_Max_Bedrooms": 1.0, "ADU_Min_Parking_Spaces": 2.0, "ADU_Owner_Occupancy_Required": "Yes", "ADU_Renter_Occupancy_Prohibited": "No", "ADU_Employee_or_Family_Occupancy_Required": "No", "ADU_Restricted_to_Primary_Structure": "No", "Affordable_Housing_Allowance": "Allowed/Conditional", "Affordable_Housing_District": "No", "Affordable_Housing_Elderly_Only": "No", "Affordable_Housing_Min_Lot_Size": null, "Affordable_Housing_Max_Density": null, "Affordable_Housing_Min_Parking_Spaces_per_mult_BR": 2.0, "Affordable_Housing_Max_Units_per_Building": null, "Affordable_Housing_Min_Parking_Spaces_per_1BR": 2.0, "PRD_Allowance": "Not Mentioned", "PRD_Max_Density": null, "PRD_Max_Units": null, "PRD_Min_Lot_Size": null, "PRD_Mobile_or_Manufactured_Home_Park": null, "PUD_Allowance": "Yes", "PUD_Required_with_Subdivision": "No", "PUD_Requires_Land_Conservation": "Yes", "PUD_Threshold_Number": null, "Notes": "None", "FIPS6": null}, "geometry": {"type": "MultiPolygon", "coordinates": [[[[-71.59325574335813, 44.5701746991167], [-71.59347076031747, 44.570932924976695], [-71.59151396554637, 44.57184547794285], [-71.5918958266064, 44.57210686440242], [-71.59299790706503, 44.572694319196046], [-71.59244985421385, 44.573182219253034], [-71.59204729017185, 44.57328990083042], [-71.5904935358332, 44.57397333772379], [-71.59083853170146, 44.57415843220639], [-71.59157828015577, 44.57438772384917], [-71.59241236350198, 44.575109361762095], [-71.59278718021538, 44.57571212535124], [-71.5933199347645, 44.577932108139784], [-71.59344362329789, 44.57936723161495], [-71.59368848540893, 44.580870840693585], [-71.59371403576725, 44.58201553758127], [-71.59404549812099, 44.58392390322687], [-71.59453611735279, 44.584884575127525], [-71.5950251809665, 44.58542784101344], [-71.59613596038076, 44.586475247994194], [-71.59619822544508, 44.58667107566354], [-71.59617041024968, 44.58714878505932], [-71.59599100444547, 44.58767216462698], [-71.5955851528631, 44.588213565418236], [-71.59473228361743, 44.58897955757809], [-71.59448497457362, 44.589105090670074], [-71.59285189942834, 44.59040447030898], [-71.59398559661355, 44.59100166909295], [-71.59718354380755, 44.592669712841555], [-71.59856590447964, 44.59102922726706], [-71.5996682332902, 44.58951833324617], [-71.60059834366051, 44.58764224987568], [-71.60083248462523, 44.58670873043026], [-71.60094379502048, 44.58579423176849], [-71.60086443875089, 44.58550399466161], [-71.60054498144943, 44.58495564440935], [-71.59926940944835, 44.583650884036274], [-71.59908847836722, 44.58325195912731], [-71.59875895492912, 44.58022610156484], [-71.59879056222556, 44.57753357400109], [-71.59853919309832, 44.57586834294292], [-71.59832882126535, 44.57503155140657], [-71.59796892050716, 44.57413273502626], [-71.5973831551561, 44.57322502122483], [-71.59673269480663, 44.57275426783481], [-71.59530762204979, 44.57190580917765], [-71.59325574335813, 44.5701746991167]]], [[[-71.607135879228, 44.485311902914574], [-71.60505544968468, 44.485686101798336], [-71.60236249563052, 44.48630814279377], [-71.60086751269152, 44.48676597383844], [-71.59998479413561, 44.48718899177657], [-71.59955488984885, 44.487548799791384], [-71.59879203639495, 44.488633058331494], [-71.5979000528442, 44.48907369598599], [-71.59737831285891, 44.49030386695251], [-71.59716092959005, 44.49061424817631], [-71.59593556997179, 44.491968778013444], [-71.5953937875683, 44.49280026697314], [-71.59507266214626, 44.49355727485594], [-71.594919191394, 44.49423704368351], [-71.59490283261589, 44.495075120697514], [-71.59472206914049, 44.49600702027155], [-71.59487511013603, 44.4966559200484], [-71.59477909644228, 44.497574637375024], [-71.5944394574248, 44.499400080125554], [-71.59446721055242, 44.49948363570532], [-71.59461704098467, 44.499544039762114], [-71.59463797685424, 44.49973499432339], [-71.59452486667186, 44.50033237808198], [-71.59435405712658, 44.500619725065654], [-71.59375299342855, 44.50129360415413], [-71.59305088043669, 44.5015171558477], [-71.59246776977201, 44.50154793916707], [-71.59221059533688, 44.50238832521033], [-71.59208331413059, 44.503182014842125], [-71.59192665402978, 44.50351737260887], [-71.59184151294413, 44.504062213935626], [-71.59196521759701, 44.50555204757597], [-71.59202887695561, 44.509324882095335], [-71.59230312202888, 44.5113415271168], [-71.59223319707462, 44.51260727518024], [-71.59245300130826, 44.51399021822656], [-71.59247180587975, 44.51503449383767], [-71.59267608119512, 44.51623541583882], [-71.59275678431771, 44.51858335309049], [-71.59322202193906, 44.519109376101326], [-71.59333331404666, 44.51937862236759], [-71.59352267056943, 44.51957019166601], [-71.59352511452698, 44.51968027628732], [-71.59405919555684, 44.52038691363771], [-71.5941980712261, 44.521084568628794], [-71.59407307363966, 44.52190207221678], [-71.59389698651582, 44.522257769094615], [-71.59365062780846, 44.52231836087504], [-71.59357624537127, 44.52255616514127], [-71.59321129447913, 44.52302024608621], [-71.59301778458801, 44.523152620302184], [-71.59235978587331, 44.52313397028529], [-71.59197270820799, 44.52356436756969], [-71.59171515315765, 44.523764322367214], [-71.58977383584667, 44.52498765033159], [-71.5890095398095, 44.525648200697006], [-71.58844752258126, 44.526034225429896], [-71.58752897398695, 44.52690905695925], [-71.5856026611468, 44.52949336172683], [-71.58387500503673, 44.5325846085787], [-71.58330541747907, 44.53342193795115], [-71.58258971198289, 44.53568631864103], [-71.58200778034252, 44.538969151355126], [-71.5817511594461, 44.53967438116087], [-71.58134964373463, 44.54229849229744], [-71.5811922788815, 44.54383324386784], [-71.58118735973444, 44.544129639299804], [-71.58132642766648, 44.54484811332095], [-71.58181857390393, 44.545103117842245], [-71.58312954559206, 44.545634533358566], [-71.58409934086394, 44.546128367966645], [-71.58467991909919, 44.54629285189262], [-71.58521663883464, 44.546309033200835], [-71.5857636871482, 44.54645326088418], [-71.58690889293982, 44.546950548178785], [-71.58907390755172, 44.54850069662743], [-71.59079727900996, 44.549559073328155], [-71.5919456780409, 44.55038373043364], [-71.59260229304748, 44.55079391876528], [-71.59371253158291, 44.55132343637336], [-71.5948212748071, 44.552031658162385], [-71.59667260912423, 44.55343923499055], [-71.59774282213202, 44.553941848559234], [-71.59816075577571, 44.55437666683542], [-71.59833162044599, 44.55490186814592], [-71.5983172475526, 44.55529466469803], [-71.59821561157925, 44.555942714143434], [-71.59766583889393, 44.55811702070257], [-71.59764716697374, 44.558518693221195], [-71.59731870293683, 44.559304796831285], [-71.59657588861252, 44.56049538457079], [-71.59528058342401, 44.5618721056774], [-71.59511142550609, 44.562317222827296], [-71.5949798476241, 44.56247393833924], [-71.59478730251458, 44.56254386787016], [-71.59471180046896, 44.56264387822535], [-71.59614540065097, 44.56349444513871], [-71.59626350757331, 44.563421699671146], [-71.59694693456409, 44.562962998163044], [-71.59740137387608, 44.56255733296498], [-71.59839662443122, 44.563012418426844], [-71.59944558919126, 44.56315570079289], [-71.59981843119257, 44.56328521205745], [-71.60109389257325, 44.561503848575484], [-71.60252682427395, 44.559151001446274], [-71.60276035765544, 44.55861113443023], [-71.6034455936958, 44.55857502443567], [-71.60366203301548, 44.556730829297344], [-71.60362951609603, 44.55594959581527], [-71.60333529116917, 44.55506488436735], [-71.60303530287948, 44.55448979389996], [-71.60278138391992, 44.55396900024832], [-71.60228359569243, 44.55339875210868], [-71.60097916337878, 44.552161050743976], [-71.59996631961592, 44.551444495819666], [-71.59881743023305, 44.550955520841356], [-71.59757657367244, 44.5503512063915], [-71.59617110940985, 44.549489477917724], [-71.59483284079825, 44.54856105842413], [-71.59345869003354, 44.547039850153105], [-71.5922655067369, 44.54591083138885], [-71.5914460961228, 44.54543168689978], [-71.5893914000608, 44.5445636141386], [-71.5866125530305, 44.54366156685014], [-71.58603754676022, 44.543204946321325], [-71.58592753638115, 44.5430490421417], [-71.5858306330895, 44.54269803241294], [-71.58586362211852, 44.54145290921027], [-71.58624872315887, 44.539995437870466], [-71.58674168169453, 44.53866563017457], [-71.58753625377703, 44.53675222599251], [-71.58772653058679, 44.53606663394588], [-71.58847848226398, 44.53444930118914], [-71.58877411138992, 44.533656799409], [-71.5897079287842, 44.531859084628245], [-71.59022057567152, 44.531041456871485], [-71.59087269528072, 44.530332795410054], [-71.59136970059096, 44.52989231487353], [-71.5916578589193, 44.52955113703441], [-71.59193902831947, 44.52906167958976], [-71.59224601482381, 44.528720658017], [-71.59316187281617, 44.52800746012336], [-71.59525388915456, 44.526785338432035], [-71.59634936886079, 44.526026456386695], [-71.59708533965933, 44.5253656185794], [-71.59735405977807, 44.52505795078687], [-71.59767381441185, 44.52450816574696], [-71.59804525817162, 44.52367584740379], [-71.59819539603616, 44.52313138333149], [-71.5982966316749, 44.521542236171406], [-71.59811574465851, 44.519351118267174], [-71.5978458369599, 44.51827698815965], [-71.59784798646622, 44.51606081830183], [-71.59766555941206, 44.514967323910746], [-71.59746454257936, 44.51434631067032], [-71.59726041666934, 44.51313192589992], [-71.59711020730617, 44.50894169770398], [-71.59692730984602, 44.50757153641396], [-71.5969379630501, 44.50697885305212], [-71.5968094078405, 44.50575168855439], [-71.59707026277684, 44.50380734310376], [-71.597597246906, 44.50224266909962], [-71.59794479189611, 44.500710023242995], [-71.59830328362075, 44.499615322833115], [-71.59840405312357, 44.49872033406863], [-71.59904279851307, 44.496691870567865], [-71.599209180193, 44.49581095674982], [-71.59951332424382, 44.495119922413124], [-71.6009214023701, 44.492694337716216], [-71.60199682558128, 44.49149841461257], [-71.60385809322936, 44.49003348774781], [-71.60443841584684, 44.48968177464102], [-71.60534864887931, 44.4892993922592], [-71.60595334358038, 44.48916345371814], [-71.60771773715827, 44.48890335958211], [-71.60910372201884, 44.48875431256112], [-71.61312491390869, 44.488588752933516], [-71.6135501898355, 44.48852478556178], [-71.607135879228, 44.485311902914574]]]]}}, {"type": "Feature", "properties": {"OBJECT_ID": 170, "County": "Essex", "RPC": "NVDA", "Municipal_Name": "Guildhall ", "GEO_ID": "5000930775", "District_Name": "Industrial District", "Abbreviated_District_Name": "Ind", "District_Type": "Nonresidential", "Bylaw_Date": null, "Elderly_Housing_District": "No", "District_Mapped": "Yes", "Overlay_District": "No", "Base_Density": null, "GIS_ID": null, "Last_Update": null, "Shape_Length": 3237.7274563908036, "Shape_Area": 599801.3218404058, "F1F_Allowance": "Prohibited", "F1F_Front_Setback": null, "F1F_Side_Setback": null, "F1F_Rear_Setback": null, "F1F_Frontage": null, "F1F_Max_Height": null, "F1F_Max_Stories": null, "F1F_Min_Lot_Size": null, "F1F_Max_Lot_Building_Coverage": null, "F1F_Max_Lot_Impervious_Coverage": null, "F1F_Min_Parking_Spaces": null, "F1F_Elderly_Housing_Only": null, "F1F_Affordable_Housing_Only": null, "F2F_Allowance": "Prohibited", "F2F_Front_Setback": null, "F2F_Side_Setback": null, "F2F_Rear_Setback": null, "F2F_Frontage": null, "F2F_Max_Density": null, "F2F_Max_Height": null, "F2F_Max_Stories": null, "F2F_Min_Lot_Size": null, "F2F_Max_Lot_Building_Coverage": null, "F2F_Max_Lot_Impervious_Coverage": null, "F2F_Min_Parking_Spaces_per_1BR": null, "F2F_Min_Parking_Spaces_per_mult_BR": null, "F2F_Elderly_Housing_Only": null, "F2F_Affordable_Housing_Only": null, "F3F_Allowance": "Prohibited", "F3F_Front_Setback": null, "F3F_Side_Setback": null, "F3F_Rear_Setback": null, "F3F_Frontage": null, "F3F_Max_Density": null, "F3F_Max_Height": null, "F3F_Max_Stories": null, "F3F_Min_Lot_Size": null, "F3F_Max_Lot_Building_Coverage": null, "F3F_Max_Lot_Impervious_Coverage": null, "F3F_Min_Parking_Spaces_per_1BR": null, "F3F_Min_Parking_Spaces_per_mult_BR": null, "F3F_Affordable_Housing_Only": null, "F3F_Proximity_to_Public_Transit_Required": null, "F3F_Connection_to_Sewage/Water_Required": null, "F4F_Allowance": "Prohibited", "F4F_Front_Setback": null, "F4F_Side_Setback": null, "F4F_Rear_Setback": null, "F4F_Frontage": null, "F1F_Max_Density": null, "F4F_Max_Density": null, "F4F_Max_Height": null, "F4F_Max_Stories": null, "F4F_Min_Lot_Size": null, "F4F_Max_Lot_Building_Coverage": null, "F4F_Max_Lot_Impervious_Coverage": null, "F4F_Min_Parking_Spaces_per_1BR": null, "F4F_Min_Parking_Spaces_per_mult_BR": null, "F3F_Elderly_Housing_Only": null, "F4F_Elderly_Housing_Only": null, "F4F_Affordable_Housing_Only": null, "F4F_Proximity_to_Public_Transit_Required": null, "F4F_Connection_to_Sewage/Water_Required": null, "ADU_Allowance": "Prohibited", "ADU_Elderly_Housing_Only": null, "ADU_Max_Size_as_Percent_of_Primary_Strcture": null, "ADU_Max_Size_in_sq_ft": null, "ADU_Min_Lot_Size": null, "ADU_Max_Bedrooms": null, "ADU_Min_Parking_Spaces": null, "ADU_Owner_Occupancy_Required": null, "ADU_Renter_Occupancy_Prohibited": null, "ADU_Employee_or_Family_Occupancy_Required": null, "ADU_Restricted_to_Primary_Structure": null, "Affordable_Housing_Allowance": "Prohibited", "Affordable_Housing_District": "No", "Affordable_Housing_Elderly_Only": null, "Affordable_Housing_Min_Lot_Size": null, "Affordable_Housing_Max_Density": null, "Affordable_Housing_Min_Parking_Spaces_per_mult_BR": null, "Affordable_Housing_Max_Units_per_Building": null, "Affordable_Housing_Min_Parking_Spaces_per_1BR": null, "PRD_Allowance": "Not Mentioned", "PRD_Max_Density": null, "PRD_Max_Units": null, "PRD_Min_Lot_Size": null, "PRD_Mobile_or_Manufactured_Home_Park": null, "PUD_Allowance": null, "PUD_Required_with_Subdivision": null, "PUD_Requires_Land_Conservation": null, "PUD_Threshold_Number": null, "Notes": "None", "FIPS6": null}, "geometry": {"type": "MultiPolygon", "coordinates": [[[[-71.60146791248637, 44.564514906158884], [-71.6022806325075, 44.565394773221826], [-71.60231720479409, 44.56649248967736], [-71.60138210672976, 44.56730973405116], [-71.60135848845877, 44.56764177322761], [-71.60087343286823, 44.569407678558555], [-71.60090442889548, 44.56976477409841], [-71.60228522394654, 44.56995972889542], [-71.60258403218322, 44.57009722266413], [-71.60338190789504, 44.57074438265638], [-71.60381431385544, 44.57129380436471], [-71.60415080450386, 44.571936558914096], [-71.60458485744788, 44.5723984758486], [-71.60710180043492, 44.5712645021654], [-71.60765208405856, 44.571047571339996], [-71.60865597710402, 44.570747426623306], [-71.60981401666531, 44.570260234292626], [-71.61096112534996, 44.569853713004676], [-71.6120928716323, 44.5692585359215], [-71.6115406633146, 44.56805499909334], [-71.61114562039418, 44.5675194248979], [-71.61026844763056, 44.5665753553391], [-71.60959158207243, 44.56600344439804], [-71.60820547768854, 44.564576555710445], [-71.60741654591718, 44.563956441716], [-71.60636237809551, 44.56342131912482], [-71.60523641663004, 44.562697004797066], [-71.60442153922222, 44.56197940825453], [-71.60357783753646, 44.56179008919584], [-71.60315440324936, 44.56176626342135], [-71.60253816795597, 44.562967500090785], [-71.60165561828107, 44.564339153812746], [-71.60146791248637, 44.564514906158884]]]]}}]}