{
"type": "FeatureCollection",
"name": "Lamoille_StoweVillage",
"crs": { "type": "name", "properties": { "name": "urn:ogc:def:crs:OGC:1.3:CRS84" } },
"features": [
{ "type": "Feature", "properties": { "OBJECT_ID": 609, "County": "Lamoille", "RPC": "LCPC", "Municipal_Name": "Stowe Village", "GEO_ID": null, "District_Name": "Stowe Village Pud", "Abbreviated_District_Name": "Vil Pud", "District_Type": "Overlay not Affecting Use", "Bylaw_Date": "2024-05-29T00:00:00", "Elderly_Housing_District": "No", "District_Mapped": "Yes", "Overlay_District": "Yes", "Base_Density": null, "Shape_Length": 4444.7236017792547, "Shape_Area": 396597.29425459635, "F1F_Allowance": "Overlay", "F1F_Front_Setback": null, "F1F_Side_Setback": null, "F1F_Rear_Setback": null, "F1F_Frontage": null, "F1F_Max_Height": null, "F1F_Max_Stories": null, "F1F_Min_Lot_Size": null, "F1F_Max_Lot_Building_Coverage": null, "F1F_Max_Lot_Impervious_Coverage": null, "F1F_Min_Parking_Spaces": null, "F2F_Allowance": "Overlay", "F2F_Front_Setback": null, "F2F_Side_Setback": null, "F2F_Rear_Setback": null, "F2F_Frontage": null, "F2F_Max_Density": null, "F2F_Max_Height": null, "F2F_Max_Stories": null, "F2F_Min_Lot_Size": null, "F2F_Max_Lot_Building_Coverage": null, "F2F_Max_Lot_Impervious_Coverage": null, "F2F_Min_Parking_Spaces_per_1BR": null, "F2F_Min_Parking_Spaces_per_mult_BR": null, "F2F_Elderly_Housing_Only": "No", "F2F_Affordable_Housing_Only": "No", "F3F_Allowance": "Overlay", "F3F_Front_Setback": null, "F3F_Side_Setback": null, "F3F_Rear_Setback": null, "F3F_Frontage": null, "F3F_Max_Density": null, "F3F_Max_Height": null, "F3F_Max_Stories": null, "F3F_Min_Lot_Size": null, "F3F_Max_Lot_Building_Coverage": null, "F3F_Max_Lot_Impervious_Coverage": null, "F3F_Min_Parking_Spaces_per_1BR": null, "F3F_Min_Parking_Spaces_per_mult_BR": null, "F3F_Affordable_Housing_Only": "No", "F3F_Proximity_to_Public_Transit_Required": "No", "F3F_Connection_to_Sewage/Water_Required": "No", "F4F_Allowance": "Overlay", "F4F_Front_Setback": null, "F4F_Side_Setback": null, "F4F_Rear_Setback": null, "F4F_Frontage": null, "F4F_Max_Density": null, "F4F_Max_Height": null, "F4F_Max_Stories": null, "F4F_Min_Lot_Size": null, "F4F_Max_Lot_Building_Coverage": null, "F4F_Max_Lot_Impervious_Coverage": null, "F4F_Min_Parking_Spaces_per_1BR": null, "F4F_Min_Parking_Spaces_per_mult_BR": null, "F3F_Elderly_Housing_Only": "No", "F4F_Elderly_Housing_Only": "No", "F4F_Affordable_Housing_Only": "No", "F4F_Proximity_to_Public_Transit_Required": "No", "F4F_Connection_to_Sewage/Water_Required": "No", "ADU_Allowance": "Allowed/Conditional", "ADU_Elderly_Housing_Only": "No", "ADU_Max_Size_as_Percent_of_Primary_Strcture": null, "ADU_Max_Size_in_sq_ft": null, "ADU_Min_Lot_Size": null, "ADU_Max_Bedrooms": null, "ADU_Min_Parking_Spaces": null, "ADU_Owner_Occupancy_Required": "No", "ADU_Renter_Occupancy_Prohibited": "No", "ADU_Employee_or_Family_Occupancy_Required": "No", "ADU_Restricted_to_Primary_Structure": "No", "Affordable_Housing_Allowance": "Not Mentioned", "Affordable_Housing_District": "No", "Affordable_Housing_Elderly_Only": "No", "Affordable_Housing_Min_Lot_Size": null, "Affordable_Housing_Max_Density": null, "Affordable_Housing_Min_Parking_Spaces_per_mult_BR": null, "Affordable_Housing_Max_Units_per_Building": null, "Affordable_Housing_Min_Parking_Spaces_per_1BR": null, "PRD_Allowance": "Public Hearing", "PRD_Max_Density": 3.26, "PRD_Max_Units": 300.0, "PRD_Min_Lot_Size": null, "PRD_Mobile_or_Manufactured_Home_Park": "No", "PUD_Allowance": "Yes", "PUD_Required_with_Subdivision": "F", "PUD_Requires_Land_Conservation": "F", "PUD_Threshold_Number": null, "Notes": " Stowe’s Village Pud Is not A Stand Alone Zoning District. It’s Actually An Overlay With Defined Boundaries In The Village Area Where An Applicant Can Request to Utilize Their Pre-Define Pud Process And Standards. The Other Pud’s In Their Ordinance Are Floating And Can Go In Any Of A Variety Of Places, But This One Is Fixed to Apply Only With The Village. \r\n\r\nOne And Two Family Dwelling Are Permitted Provided That Each Dwelling Unit Has A Minimum Lot Of Ten Thousand (10,000) Sq. Ft. Per Family, Otherwise Treated As A Conditional Use With No Minimum Lot Size.\r\n\r\nTwo Parking Spaces Required Per Dwelling Unit. " }, "geometry": { "type": "MultiPolygon", "coordinates": [ [ [ [ -72.686213394731894, 44.461086171827034 ], [ -72.685063200952655, 44.463329832724888 ], [ -72.68551053861394, 44.463344856161264 ], [ -72.685486882177571, 44.463811180128211 ], [ -72.686245617449799, 44.463819228417385 ], [ -72.686277977250398, 44.464363221298775 ], [ -72.686492418856503, 44.464369620984932 ], [ -72.686446230058039, 44.465404497934713 ], [ -72.687320136451731, 44.465438644843339 ], [ -72.687340017357414, 44.465146690235571 ], [ -72.687623971751805, 44.465153395836012 ], [ -72.687618700000741, 44.465101235324966 ], [ -72.687832284266449, 44.465084713989633 ], [ -72.687788144391163, 44.465036132601142 ], [ -72.687522503814705, 44.464862063432584 ], [ -72.687614954265172, 44.464667437916646 ], [ -72.687345610051352, 44.464562557131657 ], [ -72.688155140809812, 44.463386933423308 ], [ -72.688466274808022, 44.462933633222775 ], [ -72.689332004441766, 44.463243667754021 ], [ -72.689945682200701, 44.463450341048308 ], [ -72.690065206469754, 44.463010010981932 ], [ -72.690194941551283, 44.462811946453186 ], [ -72.689805754868928, 44.462441926114337 ], [ -72.690435001860862, 44.462003419344121 ], [ -72.690627866467111, 44.462139917908651 ], [ -72.691012405786509, 44.461806293982391 ], [ -72.69176921207341, 44.460752926593194 ], [ -72.69078687544858, 44.460441559120781 ], [ -72.69151712089571, 44.45930482201333 ], [ -72.691599380649748, 44.45913344329081 ], [ -72.692137588019662, 44.458967735762243 ], [ -72.692633902410734, 44.458601716981292 ], [ -72.692808514885755, 44.45856345524362 ], [ -72.693438355042261, 44.45868022800498 ], [ -72.692725060726332, 44.458261551095255 ], [ -72.692799618012842, 44.458126853859774 ], [ -72.692516184904648, 44.45802960271012 ], [ -72.691379722216098, 44.457624308328711 ], [ -72.689322465905988, 44.456889753892852 ], [ -72.688277389000419, 44.45829174881473 ], [ -72.68593281199351, 44.457442886358407 ], [ -72.68524732352445, 44.45797229912089 ], [ -72.685115497193792, 44.458380162561127 ], [ -72.683407082043786, 44.45778262281501 ], [ -72.683652144061526, 44.457419577720849 ], [ -72.681839615048503, 44.456788996098794 ], [ -72.681156118886932, 44.457972674125948 ], [ -72.680732871502315, 44.458497144665024 ], [ -72.680393220473078, 44.459138332952094 ], [ -72.680213831811898, 44.459669586859484 ], [ -72.681246202396707, 44.459928799408146 ], [ -72.683331574581146, 44.458499048900663 ], [ -72.684909014554634, 44.458648652581829 ], [ -72.683850492027517, 44.460235540221667 ], [ -72.683842039784594, 44.46024821072676 ], [ -72.685341458543945, 44.460772279921599 ], [ -72.686213394731894, 44.461086171827034 ] ] ] ] } },
{ "type": "Feature", "properties": { "OBJECT_ID": 612, "County": "Lamoille", "RPC": "LCPC", "Municipal_Name": "Stowe Village", "GEO_ID": null, "District_Name": "Village Residential 20", "Abbreviated_District_Name": "Vr 20", "District_Type": "Primarily Residential", "Bylaw_Date": "2024-05-29T00:00:00", "Elderly_Housing_District": "No", "District_Mapped": "Yes", "Overlay_District": "No", "Base_Density": null, "Shape_Length": 3722.2537820059811, "Shape_Area": 244968.84422321044, "F1F_Allowance": "Permitted", "F1F_Front_Setback": 20.0, "F1F_Side_Setback": 10.0, "F1F_Rear_Setback": 40.0, "F1F_Frontage": null, "F1F_Max_Height": 28.0, "F1F_Max_Stories": null, "F1F_Min_Lot_Size": 0.69, "F1F_Max_Lot_Building_Coverage": 30.0, "F1F_Max_Lot_Impervious_Coverage": null, "F1F_Min_Parking_Spaces": 2.0, "F2F_Allowance": "Permitted", "F2F_Front_Setback": 20.0, "F2F_Side_Setback": 10.0, "F2F_Rear_Setback": 40.0, "F2F_Frontage": null, "F2F_Max_Density": 4.36, "F2F_Max_Height": 28.0, "F2F_Max_Stories": null, "F2F_Min_Lot_Size": 0.69, "F2F_Max_Lot_Building_Coverage": 30.0, "F2F_Max_Lot_Impervious_Coverage": null, "F2F_Min_Parking_Spaces_per_1BR": 2.0, "F2F_Min_Parking_Spaces_per_mult_BR": 2.0, "F2F_Elderly_Housing_Only": "No", "F2F_Affordable_Housing_Only": "No", "F3F_Allowance": "Public Hearing", "F3F_Front_Setback": 20.0, "F3F_Side_Setback": 10.0, "F3F_Rear_Setback": 40.0, "F3F_Frontage": null, "F3F_Max_Density": 4.36, "F3F_Max_Height": 28.0, "F3F_Max_Stories": null, "F3F_Min_Lot_Size": 0.69, "F3F_Max_Lot_Building_Coverage": 30.0, "F3F_Max_Lot_Impervious_Coverage": null, "F3F_Min_Parking_Spaces_per_1BR": 2.0, "F3F_Min_Parking_Spaces_per_mult_BR": 2.0, "F3F_Affordable_Housing_Only": "No", "F3F_Proximity_to_Public_Transit_Required": "No", "F3F_Connection_to_Sewage/Water_Required": "No", "F4F_Allowance": "Public Hearing", "F4F_Front_Setback": 20.0, "F4F_Side_Setback": 10.0, "F4F_Rear_Setback": 40.0, "F4F_Frontage": null, "F4F_Max_Density": 4.36, "F4F_Max_Height": 28.0, "F4F_Max_Stories": null, "F4F_Min_Lot_Size": 0.69, "F4F_Max_Lot_Building_Coverage": 30.0, "F4F_Max_Lot_Impervious_Coverage": null, "F4F_Min_Parking_Spaces_per_1BR": 2.0, "F4F_Min_Parking_Spaces_per_mult_BR": 2.0, "F3F_Elderly_Housing_Only": "No", "F4F_Elderly_Housing_Only": "No", "F4F_Affordable_Housing_Only": "No", "F4F_Proximity_to_Public_Transit_Required": "No", "F4F_Connection_to_Sewage/Water_Required": "No", "ADU_Allowance": "Allowed/Conditional", "ADU_Elderly_Housing_Only": "No", "ADU_Max_Size_as_Percent_of_Primary_Strcture": 30.0, "ADU_Max_Size_in_sq_ft": 1200.0, "ADU_Min_Lot_Size": null, "ADU_Max_Bedrooms": 2.0, "ADU_Min_Parking_Spaces": 2.0, "ADU_Owner_Occupancy_Required": "No", "ADU_Renter_Occupancy_Prohibited": "No", "ADU_Employee_or_Family_Occupancy_Required": "No", "ADU_Restricted_to_Primary_Structure": "No", "Affordable_Housing_Allowance": "Allowed/Conditional", "Affordable_Housing_District": "No", "Affordable_Housing_Elderly_Only": "No", "Affordable_Housing_Min_Lot_Size": null, "Affordable_Housing_Max_Density": null, "Affordable_Housing_Min_Parking_Spaces_per_mult_BR": 2.0, "Affordable_Housing_Max_Units_per_Building": null, "Affordable_Housing_Min_Parking_Spaces_per_1BR": 2.0, "PRD_Allowance": "Public Hearing", "PRD_Max_Density": 4.36, "PRD_Max_Units": null, "PRD_Min_Lot_Size": 3.0, "PRD_Mobile_or_Manufactured_Home_Park": "No", "PUD_Allowance": "Yes", "PUD_Required_with_Subdivision": "F", "PUD_Requires_Land_Conservation": "T", "PUD_Threshold_Number": null, "Notes": "None" }, "geometry": { "type": "MultiPolygon", "coordinates": [ [ [ [ -72.688155140809812, 44.463386933423308 ], [ -72.687345610051352, 44.464562557131657 ], [ -72.687614954265172, 44.464667437916646 ], [ -72.687522503814705, 44.464862063432584 ], [ -72.687788144391163, 44.465036132601142 ], [ -72.6883498497575, 44.464952384451806 ], [ -72.688595684478102, 44.464828797305508 ], [ -72.688617636446764, 44.46469461278005 ], [ -72.688802093472901, 44.464535972696467 ], [ -72.688998838593207, 44.464169762000637 ], [ -72.688155140809812, 44.463386933423308 ] ] ], [ [ [ -72.680285834602657, 44.462209362009176 ], [ -72.680188673320629, 44.462214235568915 ], [ -72.680185915635249, 44.462219745813101 ], [ -72.679855842015613, 44.462875777846946 ], [ -72.679593061640901, 44.463402826658566 ], [ -72.680187618409633, 44.463403295963843 ], [ -72.68162449152031, 44.464116442343887 ], [ -72.681803335845004, 44.464205206027614 ], [ -72.681757653765345, 44.464785697610878 ], [ -72.681751694541802, 44.464861423447026 ], [ -72.681652960105978, 44.465988189410133 ], [ -72.679924472431381, 44.466935946771478 ], [ -72.674568060152993, 44.469872954857188 ], [ -72.674661683468855, 44.469960556726605 ], [ -72.675110320083007, 44.470356129792137 ], [ -72.676336575713179, 44.469733699760958 ], [ -72.677344337557173, 44.470452699580058 ], [ -72.678581680168108, 44.471332963341666 ], [ -72.680120395334285, 44.469088762402414 ], [ -72.680458214293566, 44.468811496683578 ], [ -72.680569258628509, 44.468709579260903 ], [ -72.680781671833799, 44.468585221292194 ], [ -72.681423305431949, 44.467918241671917 ], [ -72.682234659733979, 44.467780973128157 ], [ -72.682530519279581, 44.467570841362551 ], [ -72.683672027647972, 44.466516914135603 ], [ -72.684107314161523, 44.466188716382078 ], [ -72.684408535492125, 44.466064908590297 ], [ -72.684294908292387, 44.465898602262101 ], [ -72.68425555872895, 44.465749329950313 ], [ -72.684173777024796, 44.465718807775801 ], [ -72.684160120707375, 44.46537234927397 ], [ -72.684250562132405, 44.465284317950818 ], [ -72.684012780955484, 44.465225220022809 ], [ -72.684012633308924, 44.465178221300008 ], [ -72.683732852171644, 44.465146514711329 ], [ -72.683705268545154, 44.464593781289778 ], [ -72.684202484894712, 44.464100270688334 ], [ -72.683980410570427, 44.463895114317367 ], [ -72.683516927773837, 44.463610302314542 ], [ -72.683762432462174, 44.463359221192235 ], [ -72.683660061261946, 44.463292917360377 ], [ -72.68383486743835, 44.463084214971239 ], [ -72.683462383513145, 44.462939331596829 ], [ -72.683375126789315, 44.46302429558974 ], [ -72.682678976184548, 44.462723080186194 ], [ -72.682406255336659, 44.462993439802794 ], [ -72.68204630786876, 44.462759146967976 ], [ -72.682006734200456, 44.462807008172113 ], [ -72.680598673875437, 44.462222588418328 ], [ -72.680285834602657, 44.462209362009176 ] ] ] ] } },
{ "type": "Feature", "properties": { "OBJECT_ID": 606, "County": "Lamoille", "RPC": "LCPC", "Municipal_Name": "Stowe Village", "GEO_ID": null, "District_Name": "Fluvial Erosion Hazard Overlay", "Abbreviated_District_Name": "Feh", "District_Type": "Overlay not Affecting Use", "Bylaw_Date": "2024-05-29T00:00:00", "Elderly_Housing_District": "No", "District_Mapped": "Yes", "Overlay_District": "Yes", "Base_Density": null, "Shape_Length": 1254.2017477910242, "Shape_Area": 44220.571424330214, "F1F_Allowance": "Overlay", "F1F_Front_Setback": null, "F1F_Side_Setback": null, "F1F_Rear_Setback": null, "F1F_Frontage": null, "F1F_Max_Height": null, "F1F_Max_Stories": null, "F1F_Min_Lot_Size": null, "F1F_Max_Lot_Building_Coverage": null, "F1F_Max_Lot_Impervious_Coverage": null, "F1F_Min_Parking_Spaces": null, "F2F_Allowance": "Overlay", "F2F_Front_Setback": null, "F2F_Side_Setback": null, "F2F_Rear_Setback": null, "F2F_Frontage": null, "F2F_Max_Density": null, "F2F_Max_Height": null, "F2F_Max_Stories": null, "F2F_Min_Lot_Size": null, "F2F_Max_Lot_Building_Coverage": null, "F2F_Max_Lot_Impervious_Coverage": null, "F2F_Min_Parking_Spaces_per_1BR": null, "F2F_Min_Parking_Spaces_per_mult_BR": null, "F2F_Elderly_Housing_Only": "No", "F2F_Affordable_Housing_Only": "No", "F3F_Allowance": "Overlay", "F3F_Front_Setback": null, "F3F_Side_Setback": null, "F3F_Rear_Setback": null, "F3F_Frontage": null, "F3F_Max_Density": null, "F3F_Max_Height": null, "F3F_Max_Stories": null, "F3F_Min_Lot_Size": null, "F3F_Max_Lot_Building_Coverage": null, "F3F_Max_Lot_Impervious_Coverage": null, "F3F_Min_Parking_Spaces_per_1BR": null, "F3F_Min_Parking_Spaces_per_mult_BR": null, "F3F_Affordable_Housing_Only": "No", "F3F_Proximity_to_Public_Transit_Required": "No", "F3F_Connection_to_Sewage/Water_Required": "No", "F4F_Allowance": "Overlay", "F4F_Front_Setback": null, "F4F_Side_Setback": null, "F4F_Rear_Setback": null, "F4F_Frontage": null, "F4F_Max_Density": null, "F4F_Max_Height": null, "F4F_Max_Stories": null, "F4F_Min_Lot_Size": null, "F4F_Max_Lot_Building_Coverage": null, "F4F_Max_Lot_Impervious_Coverage": null, "F4F_Min_Parking_Spaces_per_1BR": null, "F4F_Min_Parking_Spaces_per_mult_BR": null, "F3F_Elderly_Housing_Only": "No", "F4F_Elderly_Housing_Only": "No", "F4F_Affordable_Housing_Only": "No", "F4F_Proximity_to_Public_Transit_Required": "No", "F4F_Connection_to_Sewage/Water_Required": "No", "ADU_Allowance": "Not Mentioned", "ADU_Elderly_Housing_Only": "No", "ADU_Max_Size_as_Percent_of_Primary_Strcture": null, "ADU_Max_Size_in_sq_ft": null, "ADU_Min_Lot_Size": null, "ADU_Max_Bedrooms": null, "ADU_Min_Parking_Spaces": null, "ADU_Owner_Occupancy_Required": "No", "ADU_Renter_Occupancy_Prohibited": "No", "ADU_Employee_or_Family_Occupancy_Required": "No", "ADU_Restricted_to_Primary_Structure": "No", "Affordable_Housing_Allowance": "Not Mentioned", "Affordable_Housing_District": "No", "Affordable_Housing_Elderly_Only": "No", "Affordable_Housing_Min_Lot_Size": null, "Affordable_Housing_Max_Density": null, "Affordable_Housing_Min_Parking_Spaces_per_mult_BR": null, "Affordable_Housing_Max_Units_per_Building": null, "Affordable_Housing_Min_Parking_Spaces_per_1BR": null, "PRD_Allowance": "Not Mentioned", "PRD_Max_Density": null, "PRD_Max_Units": null, "PRD_Min_Lot_Size": null, "PRD_Mobile_or_Manufactured_Home_Park": "No", "PUD_Allowance": null, "PUD_Required_with_Subdivision": null, "PUD_Requires_Land_Conservation": null, "PUD_Threshold_Number": null, "Notes": "None" }, "geometry": { "type": "MultiPolygon", "coordinates": [ [ [ [ -72.686900513633717, 44.468196556137904 ], [ -72.686361339754612, 44.468313346077032 ], [ -72.685580531692096, 44.46867458258312 ], [ -72.684632106135624, 44.469589729714905 ], [ -72.683421367042612, 44.470932264686326 ], [ -72.683345590805814, 44.471117215082103 ], [ -72.683786284330239, 44.47230665081748 ], [ -72.683797597610607, 44.472485785325681 ], [ -72.684723539084871, 44.472179412452064 ], [ -72.684910678460952, 44.472237745772254 ], [ -72.68500982328392, 44.472218263328294 ], [ -72.684726053698384, 44.471446981767286 ], [ -72.684889270162998, 44.470894443570067 ], [ -72.685274959192753, 44.470482230693676 ], [ -72.685327793794016, 44.4704257622952 ], [ -72.685308300245282, 44.470055411051646 ], [ -72.685431487437796, 44.469742569838999 ], [ -72.685770909714563, 44.469391508035301 ], [ -72.686178635501165, 44.469211041579875 ], [ -72.686551391841832, 44.469046053208061 ], [ -72.686929801296813, 44.468730174332265 ], [ -72.687126016370868, 44.468216766944678 ], [ -72.68715879428521, 44.468140609952556 ], [ -72.686900513633717, 44.468196556137904 ] ] ] ] } },
{ "type": "Feature", "properties": { "OBJECT_ID": 607, "County": "Lamoille", "RPC": "LCPC", "Municipal_Name": "Stowe Village", "GEO_ID": null, "District_Name": "Ridgeline And Hillside Overlay", "Abbreviated_District_Name": "Rhod", "District_Type": "Overlay not Affecting Use", "Bylaw_Date": "2024-05-29T00:00:00", "Elderly_Housing_District": "No", "District_Mapped": "Yes", "Overlay_District": "Yes", "Base_Density": null, "Shape_Length": 2478.3042971171221, "Shape_Area": 286345.72813110874, "F1F_Allowance": "Overlay", "F1F_Front_Setback": null, "F1F_Side_Setback": null, "F1F_Rear_Setback": null, "F1F_Frontage": null, "F1F_Max_Height": null, "F1F_Max_Stories": null, "F1F_Min_Lot_Size": null, "F1F_Max_Lot_Building_Coverage": null, "F1F_Max_Lot_Impervious_Coverage": null, "F1F_Min_Parking_Spaces": null, "F2F_Allowance": "Overlay", "F2F_Front_Setback": null, "F2F_Side_Setback": null, "F2F_Rear_Setback": null, "F2F_Frontage": null, "F2F_Max_Density": null, "F2F_Max_Height": null, "F2F_Max_Stories": null, "F2F_Min_Lot_Size": null, "F2F_Max_Lot_Building_Coverage": null, "F2F_Max_Lot_Impervious_Coverage": null, "F2F_Min_Parking_Spaces_per_1BR": null, "F2F_Min_Parking_Spaces_per_mult_BR": null, "F2F_Elderly_Housing_Only": "No", "F2F_Affordable_Housing_Only": "No", "F3F_Allowance": "Overlay", "F3F_Front_Setback": null, "F3F_Side_Setback": null, "F3F_Rear_Setback": null, "F3F_Frontage": null, "F3F_Max_Density": null, "F3F_Max_Height": null, "F3F_Max_Stories": null, "F3F_Min_Lot_Size": null, "F3F_Max_Lot_Building_Coverage": null, "F3F_Max_Lot_Impervious_Coverage": null, "F3F_Min_Parking_Spaces_per_1BR": null, "F3F_Min_Parking_Spaces_per_mult_BR": null, "F3F_Affordable_Housing_Only": "No", "F3F_Proximity_to_Public_Transit_Required": "No", "F3F_Connection_to_Sewage/Water_Required": "No", "F4F_Allowance": "Overlay", "F4F_Front_Setback": null, "F4F_Side_Setback": null, "F4F_Rear_Setback": null, "F4F_Frontage": null, "F4F_Max_Density": null, "F4F_Max_Height": null, "F4F_Max_Stories": null, "F4F_Min_Lot_Size": null, "F4F_Max_Lot_Building_Coverage": null, "F4F_Max_Lot_Impervious_Coverage": null, "F4F_Min_Parking_Spaces_per_1BR": null, "F4F_Min_Parking_Spaces_per_mult_BR": null, "F3F_Elderly_Housing_Only": "No", "F4F_Elderly_Housing_Only": "No", "F4F_Affordable_Housing_Only": "No", "F4F_Proximity_to_Public_Transit_Required": "No", "F4F_Connection_to_Sewage/Water_Required": "No", "ADU_Allowance": "Not Mentioned", "ADU_Elderly_Housing_Only": "No", "ADU_Max_Size_as_Percent_of_Primary_Strcture": null, "ADU_Max_Size_in_sq_ft": null, "ADU_Min_Lot_Size": null, "ADU_Max_Bedrooms": null, "ADU_Min_Parking_Spaces": null, "ADU_Owner_Occupancy_Required": "No", "ADU_Renter_Occupancy_Prohibited": "No", "ADU_Employee_or_Family_Occupancy_Required": "No", "ADU_Restricted_to_Primary_Structure": "No", "Affordable_Housing_Allowance": "Not Mentioned", "Affordable_Housing_District": "No", "Affordable_Housing_Elderly_Only": "No", "Affordable_Housing_Min_Lot_Size": null, "Affordable_Housing_Max_Density": null, "Affordable_Housing_Min_Parking_Spaces_per_mult_BR": null, "Affordable_Housing_Max_Units_per_Building": null, "Affordable_Housing_Min_Parking_Spaces_per_1BR": null, "PRD_Allowance": "Not Mentioned", "PRD_Max_Density": null, "PRD_Max_Units": null, "PRD_Min_Lot_Size": null, "PRD_Mobile_or_Manufactured_Home_Park": "No", "PUD_Allowance": null, "PUD_Required_with_Subdivision": null, "PUD_Requires_Land_Conservation": null, "PUD_Threshold_Number": null, "Notes": "None" }, "geometry": { "type": "MultiPolygon", "coordinates": [ [ [ [ -72.69572243645284, 44.465511034581887 ], [ -72.695582654091865, 44.465712074333325 ], [ -72.695577877496277, 44.466516412203767 ], [ -72.695803319632191, 44.466843963843772 ], [ -72.69659038926055, 44.46583422859814 ], [ -72.69572243645284, 44.465511034581887 ] ] ], [ [ [ -72.678377979037933, 44.463641950316074 ], [ -72.677081627696737, 44.46389173537527 ], [ -72.675729375356227, 44.464245124636456 ], [ -72.67374014472891, 44.466958665176548 ], [ -72.673499954694421, 44.467278089265292 ], [ -72.672478782437523, 44.467919584299182 ], [ -72.672795020679544, 44.468215104943368 ], [ -72.674388913404371, 44.469705448378271 ], [ -72.674568060152993, 44.469872954857188 ], [ -72.674661683468855, 44.469960556726605 ], [ -72.675632035796355, 44.469618354437422 ], [ -72.676403894993911, 44.46926491867805 ], [ -72.677269863837239, 44.46899513939676 ], [ -72.678299323942767, 44.468507002112602 ], [ -72.67874337364087, 44.468204403982185 ], [ -72.679069869902293, 44.4677340903756 ], [ -72.679924472431381, 44.466935946771478 ], [ -72.680074678543633, 44.46677631465225 ], [ -72.680307348269281, 44.466323020228899 ], [ -72.680564989736823, 44.466091348743447 ], [ -72.681125483783902, 44.465717775161977 ], [ -72.681450441637224, 44.464761063083046 ], [ -72.680698529793446, 44.464040889732701 ], [ -72.678870600960082, 44.463825669593945 ], [ -72.678377979037933, 44.463641950316074 ] ] ] ] } },
{ "type": "Feature", "properties": { "OBJECT_ID": 613, "County": "Lamoille", "RPC": "LCPC", "Municipal_Name": "Stowe Village", "GEO_ID": null, "District_Name": "Village Residential 40", "Abbreviated_District_Name": "Vr 40", "District_Type": "Primarily Residential", "Bylaw_Date": "2024-05-29T00:00:00", "Elderly_Housing_District": "No", "District_Mapped": "Yes", "Overlay_District": "No", "Base_Density": null, "Shape_Length": 8359.3105911127168, "Shape_Area": 940469.77607962699, "F1F_Allowance": "Permitted", "F1F_Front_Setback": 30.0, "F1F_Side_Setback": 25.0, "F1F_Rear_Setback": 50.0, "F1F_Frontage": null, "F1F_Max_Height": 28.0, "F1F_Max_Stories": null, "F1F_Min_Lot_Size": 0.92, "F1F_Max_Lot_Building_Coverage": 15.0, "F1F_Max_Lot_Impervious_Coverage": null, "F1F_Min_Parking_Spaces": 2.0, "F2F_Allowance": "Permitted", "F2F_Front_Setback": 30.0, "F2F_Side_Setback": 25.0, "F2F_Rear_Setback": 50.0, "F2F_Frontage": null, "F2F_Max_Density": 2.18, "F2F_Max_Height": 28.0, "F2F_Max_Stories": null, "F2F_Min_Lot_Size": 0.92, "F2F_Max_Lot_Building_Coverage": 15.0, "F2F_Max_Lot_Impervious_Coverage": null, "F2F_Min_Parking_Spaces_per_1BR": 2.0, "F2F_Min_Parking_Spaces_per_mult_BR": 2.0, "F2F_Elderly_Housing_Only": "No", "F2F_Affordable_Housing_Only": "No", "F3F_Allowance": "Public Hearing", "F3F_Front_Setback": 30.0, "F3F_Side_Setback": 25.0, "F3F_Rear_Setback": 50.0, "F3F_Frontage": null, "F3F_Max_Density": 2.18, "F3F_Max_Height": 28.0, "F3F_Max_Stories": null, "F3F_Min_Lot_Size": 0.92, "F3F_Max_Lot_Building_Coverage": 15.0, "F3F_Max_Lot_Impervious_Coverage": null, "F3F_Min_Parking_Spaces_per_1BR": 2.0, "F3F_Min_Parking_Spaces_per_mult_BR": 2.0, "F3F_Affordable_Housing_Only": "No", "F3F_Proximity_to_Public_Transit_Required": "No", "F3F_Connection_to_Sewage/Water_Required": "No", "F4F_Allowance": "Public Hearing", "F4F_Front_Setback": 30.0, "F4F_Side_Setback": 25.0, "F4F_Rear_Setback": 50.0, "F4F_Frontage": null, "F4F_Max_Density": 2.18, "F4F_Max_Height": 28.0, "F4F_Max_Stories": null, "F4F_Min_Lot_Size": 0.92, "F4F_Max_Lot_Building_Coverage": 15.0, "F4F_Max_Lot_Impervious_Coverage": null, "F4F_Min_Parking_Spaces_per_1BR": 2.0, "F4F_Min_Parking_Spaces_per_mult_BR": 2.0, "F3F_Elderly_Housing_Only": "No", "F4F_Elderly_Housing_Only": "No", "F4F_Affordable_Housing_Only": "No", "F4F_Proximity_to_Public_Transit_Required": "No", "F4F_Connection_to_Sewage/Water_Required": "No", "ADU_Allowance": "Allowed/Conditional", "ADU_Elderly_Housing_Only": "No", "ADU_Max_Size_as_Percent_of_Primary_Strcture": 30.0, "ADU_Max_Size_in_sq_ft": 1200.0, "ADU_Min_Lot_Size": null, "ADU_Max_Bedrooms": 2.0, "ADU_Min_Parking_Spaces": 2.0, "ADU_Owner_Occupancy_Required": "No", "ADU_Renter_Occupancy_Prohibited": "No", "ADU_Employee_or_Family_Occupancy_Required": "No", "ADU_Restricted_to_Primary_Structure": "No", "Affordable_Housing_Allowance": "Allowed/Conditional", "Affordable_Housing_District": "No", "Affordable_Housing_Elderly_Only": "No", "Affordable_Housing_Min_Lot_Size": null, "Affordable_Housing_Max_Density": null, "Affordable_Housing_Min_Parking_Spaces_per_mult_BR": 2.0, "Affordable_Housing_Max_Units_per_Building": null, "Affordable_Housing_Min_Parking_Spaces_per_1BR": 2.0, "PRD_Allowance": "Public Hearing", "PRD_Max_Density": 2.18, "PRD_Max_Units": null, "PRD_Min_Lot_Size": 3.0, "PRD_Mobile_or_Manufactured_Home_Park": "No", "PUD_Allowance": "Yes", "PUD_Required_with_Subdivision": "F", "PUD_Requires_Land_Conservation": "T", "PUD_Threshold_Number": null, "Notes": "None" }, "geometry": { "type": "MultiPolygon", "coordinates": [ [ [ [ -72.685836335789375, 44.465774612431851 ], [ -72.68562113221715, 44.466024276242621 ], [ -72.685296413974655, 44.465920324781123 ], [ -72.684402796525589, 44.465864258851362 ], [ -72.684294908292387, 44.465898602262101 ], [ -72.684408535492125, 44.466064908590297 ], [ -72.684107314161523, 44.466188716382078 ], [ -72.683672027647972, 44.466516914135603 ], [ -72.682530519279581, 44.467570841362551 ], [ -72.682234659733979, 44.467780973128157 ], [ -72.681423305431949, 44.467918241671917 ], [ -72.680781671833799, 44.468585221292194 ], [ -72.680569258628509, 44.468709579260903 ], [ -72.680458214293566, 44.468811496683578 ], [ -72.680120395334285, 44.469088762402414 ], [ -72.678581680168108, 44.471332963341666 ], [ -72.679352364940314, 44.471876927426393 ], [ -72.679966065913774, 44.472328750421802 ], [ -72.679297453440611, 44.472799601078066 ], [ -72.681566073752265, 44.473812116365579 ], [ -72.683344843889671, 44.472650591572545 ], [ -72.683797597610607, 44.472485785325681 ], [ -72.684723539084871, 44.472179412452064 ], [ -72.684910678460952, 44.472237745772254 ], [ -72.68500982328392, 44.472218263328294 ], [ -72.685459028264404, 44.472129987841292 ], [ -72.684726053698384, 44.471446981767286 ], [ -72.68452666301927, 44.471274578759797 ], [ -72.684445153191675, 44.471083471356714 ], [ -72.685033628036734, 44.470354323432147 ], [ -72.685186743564401, 44.470055609103248 ], [ -72.685431487437796, 44.469742569838999 ], [ -72.686178635501165, 44.469211041579875 ], [ -72.686515561926313, 44.468924732021001 ], [ -72.687126016370868, 44.468216766944678 ], [ -72.687498230838443, 44.467829967706123 ], [ -72.687909016649471, 44.466846378994667 ], [ -72.688193353931197, 44.466602784171442 ], [ -72.68764683803677, 44.465916627860494 ], [ -72.686841724744411, 44.46590557343486 ], [ -72.68682923900856, 44.465808146442818 ], [ -72.685836335789375, 44.465774612431851 ] ] ], [ [ [ -72.691833054262858, 44.464061402378391 ], [ -72.691575578468857, 44.464232857355839 ], [ -72.691026544576403, 44.464571779088139 ], [ -72.690190684073357, 44.465371466088207 ], [ -72.689949395622932, 44.465508911915684 ], [ -72.689264651194648, 44.465733828244403 ], [ -72.689039725365419, 44.465886911344995 ], [ -72.689849305721452, 44.466791843567663 ], [ -72.689981628481149, 44.467047427802903 ], [ -72.689997136626104, 44.467265179800542 ], [ -72.689935989880496, 44.46748522456322 ], [ -72.68928885735717, 44.468727945901932 ], [ -72.691618234745263, 44.471379613222695 ], [ -72.693018940156776, 44.469631918671276 ], [ -72.693492385219898, 44.469807168272567 ], [ -72.694167006406431, 44.468943198417229 ], [ -72.695803319632191, 44.466843963843772 ], [ -72.69659038926055, 44.46583422859814 ], [ -72.69572243645284, 44.465511034581887 ], [ -72.691833054262858, 44.464061402378391 ] ] ], [ [ [ -72.688466274808022, 44.462933633222775 ], [ -72.688155140809812, 44.463386933423308 ], [ -72.688998838593207, 44.464169762000637 ], [ -72.689332004441766, 44.463243667754021 ], [ -72.688466274808022, 44.462933633222775 ] ] ], [ [ [ -72.680188673320629, 44.462214235568915 ], [ -72.678626677324445, 44.462262812416441 ], [ -72.677982090767941, 44.462465041179392 ], [ -72.677274126174268, 44.463136885609089 ], [ -72.676753651757096, 44.463479673151156 ], [ -72.676097121542924, 44.463765296356478 ], [ -72.675729375356227, 44.464245124636456 ], [ -72.67374014472891, 44.466958665176548 ], [ -72.673499954694421, 44.467278089265292 ], [ -72.672478782437523, 44.467919584299182 ], [ -72.672795020679544, 44.468215104943368 ], [ -72.674388913404371, 44.469705448378271 ], [ -72.674568060152993, 44.469872954857188 ], [ -72.679924472431381, 44.466935946771478 ], [ -72.681652960105978, 44.465988189410133 ], [ -72.681751694541802, 44.464861423447026 ], [ -72.681757653765345, 44.464785697610878 ], [ -72.681803335845004, 44.464205206027614 ], [ -72.68162449152031, 44.464116442343887 ], [ -72.680187618409633, 44.463403295963843 ], [ -72.679593061640901, 44.463402826658566 ], [ -72.679855842015613, 44.462875777846946 ], [ -72.680185915635249, 44.462219745813101 ], [ -72.680188673320629, 44.462214235568915 ] ] ], [ [ [ -72.69176921207341, 44.460752926593194 ], [ -72.691012405786509, 44.461806293982391 ], [ -72.690627866467111, 44.462139917908651 ], [ -72.690435001860862, 44.462003419344121 ], [ -72.689805754868928, 44.462441926114337 ], [ -72.690194941551283, 44.462811946453186 ], [ -72.691047106802486, 44.462211494210408 ], [ -72.69139718949738, 44.461789198753046 ], [ -72.691904704344381, 44.461356651941841 ], [ -72.691856727535495, 44.461327654254376 ], [ -72.69176070002456, 44.461151451398997 ], [ -72.691983851286722, 44.460823860067229 ], [ -72.69176921207341, 44.460752926593194 ] ] ] ] } },
{ "type": "Feature", "properties": { "OBJECT_ID": 608, "County": "Lamoille", "RPC": "LCPC", "Municipal_Name": "Stowe Village", "GEO_ID": null, "District_Name": "Stowe Historic Overlay", "Abbreviated_District_Name": "Sh", "District_Type": "Overlay not Affecting Use", "Bylaw_Date": "2024-05-29T00:00:00", "Elderly_Housing_District": "No", "District_Mapped": "Yes", "Overlay_District": "Yes", "Base_Density": null, "Shape_Length": 6822.0851747513525, "Shape_Area": 899327.96638703113, "F1F_Allowance": "Overlay", "F1F_Front_Setback": null, "F1F_Side_Setback": null, "F1F_Rear_Setback": null, "F1F_Frontage": null, "F1F_Max_Height": null, "F1F_Max_Stories": null, "F1F_Min_Lot_Size": null, "F1F_Max_Lot_Building_Coverage": null, "F1F_Max_Lot_Impervious_Coverage": null, "F1F_Min_Parking_Spaces": null, "F2F_Allowance": "Overlay", "F2F_Front_Setback": null, "F2F_Side_Setback": null, "F2F_Rear_Setback": null, "F2F_Frontage": null, "F2F_Max_Density": null, "F2F_Max_Height": null, "F2F_Max_Stories": null, "F2F_Min_Lot_Size": null, "F2F_Max_Lot_Building_Coverage": null, "F2F_Max_Lot_Impervious_Coverage": null, "F2F_Min_Parking_Spaces_per_1BR": null, "F2F_Min_Parking_Spaces_per_mult_BR": null, "F2F_Elderly_Housing_Only": "No", "F2F_Affordable_Housing_Only": "No", "F3F_Allowance": "Overlay", "F3F_Front_Setback": null, "F3F_Side_Setback": null, "F3F_Rear_Setback": null, "F3F_Frontage": null, "F3F_Max_Density": null, "F3F_Max_Height": null, "F3F_Max_Stories": null, "F3F_Min_Lot_Size": null, "F3F_Max_Lot_Building_Coverage": null, "F3F_Max_Lot_Impervious_Coverage": null, "F3F_Min_Parking_Spaces_per_1BR": null, "F3F_Min_Parking_Spaces_per_mult_BR": null, "F3F_Affordable_Housing_Only": "No", "F3F_Proximity_to_Public_Transit_Required": "No", "F3F_Connection_to_Sewage/Water_Required": "No", "F4F_Allowance": "Overlay", "F4F_Front_Setback": null, "F4F_Side_Setback": null, "F4F_Rear_Setback": null, "F4F_Frontage": null, "F4F_Max_Density": null, "F4F_Max_Height": null, "F4F_Max_Stories": null, "F4F_Min_Lot_Size": null, "F4F_Max_Lot_Building_Coverage": null, "F4F_Max_Lot_Impervious_Coverage": null, "F4F_Min_Parking_Spaces_per_1BR": null, "F4F_Min_Parking_Spaces_per_mult_BR": null, "F3F_Elderly_Housing_Only": "No", "F4F_Elderly_Housing_Only": "No", "F4F_Affordable_Housing_Only": "No", "F4F_Proximity_to_Public_Transit_Required": "No", "F4F_Connection_to_Sewage/Water_Required": "No", "ADU_Allowance": "Not Mentioned", "ADU_Elderly_Housing_Only": "No", "ADU_Max_Size_as_Percent_of_Primary_Strcture": null, "ADU_Max_Size_in_sq_ft": null, "ADU_Min_Lot_Size": null, "ADU_Max_Bedrooms": null, "ADU_Min_Parking_Spaces": null, "ADU_Owner_Occupancy_Required": "No", "ADU_Renter_Occupancy_Prohibited": "No", "ADU_Employee_or_Family_Occupancy_Required": "No", "ADU_Restricted_to_Primary_Structure": "No", "Affordable_Housing_Allowance": "Not Mentioned", "Affordable_Housing_District": "No", "Affordable_Housing_Elderly_Only": "No", "Affordable_Housing_Min_Lot_Size": null, "Affordable_Housing_Max_Density": null, "Affordable_Housing_Min_Parking_Spaces_per_mult_BR": null, "Affordable_Housing_Max_Units_per_Building": null, "Affordable_Housing_Min_Parking_Spaces_per_1BR": null, "PRD_Allowance": "Not Mentioned", "PRD_Max_Density": null, "PRD_Max_Units": null, "PRD_Min_Lot_Size": null, "PRD_Mobile_or_Manufactured_Home_Park": "No", "PUD_Allowance": null, "PUD_Required_with_Subdivision": null, "PUD_Requires_Land_Conservation": null, "PUD_Threshold_Number": null, "Notes": "None" }, "geometry": { "type": "MultiPolygon", "coordinates": [ [ [ [ -72.686213394731894, 44.461086171827034 ], [ -72.685341458543945, 44.460772279921599 ], [ -72.683850492027517, 44.460235540221667 ], [ -72.683842039784594, 44.46024821072676 ], [ -72.68204630786876, 44.462759146967976 ], [ -72.682006734200456, 44.462807008172113 ], [ -72.680598673875437, 44.462222588418328 ], [ -72.680285834602657, 44.462209362009176 ], [ -72.680185915635249, 44.462219745813101 ], [ -72.67980925978496, 44.462258886948092 ], [ -72.679591266160031, 44.462730692071702 ], [ -72.679855842015613, 44.462875777846946 ], [ -72.681496325239323, 44.463775374366186 ], [ -72.682081346440867, 44.463722058972358 ], [ -72.68162449152031, 44.464116442343887 ], [ -72.681351813194155, 44.464351835368028 ], [ -72.681757653765345, 44.464785697610878 ], [ -72.681751694541802, 44.464861423447026 ], [ -72.681354408149559, 44.465189985745312 ], [ -72.681428532081298, 44.465504176269405 ], [ -72.6812097292012, 44.465714062436007 ], [ -72.680564989736823, 44.466091348743447 ], [ -72.674388913404371, 44.469705448378271 ], [ -72.674568060152993, 44.469872954857188 ], [ -72.674661683468855, 44.469960556726605 ], [ -72.675110320083007, 44.470356129792137 ], [ -72.676336575713179, 44.469733699760958 ], [ -72.677344337557173, 44.470452699580058 ], [ -72.680120395334285, 44.469088762402414 ], [ -72.680268931419789, 44.469015783398305 ], [ -72.680458214293566, 44.468811496683578 ], [ -72.680569258628509, 44.468709579260903 ], [ -72.681514506415766, 44.469642426758739 ], [ -72.681660329615482, 44.469485039567758 ], [ -72.682098934667607, 44.469379572692525 ], [ -72.682464219432433, 44.469221836164422 ], [ -72.683415723378204, 44.469377465714608 ], [ -72.683634530728398, 44.469167576349484 ], [ -72.684292428145028, 44.46900936224101 ], [ -72.68429160396289, 44.46874744064894 ], [ -72.684364264095095, 44.468590169808266 ], [ -72.68421779131036, 44.468538021017096 ], [ -72.68392517553724, 44.468538492594632 ], [ -72.683558585548596, 44.468277159386858 ], [ -72.68355842137295, 44.468224775420495 ], [ -72.683631081572017, 44.468067504131682 ], [ -72.684216308414619, 44.468066561741651 ], [ -72.68450925187814, 44.46817085825171 ], [ -72.684655557585685, 44.468170621812042 ], [ -72.684801038111999, 44.467908463559738 ], [ -72.684872538398039, 44.467384500994534 ], [ -72.684797071370753, 44.466651238340376 ], [ -72.684577287088842, 44.466546824336952 ], [ -72.685382118226869, 44.466597906023885 ], [ -72.685455932569312, 44.466807324071823 ], [ -72.685822523041963, 44.467068652156613 ], [ -72.686408405450024, 44.467277235328574 ], [ -72.686627863152239, 44.467276876951338 ], [ -72.686921140037782, 44.467485936120141 ], [ -72.686900513633717, 44.468196556137904 ], [ -72.686850829062934, 44.468376590325285 ], [ -72.685463728754158, 44.469269390118598 ], [ -72.685318249093257, 44.46953154915095 ], [ -72.685186743564401, 44.470055609103248 ], [ -72.685308300245282, 44.470055411051646 ], [ -72.685831996889107, 44.470054560193624 ], [ -72.685860628145534, 44.470122338239563 ], [ -72.68605312794331, 44.470578046808043 ], [ -72.687808378170985, 44.470418019688168 ], [ -72.68854577286352, 44.469619002982355 ], [ -72.688755863523497, 44.469316381181407 ], [ -72.688923033082006, 44.468913984254215 ], [ -72.689409513341772, 44.467848529034846 ], [ -72.689847751239284, 44.46763826361402 ], [ -72.689997136626104, 44.467265179800542 ], [ -72.690211304244684, 44.46695665824911 ], [ -72.690209603071679, 44.466432814141079 ], [ -72.689988619328801, 44.465961720100175 ], [ -72.689949395622932, 44.465508911915684 ], [ -72.690351819883219, 44.465175345259254 ], [ -72.690570416256378, 44.464913057646328 ], [ -72.691026544576403, 44.464571779088139 ], [ -72.691300540217696, 44.464492760309788 ], [ -72.691575578468857, 44.464232857355839 ], [ -72.69166508531012, 44.464125455696575 ], [ -72.692176092319698, 44.463810289632157 ], [ -72.692445230356697, 44.46346296886508 ], [ -72.692683865203151, 44.462513570373083 ], [ -72.692682770692585, 44.462180811243009 ], [ -72.69216589394793, 44.461851466097002 ], [ -72.692083102188391, 44.461631680079257 ], [ -72.692152629387891, 44.461519409559962 ], [ -72.691904704344381, 44.461356651941841 ], [ -72.691856727535495, 44.461327654254376 ], [ -72.69176070002456, 44.461151451398997 ], [ -72.691983851286722, 44.460823860067229 ], [ -72.69176921207341, 44.460752926593194 ], [ -72.69078687544858, 44.460441559120781 ], [ -72.69151712089571, 44.45930482201333 ], [ -72.691599380649748, 44.45913344329081 ], [ -72.692137588019662, 44.458967735762243 ], [ -72.692633902410734, 44.458601716981292 ], [ -72.692808514885755, 44.45856345524362 ], [ -72.693438355042261, 44.45868022800498 ], [ -72.692725060726332, 44.458261551095255 ], [ -72.692799618012842, 44.458126853859774 ], [ -72.692516184904648, 44.45802960271012 ], [ -72.691379722216098, 44.457624308328711 ], [ -72.691044791799769, 44.458088269807085 ], [ -72.690648602273697, 44.458183591301839 ], [ -72.690915278632914, 44.458902557298387 ], [ -72.687111148058804, 44.45962826481167 ], [ -72.686213394731894, 44.461086171827034 ] ] ] ] } },
{ "type": "Feature", "properties": { "OBJECT_ID": 610, "County": "Lamoille", "RPC": "LCPC", "Municipal_Name": "Stowe Village", "GEO_ID": null, "District_Name": "Village Commercial 10", "Abbreviated_District_Name": "Vc 10", "District_Type": "Mixed with Residential", "Bylaw_Date": "2024-05-29T00:00:00", "Elderly_Housing_District": "No", "District_Mapped": "Yes", "Overlay_District": "No", "Base_Density": null, "Shape_Length": 4916.0843311097397, "Shape_Area": 290668.23085981177, "F1F_Allowance": "Permitted", "F1F_Front_Setback": 10.0, "F1F_Side_Setback": 10.0, "F1F_Rear_Setback": 10.0, "F1F_Frontage": null, "F1F_Max_Height": 28.0, "F1F_Max_Stories": null, "F1F_Min_Lot_Size": 0.23, "F1F_Max_Lot_Building_Coverage": 50.0, "F1F_Max_Lot_Impervious_Coverage": null, "F1F_Min_Parking_Spaces": 1.0, "F2F_Allowance": "Permitted", "F2F_Front_Setback": 10.0, "F2F_Side_Setback": 10.0, "F2F_Rear_Setback": 10.0, "F2F_Frontage": null, "F2F_Max_Density": 17.42, "F2F_Max_Height": 28.0, "F2F_Max_Stories": null, "F2F_Min_Lot_Size": 0.23, "F2F_Max_Lot_Building_Coverage": 50.0, "F2F_Max_Lot_Impervious_Coverage": null, "F2F_Min_Parking_Spaces_per_1BR": 1.0, "F2F_Min_Parking_Spaces_per_mult_BR": 1.0, "F2F_Elderly_Housing_Only": "No", "F2F_Affordable_Housing_Only": "No", "F3F_Allowance": "Public Hearing", "F3F_Front_Setback": 10.0, "F3F_Side_Setback": 10.0, "F3F_Rear_Setback": 10.0, "F3F_Frontage": null, "F3F_Max_Density": 17.42, "F3F_Max_Height": 28.0, "F3F_Max_Stories": null, "F3F_Min_Lot_Size": 0.23, "F3F_Max_Lot_Building_Coverage": 50.0, "F3F_Max_Lot_Impervious_Coverage": null, "F3F_Min_Parking_Spaces_per_1BR": 1.0, "F3F_Min_Parking_Spaces_per_mult_BR": 1.0, "F3F_Affordable_Housing_Only": "No", "F3F_Proximity_to_Public_Transit_Required": "No", "F3F_Connection_to_Sewage/Water_Required": "No", "F4F_Allowance": "Public Hearing", "F4F_Front_Setback": 10.0, "F4F_Side_Setback": 10.0, "F4F_Rear_Setback": 10.0, "F4F_Frontage": null, "F4F_Max_Density": 17.42, "F4F_Max_Height": 28.0, "F4F_Max_Stories": null, "F4F_Min_Lot_Size": 0.23, "F4F_Max_Lot_Building_Coverage": 50.0, "F4F_Max_Lot_Impervious_Coverage": null, "F4F_Min_Parking_Spaces_per_1BR": 1.0, "F4F_Min_Parking_Spaces_per_mult_BR": 1.0, "F3F_Elderly_Housing_Only": "No", "F4F_Elderly_Housing_Only": "No", "F4F_Affordable_Housing_Only": "No", "F4F_Proximity_to_Public_Transit_Required": "No", "F4F_Connection_to_Sewage/Water_Required": "No", "ADU_Allowance": "Allowed/Conditional", "ADU_Elderly_Housing_Only": "No", "ADU_Max_Size_as_Percent_of_Primary_Strcture": 30.0, "ADU_Max_Size_in_sq_ft": 1200.0, "ADU_Min_Lot_Size": null, "ADU_Max_Bedrooms": 2.0, "ADU_Min_Parking_Spaces": 1.0, "ADU_Owner_Occupancy_Required": "No", "ADU_Renter_Occupancy_Prohibited": "No", "ADU_Employee_or_Family_Occupancy_Required": "No", "ADU_Restricted_to_Primary_Structure": "No", "Affordable_Housing_Allowance": "Allowed/Conditional", "Affordable_Housing_District": "No", "Affordable_Housing_Elderly_Only": "No", "Affordable_Housing_Min_Lot_Size": null, "Affordable_Housing_Max_Density": 26.14, "Affordable_Housing_Min_Parking_Spaces_per_mult_BR": 1.0, "Affordable_Housing_Max_Units_per_Building": null, "Affordable_Housing_Min_Parking_Spaces_per_1BR": 1.0, "PRD_Allowance": "Public Hearing", "PRD_Max_Density": 26.14, "PRD_Max_Units": null, "PRD_Min_Lot_Size": 3.0, "PRD_Mobile_or_Manufactured_Home_Park": "No", "PUD_Allowance": "Yes", "PUD_Required_with_Subdivision": "F", "PUD_Requires_Land_Conservation": "T", "PUD_Threshold_Number": null, "Notes": "None" }, "geometry": { "type": "MultiPolygon", "coordinates": [ [ [ [ -72.685860628145534, 44.470122338239563 ], [ -72.686680103530293, 44.469632085760473 ], [ -72.686709340996472, 44.470070323797898 ], [ -72.687098725969818, 44.470133840352574 ], [ -72.687370023616666, 44.470057325655695 ], [ -72.687414085306742, 44.469956684998017 ], [ -72.687981458089254, 44.470113925792347 ], [ -72.68854577286352, 44.469619002982355 ], [ -72.688694674394057, 44.46958544638008 ], [ -72.689110374777272, 44.469017064849311 ], [ -72.688923033082006, 44.468913984254215 ], [ -72.688808256607444, 44.468868588034603 ], [ -72.688968645640387, 44.468411682410569 ], [ -72.689279947541323, 44.468048398414361 ], [ -72.689571075520632, 44.46748342074617 ], [ -72.689706146556588, 44.467522704248374 ], [ -72.689981628481149, 44.467047427802903 ], [ -72.689849305721452, 44.466791843567663 ], [ -72.689039725365419, 44.465886911344995 ], [ -72.689264651194648, 44.465733828244403 ], [ -72.689949395622932, 44.465508911915684 ], [ -72.690190684073357, 44.465371466088207 ], [ -72.691026544576403, 44.464571779088139 ], [ -72.691575578468857, 44.464232857355839 ], [ -72.691833054262858, 44.464061402378391 ], [ -72.692331795042762, 44.463701146236922 ], [ -72.692445230356697, 44.46346296886508 ], [ -72.692683865203151, 44.462513570373083 ], [ -72.692682770692585, 44.462180811243009 ], [ -72.69216589394793, 44.461851466097002 ], [ -72.692083102188391, 44.461631680079257 ], [ -72.692152629387891, 44.461519409559962 ], [ -72.691904704344381, 44.461356651941841 ], [ -72.69139718949738, 44.461789198753046 ], [ -72.691047106802486, 44.462211494210408 ], [ -72.690194941551283, 44.462811946453186 ], [ -72.690065206469754, 44.463010010981932 ], [ -72.689945682200701, 44.463450341048308 ], [ -72.689332004441766, 44.463243667754021 ], [ -72.688998838593207, 44.464169762000637 ], [ -72.688802093472901, 44.464535972696467 ], [ -72.688617636446764, 44.46469461278005 ], [ -72.688595684478102, 44.464828797305508 ], [ -72.6883498497575, 44.464952384451806 ], [ -72.687788144391163, 44.465036132601142 ], [ -72.687832284266449, 44.465084713989633 ], [ -72.687618700000741, 44.465101235324966 ], [ -72.687623971751805, 44.465153395836012 ], [ -72.687340017357414, 44.465146690235571 ], [ -72.687320136451731, 44.465438644843339 ], [ -72.686446230058039, 44.465404497934713 ], [ -72.686492418856503, 44.464369620984932 ], [ -72.686277977250398, 44.464363221298775 ], [ -72.686245617449799, 44.463819228417385 ], [ -72.685486882177571, 44.463811180128211 ], [ -72.68551053861394, 44.463344856161264 ], [ -72.685063200952655, 44.463329832724888 ], [ -72.686213394731894, 44.461086171827034 ], [ -72.685341458543945, 44.460772279921599 ], [ -72.683842039784594, 44.46024821072676 ], [ -72.68204630786876, 44.462759146967976 ], [ -72.682406255336659, 44.462993439802794 ], [ -72.682678976184548, 44.462723080186194 ], [ -72.683375126789315, 44.46302429558974 ], [ -72.683462383513145, 44.462939331596829 ], [ -72.68383486743835, 44.463084214971239 ], [ -72.683660061261946, 44.463292917360377 ], [ -72.683762432462174, 44.463359221192235 ], [ -72.683516927773837, 44.463610302314542 ], [ -72.683980410570427, 44.463895114317367 ], [ -72.684202484894712, 44.464100270688334 ], [ -72.683705268545154, 44.464593781289778 ], [ -72.683732852171644, 44.465146514711329 ], [ -72.684012633308924, 44.465178221300008 ], [ -72.684012780955484, 44.465225220022809 ], [ -72.684250562132405, 44.465284317950818 ], [ -72.684160120707375, 44.46537234927397 ], [ -72.684173777024796, 44.465718807775801 ], [ -72.68425555872895, 44.465749329950313 ], [ -72.684294908292387, 44.465898602262101 ], [ -72.684402796525589, 44.465864258851362 ], [ -72.685296413974655, 44.465920324781123 ], [ -72.68562113221715, 44.466024276242621 ], [ -72.685836335789375, 44.465774612431851 ], [ -72.68682923900856, 44.465808146442818 ], [ -72.686841724744411, 44.46590557343486 ], [ -72.68764683803677, 44.465916627860494 ], [ -72.688193353931197, 44.466602784171442 ], [ -72.687909016649471, 44.466846378994667 ], [ -72.687498230838443, 44.467829967706123 ], [ -72.687126016370868, 44.468216766944678 ], [ -72.686515561926313, 44.468924732021001 ], [ -72.686178635501165, 44.469211041579875 ], [ -72.685431487437796, 44.469742569838999 ], [ -72.685186743564401, 44.470055609103248 ], [ -72.685033628036734, 44.470354323432147 ], [ -72.685274959192753, 44.470482230693676 ], [ -72.68539546402755, 44.470546099797872 ], [ -72.685860628145534, 44.470122338239563 ] ] ] ] } },
{ "type": "Feature", "properties": { "OBJECT_ID": 611, "County": "Lamoille", "RPC": "LCPC", "Municipal_Name": "Stowe Village", "GEO_ID": null, "District_Name": "Village Commercial 30", "Abbreviated_District_Name": "Vc 30", "District_Type": "Mixed with Residential", "Bylaw_Date": "2024-05-29T00:00:00", "Elderly_Housing_District": "No", "District_Mapped": "Yes", "Overlay_District": "No", "Base_Density": null, "Shape_Length": 2285.8112658757177, "Shape_Area": 145239.06636858758, "F1F_Allowance": "Permitted", "F1F_Front_Setback": 10.0, "F1F_Side_Setback": 20.0, "F1F_Rear_Setback": 20.0, "F1F_Frontage": null, "F1F_Max_Height": 28.0, "F1F_Max_Stories": null, "F1F_Min_Lot_Size": 0.46, "F1F_Max_Lot_Building_Coverage": 30.0, "F1F_Max_Lot_Impervious_Coverage": null, "F1F_Min_Parking_Spaces": 2.0, "F2F_Allowance": "Permitted", "F2F_Front_Setback": 10.0, "F2F_Side_Setback": 20.0, "F2F_Rear_Setback": 20.0, "F2F_Frontage": null, "F2F_Max_Density": 6.22, "F2F_Max_Height": 28.0, "F2F_Max_Stories": null, "F2F_Min_Lot_Size": 0.46, "F2F_Max_Lot_Building_Coverage": 30.0, "F2F_Max_Lot_Impervious_Coverage": null, "F2F_Min_Parking_Spaces_per_1BR": 2.0, "F2F_Min_Parking_Spaces_per_mult_BR": 2.0, "F2F_Elderly_Housing_Only": "No", "F2F_Affordable_Housing_Only": "No", "F3F_Allowance": "Public Hearing", "F3F_Front_Setback": 10.0, "F3F_Side_Setback": 20.0, "F3F_Rear_Setback": 20.0, "F3F_Frontage": null, "F3F_Max_Density": 6.22, "F3F_Max_Height": 28.0, "F3F_Max_Stories": null, "F3F_Min_Lot_Size": 0.46, "F3F_Max_Lot_Building_Coverage": 30.0, "F3F_Max_Lot_Impervious_Coverage": null, "F3F_Min_Parking_Spaces_per_1BR": 2.0, "F3F_Min_Parking_Spaces_per_mult_BR": 2.0, "F3F_Affordable_Housing_Only": "No", "F3F_Proximity_to_Public_Transit_Required": "No", "F3F_Connection_to_Sewage/Water_Required": "No", "F4F_Allowance": "Public Hearing", "F4F_Front_Setback": 10.0, "F4F_Side_Setback": 20.0, "F4F_Rear_Setback": 20.0, "F4F_Frontage": null, "F4F_Max_Density": 6.22, "F4F_Max_Height": 28.0, "F4F_Max_Stories": null, "F4F_Min_Lot_Size": 0.46, "F4F_Max_Lot_Building_Coverage": 30.0, "F4F_Max_Lot_Impervious_Coverage": null, "F4F_Min_Parking_Spaces_per_1BR": 2.0, "F4F_Min_Parking_Spaces_per_mult_BR": 2.0, "F3F_Elderly_Housing_Only": "No", "F4F_Elderly_Housing_Only": "No", "F4F_Affordable_Housing_Only": "No", "F4F_Proximity_to_Public_Transit_Required": "No", "F4F_Connection_to_Sewage/Water_Required": "No", "ADU_Allowance": "Allowed/Conditional", "ADU_Elderly_Housing_Only": "No", "ADU_Max_Size_as_Percent_of_Primary_Strcture": 30.0, "ADU_Max_Size_in_sq_ft": 1200.0, "ADU_Min_Lot_Size": null, "ADU_Max_Bedrooms": 2.0, "ADU_Min_Parking_Spaces": 2.0, "ADU_Owner_Occupancy_Required": "No", "ADU_Renter_Occupancy_Prohibited": "No", "ADU_Employee_or_Family_Occupancy_Required": "No", "ADU_Restricted_to_Primary_Structure": "No", "Affordable_Housing_Allowance": "Allowed/Conditional", "Affordable_Housing_District": "No", "Affordable_Housing_Elderly_Only": "No", "Affordable_Housing_Min_Lot_Size": null, "Affordable_Housing_Max_Density": 9.33, "Affordable_Housing_Min_Parking_Spaces_per_mult_BR": 2.0, "Affordable_Housing_Max_Units_per_Building": null, "Affordable_Housing_Min_Parking_Spaces_per_1BR": 2.0, "PRD_Allowance": "Allowed/Conditional", "PRD_Max_Density": 9.33, "PRD_Max_Units": null, "PRD_Min_Lot_Size": 3.0, "PRD_Mobile_or_Manufactured_Home_Park": "No", "PUD_Allowance": "Yes", "PUD_Required_with_Subdivision": "F", "PUD_Requires_Land_Conservation": "T", "PUD_Threshold_Number": null, "Notes": "None" }, "geometry": { "type": "MultiPolygon", "coordinates": [ [ [ [ -72.689981628481149, 44.467047427802903 ], [ -72.689706146556588, 44.467522704248374 ], [ -72.689571075520632, 44.46748342074617 ], [ -72.689279947541323, 44.468048398414361 ], [ -72.688968645640387, 44.468411682410569 ], [ -72.688808256607444, 44.468868588034603 ], [ -72.688923033082006, 44.468913984254215 ], [ -72.689110374777272, 44.469017064849311 ], [ -72.688694674394057, 44.46958544638008 ], [ -72.68854577286352, 44.469619002982355 ], [ -72.687981458089254, 44.470113925792347 ], [ -72.687414085306742, 44.469956684998017 ], [ -72.687370023616666, 44.470057325655695 ], [ -72.687098725969818, 44.470133840352574 ], [ -72.686709340996472, 44.470070323797898 ], [ -72.686680103530293, 44.469632085760473 ], [ -72.685860628145534, 44.470122338239563 ], [ -72.68539546402755, 44.470546099797872 ], [ -72.685274959192753, 44.470482230693676 ], [ -72.685033628036734, 44.470354323432147 ], [ -72.684445153191675, 44.471083471356714 ], [ -72.68452666301927, 44.471274578759797 ], [ -72.684726053698384, 44.471446981767286 ], [ -72.685459028264404, 44.472129987841292 ], [ -72.685822501063882, 44.472058948217686 ], [ -72.685754691086274, 44.472473878908716 ], [ -72.685860729287583, 44.472595199426628 ], [ -72.68615405422085, 44.47269638709114 ], [ -72.686406433173801, 44.47264282273229 ], [ -72.686714384256788, 44.472280512609359 ], [ -72.686825199508945, 44.472420948328313 ], [ -72.688725766078576, 44.472048703634854 ], [ -72.689090291662083, 44.472426923187122 ], [ -72.689665398582193, 44.472821244913064 ], [ -72.689979440911657, 44.47240576133737 ], [ -72.690630104918583, 44.472601401419261 ], [ -72.691546233580922, 44.471461011040326 ], [ -72.691618234745263, 44.471379613222695 ], [ -72.68928885735717, 44.468727945901932 ], [ -72.689935989880496, 44.46748522456322 ], [ -72.689997136626104, 44.467265179800542 ], [ -72.689981628481149, 44.467047427802903 ] ] ] ] } }
]
}
