{"type": "FeatureCollection", "features": [{"type": "Feature", "id": 0, "geometry": {"type": "MultiPolygon", "coordinates": [[[[-72.68343061409146, 44.63157985776976], [-72.68303550300092, 44.631762163657974], [-72.6830970862627, 44.63181816525387], [-72.6836114453642, 44.63226709675052], [-72.68332932067683, 44.632469400005725], [-72.68333078945932, 44.63247037136472], [-72.68384180619708, 44.63280791017372], [-72.68405109653786, 44.632651780221515], [-72.6840584377827, 44.632646196967386], [-72.68424993822806, 44.63250053442212], [-72.6844493595334, 44.63241562606298], [-72.68478407949185, 44.63235072249911], [-72.68479200172497, 44.632349539781146], [-72.68478830321631, 44.63232783872162], [-72.68474541525522, 44.63231467023757], [-72.68468730207073, 44.63221935528487], [-72.6846700757132, 44.632116600226794], [-72.68447569761783, 44.63184009891511], [-72.68437790856785, 44.63168925512438], [-72.6843390418054, 44.63155158012517], [-72.68429655933912, 44.63149748051054], [-72.68416629681518, 44.63140845875469], [-72.68415788194372, 44.63138613263036], [-72.68404525843901, 44.63129625256189], [-72.68343061409146, 44.63157985776976]]], [[[-72.6824850382111, 44.63323633639714], [-72.68256137974672, 44.63327230939942], [-72.68267327088321, 44.63331867090062], [-72.68282238232356, 44.63342299254442], [-72.68293278169419, 44.63350022983173], [-72.68336002625655, 44.633166147567735], [-72.68354543234729, 44.633021945776875], [-72.68369993080783, 44.63291282020039], [-72.68374048149818, 44.63288297561878], [-72.68322972358108, 44.6325456060311], [-72.68307991420114, 44.63244489291325], [-72.6828991138314, 44.6325790344473], [-72.68286063777342, 44.632550410112195], [-72.68268625542778, 44.63267776821028], [-72.68249827896885, 44.632537792340834], [-72.6823763633741, 44.63249088781773], [-72.68270674891502, 44.63320790253445], [-72.6824762935202, 44.63320516354098], [-72.6824850382111, 44.63323633639714]]], [[[-72.67536060790167, 44.63347460585866], [-72.67555079478925, 44.633891776185166], [-72.67601609857626, 44.633787509499676], [-72.67586320421428, 44.63358784067544], [-72.6757149355846, 44.63339421200445], [-72.67536060790167, 44.63347460585866]]], [[[-72.68088817499688, 44.6341985778289], [-72.68046512735542, 44.633925612965136], [-72.68018402137682, 44.63419687956287], [-72.67898901600658, 44.63400869404663], [-72.67858175772666, 44.63388854664093], [-72.67882905487889, 44.63314643786835], [-72.67742147833079, 44.6328991790465], [-72.67717150420289, 44.633366394019596], [-72.67686550012334, 44.63330474483449], [-72.67661204467954, 44.63313355865581], [-72.67635863997833, 44.63296240512819], [-72.67591777271402, 44.63317163229418], [-72.67590135559645, 44.633181128369294], [-72.6758731390069, 44.63319632472622], [-72.67585484837694, 44.63324649569551], [-72.6758365412168, 44.63326490840776], [-72.6758606324546, 44.63331343205378], [-72.67598299135759, 44.63347440896725], [-72.67598407323243, 44.63347583277802], [-72.67615063350325, 44.63366637404832], [-72.67616079337179, 44.63367775860027], [-72.67630501609625, 44.63383935387661], [-72.67643384505911, 44.633968623223616], [-72.67653607821563, 44.6340477214442], [-72.67656206543398, 44.634067826943344], [-72.67657027432742, 44.634072933013165], [-72.67690725307976, 44.634282529102336], [-72.67708012196351, 44.63434262891824], [-72.67725490729227, 44.63440781996003], [-72.67739538665785, 44.634460214928076], [-72.67746551927166, 44.6343418714259], [-72.67747870891847, 44.6343196156393], [-72.67752931682655, 44.63419572111352], [-72.67757331541834, 44.63407143727333], [-72.67758613658344, 44.633999885176166], [-72.67756177623886, 44.63396245746654], [-72.67751370704066, 44.63392681425441], [-72.67746927878638, 44.63391798486349], [-72.6774105323775, 44.63392542310413], [-72.67737508962782, 44.63393955114758], [-72.67735721030805, 44.63395434664712], [-72.67731833197362, 44.63403845350415], [-72.67713775726448, 44.633995894693555], [-72.6771885043497, 44.633886113585206], [-72.67725306454219, 44.63383268757973], [-72.6773458001483, 44.63379572147399], [-72.67747863375747, 44.63377890255497], [-72.67760196699426, 44.63380341461205], [-72.67761468760617, 44.63380594341141], [-72.67772081272823, 44.63388463495526], [-72.67778172647465, 44.633978220314155], [-72.67776048133881, 44.63409678221232], [-72.6777363023957, 44.63416507988465], [-72.67775046211128, 44.634169580859655], [-72.67771208254219, 44.63423114130667], [-72.67765815613609, 44.634365235399486], [-72.67756373482379, 44.634524563267426], [-72.67767151815255, 44.634567192366724], [-72.6777515924317, 44.634596007483346], [-72.67777552522266, 44.63460513954481], [-72.6779297403014, 44.63466398471608], [-72.67831167292137, 44.63480658384742], [-72.67858394151018, 44.63490140174998], [-72.67875863836677, 44.63462302804888], [-72.67891832224392, 44.63467871719553], [-72.67901244786964, 44.6345296936905], [-72.67932154081441, 44.634658010231234], [-72.67942678771622, 44.63445167264303], [-72.67947985118022, 44.634466609875844], [-72.679580360046, 44.63449622222457], [-72.67977493011591, 44.63455175272376], [-72.68005987878182, 44.634624915710184], [-72.68011377142165, 44.63444942769806], [-72.68033917984026, 44.63451228076526], [-72.68088817499688, 44.6341985778289]]], [[[-72.68088817499688, 44.6341985778289], [-72.68030715474877, 44.63460920080796], [-72.6809426433411, 44.63503992285682], [-72.68124292897708, 44.63480767254067], [-72.68140926070858, 44.63467902549344], [-72.68156986592099, 44.634554806825626], [-72.68170220499621, 44.63445244972948], [-72.68203434440314, 44.634195555337186], [-72.68225164682465, 44.63402748027379], [-72.6825774862093, 44.63377545391944], [-72.68280408424823, 44.63360018514748], [-72.68255727625221, 44.63342751125978], [-72.68246368081392, 44.63338873106533], [-72.68246629225145, 44.6334245474233], [-72.68239707482772, 44.63347216491596], [-72.68232974997487, 44.6336211133575], [-72.68219893473868, 44.633716911026994], [-72.68208789140304, 44.63385876657022], [-72.68184721784954, 44.63409069206552], [-72.6812528949148, 44.63415996795476], [-72.68105892586632, 44.63418143100861], [-72.68088817499688, 44.6341985778289]]], [[[-72.68210337746474, 44.635070726285235], [-72.68252059636173, 44.63517145095784], [-72.68295990198017, 44.63529184432892], [-72.68305591849668, 44.63521446541582], [-72.68320804692503, 44.635140676206476], [-72.68335616796834, 44.63506717940266], [-72.683534165451, 44.63506691869661], [-72.68371535876794, 44.63506293049249], [-72.68393184543474, 44.63506404442326], [-72.68409989055115, 44.63504565192377], [-72.68423263015804, 44.63497613393516], [-72.68427159431208, 44.63484962204523], [-72.68430943217128, 44.6345942979249], [-72.68425617910434, 44.63448521962924], [-72.68418288307437, 44.63437613583463], [-72.684196378812, 44.63421120322853], [-72.68418030073012, 44.63405779592745], [-72.6842273747033, 44.63392215473566], [-72.68425118361476, 44.63389309831715], [-72.68440919882222, 44.63369943277406], [-72.6846103677362, 44.63355273532684], [-72.68463939760514, 44.633531564509404], [-72.68480239063267, 44.63347350154013], [-72.6848929362877, 44.63345504696091], [-72.68502241230188, 44.63345142027172], [-72.68505002590004, 44.63343477735607], [-72.68504622934094, 44.633370376027386], [-72.68501442281796, 44.633323192404966], [-72.6848933205978, 44.63317280442331], [-72.68489044014045, 44.63314243398838], [-72.68483233132399, 44.63300475794399], [-72.68482111553611, 44.632918890148744], [-72.68485038312677, 44.632858784623835], [-72.68482994360808, 44.63281871263706], [-72.68485440214536, 44.63273885708372], [-72.68480069586514, 44.632671019611024], [-72.68477465608414, 44.632523041507625], [-72.68478328322027, 44.63249139435584], [-72.68452435336654, 44.63254169932745], [-72.68437021752872, 44.632607325862885], [-72.68418903174322, 44.63274514444271], [-72.68406253731658, 44.63283950731526], [-72.68392952567568, 44.632938733826556], [-72.68383519541298, 44.63300815997138], [-72.68368238203404, 44.63311610142014], [-72.68361496324223, 44.63316853674778], [-72.68350489527631, 44.63325414063373], [-72.68340473113797, 44.63333193067672], [-72.68306317281038, 44.63359719187484], [-72.68283109739033, 44.63377742310466], [-72.68249984974067, 44.63403467207731], [-72.68233204155638, 44.63416499064118], [-72.68220378666683, 44.63426459269262], [-72.68189728575008, 44.634502616761154], [-72.68178278793876, 44.63459153233879], [-72.68199159004324, 44.63469515797225], [-72.68199865190452, 44.634697626005945], [-72.68200588907465, 44.63469932612577], [-72.68214713967296, 44.63472713262957], [-72.68217187062878, 44.634734532845215], [-72.68219204785193, 44.63474230028896], [-72.68219701595496, 44.63474466006], [-72.68229135829266, 44.634789488551604], [-72.68226054422993, 44.63482255229293], [-72.68218600798366, 44.63490252675326], [-72.68209404231251, 44.63485882828876], [-72.68208980748429, 44.63485719718144], [-72.68208486481997, 44.63485571928941], [-72.68195086917963, 44.63482934102753], [-72.68192680030369, 44.63482368555948], [-72.68189496825818, 44.634812561921684], [-72.68165287907868, 44.634692416086786], [-72.68145834058924, 44.63484348938399], [-72.6812580111687, 44.63499905765093], [-72.68109712901878, 44.635123992648104], [-72.6814413118035, 44.63528751935773], [-72.68156812888613, 44.63519373216623], [-72.6818293634677, 44.63499984849735], [-72.68210337746474, 44.635070726285235]]], [[[-72.67753740084478, 44.63530857091446], [-72.67757750112176, 44.63531294608988], [-72.67760715297757, 44.6353210199833], [-72.67763719333635, 44.63533167244286], [-72.67769009480965, 44.6353438011986], [-72.67771010684399, 44.63535414616869], [-72.67778106145835, 44.63536659775975], [-72.67785198541266, 44.63538591936332], [-72.67791323877199, 44.63541352267658], [-72.67796447370078, 44.63543910234385], [-72.67802366870698, 44.63547815222018], [-72.67809328967627, 44.63551808123107], [-72.67820491466833, 44.63558471556193], [-72.67826135668827, 44.63561202292086], [-72.67837344005464, 44.63566606285469], [-72.67847204301167, 44.635719777274225], [-72.67873839105756, 44.63552223541669], [-72.67862967759862, 44.63546195590549], [-72.67857216820917, 44.635351693735004], [-72.67850128645915, 44.63522574338561], [-72.6785115938425, 44.63521224013547], [-72.67860883938478, 44.63507469061336], [-72.67849833822099, 44.63503406807818], [-72.67823290972042, 44.63493411064033], [-72.67800430658784, 44.63484969805323], [-72.67784655785786, 44.634793219884294], [-72.67767361108096, 44.63472811688455], [-72.67751506674412, 44.634670490293004], [-72.67745821863616, 44.63464888690164], [-72.6773121014943, 44.63459243401491], [-72.67718200909214, 44.63453945318088], [-72.67706270885402, 44.634494228099555], [-72.6769650386493, 44.63445477928092], [-72.67685417807103, 44.634405850320555], [-72.67679054241077, 44.634377645374], [-72.6766749633812, 44.63430751686362], [-72.67655217199558, 44.63423622678565], [-72.67648218691356, 44.634193404137164], [-72.67641296321047, 44.63415974508285], [-72.6763193319668, 44.63411400531009], [-72.67624969530198, 44.63408292327279], [-72.67614842003134, 44.63404289166666], [-72.67606958426653, 44.63400634767669], [-72.67598827836166, 44.63398440058636], [-72.67595260956747, 44.63397973814875], [-72.67583750165497, 44.633984057772935], [-72.67570666263993, 44.63400895662035], [-72.67547144681873, 44.63405938635373], [-72.67524024842743, 44.6341081076841], [-72.67519248229458, 44.634118305996736], [-72.67539763620458, 44.63440813520573], [-72.67543653950653, 44.63450073059568], [-72.67546197803944, 44.634566757541975], [-72.67554118963413, 44.63511998296044], [-72.67556517253745, 44.635116518290516], [-72.67561775107389, 44.635112044930935], [-72.67567112463149, 44.635109576251736], [-72.67571564252408, 44.63511281588313], [-72.67576738394335, 44.635115782502865], [-72.67583999183954, 44.63511793404166], [-72.67590696046156, 44.6351249403034], [-72.67596511721601, 44.63512877887653], [-72.67602686512636, 44.63513691891471], [-72.6760938251213, 44.63514564213247], [-72.6761495729638, 44.63514976240192], [-72.67621454713667, 44.63515447405698], [-72.67629998613396, 44.635158082278295], [-72.67638459882748, 44.635166841068965], [-72.67646037082407, 44.63517873078863], [-72.6764988471269, 44.6351871099079], [-72.6765786165082, 44.63520215569944], [-72.67665314419583, 44.63522262977673], [-72.67673627846314, 44.635247109541375], [-72.67673928331646, 44.63524799401489], [-72.67678335041775, 44.63526210949204], [-72.67685107154533, 44.635279421748486], [-72.67694448372764, 44.635294209478054], [-72.67703262651166, 44.63530447328921], [-72.6771060886848, 44.63531142378576], [-72.67718190537067, 44.63531386646981], [-72.67728217653223, 44.63532036579412], [-72.6773391459316, 44.63532076780625], [-72.67740616626153, 44.63531689394434], [-72.67744591373767, 44.63531096380063], [-72.67748765868657, 44.635307040066], [-72.67753740084478, 44.63530857091446]]], [[[-72.6840891771196, 44.63632874811522], [-72.68418644653899, 44.63633181481082], [-72.6843376809339, 44.6363354512781], [-72.68511026862944, 44.63637710097895], [-72.68539629095461, 44.63639739734449], [-72.68550899725555, 44.636391619514214], [-72.68569028107197, 44.636375237898974], [-72.6861646147681, 44.63632541633211], [-72.6863981534352, 44.63629404838846], [-72.68674171609226, 44.6362491704702], [-72.68697758465267, 44.63621900252787], [-72.68780139738004, 44.6361482371314], [-72.68786995565816, 44.6361482800624], [-72.68796532736795, 44.63614135662243], [-72.68801774653897, 44.63612657100566], [-72.68800264455459, 44.63608826546979], [-72.68794752105235, 44.636059834954736], [-72.68786599121896, 44.636039512957616], [-72.6877920553644, 44.63601572811311], [-72.68772523604332, 44.63597760655765], [-72.6876254123793, 44.635920993585714], [-72.68752595420338, 44.635859226969636], [-72.6874075689553, 44.635785217282766], [-72.68732499375407, 44.63572968804587], [-72.68727383027503, 44.63569437260077], [-72.68721375232889, 44.6356453479273], [-72.6871504410678, 44.63559261274007], [-72.68709839876801, 44.63554613601651], [-72.68704108901785, 44.6354916621846], [-72.68687179121689, 44.6353605794246], [-72.68654131872484, 44.63512252590019], [-72.68645597288472, 44.63504349637497], [-72.68632411823667, 44.6349693185597], [-72.68623316646226, 44.634879122772105], [-72.68609131739476, 44.634759428496025], [-72.68595747757233, 44.63465605279744], [-72.68584287961741, 44.634554971931166], [-72.68573671049661, 44.63443786311609], [-72.68560932123431, 44.63427638020122], [-72.68552440015165, 44.634158991870294], [-72.6854491176552, 44.63401326725364], [-72.68533295354545, 44.63385264501534], [-72.68523079645733, 44.63373296172499], [-72.68513100151917, 44.63368856205609], [-72.68504480825409, 44.63369139881025], [-72.6848992452432, 44.633758623918], [-72.68476611605305, 44.63381783741032], [-72.6845840793723, 44.633869021496984], [-72.68447701297654, 44.63391822318092], [-72.68442738244302, 44.63396554568301], [-72.68441648550218, 44.63407891665212], [-72.68444122321442, 44.63417677840189], [-72.68452087275188, 44.63427112273426], [-72.68461921046361, 44.634312483548506], [-72.68469888701358, 44.63441598892404], [-72.68472161833543, 44.63451328060122], [-72.68470750411853, 44.6346226485351], [-72.6846825806444, 44.63473782404732], [-72.68455987602978, 44.63500386494999], [-72.68450872918034, 44.63506176311955], [-72.68440743253237, 44.63510685355946], [-72.68437229709139, 44.635156426726766], [-72.68434082655322, 44.63522545929307], [-72.68425640657223, 44.635283978898755], [-72.68413460558493, 44.63530906179759], [-72.68399348537099, 44.63531927567381], [-72.68381270491143, 44.635277426098206], [-72.68360464098672, 44.63527249532861], [-72.68342663294226, 44.63528560615596], [-72.68319286230395, 44.635360242977484], [-72.683050072207, 44.635470404665476], [-72.6829468112185, 44.63558806310872], [-72.68293198015508, 44.63561281943588], [-72.68284005094674, 44.63570970651566], [-72.68275333716154, 44.63580830312643], [-72.68269581584214, 44.63588080831872], [-72.6825990496934, 44.6359688288019], [-72.68250154354168, 44.63607860420971], [-72.68244758596019, 44.636136218861616], [-72.68241111501004, 44.63617581611011], [-72.68305075044385, 44.63639173340997], [-72.68339565209179, 44.636350803272066], [-72.68341079762544, 44.63639227077293], [-72.68345667142982, 44.63638698024372], [-72.68356484445302, 44.63637285133464], [-72.68360641974444, 44.63636777463623], [-72.68365442049492, 44.63636191365703], [-72.68374678951099, 44.636348980787304], [-72.68384143623186, 44.63633652293518], [-72.68397308847878, 44.63632831422882], [-72.6840891771196, 44.63632874811522]]], [[[-72.6761324302546, 44.636032025197444], [-72.67604264523833, 44.636469793206246], [-72.67628746479205, 44.636502359035575], [-72.67656185633629, 44.63653885808353], [-72.67711504980046, 44.63661243951041], [-72.67724012315158, 44.636629074926454], [-72.6778196181755, 44.636706152413666], [-72.67783121961877, 44.63653723241992], [-72.67783290898512, 44.636512620511894], [-72.67783803944798, 44.636441048894646], [-72.6778516147917, 44.63627386176771], [-72.67787261559397, 44.63615021301686], [-72.67787520506201, 44.636147539813926], [-72.67791773590626, 44.63610364284326], [-72.67795837698391, 44.63607281027558], [-72.67804266560594, 44.63601876275285], [-72.67804743267045, 44.63596941167237], [-72.67805488065522, 44.6359213361014], [-72.67805866975472, 44.63588355774761], [-72.67807367865893, 44.635848665050126], [-72.67807945336232, 44.63581518432882], [-72.67807473778937, 44.63579399220714], [-72.67805922374028, 44.63576590821615], [-72.67804852307667, 44.63573783381763], [-72.6780350229215, 44.63570803593075], [-72.67802389361506, 44.63568568660498], [-72.67799948277803, 44.63567246969413], [-72.67797745506779, 44.63566412394464], [-72.67795102544527, 44.635653479448166], [-72.67792939487049, 44.63564599339651], [-72.67789216595627, 44.635628170829825], [-72.67786215164085, 44.63561208106542], [-72.67783212136275, 44.63559942542231], [-72.67780566923074, 44.635593360632896], [-72.67777360621768, 44.63558614007143], [-72.67773436681065, 44.63556945808463], [-72.67769832896983, 44.63555450075413], [-72.67766869093118, 44.635543563309696], [-72.67763742752251, 44.63553691651652], [-72.6776017372242, 44.63553341012925], [-72.67754357501316, 44.63553043002449], [-72.67748701483639, 44.63552831222602], [-72.67743244595214, 44.63552906205887], [-72.67738868656981, 44.63553498493015], [-72.67734654928603, 44.63553719038561], [-72.67729280992369, 44.63553221535625], [-72.67724389178493, 44.6355261061165], [-72.67720138903006, 44.635520867926296], [-72.67714088982349, 44.635503283699656], [-72.67709238689322, 44.6354940267218], [-72.67704587854202, 44.63548706323373], [-72.67697487420445, 44.635485202451726], [-72.67691871858037, 44.63548222611874], [-72.67689550143577, 44.63547101574945], [-72.67687990331503, 44.6354606790996], [-72.67685944083969, 44.6354609240705], [-72.67683573817678, 44.63546746001373], [-72.67682084214125, 44.63547830734556], [-72.67679308864018, 44.63549313693824], [-72.67677500876987, 44.63549853926152], [-72.67674044112364, 44.635511923313565], [-72.67669466487114, 44.63551984596822], [-72.67664934006177, 44.635517463793136], [-72.67659682544031, 44.635508198411], [-72.67654993530327, 44.63549751233174], [-72.67649892594024, 44.6354879476032], [-72.6764882042543, 44.63548593754646], [-72.67642529878184, 44.635467776208976], [-72.6763680223869, 44.63544762271486], [-72.6763171337398, 44.63543377948677], [-72.67628186540652, 44.635425978505005], [-72.67625961888687, 44.635420598006384], [-72.6761324302546, 44.636032025197444]]], [[[-72.68435325854315, 44.63675201100196], [-72.68456959128942, 44.63739002957675], [-72.68497548093951, 44.63730899275367], [-72.68548544943613, 44.63720144747594], [-72.68560212027276, 44.63717638858035], [-72.6857808110869, 44.637136620257515], [-72.68632652024282, 44.637023598244596], [-72.68769635658717, 44.63686886516888], [-72.68778181049922, 44.63635594443493], [-72.68750744359217, 44.6363501452572], [-72.68750066152276, 44.636306321171176], [-72.68698547003002, 44.636356507662384], [-72.68674927733649, 44.63638599490907], [-72.6864061276301, 44.636430981065665], [-72.6862143977512, 44.63645680753651], [-72.68619585165193, 44.63645930626102], [-72.68570762833463, 44.63651058591852], [-72.68565889051311, 44.63651531415653], [-72.68552749531264, 44.636526722712446], [-72.68547569349438, 44.63652948051995], [-72.68539146405134, 44.63653367772763], [-72.68524260215335, 44.63653947809365], [-72.68509744693188, 44.63653851204145], [-72.68500487867988, 44.636535945162905], [-72.68479719143784, 44.636520892730104], [-72.68426388940007, 44.63647521671502], [-72.68417415146786, 44.63646726846033], [-72.68408448521143, 44.63646444237783], [-72.68392311651795, 44.63646383843607], [-72.68378232599738, 44.636482370401055], [-72.68369562599796, 44.63649450944892], [-72.68368875112515, 44.63649547262425], [-72.68359798175847, 44.63650655533455], [-72.6834889467486, 44.63652079724993], [-72.68345900334496, 44.636524249759695], [-72.68347636238451, 44.63657177377219], [-72.68325124653862, 44.636614701526696], [-72.68315067009704, 44.63663388001946], [-72.68315994769846, 44.63665147662174], [-72.68317509654422, 44.636680003262896], [-72.6831886114582, 44.636705171312705], [-72.6832010438678, 44.63672798600045], [-72.68321296291577, 44.63674947412483], [-72.68322485661216, 44.6367705132273], [-72.68323688845803, 44.63679139282055], [-72.68324914206364, 44.63681224775873], [-72.68326169853565, 44.63683321829955], [-72.68327464401403, 44.63685444199271], [-72.68328805959183, 44.63687605459627], [-72.68330203015192, 44.63689819456185], [-72.683316641838, 44.63692100033902], [-72.68333194791337, 44.636944575333054], [-72.68334785480764, 44.636968823402206], [-72.68336421580413, 44.63699358189588], [-72.6833808829141, 44.6370186845658], [-72.68339770942003, 44.637043968761525], [-72.68341454987296, 44.637069274530404], [-72.68343126008945, 44.63709444371764], [-72.68344769461108, 44.63711931367106], [-72.68346370288363, 44.63714370464815], [-72.68346499600399, 44.637145689599286], [-72.68356415033062, 44.63703419278878], [-72.6833997952531, 44.63681385347555], [-72.6837778620069, 44.63671965291606], [-72.68435325854315, 44.63675201100196]]], [[[-72.6800117435535, 44.63739701105998], [-72.6800154859202, 44.63741216885115], [-72.68002774559255, 44.637438169878536], [-72.68003029666234, 44.63745447874768], [-72.68004324929808, 44.6374681632451], [-72.68006420424422, 44.637479808499826], [-72.68011371091603, 44.6374758958671], [-72.68008977044887, 44.63737309860557], [-72.68005894336002, 44.63725607542439], [-72.67998562379387, 44.63716406235169], [-72.67985495832731, 44.63701349341598], [-72.67983142456805, 44.636955652870746], [-72.67953063020228, 44.63663469453844], [-72.67936994866513, 44.63653693646294], [-72.67923050758046, 44.63643179336244], [-72.6791701553198, 44.63638628629073], [-72.67897656320721, 44.63622674561265], [-72.67871457616377, 44.63610727180374], [-72.67850251658191, 44.636018800890376], [-72.67844017355984, 44.636001138342365], [-72.67842782368729, 44.6360366784768], [-72.678403057136, 44.636085558658344], [-72.67833459160443, 44.63610342555586], [-72.678278460521, 44.63611156299582], [-72.67823262201938, 44.636117763911706], [-72.67819821656346, 44.63611373195122], [-72.67813512405777, 44.63610157163238], [-72.67809290807489, 44.63609012206243], [-72.678053647594, 44.63620187625134], [-72.67802718324862, 44.6365171504283], [-72.67802697409381, 44.63651964623908], [-72.67800937840991, 44.63674820895104], [-72.67800909956578, 44.63675182167394], [-72.67799551019887, 44.63694151948438], [-72.67799542076808, 44.63694277501538], [-72.67798360629148, 44.63715814663455], [-72.678645695333, 44.63719212528888], [-72.67878010819221, 44.63720039852824], [-72.67888942319804, 44.63722768128537], [-72.67895349845375, 44.637263469804154], [-72.67898532034962, 44.63727964823631], [-72.67906055126035, 44.637398133765366], [-72.6791129009685, 44.63737728327202], [-72.67914490256095, 44.637368263554606], [-72.67918611441114, 44.63735777150424], [-72.67921971490833, 44.637348172407066], [-72.6792664977632, 44.637332786807306], [-72.67929734390343, 44.637329212490485], [-72.67937840095443, 44.63733514798585], [-72.67940247794135, 44.63733704320058], [-72.67944422211859, 44.63734143763471], [-72.67950317331088, 44.63734174546114], [-72.67958064158576, 44.637349986654705], [-72.67963400639819, 44.63735346912393], [-72.67973475906979, 44.63736446964601], [-72.67980467511114, 44.63738047630265], [-72.67983202906218, 44.63739008760056], [-72.67985099405341, 44.63740345937902], [-72.67990147976558, 44.63739865257364], [-72.67995632079094, 44.63738752502899], [-72.67999518460196, 44.63738362831688], [-72.6800117435535, 44.63739701105998]]], [[[-72.67580730605482, 44.637602897823754], [-72.67627333814507, 44.63780323470497], [-72.6767488884167, 44.637977445505975], [-72.67689657729973, 44.63756873586697], [-72.67708400377983, 44.63758622247419], [-72.677175905924, 44.637639926786], [-72.67722629264206, 44.63748651986015], [-72.67727364293441, 44.63726154590351], [-72.67722306437797, 44.63725575870644], [-72.67725020314103, 44.63701226421342], [-72.67779681668395, 44.63705456854449], [-72.67781337674323, 44.63684730055238], [-72.67731227486756, 44.636780436963065], [-72.67643953204671, 44.63666397794973], [-72.67555379290565, 44.63654577829376], [-72.67453896149563, 44.6364103412261], [-72.67443293089558, 44.636774334635255], [-72.67441085706511, 44.63687931279053], [-72.6743691807904, 44.63711156988344], [-72.67436565969318, 44.63715380681257], [-72.67525196331891, 44.63728600589531], [-72.67533717852577, 44.637331471463185], [-72.67541260371364, 44.63737171535637], [-72.6756777043482, 44.63752676404984], [-72.67574174189153, 44.63756438306869], [-72.67580730605482, 44.637602897823754]]], [[[-72.68090074969848, 44.63681162250816], [-72.68090829534526, 44.63688088837705], [-72.6809446683591, 44.63695368756713], [-72.68100220185492, 44.63703771753827], [-72.68102748236932, 44.63709188068994], [-72.6810396156565, 44.63712697012569], [-72.68112956496036, 44.63717836425534], [-72.68123315857613, 44.63723431906711], [-72.68131156176672, 44.63731406992588], [-72.68135072170024, 44.63740933471523], [-72.68134755137754, 44.637504702708796], [-72.68134665824635, 44.63753156950515], [-72.68131968809588, 44.637634371744625], [-72.68128387280032, 44.637728026808205], [-72.6812367673844, 44.6377996579818], [-72.681198933033, 44.63788816416562], [-72.68114305223757, 44.63797555065923], [-72.68109513540097, 44.63804374715553], [-72.68104226908807, 44.638081639399594], [-72.68095568631533, 44.63814988272358], [-72.68089201519267, 44.63820958363044], [-72.68079378285817, 44.638280952712], [-72.6806475028318, 44.63833075729011], [-72.68060691707063, 44.6383319310826], [-72.6803919187588, 44.63851323530501], [-72.68094320578939, 44.63873271183497], [-72.68176612634811, 44.637917138488085], [-72.68223677816505, 44.63757746786885], [-72.68236942725167, 44.63748173208669], [-72.68278261770271, 44.637180882687716], [-72.68319072246797, 44.63704923432967], [-72.6831757583912, 44.63702658838835], [-72.68315957799815, 44.63700192407005], [-72.6831439110204, 44.636977794379824], [-72.68312887380303, 44.63695432332059], [-72.68311444095029, 44.63693145153851], [-72.6831005402341, 44.63690905676012], [-72.68308709563709, 44.636887014018285], [-72.68307403239956, 44.63686519744392], [-72.68306127703953, 44.636843486565326], [-72.68304875354029, 44.63682175641523], [-72.68303638967213, 44.63679988382011], [-72.68302403209695, 44.636777604448596], [-72.6830112181758, 44.636754092013376], [-72.68299741045624, 44.63672837635926], [-72.68298205629537, 44.63669946575686], [-72.68296459922931, 44.63666635498385], [-72.68294447520402, 44.636628028930346], [-72.6829312412236, 44.63660277940829], [-72.6828466088457, 44.63657508483541], [-72.6827409456, 44.63654050794874], [-72.68233934742743, 44.636409088912465], [-72.68212882765614, 44.63650433243765], [-72.68204723888356, 44.636473578081656], [-72.68197215599398, 44.63657258390917], [-72.6818333114299, 44.63666724740253], [-72.68171589050743, 44.63668316133256], [-72.6815492642872, 44.636736359760185], [-72.6814098447823, 44.63677062536219], [-72.68129032265324, 44.63675219215607], [-72.68121972542264, 44.6367391275343], [-72.68104175729614, 44.63675169282486], [-72.68100091669649, 44.63675446002412], [-72.68096637364353, 44.6367663568417], [-72.68090074969848, 44.63681162250816]]]]}, "properties": {"OBJECTID": 0, "ABB_DIST_NAME": "VG", "Shape_Length": 0, "Shape_Area": 0, "Jurisdiction_County": "Lamoille", "Jurisdiction_District_Name": "Johnson Town Johnson Village"}}, {"type": "Feature", "id": 0, "geometry": {"type": "MultiPolygon", "coordinates": [[[[-72.6817739177774, 44.63126797261206], [-72.68163506755629, 44.63167406697443], [-72.68164594970845, 44.63167718499948], [-72.68246158338857, 44.63193501861177], [-72.68248406519017, 44.6319421253821], [-72.68262054543575, 44.63199645247056], [-72.68262475220695, 44.63199924540461], [-72.68288779407123, 44.632173811831244], [-72.68289139355534, 44.63217625025825], [-72.68311249079554, 44.63232600765044], [-72.68311646741282, 44.632328537257756], [-72.68317852241871, 44.63236802176026], [-72.68332932067683, 44.632469400005725], [-72.6836114453642, 44.63226709675052], [-72.6830970862627, 44.63181816525387], [-72.68303550300092, 44.631762163657974], [-72.68343061409146, 44.63157985776976], [-72.68404525843901, 44.63129625256189], [-72.68364044849159, 44.63102460451558], [-72.6835578890475, 44.63091841040269], [-72.68340439974317, 44.63068570194717], [-72.68337635216722, 44.63059067458603], [-72.68329579835877, 44.63048991889166], [-72.68326093512859, 44.63042437222712], [-72.68321846054697, 44.630307304550534], [-72.68289460240103, 44.63024975248141], [-72.68197432675788, 44.6301151639875], [-72.6817739177774, 44.63126797261206]]], [[[-72.67330069082058, 44.63158271115675], [-72.67331012072482, 44.63158584747845], [-72.67333206878803, 44.63159315934344], [-72.67335422127258, 44.63160055548673], [-72.67337651383778, 44.63160801350772], [-72.67339888467149, 44.63161551370194], [-72.67342128584592, 44.63162304354315], [-72.67344377541404, 44.631630629940865], [-72.67346650238031, 44.63163837076036], [-72.6734895589996, 44.63164635135403], [-72.67351301482599, 44.631654651709205], [-72.6735369305891, 44.63166335092655], [-72.67356136322724, 44.631672524512844], [-72.67358637093916, 44.6316822479728], [-72.67358754693572, 44.63168272314466], [-72.67361197786153, 44.63169258516388], [-72.67363806546534, 44.63170351466779], [-72.67366433457828, 44.63171487315303], [-72.67369055661894, 44.63172650258069], [-72.67371651439359, 44.63173826019333], [-72.67374198816606, 44.63174999603828], [-72.67376673929556, 44.63176156019174], [-72.67379053164534, 44.631772797326875], [-72.67381312909968, 44.631783559316254], [-72.67383441292824, 44.631793758148845], [-72.67385455602663, 44.63180347365536], [-72.67387375024589, 44.631812802736015], [-72.6738921697802, 44.63182183781819], [-72.67390999132829, 44.63183066592571], [-72.67392738403287, 44.631839375893655], [-72.67394451954401, 44.631848052053584], [-72.67396157836613, 44.63185678952248], [-72.67397877509327, 44.63186570406363], [-72.67399617800379, 44.63187487026651], [-72.67401375568788, 44.631884320576155], [-72.67403146285653, 44.631894082059176], [-72.67404925169488, 44.63190417998619], [-72.67406707313312, 44.631914641429695], [-72.67408487936437, 44.63192549436013], [-72.67410258723213, 44.63193674610365], [-72.674119999856, 44.631948304268384], [-72.67413700213622, 44.6319600304418], [-72.67415362539131, 44.63197186158171], [-72.674169933777, 44.631983757993815], [-72.67418599144897, 44.631995679983774], [-72.67420185628306, 44.6320075950662], [-72.67421758614168, 44.63201946625609], [-72.67423124820961, 44.632029763933005], [-72.67423325280421, 44.63203127454554], [-72.67424898113802, 44.63204305304131], [-72.67426484058784, 44.632054844833625], [-72.67428081725566, 44.63206663824472], [-72.67429688084094, 44.632078415322276], [-72.67431300354744, 44.63209015271072], [-72.67432915380347, 44.63210182886002], [-72.67434530256051, 44.63211342311629], [-72.67436142077001, 44.63212491482569], [-72.67437747812579, 44.632136284236125], [-72.67439342033042, 44.632147496333616], [-72.67440918172497, 44.63215850982194], [-72.67442469412177, 44.632169280709135], [-72.67443989438496, 44.63217976859518], [-72.67445471180612, 44.63218992949199], [-72.67446907946575, 44.632199722105454], [-72.6744829354826, 44.632209104233915], [-72.67449624957156, 44.6322180633249], [-72.67450905965661, 44.63222663801736], [-72.6745214099821, 44.63223487324002], [-72.67453333595701, 44.63224280943542], [-72.6745448755163, 44.632250488842125], [-72.67455606658967, 44.63225795189886], [-72.67456694459162, 44.6322652408479], [-72.67457752220034, 44.632272380867846], [-72.67458772493195, 44.63227932977626], [-72.6745975097584, 44.632286028244096], [-72.67460693718127, 44.63229247887873], [-72.67461609548245, 44.63229870224353], [-72.67462507675712, 44.632304729695036], [-72.67463398067578, 44.63231059707777], [-72.67464291574986, 44.63231634652227], [-72.67465201448759, 44.63232203722079], [-72.67466144601853, 44.63232775260747], [-72.67467123938607, 44.6323335115362], [-72.67468131758055, 44.632339270028446], [-72.67469157960893, 44.632344971543475], [-72.67470192701761, 44.63235056583611], [-72.67471225882423, 44.63235599996537], [-72.67472247530935, 44.63236122188829], [-72.67473245909588, 44.63236617508931], [-72.67474209784515, 44.632370802145296], [-72.67475146094571, 44.632375127248096], [-72.67476073010036, 44.632379223913404], [-72.67477011981993, 44.632383179105574], [-72.67477984585959, 44.63238707438736], [-72.67479013026784, 44.63239098861205], [-72.67480118244994, 44.63239498715342], [-72.67481317649347, 44.632399125539976], [-72.67482620319622, 44.63240342253081], [-72.67484032807468, 44.63240787172583], [-72.67485568980425, 44.632412487311086], [-72.67487243966592, 44.632417284353146], [-72.67489072011625, 44.63242227703198], [-72.67491066730214, 44.63242747683736], [-72.67493241609688, 44.632432890761194], [-72.67495603327762, 44.63243851240073], [-72.67498164230219, 44.63244432446712], [-72.67501047611901, 44.63245045285876], [-72.67504431113295, 44.63245711263194], [-72.67508488208772, 44.632464494606275], [-72.67513381022151, 44.63247276277429], [-72.67519265119896, 44.632482067725824], [-72.67526292160471, 44.63249255560553], [-72.67530629813473, 44.63249871559989], [-72.6753084367587, 44.632435049962275], [-72.67534929869683, 44.632287518643096], [-72.67541706705103, 44.632098385734444], [-72.67543109511814, 44.63184731173842], [-72.67543422814325, 44.63179124171481], [-72.67544131046144, 44.63170574983605], [-72.67339739324817, 44.63104267344663], [-72.67330069082058, 44.63158271115675]]], [[[-72.6824850382111, 44.63323633639714], [-72.6824762935202, 44.63320516354098], [-72.68270674891502, 44.63320790253445], [-72.6823763633741, 44.63249088781773], [-72.68249827896885, 44.632537792340834], [-72.68268625542778, 44.63267776821028], [-72.68286063777342, 44.632550410112195], [-72.6828991138314, 44.6325790344473], [-72.68307991420114, 44.63244489291325], [-72.68307886353267, 44.632444224154845], [-72.68301368050534, 44.63240274858196], [-72.68278787232671, 44.63224980111369], [-72.68253306293873, 44.63208096641104], [-72.68241884431214, 44.63203550120359], [-72.6815892077463, 44.631773240335775], [-72.68151173587476, 44.63175104269407], [-72.68149854408095, 44.631747263283536], [-72.68097053519372, 44.63157190700912], [-72.68088499714926, 44.631546982356355], [-72.68089012522843, 44.63152507820367], [-72.68086528777017, 44.63151698043445], [-72.68077716998111, 44.63150745477183], [-72.68070031260532, 44.63149706079825], [-72.68065279571309, 44.631492759642654], [-72.68063067127649, 44.631491441151894], [-72.68062219556396, 44.63150960870686], [-72.68060461026867, 44.63156059376646], [-72.68058726645006, 44.631626059104605], [-72.68057698551348, 44.631686749079265], [-72.68055986693956, 44.631744808588174], [-72.68054957841574, 44.63179818939544], [-72.68054328822109, 44.63185180596003], [-72.68053033555023, 44.63190807342978], [-72.68051819356624, 44.63195794836226], [-72.68050515068053, 44.63202944446932], [-72.68048644501076, 44.63209963113581], [-72.68047314797124, 44.63216112049454], [-72.68045009911336, 44.63227233790904], [-72.68042714082375, 44.63235180048923], [-72.68041269703114, 44.63242516253455], [-72.68039623481212, 44.632501567705226], [-72.68038511778315, 44.632580106247026], [-72.68036303413571, 44.632651089254075], [-72.68034864241409, 44.632715270190886], [-72.68034650517092, 44.63276376951541], [-72.68034656374755, 44.632782276338936], [-72.68035342853449, 44.63278631875166], [-72.68041143256426, 44.632800506217556], [-72.68074971206924, 44.6328407783569], [-72.68088504282099, 44.63285799560708], [-72.6809836650601, 44.63286922969084], [-72.68098879769751, 44.63287025826842], [-72.68099156839166, 44.63287083882756], [-72.68099360395135, 44.6328712981621], [-72.68099562698359, 44.632871781814394], [-72.68099763749122, 44.632872290684354], [-72.68099963547421, 44.632872824771965], [-72.68100161967226, 44.6328733840792], [-72.6810035913429, 44.63287396770419], [-72.68100554796553, 44.632874575650916], [-72.68100748828262, 44.63287520882132], [-72.68100941354892, 44.6328758654135], [-72.68101132250409, 44.63287654542952], [-72.68101321515098, 44.63287724976925], [-72.68101508896613, 44.63287797753683], [-72.6810169464674, 44.63287872782829], [-72.68101878387944, 44.632879502449484], [-72.68102060245423, 44.632880298698645], [-72.68102240219731, 44.63288111837566], [-72.6810241805825, 44.6328819596846], [-72.68102593761259, 44.632882823525456], [-72.6810276745423, 44.63288370809639], [-72.68102938885663, 44.6328846152012], [-72.68103108181026, 44.63288554303809], [-72.68103275088542, 44.63288649251091], [-72.68103439607653, 44.632887461819934], [-72.68103601738633, 44.632888451864964], [-72.68103761481206, 44.63288946174617], [-72.68103918709342, 44.63289049146549], [-72.6810407342304, 44.632891541022964], [-72.6810422549599, 44.63289260952067], [-72.68104375054226, 44.63289369695658], [-72.68104521845402, 44.63289480243479], [-72.68104665869525, 44.6328959259553], [-72.68104807252618, 44.63289706751615], [-72.68104945616597, 44.632898227123285], [-72.68105081338986, 44.632899402970885], [-72.68105214041701, 44.63290059506497], [-72.68105343851049, 44.63290180430342], [-72.6810547064072, 44.632903029788366], [-72.68105594536465, 44.63290427061785], [-72.68105715286222, 44.63290552679588], [-72.68105833015744, 44.63290679742057], [-72.6810594747297, 44.63290808249584], [-72.68106058909957, 44.63290938201778], [-72.6810616707437, 44.632910695090445], [-72.68106272092238, 44.63291202171183], [-72.68106373837246, 44.632913360984], [-72.68106472183369, 44.63291471290895], [-72.68106567382385, 44.632916076582795], [-72.68106659056204, 44.632917452011526], [-72.68106747456606, 44.63291883829123], [-72.68106832457839, 44.632920236323805], [-72.6810691405907, 44.63292164340951], [-72.68106992134821, 44.632923061350176], [-72.68107066684816, 44.63292448924589], [-72.68107137834521, 44.6329259252948], [-72.68107205584217, 44.63292737039686], [-72.68107269555537, 44.63292882365812], [-72.68107330000261, 44.63293028417467], [-72.68107387044694, 44.63293175284442], [-72.6810744031019, 44.632933227873565], [-72.68107490048807, 44.63293470925808], [-72.68107536134518, 44.63293619699996], [-72.68107578567037, 44.63293769019929], [-72.68107617346368, 44.632939188856106], [-72.68107652471949, 44.63294069117052], [-72.68107683818033, 44.63294219804445], [-72.68107711510363, 44.63294370857604], [-72.68107735674977, 44.63294522276325], [-72.68107756059251, 44.632946738810226], [-72.68107772663465, 44.63294825761692], [-72.68107785613368, 44.632949778281365], [-72.6810779478293, 44.632951300805594], [-72.6810780017187, 44.63295282428973], [-72.6810780203197, 44.632954347829774], [-72.68107799984858, 44.632955870531866], [-72.68107794408907, 44.6329573932899], [-72.68107784926022, 44.632958916109864], [-72.68107771787427, 44.63296043628804], [-72.68107754993679, 44.632961955624225], [-72.6810773441791, 44.6329634714207], [-72.6810611976075, 44.633072659471985], [-72.68128479582307, 44.633129078209286], [-72.68147792745727, 44.63314093574478], [-72.68153169133784, 44.633145475005286], [-72.68153737150165, 44.63314586104287], [-72.68160128029074, 44.6331502068598], [-72.68204195828456, 44.633156725378555], [-72.68214816378541, 44.63316409019892], [-72.68227723839182, 44.633184169431516], [-72.68231869327204, 44.63319284961288], [-72.6824850382111, 44.63323633639714]]], [[[-72.68088817499688, 44.6341985778289], [-72.68105892586632, 44.63418143100861], [-72.6812528949148, 44.63415996795476], [-72.68184721784954, 44.63409069206552], [-72.68208789140304, 44.63385876657022], [-72.68219893473868, 44.633716911026994], [-72.68232974997487, 44.6336211133575], [-72.68239707482772, 44.63347216491596], [-72.68246629225145, 44.6334245474233], [-72.68246368081392, 44.63338873106533], [-72.68246126164759, 44.633387728816466], [-72.68239804541338, 44.63335794065513], [-72.6822593532093, 44.63332184838171], [-72.68223021076457, 44.6333157466115], [-72.68211864764312, 44.63329839136781], [-72.6820307884862, 44.63329229856903], [-72.68159028592171, 44.633285783328155], [-72.68151151977484, 44.63328042620749], [-72.681466287817, 44.63327660681876], [-72.68145862309541, 44.63327596025339], [-72.68103026787043, 44.63324966124495], [-72.68049176839584, 44.63339994933511], [-72.68043361847428, 44.63340354911774], [-72.68040760595031, 44.633405307263644], [-72.67989751116184, 44.63343977889872], [-72.67987960438367, 44.63330467198357], [-72.68041645641806, 44.63326839341347], [-72.68044112232047, 44.633266865973496], [-72.68044807791406, 44.633266434720014], [-72.68083242648619, 44.6331591697466], [-72.68073029890562, 44.63313536195738], [-72.68061244264547, 44.6331139619474], [-72.68048253179632, 44.633088962275906], [-72.68043833663484, 44.63308045764257], [-72.68026641596275, 44.63304891235472], [-72.68008030937419, 44.63301204453426], [-72.67993334500285, 44.632981904668064], [-72.67981447809125, 44.632957897449586], [-72.67969525513318, 44.63294018562851], [-72.67968958367581, 44.63293934322467], [-72.67957053504445, 44.63292786836507], [-72.6794398241811, 44.63291576736026], [-72.67929609492221, 44.63290178420695], [-72.67914356768287, 44.6328898952951], [-72.67898325550449, 44.63287961484333], [-72.67881593374449, 44.632868571207815], [-72.67867424925169, 44.632854681261996], [-72.67851943338412, 44.632835338335205], [-72.6783631317367, 44.63281188577083], [-72.67840221520913, 44.632679077087325], [-72.67855536431239, 44.63270205666842], [-72.67870356197758, 44.63272057297433], [-72.6788376152421, 44.63273371349912], [-72.6790005019787, 44.63274446527984], [-72.67916238191205, 44.63275484583954], [-72.67931923898112, 44.63276707259888], [-72.679464872801, 44.63278124081456], [-72.67959546612649, 44.63279333117677], [-72.67972169278944, 44.63280549755521], [-72.67985975306296, 44.63282600814299], [-72.67986566505512, 44.63282720202947], [-72.67998544096876, 44.63285139314686], [-72.68013194725367, 44.6328814382774], [-72.68031547581325, 44.632917796228824], [-72.68048671643197, 44.63294921652905], [-72.68066059130287, 44.632982676130396], [-72.68078326818818, 44.63300495128507], [-72.68090925409071, 44.6330343205584], [-72.68097934060951, 44.63305200549454], [-72.68099337042156, 44.632957140382935], [-72.68099350057857, 44.63295603507128], [-72.68099356193093, 44.632955094554575], [-72.68099357790689, 44.632954152309935], [-72.68099354850922, 44.63295320923728], [-72.68099347122853, 44.63295226894028], [-72.68099334858262, 44.63295133051501], [-72.6809931805799, 44.632950396661236], [-72.68099296721755, 44.63294946647902], [-72.68099270724367, 44.632948542670135], [-72.68099240317886, 44.63294762523062], [-72.68099205376846, 44.63294671596225], [-72.6809916615386, 44.632945816660865], [-72.68099122522902, 44.6329449273285], [-72.68099074484532, 44.63294404976498], [-72.68099022290808, 44.6329431839663], [-72.68098965690508, 44.63294233263625], [-72.68098905187479, 44.63294149486684], [-72.68098840530492, 44.6329406733619], [-72.68098771845862, 44.63293986901933], [-72.6809869938537, 44.63293908093517], [-72.68098623150132, 44.63293831270916], [-72.68098543013839, 44.63293756344333], [-72.6809845948089, 44.63293683402962], [-72.68098372299788, 44.632936126271865], [-72.68098281722871, 44.63293544106601], [-72.68098187876166, 44.63293477841], [-72.68098090886267, 44.63293414010173], [-72.68097990752888, 44.63293352524129], [-72.68097887728935, 44.63293293652437], [-72.68097781940436, 44.63293237394903], [-72.6809767326136, 44.63293183751727], [-72.68097562322414, 44.6329313290189], [-72.6809744874551, 44.63293084845993], [-72.68097332908742, 44.632930395834364], [-72.68097215064722, 44.63292997293806], [-72.68097095213453, 44.632929579771016], [-72.68096973354936, 44.63292921633321], [-72.6809684986754, 44.63292888351858], [-72.68096724877293, 44.63292858132513], [-72.68096598384477, 44.63292831065277], [-72.68087098479243, 44.63291745148339], [-72.68073536266294, 44.63290019778097], [-72.68039066550594, 44.632859161802514], [-72.68031154037267, 44.632839808818915], [-72.68026221034829, 44.63281075438347], [-72.68026206091241, 44.63276288771629], [-72.68026441382773, 44.63270953206851], [-72.68028005497933, 44.63263977504696], [-72.68030160587584, 44.632570503650506], [-72.6803124430629, 44.63249394628908], [-72.6803291551157, 44.63241638073509], [-72.68034389804178, 44.63234150095764], [-72.68036691879469, 44.632261825013614], [-72.68038965738093, 44.63215210737759], [-72.68040321788644, 44.63208939101715], [-72.68042173804353, 44.63201990569733], [-72.68043469302764, 44.631948886697785], [-72.68044707649938, 44.63189801877736], [-72.68045942365936, 44.631844387248634], [-72.68046562184999, 44.63179155826668], [-72.68047662363337, 44.631734474056], [-72.68049360011405, 44.63167689804276], [-72.68050377592354, 44.63161682468902], [-72.68052207029974, 44.631547770767185], [-72.68054101588469, 44.631492844606115], [-72.68054612009892, 44.63148190157073], [-72.68034679322167, 44.63145852512276], [-72.67980943000866, 44.63139651367052], [-72.67982290252458, 44.63133699043673], [-72.68036037110372, 44.63139901425876], [-72.68090469604928, 44.63146285063477], [-72.68090967362863, 44.63144159286409], [-72.68102892542579, 44.63147634252207], [-72.68154519331237, 44.63164779892806], [-72.68168823907419, 44.63122943834466], [-72.68175337218338, 44.630790061471025], [-72.68108034436933, 44.63071267073795], [-72.68097264798399, 44.631172632036304], [-72.68020861433327, 44.6308684367931], [-72.67929380823196, 44.63050619328041], [-72.67845330059397, 44.6301737658998], [-72.67794517464861, 44.631510211362276], [-72.67598454862681, 44.63090493451295], [-72.67597665184634, 44.63094706488979], [-72.67594628974527, 44.63095045488352], [-72.67604340520619, 44.631416404268684], [-72.67603734631477, 44.631610850109944], [-72.67595044602231, 44.63175963602759], [-72.67593815256103, 44.63178068437014], [-72.67584316074726, 44.6318860676755], [-72.67559311504733, 44.63216345771635], [-72.67555053299314, 44.63229242185769], [-72.67551117693897, 44.632481126012834], [-72.6755098369469, 44.63264745274332], [-72.67550978928854, 44.632653384209036], [-72.67559117512167, 44.63287387792974], [-72.67560473548991, 44.63289418634018], [-72.67565290392123, 44.63296632208545], [-72.67566397282364, 44.632982491975056], [-72.67573529549149, 44.63308668332051], [-72.6757408717409, 44.63309482984171], [-72.67578566176215, 44.63316242251652], [-72.6758365412168, 44.63326490840776], [-72.67585484837694, 44.63324649569551], [-72.6758731390069, 44.63319632472622], [-72.67590135559645, 44.633181128369294], [-72.67591777271402, 44.63317163229418], [-72.67635863997833, 44.63296240512819], [-72.67661204467954, 44.63313355865581], [-72.67686550012334, 44.63330474483449], [-72.67717150420289, 44.633366394019596], [-72.67742147833079, 44.6328991790465], [-72.67882905487889, 44.63314643786835], [-72.67858175772666, 44.63388854664093], [-72.67898901600658, 44.63400869404663], [-72.68018402137682, 44.63419687956287], [-72.68046512735542, 44.633925612965136], [-72.68088817499688, 44.6341985778289]]], [[[-72.67280972899277, 44.63377340870102], [-72.67287888487266, 44.634025350819456], [-72.67263961408597, 44.6340853938337], [-72.67239388291812, 44.634135414658864], [-72.67173654847245, 44.63427280448031], [-72.67191133918618, 44.63468086884508], [-72.6725674289983, 44.63455034181854], [-72.67281260893861, 44.634489010329105], [-72.6729259137658, 44.6344585465298], [-72.67305443188634, 44.63443100591409], [-72.67329743166252, 44.63437644140521], [-72.6738391670743, 44.6342661020086], [-72.67412515278436, 44.63420054253746], [-72.67444614409405, 44.63413263138339], [-72.67473595936862, 44.63406858450142], [-72.67503177923564, 44.634006554307184], [-72.67523931629832, 44.633958352964314], [-72.67555079478925, 44.633891776185166], [-72.67536060790167, 44.63347460585866], [-72.67506363295396, 44.63353834673438], [-72.67484911327907, 44.6335851131757], [-72.6745348776235, 44.633646925367], [-72.67423227775309, 44.633709543271884], [-72.67394127989175, 44.633769245853436], [-72.67394088692706, 44.633678197659414], [-72.67431514748603, 44.63360209022134], [-72.67418485298552, 44.633283134965254], [-72.67407395589314, 44.63302737046613], [-72.67404154670575, 44.63294333555806], [-72.67416248056513, 44.63292476037898], [-72.67427173331575, 44.6331759502979], [-72.67434461342867, 44.6333485648693], [-72.67443962360414, 44.633575768207976], [-72.6748170771991, 44.63349821437024], [-72.67487913539908, 44.63348734368585], [-72.67517494194949, 44.63342359428232], [-72.675603554233, 44.633331221326955], [-72.67565718018224, 44.63331895750476], [-72.67557487822094, 44.633162746751225], [-72.67554359616247, 44.63311471015566], [-72.67543121869751, 44.63294213812094], [-72.67535621432816, 44.63278736756546], [-72.6753558871175, 44.632786267462045], [-72.67532983702803, 44.63269848937166], [-72.67531971936795, 44.63263905959002], [-72.67522492321429, 44.63262559643455], [-72.67515264031682, 44.632614809244], [-72.67509135558608, 44.63260511655208], [-72.67503950449169, 44.63259635518846], [-72.67502993863101, 44.63259461409915], [-72.67499556535037, 44.632588360112], [-72.67495808332511, 44.632580982373405], [-72.67492571709593, 44.63257410254383], [-72.6748971606972, 44.63256762273612], [-72.67487104377044, 44.632561405563315], [-72.67484676866574, 44.632555361949734], [-72.67482415004648, 44.63254946788238], [-72.67480307066427, 44.63254371004277], [-72.67478341580497, 44.63253807960813], [-72.67476507832163, 44.63253256954377], [-72.6747479573823, 44.632527177304816], [-72.67473193953334, 44.632521894066194], [-72.67471683435967, 44.63251668322279], [-72.67470243369421, 44.632511472199646], [-72.67468861640847, 44.63250621438629], [-72.67467528788059, 44.632500876630495], [-72.67466236611328, 44.6324954329601], [-72.67464977039128, 44.63248986460028], [-72.67463740866474, 44.63248415549323], [-72.674625163643, 44.63247827792081], [-72.67461288142763, 44.632472184422426], [-72.67460052671457, 44.63246586965245], [-72.67458814494448, 44.63245935693945], [-72.67457579040445, 44.63245267769773], [-72.67456352241182, 44.63244585973421], [-72.67455140029463, 44.632438934455564], [-72.67453948209912, 44.63243192607108], [-72.67452784482157, 44.63242487405976], [-72.67451662228441, 44.632417855610576], [-72.67450585246077, 44.63241092556092], [-72.67449548244524, 44.632404092991], [-72.67448543280706, 44.63239734722321], [-72.6744756152881, 44.632390675793545], [-72.67446594034038, 44.63238405634075], [-72.67445630579691, 44.63237746112336], [-72.6744465854805, 44.632370840838306], [-72.67443657362192, 44.632364081509614], [-72.67442611361678, 44.63235707358582], [-72.6744151624727, 44.632349769436466], [-72.67440369741865, 44.6323421402987], [-72.67439169946178, 44.63233415650387], [-72.67437914834358, 44.63232578658547], [-72.67436602255344, 44.632317001778596], [-72.67435230687954, 44.63230777240879], [-72.67433801390919, 44.632298093057116], [-72.67432321434836, 44.63228800681173], [-72.67430797133314, 44.6322775540726], [-72.67429234799418, 44.632266773439916], [-72.67427640746742, 44.63225570531371], [-72.67426020909987, 44.63224438740004], [-72.67425877439133, 44.63224337897552], [-72.67424381854785, 44.63223286009521], [-72.67422729894702, 44.63222116379931], [-72.67421071216738, 44.63220933711463], [-72.67419409862433, 44.63219740877702], [-72.67417748484043, 44.63218539764443], [-72.6741609011245, 44.63217332436884], [-72.67414437400171, 44.632161208708155], [-72.67412793125753, 44.6321490704183], [-72.67411159815138, 44.63213692745932], [-72.6740954239338, 44.6321248130533], [-72.67407950591007, 44.632112815244504], [-72.67406389478711, 44.63210103294722], [-72.67404856173407, 44.63208951840109], [-72.6740334665345, 44.63207830946431], [-72.67401856644604, 44.632067442199], [-72.67400382502233, 44.63205695085782], [-72.67398920454865, 44.63204686699564], [-72.67397463825128, 44.632037197913604], [-72.67395993935021, 44.63202785750357], [-72.6739449625662, 44.63201872989674], [-72.67392970399206, 44.63200977280251], [-72.67391419508373, 44.63200096907437], [-72.67389846602612, 44.63199229796801], [-72.67388255205329, 44.63198374143127], [-72.67386648208723, 44.63197527782181], [-72.673850309022, 44.63196689446016], [-72.67383410596726, 44.63195859573469], [-72.67381779969509, 44.6319503376605], [-72.67380120971973, 44.63194203141986], [-72.6737841467041, 44.63193357830922], [-72.67376641879886, 44.63192488232844], [-72.67374783920674, 44.631915851069344], [-72.673728222383, 44.6319063894219], [-72.67370740171951, 44.63189641304622], [-72.67368532674195, 44.6318859004202], [-72.67366223480778, 44.63187499337006], [-72.67363838853605, 44.63186385258218], [-72.67361404423862, 44.631852636952836], [-72.67358946578588, 44.63184150446708], [-72.67356492462812, 44.63183061939822], [-72.6735407035631, 44.63182014780232], [-72.67351707023525, 44.63181024585959], [-72.67349411179563, 44.63180097823247], [-72.67347164646056, 44.63179224350614], [-72.67344952772899, 44.631783938412276], [-72.67342763940026, 44.63177597763478], [-72.6734058677839, 44.63176827225411], [-72.67338409920293, 44.631760737850016], [-72.67336223258333, 44.631753289983195], [-72.67334018451652, 44.63174585138683], [-72.6733179851554, 44.63173839051769], [-72.67329576945123, 44.63173094136804], [-72.67327362066511, 44.631723531709135], [-72.67325752224257, 44.63171815749296], [-72.6732092052433, 44.63242096452548], [-72.67323513533714, 44.63246655759425], [-72.67328796045433, 44.63288111337695], [-72.6727805346198, 44.63345944369162], [-72.6727822173208, 44.63360689080714], [-72.67280972899277, 44.63377340870102]]], [[[-72.67085791345104, 44.635110404256956], [-72.67067794259874, 44.6352050113408], [-72.67059617331091, 44.63525277721262], [-72.67048247423419, 44.635332479449076], [-72.67039771480351, 44.63540342264737], [-72.67031366548375, 44.635485819837136], [-72.67024679185016, 44.63557630236389], [-72.6701896727127, 44.635650219839484], [-72.67032050603787, 44.635705759703384], [-72.67033774859743, 44.63563449882075], [-72.67036938877773, 44.63553757586492], [-72.67046125054813, 44.63548126202919], [-72.67052815285307, 44.63543773009267], [-72.67055670869533, 44.63537572148342], [-72.67064700088461, 44.63531510731077], [-72.6707104478209, 44.635252093505315], [-72.67076803761613, 44.63521997556527], [-72.6708766811559, 44.635170886074995], [-72.67090218429347, 44.63515194504062], [-72.67092909426201, 44.63509746845057], [-72.6709617782857, 44.63510323572969], [-72.6710086537637, 44.63510380899577], [-72.67106850839893, 44.635097960752965], [-72.67113861296971, 44.63508250754463], [-72.67119895154482, 44.63507322980307], [-72.6712687473211, 44.63507065037077], [-72.67133858341101, 44.635066353782946], [-72.67141073445143, 44.63506580635538], [-72.67149543689978, 44.63505997458851], [-72.6715794128886, 44.63505098602175], [-72.67163896990628, 44.63504084079653], [-72.67168434667643, 44.635037103608425], [-72.67173053723103, 44.635032804526865], [-72.67178934447111, 44.63503724359675], [-72.67185834527982, 44.63503436712548], [-72.67193293469863, 44.63503241811891], [-72.67199043932246, 44.63502425023035], [-72.6720494518597, 44.63502010719498], [-72.67212126070756, 44.63503386230433], [-72.6721948591235, 44.63505651130539], [-72.6722569009436, 44.63507644192513], [-72.67231481931496, 44.63510118701905], [-72.67235659258621, 44.63511400367763], [-72.67238989772467, 44.63512900461651], [-72.67241550696431, 44.63514734507778], [-72.67242232865446, 44.63516373946841], [-72.67244785355989, 44.635168915981815], [-72.67249686995584, 44.635163792494026], [-72.67256508013683, 44.6351437363675], [-72.67263000325103, 44.63512707517718], [-72.67267512272488, 44.63511732470152], [-72.67270723376406, 44.63509854515827], [-72.67273329492095, 44.635081408115695], [-72.67277020226379, 44.63507985571854], [-72.67279791885744, 44.63509393087281], [-72.67282237530235, 44.63511025446074], [-72.67282802153323, 44.63512548970575], [-72.67285563368542, 44.63514385493502], [-72.67289428497709, 44.635153197921056], [-72.67294091913593, 44.63514718692562], [-72.67297776484425, 44.63514820923331], [-72.67304401772097, 44.63515960628039], [-72.67309318946153, 44.635164786415146], [-72.67314617107839, 44.6351614276867], [-72.67319123554161, 44.63515396559379], [-72.67323854670283, 44.63515311270649], [-72.67328627880346, 44.6351514069342], [-72.67335168708667, 44.63514791316504], [-72.67342231801823, 44.635143911971085], [-72.67347038255431, 44.63514507187057], [-72.67353409365741, 44.63514556363221], [-72.67359343195109, 44.635144571733065], [-72.67365119258932, 44.63514241590219], [-72.67370103856302, 44.63513615673375], [-72.67375513406975, 44.63513653160741], [-72.67379877630957, 44.635138209252645], [-72.67384261559926, 44.63514847454269], [-72.67388035559124, 44.63516238478941], [-72.67392688149255, 44.63517754693522], [-72.6739790723835, 44.63519048932264], [-72.67403635175893, 44.63519176093537], [-72.6740956687079, 44.63519162643408], [-72.67415461491669, 44.635193533491744], [-72.67420999240669, 44.635191429608085], [-72.67439054988634, 44.635174688165854], [-72.67454131640277, 44.63516556031954], [-72.67454578984763, 44.63516528890564], [-72.67464903581212, 44.635154445386846], [-72.67474454862538, 44.63514920122646], [-72.67485408197349, 44.635148278548094], [-72.67499893385815, 44.63514513823863], [-72.67514621864896, 44.63513627770606], [-72.67529830556306, 44.635130002289955], [-72.67543273776927, 44.63512426404765], [-72.67553586443967, 44.63512075247975], [-72.67554118963413, 44.63511998296044], [-72.67546197803944, 44.634566757541975], [-72.67543653950653, 44.63450073059568], [-72.67539763620458, 44.63440813520573], [-72.67519248229458, 44.634118305996736], [-72.6748424682133, 44.634193097696595], [-72.67458677901286, 44.63424806016074], [-72.67426641876409, 44.63431979631735], [-72.67420419857658, 44.63433372845147], [-72.67369304880519, 44.63444818340931], [-72.67323423060252, 44.634555153947595], [-72.67308528275449, 44.63459180144883], [-72.67290188314686, 44.634635631005075], [-72.67281765454288, 44.6346552058177], [-72.67271242673122, 44.634681389861036], [-72.67261654489032, 44.634702252838046], [-72.67249484323017, 44.634730238925556], [-72.67237759604701, 44.63475627612697], [-72.67225761280912, 44.63477941958366], [-72.6721444674965, 44.63480150059817], [-72.67203342268084, 44.634819601578336], [-72.67191629854437, 44.634840488763], [-72.67179834458277, 44.634862510978316], [-72.67167923892855, 44.634882516276456], [-72.67158016463596, 44.634902765834624], [-72.6714984005024, 44.63491979278957], [-72.67141537216827, 44.63493938096336], [-72.67133152200192, 44.634959816236886], [-72.6712625851848, 44.63497671488847], [-72.6711948225988, 44.63499477173854], [-72.67113387787727, 44.63501262664895], [-72.67108865488044, 44.63502666750209], [-72.67102682781467, 44.63504794428295], [-72.67095484610151, 44.63507482115061], [-72.67090949948921, 44.63509401147492], [-72.67085791345104, 44.635110404256956]]], [[[-72.67143844458161, 44.635831617760225], [-72.67151765830633, 44.635837450912724], [-72.67161437674532, 44.63584865004402], [-72.67173309620233, 44.63586154836389], [-72.6718743430558, 44.63587427497263], [-72.67236284148842, 44.63595534083441], [-72.67254492182515, 44.63598834412869], [-72.67263752931727, 44.63599994816947], [-72.67280004753195, 44.63602482732752], [-72.67292064832702, 44.63604289881996], [-72.67310954746185, 44.6360706749386], [-72.67313606820105, 44.63607404814319], [-72.67335847107567, 44.63610233280646], [-72.67342471295315, 44.63611430199815], [-72.67358528394733, 44.636136867494656], [-72.67372305772905, 44.63615743631948], [-72.67387725324883, 44.6361784929337], [-72.67403925503145, 44.636201027715764], [-72.6751662402697, 44.63635320861155], [-72.67544681884863, 44.63639053417814], [-72.67572898776302, 44.63642806988978], [-72.67604264523833, 44.636469793206246], [-72.6761324302546, 44.636032025197444], [-72.67625961888687, 44.635420598006384], [-72.6762281649995, 44.63541298910405], [-72.67617284614207, 44.63540285852857], [-72.6761311662074, 44.63539332783994], [-72.67608504977926, 44.63538836748361], [-72.67603410228243, 44.63538711953624], [-72.67595068488252, 44.63538778173399], [-72.67594783905882, 44.6353878041167], [-72.67586679825142, 44.63538706771182], [-72.67577973879663, 44.635386605090204], [-72.67568262289812, 44.63539156010723], [-72.67565966613365, 44.63539011504571], [-72.67561684485499, 44.63538741903687], [-72.67554744221248, 44.63538584737932], [-72.67548445616728, 44.63538514684474], [-72.67541223302709, 44.635386145118005], [-72.67537157971944, 44.63538809828707], [-72.67536648608346, 44.63538834278805], [-72.67529746977439, 44.63538992011439], [-72.67523045790739, 44.63539207387376], [-72.6751674544647, 44.63539480819548], [-72.67509604618061, 44.63539351831575], [-72.6750539217294, 44.63539286025208], [-72.67500258753401, 44.635388747983754], [-72.67497448330954, 44.63539269850825], [-72.67493314184352, 44.635396335430755], [-72.67486653447637, 44.63539763163073], [-72.67480272941683, 44.63540036427886], [-72.67474935515044, 44.63540311782863], [-72.67468675373067, 44.63540585306989], [-72.67440434450383, 44.635409497399785], [-72.67422625825944, 44.63541794590659], [-72.67420128748276, 44.63542577462655], [-72.67419289631283, 44.63542840529993], [-72.67412513853822, 44.63542813425711], [-72.67404861322085, 44.63542095703114], [-72.67396558790306, 44.635424632821994], [-72.67384522637633, 44.635434456966415], [-72.67374973864591, 44.63544237760592], [-72.67365992639657, 44.635442303623094], [-72.67355247559966, 44.63544187300763], [-72.6734661531612, 44.63545698606186], [-72.67339680009121, 44.63545556330922], [-72.67334354380895, 44.63544676101721], [-72.67329712872001, 44.63543455111226], [-72.67329575329713, 44.63540563058801], [-72.67319855122432, 44.63537661244652], [-72.67312165455404, 44.635365711282915], [-72.67298145042345, 44.63534940384435], [-72.67287638744489, 44.63535127187803], [-72.67281860749085, 44.63535676605898], [-72.67276923134133, 44.63536429752177], [-72.67273435844119, 44.635363012085485], [-72.6727111465762, 44.63535796802673], [-72.67268466169098, 44.63535466666264], [-72.67266472533966, 44.63535041677305], [-72.67263201515821, 44.63534400747637], [-72.67258592639844, 44.63534401593766], [-72.67254986459821, 44.6353604589165], [-72.67251633900581, 44.63538809218977], [-72.67248311095095, 44.63542002213395], [-72.67244858137764, 44.635439344318605], [-72.67240526588247, 44.63545741536479], [-72.67235485499434, 44.63547053492953], [-72.67230297893654, 44.63547791247678], [-72.67223992553991, 44.635483436818674], [-72.67220345231729, 44.6354835638124], [-72.67215333646243, 44.635484380901964], [-72.67209905309124, 44.63547513321631], [-72.67204365042716, 44.635462435987876], [-72.67200078454472, 44.63544502855631], [-72.6719830636328, 44.63544195950937], [-72.67196167193754, 44.63543825524189], [-72.67192370676538, 44.63543378488847], [-72.671853377264, 44.63542519838493], [-72.67179147442394, 44.63541614200246], [-72.67172307384602, 44.63541072744398], [-72.67165313051291, 44.63540271798675], [-72.67157346952061, 44.6353988816279], [-72.67150464003196, 44.63539460508508], [-72.67147032797912, 44.63538817626306], [-72.67143451601706, 44.635377436353316], [-72.6714080570672, 44.63536108847674], [-72.67138570701518, 44.63534049759258], [-72.6713617965874, 44.63531817039478], [-72.67132128409858, 44.635286197529275], [-72.67128694977501, 44.63526402903939], [-72.6712545149271, 44.635246177319324], [-72.67120859804801, 44.63523903328221], [-72.6711588617753, 44.63524071419202], [-72.67111419778686, 44.63524817938253], [-72.67106448505841, 44.635265599862066], [-72.67102744816982, 44.63528918380677], [-72.67098827823077, 44.63531817856767], [-72.67095022076587, 44.635350906328526], [-72.67091472651086, 44.63537708510382], [-72.67088144926366, 44.63541101698343], [-72.67085036804102, 44.635436963254925], [-72.67081425144141, 44.635472290642376], [-72.67076996397645, 44.63551409977913], [-72.67073571230713, 44.63553857578645], [-72.67070784289598, 44.635564276037805], [-72.67067324616445, 44.63560305501084], [-72.67064604804074, 44.635634199674904], [-72.67062665682154, 44.635674025020855], [-72.67060319568886, 44.635716375326], [-72.6705812490935, 44.63576246434178], [-72.67055843233639, 44.63581140380714], [-72.67054178910362, 44.63585355133323], [-72.67052139337937, 44.63586846830515], [-72.6705097835674, 44.63588463654778], [-72.67048790211877, 44.63591126822294], [-72.67048659279027, 44.63593242735514], [-72.67050332591262, 44.63595323558081], [-72.67051896798202, 44.635969452228615], [-72.67054762522586, 44.63598370920661], [-72.67054611730143, 44.63598783490317], [-72.67055466710288, 44.63598721198813], [-72.67060703750822, 44.63597367812747], [-72.67069185490065, 44.63594638723428], [-72.67077666548795, 44.63591938156359], [-72.67085779473796, 44.635895478870395], [-72.67095614581314, 44.63587207319687], [-72.6710428568805, 44.63584938321142], [-72.67123444234205, 44.6358319831999], [-72.67132508039124, 44.63582937158261], [-72.67143844458161, 44.635831617760225]]], [[[-72.67044042865494, 44.63684590040761], [-72.67050124640213, 44.637064581646115], [-72.6704922741853, 44.63713879903341], [-72.67202850355747, 44.637279746827964], [-72.67215044898705, 44.636781149209085], [-72.67216314319826, 44.63675287071231], [-72.6729288993587, 44.6368256397333], [-72.67319020755828, 44.636854544346825], [-72.67419089911304, 44.63705854313912], [-72.67424359520525, 44.63675538061409], [-72.67435327740208, 44.636369207716704], [-72.67403639305115, 44.63633860321867], [-72.67368684452099, 44.63629388004232], [-72.67347634101374, 44.636263401933206], [-72.67322005264002, 44.63622636405823], [-72.67309869659418, 44.6362096277123], [-72.6723311405568, 44.63609499454518], [-72.67222933498108, 44.6360753687198], [-72.67192566331325, 44.63602043153207], [-72.67166830611853, 44.63598952745364], [-72.67142676329345, 44.635967685576205], [-72.67126966489822, 44.6359674803099], [-72.6711431761867, 44.63597766536362], [-72.67109295780531, 44.63598277297187], [-72.67098254565974, 44.63600774828644], [-72.67092409334317, 44.63602191326793], [-72.67083682401227, 44.6360511779312], [-72.6707625461838, 44.63607344780477], [-72.67057676389732, 44.63612486442488], [-72.67051026746466, 44.63612949843063], [-72.67046271819883, 44.63625853279602], [-72.67043020764491, 44.63641471335545], [-72.67039287628788, 44.63662269252665], [-72.67044042865494, 44.63684590040761]]], [[[-72.6767488884167, 44.637977445505975], [-72.67670018163001, 44.638112233819655], [-72.67752149890467, 44.63841514732302], [-72.67755135065185, 44.638273333490886], [-72.67756716930647, 44.63820939552928], [-72.67759056473353, 44.63812535052224], [-72.67761711586637, 44.63806516653671], [-72.67764531515886, 44.638010631491895], [-72.67770950892289, 44.637750733092446], [-72.67772337985703, 44.637697506308285], [-72.6777530699231, 44.63751374818215], [-72.67778455049242, 44.63728818856589], [-72.67779681668395, 44.63705456854449], [-72.67725020314103, 44.63701226421342], [-72.67722306437797, 44.63725575870644], [-72.67727364293441, 44.63726154590351], [-72.67722629264206, 44.63748651986015], [-72.677175905924, 44.637639926786], [-72.67708400377983, 44.63758622247419], [-72.67689657729973, 44.63756873586697], [-72.6767488884167, 44.637977445505975]]], [[[-72.67722488445078, 44.6386946612168], [-72.67748155493491, 44.63871082480198], [-72.6774814902501, 44.63868175022115], [-72.67749818953695, 44.63855891100636], [-72.6775093028947, 44.63848124575795], [-72.67751662721368, 44.63844155500954], [-72.67726900402292, 44.63842126661587], [-72.67722488445078, 44.6386946612168]]], [[[-72.67822168877059, 44.63909532390647], [-72.67902831893775, 44.63917583102943], [-72.67930474770729, 44.63840523780841], [-72.67892844646137, 44.638367847659495], [-72.6789872969199, 44.637599939162925], [-72.67899552532624, 44.63739510396734], [-72.67906055126035, 44.637398133765366], [-72.67898532034962, 44.63727964823631], [-72.67895349845375, 44.637263469804154], [-72.67888942319804, 44.63722768128537], [-72.67878010819221, 44.63720039852824], [-72.678645695333, 44.63719212528888], [-72.67798360629148, 44.63715814663455], [-72.6779668888981, 44.63734717166123], [-72.67796674997727, 44.637348730543074], [-72.67794389092798, 44.63752964153227], [-72.67794030606485, 44.637549761279296], [-72.67801225206539, 44.637627098268744], [-72.6780715902498, 44.637712222098834], [-72.67807284735194, 44.63771402538273], [-72.6781201730578, 44.63782150308393], [-72.67815687169482, 44.6379423476867], [-72.67816300086183, 44.638061719998305], [-72.6781536925849, 44.63816713699866], [-72.67814009275958, 44.63827386197758], [-72.6781408845365, 44.63828959138102], [-72.67816319701058, 44.63829180818137], [-72.67817692014897, 44.63848032585035], [-72.67818772072836, 44.63851203215288], [-72.67827118247313, 44.6386968727854], [-72.67831830795616, 44.638781806751766], [-72.67833634414076, 44.63879436399934], [-72.67835334352544, 44.63878816758822], [-72.67837062126372, 44.63877244416523], [-72.67852017004303, 44.63885620652472], [-72.67847705365597, 44.63889544661731], [-72.67836346781593, 44.63893685039149], [-72.67824614362205, 44.638921115739734], [-72.67820702455627, 44.638893879452056], [-72.67822168877059, 44.63909532390647]]]]}, "properties": {"OBJECTID": 0, "ABB_DIST_NAME": "VN", "Shape_Length": 0, "Shape_Area": 0, "Jurisdiction_County": "Lamoille", "Jurisdiction_District_Name": "Johnson Town Johnson Village"}}, {"type": "Feature", "id": 0, "geometry": {"type": "MultiPolygon", "coordinates": [[[[-72.67858394151018, 44.63490140174998], [-72.67873809497861, 44.6349544351225], [-72.67906123050638, 44.635063684418206], [-72.67924461373927, 44.63512737675355], [-72.67948207808824, 44.635203789715206], [-72.67955288933754, 44.635227724343295], [-72.67959379397897, 44.635241550333106], [-72.67983323076982, 44.635325411720245], [-72.67993476114444, 44.63535998791679], [-72.68027873415824, 44.63547712654661], [-72.68034815876358, 44.63550076859459], [-72.68041246174703, 44.63547045033577], [-72.68056320620737, 44.635360788725876], [-72.68065238969048, 44.63528823452301], [-72.68073819234681, 44.63521435551432], [-72.68092429260453, 44.63505411491079], [-72.6809426433411, 44.63503992285682], [-72.68030715474877, 44.63460920080796], [-72.68088817499688, 44.6341985778289], [-72.68033917984026, 44.63451228076526], [-72.68011377142165, 44.63444942769806], [-72.68005987878182, 44.634624915710184], [-72.67977493011591, 44.63455175272376], [-72.679580360046, 44.63449622222457], [-72.67947985118022, 44.634466609875844], [-72.67942678771622, 44.63445167264303], [-72.67932154081441, 44.634658010231234], [-72.67901244786964, 44.6345296936905], [-72.67891832224392, 44.63467871719553], [-72.67875863836677, 44.63462302804888], [-72.67858394151018, 44.63490140174998]]], [[[-72.6785115938425, 44.63521224013547], [-72.67850128645915, 44.63522574338561], [-72.67857216820917, 44.635351693735004], [-72.67862967759862, 44.63546195590549], [-72.67873839105756, 44.63552223541669], [-72.67887800190731, 44.63541861123778], [-72.67901280092403, 44.635224208438586], [-72.67872854887244, 44.63511819638214], [-72.67860883938478, 44.63507469061336], [-72.6785115938425, 44.63521224013547]]], [[[-72.68211822198462, 44.63607694379577], [-72.68218636852279, 44.635974025266805], [-72.68229339521291, 44.63601015465989], [-72.682363310136, 44.63596573716165], [-72.6824536554695, 44.63587543683313], [-72.68249110017292, 44.6357915105307], [-72.68257949167521, 44.6357189605937], [-72.68268695749333, 44.63558741535423], [-72.6827603638525, 44.63546221677708], [-72.68290432856789, 44.63533662889718], [-72.68295990198017, 44.63529184432892], [-72.68252059636173, 44.63517145095784], [-72.68210337746474, 44.635070726285235], [-72.68195861736645, 44.635033282649616], [-72.6818293634677, 44.63499984849735], [-72.68156812888613, 44.63519373216623], [-72.6814413118035, 44.63528751935773], [-72.68109712901878, 44.635123992648104], [-72.68103039560673, 44.63517581429754], [-72.68064211584934, 44.63547733260345], [-72.68064019967761, 44.63547882140634], [-72.680640192517, 44.6354809821317], [-72.68063982750827, 44.6355985503894], [-72.68091882432377, 44.6357162308003], [-72.68103219564995, 44.63575477571745], [-72.68116694920376, 44.63580059037665], [-72.6811909396137, 44.63576391377392], [-72.68211822198462, 44.63607694379577]]], [[[-72.67986379630136, 44.636625513078826], [-72.67995912884189, 44.63672402139129], [-72.68008687062547, 44.63685814424545], [-72.68013650950999, 44.63694072652836], [-72.68017873608767, 44.637004959367715], [-72.68023655525153, 44.637079822664674], [-72.68026570906974, 44.637107375469306], [-72.68028150342305, 44.63716324651173], [-72.68029929909648, 44.63722026629249], [-72.68030037391728, 44.637249474272785], [-72.68033987496736, 44.63729509016041], [-72.68034006229328, 44.637343767559464], [-72.6803539102379, 44.63738646230167], [-72.68040135408847, 44.63744984808716], [-72.68039299219343, 44.63752742559219], [-72.6804186573727, 44.63758666112796], [-72.6804484873232, 44.6376447831728], [-72.68044848753698, 44.637730660048234], [-72.68044063357898, 44.63778016547776], [-72.68046507936631, 44.63787210159914], [-72.6804842881356, 44.63796889387064], [-72.6804922793658, 44.63806165601591], [-72.6805160300655, 44.63813097637742], [-72.68056600757745, 44.63816857531269], [-72.68064056807336, 44.63818332232061], [-72.68072699669662, 44.638147711556186], [-72.6807990809585, 44.638091176847375], [-72.68084054434777, 44.63806177463915], [-72.68086569280753, 44.63800314178486], [-72.68092655477201, 44.63794400869201], [-72.68097178790397, 44.63788054920847], [-72.68100088980745, 44.637834806842676], [-72.68103420281595, 44.63774613420557], [-72.68112079264463, 44.63761920147954], [-72.68119475132818, 44.63754524284885], [-72.68121533793351, 44.63745304015119], [-72.68120386914083, 44.63736746854346], [-72.68115640286638, 44.63731171806649], [-72.68104120660377, 44.63726408156179], [-72.68099190899906, 44.63725570132716], [-72.68089935493137, 44.63719472524352], [-72.68079651040586, 44.637114830109944], [-72.68074772720487, 44.63704027136944], [-72.68071185032255, 44.63695345414272], [-72.68070487096858, 44.63685987146444], [-72.68076230206184, 44.636781959796615], [-72.68084780986617, 44.636700140276666], [-72.6809288975056, 44.636620023147756], [-72.68100636093217, 44.636601406999745], [-72.6810433279736, 44.63659854784734], [-72.68111541063533, 44.63660785214706], [-72.6812371712248, 44.636623568718576], [-72.68131624320401, 44.63662369699062], [-72.6814562902527, 44.63661091975121], [-72.68156072764985, 44.63659412680647], [-72.68170663308527, 44.636542655883396], [-72.68184449454263, 44.636462546752306], [-72.68193182049205, 44.636384000138875], [-72.68194018410252, 44.63636939097403], [-72.68182195988538, 44.636324827008075], [-72.68191938336048, 44.63626025632029], [-72.68188656977821, 44.63624907575148], [-72.68173697254355, 44.636198858847806], [-72.68173458919516, 44.6361980590096], [-72.68163015340383, 44.63616300218082], [-72.68151168584819, 44.63612264721635], [-72.68151020585596, 44.636122142912114], [-72.68132555406034, 44.63605924277227], [-72.68122820182398, 44.63602653932478], [-72.68122617680635, 44.63602585859702], [-72.68105681622856, 44.63596896593684], [-72.68107584434104, 44.63593987547324], [-72.68099632261935, 44.6359131613377], [-72.68074485327747, 44.635825808143515], [-72.68041646362583, 44.6357117339429], [-72.6802309676316, 44.63564729629463], [-72.68005667737556, 44.635586751741705], [-72.67989813244043, 44.63553167614889], [-72.67969927099931, 44.63546259528829], [-72.67951525279295, 44.63539866980509], [-72.67925944761211, 44.63530980467766], [-72.67888455838717, 44.63556837867797], [-72.67852939099639, 44.63580981488213], [-72.67861868757035, 44.63583922331556], [-72.67873161309157, 44.63587584177905], [-72.67881131946491, 44.63589778311377], [-72.67888612410168, 44.63593975624563], [-72.67893134687272, 44.63596047451305], [-72.67895730812961, 44.63598429798066], [-72.67898850191615, 44.636003839510145], [-72.67899080900968, 44.63602617826946], [-72.67901158831042, 44.636042832963994], [-72.6790456574251, 44.636046918302206], [-72.67905447741836, 44.6360518036526], [-72.67908406090483, 44.63606819345213], [-72.67910922433052, 44.63609115690996], [-72.67913886422365, 44.636099241222425], [-72.67915242777087, 44.63611501988539], [-72.67917355180947, 44.636144559098994], [-72.67919594627156, 44.63615892722257], [-72.67922321431372, 44.636159274101615], [-72.67924962740976, 44.63617136000441], [-72.67927400233002, 44.636191172234795], [-72.67928726444124, 44.63619990676183], [-72.67937776223849, 44.63626625272983], [-72.67944607527049, 44.63633144738666], [-72.67954276760857, 44.636412715901685], [-72.67970823430018, 44.63651889757968], [-72.67986379630136, 44.636625513078826]]]]}, "properties": {"OBJECTID": 0, "ABB_DIST_NAME": "VS", "Shape_Length": 0, "Shape_Area": 0, "Jurisdiction_County": "Lamoille", "Jurisdiction_District_Name": "Johnson Town Johnson Village"}}]}