{
"type": "FeatureCollection",
"name": "Lamoille_HydeParkVillage",
"crs": { "type": "name", "properties": { "name": "urn:ogc:def:crs:OGC:1.3:CRS84" } },
"features": [
{ "type": "Feature", "properties": { "OBJECT_ID": 857, "County": "Lamoille", "RPC": "LCPC", "Municipal_Name": "HydeParkVillage", "GEO_ID": "5001535050", "District_Name": "Flood Hazard Area Overlay", "Abbreviated_District_Name": "Fha", "District_Type": "Overlay not Affecting Use", "Bylaw_Date": "2024-05-29T00:00:00", "Elderly_Housing_District": "No", "District_Mapped": "Yes", "Overlay_District": "Yes", "Base_Density": null, "GIS_ID": null, "Last_Update": "20200201", "Shape_Length": 3324.3718378439262, "Shape_Area": 97950.076785075362, "F1F_Allowance": "Overlay", "F1F_Front_Setback": null, "F1F_Side_Setback": null, "F1F_Rear_Setback": null, "F1F_Frontage": null, "F1F_Max_Height": null, "F1F_Max_Stories": null, "F1F_Min_Lot_Size": null, "F1F_Max_Lot_Building_Coverage": null, "F1F_Max_Lot_Impervious_Coverage": null, "F1F_Min_Parking_Spaces": null, "F1F_Elderly_Housing_Only": null, "F1F_Affordable_Housing_Only": null, "F2F_Allowance": "Overlay", "F2F_Front_Setback": null, "F2F_Side_Setback": null, "F2F_Rear_Setback": null, "F2F_Frontage": null, "F2F_Max_Density": null, "F2F_Max_Height": null, "F2F_Max_Stories": null, "F2F_Min_Lot_Size": null, "F2F_Max_Lot_Building_Coverage": null, "F2F_Max_Lot_Impervious_Coverage": null, "F2F_Min_Parking_Spaces_per_1BR": null, "F2F_Min_Parking_Spaces_per_mult_BR": null, "F2F_Elderly_Housing_Only": "No", "F2F_Affordable_Housing_Only": "No", "F3F_Allowance": "Overlay", "F3F_Front_Setback": null, "F3F_Side_Setback": null, "F3F_Rear_Setback": null, "F3F_Frontage": null, "F3F_Max_Density": null, "F3F_Max_Height": null, "F3F_Max_Stories": null, "F3F_Min_Lot_Size": null, "F3F_Max_Lot_Building_Coverage": null, "F3F_Max_Lot_Impervious_Coverage": null, "F3F_Min_Parking_Spaces_per_1BR": null, "F3F_Min_Parking_Spaces_per_mult_BR": null, "F3F_Affordable_Housing_Only": "No", "F3F_Proximity_to_Public_Transit_Required": "No", "F3F_Connection_to_Sewage/Water_Required": "No", "F4F_Allowance": "Overlay", "F4F_Front_Setback": null, "F4F_Side_Setback": null, "F4F_Rear_Setback": null, "F4F_Frontage": null, "F1F_Max_Density": null, "F4F_Max_Density": null, "F4F_Max_Height": null, "F4F_Max_Stories": null, "F4F_Min_Lot_Size": null, "F4F_Max_Lot_Building_Coverage": null, "F4F_Max_Lot_Impervious_Coverage": null, "F4F_Min_Parking_Spaces_per_1BR": null, "F4F_Min_Parking_Spaces_per_mult_BR": null, "F3F_Elderly_Housing_Only": "No", "F4F_Elderly_Housing_Only": "No", "F4F_Affordable_Housing_Only": "No", "F4F_Proximity_to_Public_Transit_Required": "No", "F4F_Connection_to_Sewage/Water_Required": "No", "ADU_Allowance": "Not Mentioned", "ADU_Elderly_Housing_Only": "No", "ADU_Max_Size_as_Percent_of_Primary_Strcture": null, "ADU_Max_Size_in_sq_ft": null, "ADU_Min_Lot_Size": null, "ADU_Max_Bedrooms": null, "ADU_Min_Parking_Spaces": null, "ADU_Owner_Occupancy_Required": "No", "ADU_Renter_Occupancy_Prohibited": "No", "ADU_Employee_or_Family_Occupancy_Required": "No", "ADU_Restricted_to_Primary_Structure": "No", "Affordable_Housing_Allowance": "Not Mentioned", "Affordable_Housing_District": "No", "Affordable_Housing_Elderly_Only": "No", "Affordable_Housing_Min_Lot_Size": null, "Affordable_Housing_Max_Density": null, "Affordable_Housing_Min_Parking_Spaces_per_mult_BR": null, "Affordable_Housing_Max_Units_per_Building": null, "Affordable_Housing_Min_Parking_Spaces_per_1BR": null, "PRD_Allowance": "Not Mentioned", "PRD_Max_Density": null, "PRD_Max_Units": null, "PRD_Min_Lot_Size": null, "PRD_Mobile_or_Manufactured_Home_Park": "No", "PUD_Allowance": null, "PUD_Required_with_Subdivision": null, "PUD_Requires_Land_Conservation": null, "PUD_Threshold_Number": null, "Notes": "None", "FIPS6": 15025 }, "geometry": { "type": "MultiPolygon", "coordinates": [ [ [ [ -72.624617969583937, 44.593778595267921 ], [ -72.624909193721336, 44.594643715559549 ], [ -72.625270747403462, 44.594755811591916 ], [ -72.625392250942099, 44.594885323830049 ], [ -72.625407050458222, 44.594995689271201 ], [ -72.625850861155797, 44.595469210762374 ], [ -72.626362608219267, 44.595867848759355 ], [ -72.627067195804315, 44.596072644067725 ], [ -72.627202808681133, 44.596171485276237 ], [ -72.627282234660953, 44.596314542159512 ], [ -72.627278682991104, 44.596490594681619 ], [ -72.62673012731517, 44.597271048692136 ], [ -72.626787315378763, 44.597505107946844 ], [ -72.627067219191147, 44.597872658872276 ], [ -72.627282413772363, 44.597545311418031 ], [ -72.627237108695411, 44.597460173759714 ], [ -72.627363502559064, 44.59712073099103 ], [ -72.627509582757099, 44.596987550438193 ], [ -72.628382825031608, 44.595706568382255 ], [ -72.628504625581371, 44.595069005447399 ], [ -72.624617969583937, 44.593778595267921 ] ] ], [ [ [ -72.611924155798789, 44.589336624004055 ], [ -72.611157106116366, 44.589850586019622 ], [ -72.610700584243119, 44.590261401903192 ], [ -72.61063791038022, 44.59030222675149 ], [ -72.610470653577124, 44.590385758144926 ], [ -72.610260216381022, 44.59065551834184 ], [ -72.609534737160232, 44.591170459622433 ], [ -72.608933565868767, 44.591520301769542 ], [ -72.608636936090818, 44.591795062814775 ], [ -72.607835477405558, 44.592132977332469 ], [ -72.60692287138481, 44.59261196065443 ], [ -72.606365583342736, 44.593265351850867 ], [ -72.60615102611699, 44.593666582436754 ], [ -72.606001299342182, 44.59379130499881 ], [ -72.605752257836969, 44.593844266320602 ], [ -72.605260831235114, 44.593713105655844 ], [ -72.605022453084928, 44.593721929330549 ], [ -72.604713737946142, 44.594142480614622 ], [ -72.604562355409655, 44.594149039404783 ], [ -72.604467473811866, 44.594280722867516 ], [ -72.604384640804227, 44.594560651352786 ], [ -72.604476818376014, 44.59481103621917 ], [ -72.604264531545439, 44.595106226044933 ], [ -72.604651918455531, 44.595442934722371 ], [ -72.604563112258901, 44.595555777155532 ], [ -72.60537555158372, 44.595341870581983 ], [ -72.605661695244265, 44.595126046229439 ], [ -72.605871872127025, 44.594692338687373 ], [ -72.606382928220654, 44.594143329120669 ], [ -72.606649156605215, 44.593588780251139 ], [ -72.607071644995926, 44.593042240379326 ], [ -72.607281819182901, 44.592830419368234 ], [ -72.608107784979964, 44.592365270661695 ], [ -72.609152399793729, 44.591946857407422 ], [ -72.6100857925978, 44.591240360084072 ], [ -72.610970167423559, 44.590846206178263 ], [ -72.611968731804069, 44.590077620329318 ], [ -72.612109910532112, 44.59002179867889 ], [ -72.612590056925313, 44.590026106778595 ], [ -72.612428761454922, 44.589854013710898 ], [ -72.611634585183594, 44.589657651414342 ], [ -72.611965459012609, 44.589353606593711 ], [ -72.611924155798789, 44.589336624004055 ] ] ] ] } },
{ "type": "Feature", "properties": { "OBJECT_ID": 858, "County": "Lamoille", "RPC": "LCPC", "Municipal_Name": "HydeParkVillage", "GEO_ID": "5001535050", "District_Name": "Service Area Overlay", "Abbreviated_District_Name": "Sao", "District_Type": "Overlay not Affecting Use", "Bylaw_Date": "2024-05-29T00:00:00", "Elderly_Housing_District": "No", "District_Mapped": "Yes", "Overlay_District": "Yes", "Base_Density": null, "GIS_ID": null, "Last_Update": "20200201", "Shape_Length": 1263.1049099864561, "Shape_Area": 43765.043337235344, "F1F_Allowance": "Overlay", "F1F_Front_Setback": null, "F1F_Side_Setback": null, "F1F_Rear_Setback": null, "F1F_Frontage": null, "F1F_Max_Height": null, "F1F_Max_Stories": null, "F1F_Min_Lot_Size": null, "F1F_Max_Lot_Building_Coverage": null, "F1F_Max_Lot_Impervious_Coverage": null, "F1F_Min_Parking_Spaces": null, "F1F_Elderly_Housing_Only": null, "F1F_Affordable_Housing_Only": null, "F2F_Allowance": "Overlay", "F2F_Front_Setback": null, "F2F_Side_Setback": null, "F2F_Rear_Setback": null, "F2F_Frontage": null, "F2F_Max_Density": null, "F2F_Max_Height": null, "F2F_Max_Stories": null, "F2F_Min_Lot_Size": null, "F2F_Max_Lot_Building_Coverage": null, "F2F_Max_Lot_Impervious_Coverage": null, "F2F_Min_Parking_Spaces_per_1BR": null, "F2F_Min_Parking_Spaces_per_mult_BR": null, "F2F_Elderly_Housing_Only": "No", "F2F_Affordable_Housing_Only": "No", "F3F_Allowance": "Overlay", "F3F_Front_Setback": null, "F3F_Side_Setback": null, "F3F_Rear_Setback": null, "F3F_Frontage": null, "F3F_Max_Density": null, "F3F_Max_Height": null, "F3F_Max_Stories": null, "F3F_Min_Lot_Size": null, "F3F_Max_Lot_Building_Coverage": null, "F3F_Max_Lot_Impervious_Coverage": null, "F3F_Min_Parking_Spaces_per_1BR": null, "F3F_Min_Parking_Spaces_per_mult_BR": null, "F3F_Affordable_Housing_Only": "No", "F3F_Proximity_to_Public_Transit_Required": "No", "F3F_Connection_to_Sewage/Water_Required": "No", "F4F_Allowance": "Overlay", "F4F_Front_Setback": null, "F4F_Side_Setback": null, "F4F_Rear_Setback": null, "F4F_Frontage": null, "F1F_Max_Density": null, "F4F_Max_Density": null, "F4F_Max_Height": null, "F4F_Max_Stories": null, "F4F_Min_Lot_Size": null, "F4F_Max_Lot_Building_Coverage": null, "F4F_Max_Lot_Impervious_Coverage": null, "F4F_Min_Parking_Spaces_per_1BR": null, "F4F_Min_Parking_Spaces_per_mult_BR": null, "F3F_Elderly_Housing_Only": "No", "F4F_Elderly_Housing_Only": "No", "F4F_Affordable_Housing_Only": "No", "F4F_Proximity_to_Public_Transit_Required": "No", "F4F_Connection_to_Sewage/Water_Required": "No", "ADU_Allowance": "Not Mentioned", "ADU_Elderly_Housing_Only": "No", "ADU_Max_Size_as_Percent_of_Primary_Strcture": null, "ADU_Max_Size_in_sq_ft": null, "ADU_Min_Lot_Size": null, "ADU_Max_Bedrooms": null, "ADU_Min_Parking_Spaces": null, "ADU_Owner_Occupancy_Required": "No", "ADU_Renter_Occupancy_Prohibited": "No", "ADU_Employee_or_Family_Occupancy_Required": "No", "ADU_Restricted_to_Primary_Structure": "No", "Affordable_Housing_Allowance": "Not Mentioned", "Affordable_Housing_District": "No", "Affordable_Housing_Elderly_Only": "No", "Affordable_Housing_Min_Lot_Size": null, "Affordable_Housing_Max_Density": null, "Affordable_Housing_Min_Parking_Spaces_per_mult_BR": null, "Affordable_Housing_Max_Units_per_Building": null, "Affordable_Housing_Min_Parking_Spaces_per_1BR": null, "PRD_Allowance": "Not Mentioned", "PRD_Max_Density": null, "PRD_Max_Units": null, "PRD_Min_Lot_Size": null, "PRD_Mobile_or_Manufactured_Home_Park": "No", "PUD_Allowance": "Yes", "PUD_Required_with_Subdivision": "F", "PUD_Requires_Land_Conservation": "F", "PUD_Threshold_Number": null, "Notes": " Allows For A Variety Of Highway/Auto-Orienced Uses As Conditional Uses At Main Entrances to The Village. ", "FIPS6": 15025 }, "geometry": { "type": "MultiPolygon", "coordinates": [ [ [ [ -72.617607150257598, 44.59780471974198 ], [ -72.616139745614262, 44.597836314982658 ], [ -72.615937434637232, 44.597893339321473 ], [ -72.615643091397715, 44.598934455386328 ], [ -72.615762687788816, 44.599089295589373 ], [ -72.617900186339256, 44.59869977804987 ], [ -72.61759926577821, 44.598271324593455 ], [ -72.617607150257598, 44.59780471974198 ] ] ], [ [ [ -72.612001920331835, 44.593791716426139 ], [ -72.61142365456503, 44.593870238414503 ], [ -72.61130335585554, 44.5941117491111 ], [ -72.6109841634661, 44.594427041222012 ], [ -72.610520346821431, 44.594817579644229 ], [ -72.609516461695634, 44.595327334137707 ], [ -72.611683677276432, 44.595885955912685 ], [ -72.612028262317764, 44.595079405411283 ], [ -72.612436619282633, 44.594123588143958 ], [ -72.612001920331835, 44.593791716426139 ] ] ] ] } },
{ "type": "Feature", "properties": { "OBJECT_ID": 859, "County": "Lamoille", "RPC": "LCPC", "Municipal_Name": "HydeParkVillage", "GEO_ID": "5001535050", "District_Name": "Village Center", "Abbreviated_District_Name": "Vc", "District_Type": "Mixed with Residential", "Bylaw_Date": "2024-05-28T00:00:00", "Elderly_Housing_District": "No", "District_Mapped": "Yes", "Overlay_District": "No", "Base_Density": 3.0, "GIS_ID": null, "Last_Update": "20200201", "Shape_Length": 4526.7146592534227, "Shape_Area": 298256.61937766388, "F1F_Allowance": "Permitted", "F1F_Front_Setback": null, "F1F_Side_Setback": 6.0, "F1F_Rear_Setback": 6.0, "F1F_Frontage": null, "F1F_Max_Height": null, "F1F_Max_Stories": 4.0, "F1F_Min_Lot_Size": null, "F1F_Max_Lot_Building_Coverage": null, "F1F_Max_Lot_Impervious_Coverage": 60.0, "F1F_Min_Parking_Spaces": null, "F1F_Elderly_Housing_Only": null, "F1F_Affordable_Housing_Only": null, "F2F_Allowance": "Permitted", "F2F_Front_Setback": null, "F2F_Side_Setback": 6.0, "F2F_Rear_Setback": 6.0, "F2F_Frontage": null, "F2F_Max_Density": 3.0, "F2F_Max_Height": null, "F2F_Max_Stories": 4.0, "F2F_Min_Lot_Size": null, "F2F_Max_Lot_Building_Coverage": null, "F2F_Max_Lot_Impervious_Coverage": 60.0, "F2F_Min_Parking_Spaces_per_1BR": 1.0, "F2F_Min_Parking_Spaces_per_mult_BR": 2.0, "F2F_Elderly_Housing_Only": "No", "F2F_Affordable_Housing_Only": "No", "F3F_Allowance": "Permitted", "F3F_Front_Setback": null, "F3F_Side_Setback": 6.0, "F3F_Rear_Setback": 6.0, "F3F_Frontage": null, "F3F_Max_Density": 3.0, "F3F_Max_Height": null, "F3F_Max_Stories": 4.0, "F3F_Min_Lot_Size": null, "F3F_Max_Lot_Building_Coverage": null, "F3F_Max_Lot_Impervious_Coverage": 60.0, "F3F_Min_Parking_Spaces_per_1BR": 1.0, "F3F_Min_Parking_Spaces_per_mult_BR": 2.0, "F3F_Affordable_Housing_Only": "No", "F3F_Proximity_to_Public_Transit_Required": "No", "F3F_Connection_to_Sewage/Water_Required": "No", "F4F_Allowance": "Public Hearing", "F4F_Front_Setback": null, "F4F_Side_Setback": 6.0, "F4F_Rear_Setback": 6.0, "F4F_Frontage": null, "F1F_Max_Density": null, "F4F_Max_Density": 3.0, "F4F_Max_Height": null, "F4F_Max_Stories": 4.0, "F4F_Min_Lot_Size": null, "F4F_Max_Lot_Building_Coverage": null, "F4F_Max_Lot_Impervious_Coverage": 60.0, "F4F_Min_Parking_Spaces_per_1BR": 1.0, "F4F_Min_Parking_Spaces_per_mult_BR": 2.0, "F3F_Elderly_Housing_Only": "No", "F4F_Elderly_Housing_Only": "No", "F4F_Affordable_Housing_Only": "No", "F4F_Proximity_to_Public_Transit_Required": "No", "F4F_Connection_to_Sewage/Water_Required": "No", "ADU_Allowance": "Allowed/Conditional", "ADU_Elderly_Housing_Only": "No", "ADU_Max_Size_as_Percent_of_Primary_Strcture": 30.0, "ADU_Max_Size_in_sq_ft": null, "ADU_Min_Lot_Size": null, "ADU_Max_Bedrooms": 2.0, "ADU_Min_Parking_Spaces": null, "ADU_Owner_Occupancy_Required": "Yes", "ADU_Renter_Occupancy_Prohibited": "No", "ADU_Employee_or_Family_Occupancy_Required": "No", "ADU_Restricted_to_Primary_Structure": "No", "Affordable_Housing_Allowance": "Not Mentioned", "Affordable_Housing_District": "No", "Affordable_Housing_Elderly_Only": "No", "Affordable_Housing_Min_Lot_Size": null, "Affordable_Housing_Max_Density": null, "Affordable_Housing_Min_Parking_Spaces_per_mult_BR": null, "Affordable_Housing_Max_Units_per_Building": null, "Affordable_Housing_Min_Parking_Spaces_per_1BR": null, "PRD_Allowance": "Public Hearing", "PRD_Max_Density": null, "PRD_Max_Units": null, "PRD_Min_Lot_Size": null, "PRD_Mobile_or_Manufactured_Home_Park": "No", "PUD_Allowance": "Yes", "PUD_Required_with_Subdivision": "F", "PUD_Requires_Land_Conservation": "F", "PUD_Threshold_Number": null, "Notes": " 2 And 3 Dwelling Buildings Are Conditional On The Ground Floor Of A Principal Building And In A Carriage House ", "FIPS6": 15025 }, "geometry": { "type": "Polygon", "coordinates": [ [ [ -72.620979768718925, 44.597445813406594 ], [ -72.621948185753112, 44.597623046732664 ], [ -72.621167875126915, 44.596699409349618 ], [ -72.622811281645411, 44.596658193922316 ], [ -72.622954253747935, 44.596316552229474 ], [ -72.62330680341843, 44.596380979613464 ], [ -72.62338546596844, 44.595692102637123 ], [ -72.623849897267164, 44.595650771975805 ], [ -72.623999718679428, 44.595331003258458 ], [ -72.623711896683957, 44.595211049785334 ], [ -72.62388740220122, 44.5949967133458 ], [ -72.623476180519603, 44.594819707971801 ], [ -72.623262750429106, 44.595060048574041 ], [ -72.621885590885341, 44.594606569279122 ], [ -72.6217973582865, 44.594757359224452 ], [ -72.621552372627647, 44.594725814931216 ], [ -72.62162504387247, 44.594537059341228 ], [ -72.621554324424494, 44.59449724797441 ], [ -72.621635759133383, 44.594326171149042 ], [ -72.620785444337599, 44.594304168590284 ], [ -72.62029626096863, 44.594033826924225 ], [ -72.618943625719197, 44.59352698163076 ], [ -72.618902116764261, 44.593497401882388 ], [ -72.619010280804758, 44.593354678337043 ], [ -72.617621702677098, 44.592807135671869 ], [ -72.617421996970464, 44.592742570554442 ], [ -72.617344074031791, 44.592791868677992 ], [ -72.615534197584068, 44.592112702213385 ], [ -72.615803394856485, 44.591803458592075 ], [ -72.615608803372012, 44.591499687439075 ], [ -72.61525897950176, 44.59147104258232 ], [ -72.615158292568921, 44.591381941332429 ], [ -72.615013444729342, 44.590543723648594 ], [ -72.614520895522475, 44.590361289889088 ], [ -72.613858759697408, 44.590156889418289 ], [ -72.613903358546011, 44.590320859843381 ], [ -72.613432203952215, 44.590332633678862 ], [ -72.612551830377015, 44.590222197755011 ], [ -72.612480922640756, 44.590761173416027 ], [ -72.613418806397959, 44.590826606692076 ], [ -72.61342529973011, 44.591647588906 ], [ -72.61262743044982, 44.592253121214569 ], [ -72.612195034714887, 44.592278375853844 ], [ -72.612213878991255, 44.592424702961196 ], [ -72.611082139705232, 44.592398934723711 ], [ -72.611148506907298, 44.592932973730726 ], [ -72.611478616171638, 44.592917606974112 ], [ -72.611351150946518, 44.593858268074136 ], [ -72.61142365456503, 44.593870238414503 ], [ -72.612001920331835, 44.593791716426139 ], [ -72.612436619282633, 44.594123588143958 ], [ -72.612871569893969, 44.593219790387153 ], [ -72.61307614287648, 44.59324558698453 ], [ -72.61354259198967, 44.593071534153758 ], [ -72.613784294637966, 44.593134219363087 ], [ -72.613970030147996, 44.592947347434851 ], [ -72.614131494482308, 44.592961567965695 ], [ -72.614297760971894, 44.592997544653116 ], [ -72.614238038903451, 44.593150912760528 ], [ -72.614995029895482, 44.59344514268529 ], [ -72.614784754205218, 44.593767597265106 ], [ -72.615146265950898, 44.593909332177681 ], [ -72.614927483036922, 44.594212010629121 ], [ -72.615447463746889, 44.594378725421436 ], [ -72.615114090910737, 44.594991560824305 ], [ -72.615191045530906, 44.595565997873329 ], [ -72.614553313058224, 44.595559269787273 ], [ -72.614134239902157, 44.596124032938953 ], [ -72.615245050548126, 44.596649412687775 ], [ -72.615863837241406, 44.597185015422241 ], [ -72.615953292196281, 44.597242840444117 ], [ -72.616921520320403, 44.597386674343539 ], [ -72.617061570533266, 44.596020821555733 ], [ -72.616530307859321, 44.595333452911738 ], [ -72.619607578998142, 44.595726576950035 ], [ -72.619511580193063, 44.596243560569405 ], [ -72.618883648277446, 44.596224173610736 ], [ -72.618820398903807, 44.596526188031682 ], [ -72.619969842867903, 44.596399153862087 ], [ -72.620118149091638, 44.596487531171327 ], [ -72.620307775754128, 44.596511288580594 ], [ -72.620979768718925, 44.597445813406594 ] ] ] } },
{ "type": "Feature", "properties": { "OBJECT_ID": 860, "County": "Lamoille", "RPC": "LCPC", "Municipal_Name": "HydeParkVillage", "GEO_ID": "5001535050", "District_Name": "Village Gateway Commercial", "Abbreviated_District_Name": "Vgc", "District_Type": "Nonresidential", "Bylaw_Date": "2024-05-28T00:00:00", "Elderly_Housing_District": "No", "District_Mapped": "Yes", "Overlay_District": "No", "Base_Density": null, "GIS_ID": null, "Last_Update": "20200201", "Shape_Length": 2021.5309362209537, "Shape_Area": 148985.91668324379, "F1F_Allowance": "Prohibited", "F1F_Front_Setback": null, "F1F_Side_Setback": null, "F1F_Rear_Setback": null, "F1F_Frontage": null, "F1F_Max_Height": null, "F1F_Max_Stories": null, "F1F_Min_Lot_Size": null, "F1F_Max_Lot_Building_Coverage": null, "F1F_Max_Lot_Impervious_Coverage": null, "F1F_Min_Parking_Spaces": null, "F1F_Elderly_Housing_Only": null, "F1F_Affordable_Housing_Only": null, "F2F_Allowance": "Prohibited", "F2F_Front_Setback": null, "F2F_Side_Setback": null, "F2F_Rear_Setback": null, "F2F_Frontage": null, "F2F_Max_Density": null, "F2F_Max_Height": null, "F2F_Max_Stories": null, "F2F_Min_Lot_Size": null, "F2F_Max_Lot_Building_Coverage": null, "F2F_Max_Lot_Impervious_Coverage": null, "F2F_Min_Parking_Spaces_per_1BR": null, "F2F_Min_Parking_Spaces_per_mult_BR": null, "F2F_Elderly_Housing_Only": "No", "F2F_Affordable_Housing_Only": "No", "F3F_Allowance": "Prohibited", "F3F_Front_Setback": null, "F3F_Side_Setback": null, "F3F_Rear_Setback": null, "F3F_Frontage": null, "F3F_Max_Density": null, "F3F_Max_Height": null, "F3F_Max_Stories": null, "F3F_Min_Lot_Size": null, "F3F_Max_Lot_Building_Coverage": null, "F3F_Max_Lot_Impervious_Coverage": null, "F3F_Min_Parking_Spaces_per_1BR": null, "F3F_Min_Parking_Spaces_per_mult_BR": null, "F3F_Affordable_Housing_Only": "No", "F3F_Proximity_to_Public_Transit_Required": "No", "F3F_Connection_to_Sewage/Water_Required": "No", "F4F_Allowance": "Prohibited", "F4F_Front_Setback": null, "F4F_Side_Setback": null, "F4F_Rear_Setback": null, "F4F_Frontage": null, "F1F_Max_Density": null, "F4F_Max_Density": null, "F4F_Max_Height": null, "F4F_Max_Stories": null, "F4F_Min_Lot_Size": null, "F4F_Max_Lot_Building_Coverage": null, "F4F_Max_Lot_Impervious_Coverage": null, "F4F_Min_Parking_Spaces_per_1BR": null, "F4F_Min_Parking_Spaces_per_mult_BR": null, "F3F_Elderly_Housing_Only": "No", "F4F_Elderly_Housing_Only": "No", "F4F_Affordable_Housing_Only": "No", "F4F_Proximity_to_Public_Transit_Required": "No", "F4F_Connection_to_Sewage/Water_Required": "No", "ADU_Allowance": "Prohibited", "ADU_Elderly_Housing_Only": "No", "ADU_Max_Size_as_Percent_of_Primary_Strcture": null, "ADU_Max_Size_in_sq_ft": null, "ADU_Min_Lot_Size": null, "ADU_Max_Bedrooms": null, "ADU_Min_Parking_Spaces": null, "ADU_Owner_Occupancy_Required": "No", "ADU_Renter_Occupancy_Prohibited": "No", "ADU_Employee_or_Family_Occupancy_Required": "No", "ADU_Restricted_to_Primary_Structure": "No", "Affordable_Housing_Allowance": "Not Mentioned", "Affordable_Housing_District": "No", "Affordable_Housing_Elderly_Only": "No", "Affordable_Housing_Min_Lot_Size": null, "Affordable_Housing_Max_Density": null, "Affordable_Housing_Min_Parking_Spaces_per_mult_BR": null, "Affordable_Housing_Max_Units_per_Building": null, "Affordable_Housing_Min_Parking_Spaces_per_1BR": null, "PRD_Allowance": "Not Mentioned", "PRD_Max_Density": null, "PRD_Max_Units": null, "PRD_Min_Lot_Size": null, "PRD_Mobile_or_Manufactured_Home_Park": "No", "PUD_Allowance": null, "PUD_Required_with_Subdivision": null, "PUD_Requires_Land_Conservation": null, "PUD_Threshold_Number": null, "Notes": "None", "FIPS6": 15025 }, "geometry": { "type": "Polygon", "coordinates": [ [ [ -72.604610234446696, 44.58905857295975 ], [ -72.604975630202048, 44.589058237691525 ], [ -72.605639366253442, 44.589241984434722 ], [ -72.606819547401443, 44.58967544485342 ], [ -72.608147536449422, 44.590306279657888 ], [ -72.609328794608686, 44.591292788193684 ], [ -72.609534737160232, 44.591170459622433 ], [ -72.61012082364401, 44.591081332150537 ], [ -72.610359397304606, 44.590554364943486 ], [ -72.61063791038022, 44.59030222675149 ], [ -72.610700584243119, 44.590261401903192 ], [ -72.611157106116366, 44.589850586019622 ], [ -72.611725323095243, 44.589444792271181 ], [ -72.605345731978602, 44.587105613776984 ], [ -72.602144280716956, 44.585875839601485 ], [ -72.602303727889222, 44.586366796106432 ], [ -72.60338491168018, 44.587702140650904 ], [ -72.604610234446696, 44.58905857295975 ] ] ] } },
{ "type": "Feature", "properties": { "OBJECT_ID": 861, "County": "Lamoille", "RPC": "LCPC", "Municipal_Name": "HydeParkVillage", "GEO_ID": "5001535050", "District_Name": "Village Gateway Rural", "Abbreviated_District_Name": "Vgr", "District_Type": "Primarily Residential", "Bylaw_Date": "2024-05-28T00:00:00", "Elderly_Housing_District": "No", "District_Mapped": "Yes", "Overlay_District": "No", "Base_Density": 0.66, "GIS_ID": null, "Last_Update": "20200201", "Shape_Length": 10241.483521518492, "Shape_Area": 1993121.4967402802, "F1F_Allowance": "Permitted", "F1F_Front_Setback": 40.0, "F1F_Side_Setback": 15.0, "F1F_Rear_Setback": 15.0, "F1F_Frontage": 90.0, "F1F_Max_Height": 45.0, "F1F_Max_Stories": null, "F1F_Min_Lot_Size": 1.5, "F1F_Max_Lot_Building_Coverage": null, "F1F_Max_Lot_Impervious_Coverage": null, "F1F_Min_Parking_Spaces": null, "F1F_Elderly_Housing_Only": null, "F1F_Affordable_Housing_Only": null, "F2F_Allowance": "Permitted", "F2F_Front_Setback": 40.0, "F2F_Side_Setback": 15.0, "F2F_Rear_Setback": 15.0, "F2F_Frontage": 90.0, "F2F_Max_Density": 0.66, "F2F_Max_Height": 45.0, "F2F_Max_Stories": null, "F2F_Min_Lot_Size": 1.5, "F2F_Max_Lot_Building_Coverage": null, "F2F_Max_Lot_Impervious_Coverage": null, "F2F_Min_Parking_Spaces_per_1BR": 1.0, "F2F_Min_Parking_Spaces_per_mult_BR": 2.0, "F2F_Elderly_Housing_Only": "No", "F2F_Affordable_Housing_Only": "No", "F3F_Allowance": "Permitted", "F3F_Front_Setback": 40.0, "F3F_Side_Setback": 15.0, "F3F_Rear_Setback": 15.0, "F3F_Frontage": 90.0, "F3F_Max_Density": 0.66, "F3F_Max_Height": 40.0, "F3F_Max_Stories": null, "F3F_Min_Lot_Size": 1.5, "F3F_Max_Lot_Building_Coverage": null, "F3F_Max_Lot_Impervious_Coverage": null, "F3F_Min_Parking_Spaces_per_1BR": 1.0, "F3F_Min_Parking_Spaces_per_mult_BR": 2.0, "F3F_Affordable_Housing_Only": "No", "F3F_Proximity_to_Public_Transit_Required": "No", "F3F_Connection_to_Sewage/Water_Required": "No", "F4F_Allowance": "Public Hearing", "F4F_Front_Setback": 40.0, "F4F_Side_Setback": 15.0, "F4F_Rear_Setback": 15.0, "F4F_Frontage": 90.0, "F1F_Max_Density": null, "F4F_Max_Density": 0.66, "F4F_Max_Height": 40.0, "F4F_Max_Stories": null, "F4F_Min_Lot_Size": 1.5, "F4F_Max_Lot_Building_Coverage": null, "F4F_Max_Lot_Impervious_Coverage": null, "F4F_Min_Parking_Spaces_per_1BR": 1.0, "F4F_Min_Parking_Spaces_per_mult_BR": 2.0, "F3F_Elderly_Housing_Only": "No", "F4F_Elderly_Housing_Only": "No", "F4F_Affordable_Housing_Only": "No", "F4F_Proximity_to_Public_Transit_Required": "No", "F4F_Connection_to_Sewage/Water_Required": "No", "ADU_Allowance": "Allowed/Conditional", "ADU_Elderly_Housing_Only": "No", "ADU_Max_Size_as_Percent_of_Primary_Strcture": 30.0, "ADU_Max_Size_in_sq_ft": null, "ADU_Min_Lot_Size": null, "ADU_Max_Bedrooms": 2.0, "ADU_Min_Parking_Spaces": null, "ADU_Owner_Occupancy_Required": "Yes", "ADU_Renter_Occupancy_Prohibited": "No", "ADU_Employee_or_Family_Occupancy_Required": "No", "ADU_Restricted_to_Primary_Structure": "No", "Affordable_Housing_Allowance": "Not Mentioned", "Affordable_Housing_District": "No", "Affordable_Housing_Elderly_Only": "No", "Affordable_Housing_Min_Lot_Size": null, "Affordable_Housing_Max_Density": null, "Affordable_Housing_Min_Parking_Spaces_per_mult_BR": null, "Affordable_Housing_Max_Units_per_Building": null, "Affordable_Housing_Min_Parking_Spaces_per_1BR": null, "PRD_Allowance": "Public Hearing", "PRD_Max_Density": null, "PRD_Max_Units": null, "PRD_Min_Lot_Size": null, "PRD_Mobile_or_Manufactured_Home_Park": "No", "PUD_Allowance": "Yes", "PUD_Required_with_Subdivision": "F", "PUD_Requires_Land_Conservation": "F", "PUD_Threshold_Number": null, "Notes": "None", "FIPS6": 15025 }, "geometry": { "type": "Polygon", "coordinates": [ [ [ -72.600561880469414, 44.585299376906661 ], [ -72.599028132792924, 44.587250576425852 ], [ -72.596285687994254, 44.586366489161769 ], [ -72.594010400621613, 44.589364308796419 ], [ -72.605128343951094, 44.593577675848366 ], [ -72.605022453084928, 44.593721929330549 ], [ -72.604713737946142, 44.594142480614622 ], [ -72.604562355409655, 44.594149039404783 ], [ -72.604467473811866, 44.594280722867516 ], [ -72.604384640804227, 44.594560651352786 ], [ -72.604226722980599, 44.59499420319743 ], [ -72.604264531545439, 44.595106226044933 ], [ -72.604651918455531, 44.595442934722371 ], [ -72.604563112258901, 44.595555777155532 ], [ -72.603748854095841, 44.596579900800151 ], [ -72.603485810923047, 44.596902108746107 ], [ -72.602539389277567, 44.598061393678009 ], [ -72.602010266083113, 44.599122236977614 ], [ -72.601677655240962, 44.599120141567674 ], [ -72.600260559809769, 44.600908457409375 ], [ -72.613246483446744, 44.605819485128364 ], [ -72.613584190174578, 44.605386902981365 ], [ -72.613854068009189, 44.604895470992794 ], [ -72.614648297771751, 44.60280839143833 ], [ -72.616818520980615, 44.603041860831489 ], [ -72.61775149197878, 44.605008087689392 ], [ -72.618560960603361, 44.603900901885609 ], [ -72.619376044587355, 44.604781841408624 ], [ -72.617521193836069, 44.607346307919642 ], [ -72.62145548143144, 44.608820181352769 ], [ -72.62091042758432, 44.607017670563565 ], [ -72.620441365188412, 44.606158174197553 ], [ -72.619633089487962, 44.604967744932367 ], [ -72.618608855555493, 44.603836872703994 ], [ -72.617411301144173, 44.602236660839843 ], [ -72.619243730754931, 44.600910883733647 ], [ -72.62059352026769, 44.600927324643713 ], [ -72.620640018500438, 44.600381131675647 ], [ -72.624792503656892, 44.601727827243351 ], [ -72.626084426279206, 44.599367613040748 ], [ -72.626260635618692, 44.599099650104165 ], [ -72.626260599046304, 44.599099629446251 ], [ -72.624853487798333, 44.598302609596956 ], [ -72.622825306702723, 44.597782361591186 ], [ -72.621948185753112, 44.597623046732664 ], [ -72.620979768718925, 44.597445813406594 ], [ -72.61890400438493, 44.597375337617223 ], [ -72.617932972734835, 44.597416374157334 ], [ -72.616921520320403, 44.597386674343539 ], [ -72.615953292196281, 44.597242840444117 ], [ -72.615863837241406, 44.597185015422241 ], [ -72.615450583580866, 44.597096198788606 ], [ -72.614586614196426, 44.596711593423066 ], [ -72.612028262317764, 44.595079405411283 ], [ -72.6109841634661, 44.594427041222012 ], [ -72.608589502274782, 44.592776203781035 ], [ -72.608107784979964, 44.592365270661695 ], [ -72.607835477405558, 44.592132977332469 ], [ -72.606123212058549, 44.5905778524303 ], [ -72.604610234446696, 44.58905857295975 ], [ -72.60338491168018, 44.587702140650904 ], [ -72.602303727889222, 44.586366796106432 ], [ -72.602144280716956, 44.585875839601485 ], [ -72.600561880469414, 44.585299376906661 ] ] ] } },
{ "type": "Feature", "properties": { "OBJECT_ID": 862, "County": "Lamoille", "RPC": "LCPC", "Municipal_Name": "HydeParkVillage", "GEO_ID": "5001535050", "District_Name": "Village Residential", "Abbreviated_District_Name": "Vr", "District_Type": "Primarily Residential", "Bylaw_Date": "2024-05-28T00:00:00", "Elderly_Housing_District": "No", "District_Mapped": "Yes", "Overlay_District": "No", "Base_Density": 4.0, "GIS_ID": null, "Last_Update": "20200201", "Shape_Length": 8886.1961391173518, "Shape_Area": 585339.09607001999, "F1F_Allowance": "Permitted", "F1F_Front_Setback": null, "F1F_Side_Setback": 6.0, "F1F_Rear_Setback": 6.0, "F1F_Frontage": null, "F1F_Max_Height": null, "F1F_Max_Stories": 3.5, "F1F_Min_Lot_Size": null, "F1F_Max_Lot_Building_Coverage": null, "F1F_Max_Lot_Impervious_Coverage": 50.0, "F1F_Min_Parking_Spaces": null, "F1F_Elderly_Housing_Only": null, "F1F_Affordable_Housing_Only": null, "F2F_Allowance": "Permitted", "F2F_Front_Setback": null, "F2F_Side_Setback": 6.0, "F2F_Rear_Setback": 6.0, "F2F_Frontage": null, "F2F_Max_Density": 4.0, "F2F_Max_Height": null, "F2F_Max_Stories": 3.5, "F2F_Min_Lot_Size": null, "F2F_Max_Lot_Building_Coverage": null, "F2F_Max_Lot_Impervious_Coverage": 50.0, "F2F_Min_Parking_Spaces_per_1BR": 1.0, "F2F_Min_Parking_Spaces_per_mult_BR": 2.0, "F2F_Elderly_Housing_Only": "No", "F2F_Affordable_Housing_Only": "No", "F3F_Allowance": "Permitted", "F3F_Front_Setback": null, "F3F_Side_Setback": 6.0, "F3F_Rear_Setback": 6.0, "F3F_Frontage": null, "F3F_Max_Density": 4.0, "F3F_Max_Height": null, "F3F_Max_Stories": 3.5, "F3F_Min_Lot_Size": null, "F3F_Max_Lot_Building_Coverage": null, "F3F_Max_Lot_Impervious_Coverage": 50.0, "F3F_Min_Parking_Spaces_per_1BR": 1.0, "F3F_Min_Parking_Spaces_per_mult_BR": 2.0, "F3F_Affordable_Housing_Only": "No", "F3F_Proximity_to_Public_Transit_Required": "No", "F3F_Connection_to_Sewage/Water_Required": "No", "F4F_Allowance": "Public Hearing", "F4F_Front_Setback": null, "F4F_Side_Setback": 6.0, "F4F_Rear_Setback": 6.0, "F4F_Frontage": null, "F1F_Max_Density": null, "F4F_Max_Density": 4.0, "F4F_Max_Height": null, "F4F_Max_Stories": 3.5, "F4F_Min_Lot_Size": null, "F4F_Max_Lot_Building_Coverage": null, "F4F_Max_Lot_Impervious_Coverage": 50.0, "F4F_Min_Parking_Spaces_per_1BR": 1.0, "F4F_Min_Parking_Spaces_per_mult_BR": 2.0, "F3F_Elderly_Housing_Only": "No", "F4F_Elderly_Housing_Only": "No", "F4F_Affordable_Housing_Only": "No", "F4F_Proximity_to_Public_Transit_Required": "No", "F4F_Connection_to_Sewage/Water_Required": "No", "ADU_Allowance": "Allowed/Conditional", "ADU_Elderly_Housing_Only": "No", "ADU_Max_Size_as_Percent_of_Primary_Strcture": 30.0, "ADU_Max_Size_in_sq_ft": null, "ADU_Min_Lot_Size": null, "ADU_Max_Bedrooms": 2.0, "ADU_Min_Parking_Spaces": null, "ADU_Owner_Occupancy_Required": "Yes", "ADU_Renter_Occupancy_Prohibited": "No", "ADU_Employee_or_Family_Occupancy_Required": "No", "ADU_Restricted_to_Primary_Structure": "No", "Affordable_Housing_Allowance": "Not Mentioned", "Affordable_Housing_District": "No", "Affordable_Housing_Elderly_Only": "No", "Affordable_Housing_Min_Lot_Size": null, "Affordable_Housing_Max_Density": null, "Affordable_Housing_Min_Parking_Spaces_per_mult_BR": null, "Affordable_Housing_Max_Units_per_Building": null, "Affordable_Housing_Min_Parking_Spaces_per_1BR": null, "PRD_Allowance": "Public Hearing", "PRD_Max_Density": null, "PRD_Max_Units": null, "PRD_Min_Lot_Size": null, "PRD_Mobile_or_Manufactured_Home_Park": "No", "PUD_Allowance": "Yes", "PUD_Required_with_Subdivision": "F", "PUD_Requires_Land_Conservation": "F", "PUD_Threshold_Number": null, "Notes": " 2 And 3 Dwelling Buildings Are Conditional In A Carriage House ", "FIPS6": 15025 }, "geometry": { "type": "MultiPolygon", "coordinates": [ [ [ [ -72.616530307859321, 44.595333452911738 ], [ -72.617061570533266, 44.596020821555733 ], [ -72.616921520320403, 44.597386674343539 ], [ -72.617932972734835, 44.597416374157334 ], [ -72.61890400438493, 44.597375337617223 ], [ -72.620979768718925, 44.597445813406594 ], [ -72.620307775754128, 44.596511288580594 ], [ -72.620118149091638, 44.596487531171327 ], [ -72.619969842867903, 44.596399153862087 ], [ -72.618820398903807, 44.596526188031682 ], [ -72.618883648277446, 44.596224173610736 ], [ -72.619511580193063, 44.596243560569405 ], [ -72.619607578998142, 44.595726576950035 ], [ -72.616530307859321, 44.595333452911738 ] ] ], [ [ [ -72.615013444729342, 44.590543723648594 ], [ -72.615158292568921, 44.591381941332429 ], [ -72.61525897950176, 44.59147104258232 ], [ -72.615608803372012, 44.591499687439075 ], [ -72.615803394856485, 44.591803458592075 ], [ -72.615534197584068, 44.592112702213385 ], [ -72.617344074031791, 44.592791868677992 ], [ -72.617421996970464, 44.592742570554442 ], [ -72.617621702677098, 44.592807135671869 ], [ -72.619010280804758, 44.593354678337043 ], [ -72.618902116764261, 44.593497401882388 ], [ -72.618943625719197, 44.59352698163076 ], [ -72.62029626096863, 44.594033826924225 ], [ -72.620785444337599, 44.594304168590284 ], [ -72.621635759133383, 44.594326171149042 ], [ -72.621554324424494, 44.59449724797441 ], [ -72.62162504387247, 44.594537059341228 ], [ -72.621552372627647, 44.594725814931216 ], [ -72.6217973582865, 44.594757359224452 ], [ -72.621885590885341, 44.594606569279122 ], [ -72.623262750429106, 44.595060048574041 ], [ -72.623476180519603, 44.594819707971801 ], [ -72.62388740220122, 44.5949967133458 ], [ -72.623711896683957, 44.595211049785334 ], [ -72.623999718679428, 44.595331003258458 ], [ -72.623849897267164, 44.595650771975805 ], [ -72.62338546596844, 44.595692102637123 ], [ -72.62330680341843, 44.596380979613464 ], [ -72.622954253747935, 44.596316552229474 ], [ -72.622811281645411, 44.596658193922316 ], [ -72.621167875126915, 44.596699409349618 ], [ -72.621948185753112, 44.597623046732664 ], [ -72.622825306702723, 44.597782361591186 ], [ -72.624853487798333, 44.598302609596956 ], [ -72.626260599046304, 44.599099629446251 ], [ -72.626260635618692, 44.599099650104165 ], [ -72.627067219191147, 44.597872658872276 ], [ -72.627282413772363, 44.597545311418031 ], [ -72.627502427767283, 44.597210627340665 ], [ -72.627509582757099, 44.596987550438193 ], [ -72.628382825031608, 44.595706568382255 ], [ -72.628665737965932, 44.595268203316571 ], [ -72.628675426400804, 44.595125712950065 ], [ -72.628504625581371, 44.595069005447399 ], [ -72.624617923991565, 44.593778477426959 ], [ -72.615013444729342, 44.590543723648594 ] ] ], [ [ [ -72.604975630202048, 44.589058237691525 ], [ -72.604610234446696, 44.58905857295975 ], [ -72.606123212058549, 44.5905778524303 ], [ -72.607835477405558, 44.592132977332469 ], [ -72.608107784979964, 44.592365270661695 ], [ -72.608589502274782, 44.592776203781035 ], [ -72.6109841634661, 44.594427041222012 ], [ -72.612028262317764, 44.595079405411283 ], [ -72.614586614196426, 44.596711593423066 ], [ -72.615450583580866, 44.597096198788606 ], [ -72.615863837241406, 44.597185015422241 ], [ -72.615245050548126, 44.596649412687775 ], [ -72.614134239902157, 44.596124032938953 ], [ -72.614553313058224, 44.595559269787273 ], [ -72.615191045530906, 44.595565997873329 ], [ -72.615114090910737, 44.594991560824305 ], [ -72.615447463746889, 44.594378725421436 ], [ -72.614927483036922, 44.594212010629121 ], [ -72.615146265950898, 44.593909332177681 ], [ -72.614784754205218, 44.593767597265106 ], [ -72.614995029895482, 44.59344514268529 ], [ -72.614238038903451, 44.593150912760528 ], [ -72.614297760971894, 44.592997544653116 ], [ -72.614131494482308, 44.592961567965695 ], [ -72.613970030147996, 44.592947347434851 ], [ -72.613784294637966, 44.593134219363087 ], [ -72.61354259198967, 44.593071534153758 ], [ -72.61307614287648, 44.59324558698453 ], [ -72.612871569893969, 44.593219790387153 ], [ -72.612436619282633, 44.594123588143958 ], [ -72.612001920331835, 44.593791716426139 ], [ -72.61142365456503, 44.593870238414503 ], [ -72.611351150946518, 44.593858268074136 ], [ -72.611478616171638, 44.592917606974112 ], [ -72.611148506907298, 44.592932973730726 ], [ -72.611082139705232, 44.592398934723711 ], [ -72.612213878991255, 44.592424702961196 ], [ -72.612195034714887, 44.592278375853844 ], [ -72.61262743044982, 44.592253121214569 ], [ -72.61342529973011, 44.591647588906 ], [ -72.613418806397959, 44.590826606692076 ], [ -72.612480922640756, 44.590761173416027 ], [ -72.612551830377015, 44.590222197755011 ], [ -72.613432203952215, 44.590332633678862 ], [ -72.613903358546011, 44.590320859843381 ], [ -72.613858759697408, 44.590156889418289 ], [ -72.613414407763884, 44.589949359568955 ], [ -72.612607012386221, 44.589617389638896 ], [ -72.611965459012609, 44.589353606593711 ], [ -72.611924155798789, 44.589336624004055 ], [ -72.611922691261995, 44.589336021586291 ], [ -72.611725323095243, 44.589444792271181 ], [ -72.611157106116366, 44.589850586019622 ], [ -72.610700584243119, 44.590261401903192 ], [ -72.61063791038022, 44.59030222675149 ], [ -72.610359397304606, 44.590554364943486 ], [ -72.61012082364401, 44.591081332150537 ], [ -72.609534737160232, 44.591170459622433 ], [ -72.609328794608686, 44.591292788193684 ], [ -72.608147536449422, 44.590306279657888 ], [ -72.606819547401443, 44.58967544485342 ], [ -72.605639366253442, 44.589241984434722 ], [ -72.604975630202048, 44.589058237691525 ] ] ] ] } }
]
}
