{"type": "FeatureCollection", "name": "Orange_Thetford", "features": [{"type": "Feature", "properties": {"OBJECT_ID": 668, "County": "Orange", "RPC": "TRORC", "Municipal_Name": "Thetford ", "GEO_ID": "5001772400", "District_Name": "Village Residential", "Abbreviated_District_Name": "Vr", "District_Type": "Mixed with Residential", "Bylaw_Date": "2024-06-06T00:00:00", "Elderly_Housing_District": "No", "District_Mapped": "Yes", "Overlay_District": "No", "Base_Density": null, "GIS_ID": null, "Last_Update": null, "Shape_Length": 19588.54854473443, "Shape_Area": 2455416.91455015, "F1F_Allowance": "Permitted", "F1F_Front_Setback": 40.0, "F1F_Side_Setback": 15.0, "F1F_Rear_Setback": 15.0, "F1F_Frontage": 30.0, "F1F_Max_Height": 35.0, "F1F_Max_Stories": null, "F1F_Min_Lot_Size": 0.46, "F1F_Max_Lot_Building_Coverage": null, "F1F_Max_Lot_Impervious_Coverage": null, "F1F_Min_Parking_Spaces": 1.0, "F1F_Elderly_Housing_Only": null, "F1F_Affordable_Housing_Only": null, "F2F_Allowance": "Permitted", "F2F_Front_Setback": 40.0, "F2F_Side_Setback": 15.0, "F2F_Rear_Setback": 15.0, "F2F_Frontage": 30.0, "F2F_Max_Density": null, "F2F_Max_Height": 35.0, "F2F_Max_Stories": null, "F2F_Min_Lot_Size": 0.46, "F2F_Max_Lot_Building_Coverage": null, "F2F_Max_Lot_Impervious_Coverage": null, "F2F_Min_Parking_Spaces_per_1BR": 1.0, "F2F_Min_Parking_Spaces_per_mult_BR": 1.0, "F2F_Elderly_Housing_Only": "No", "F2F_Affordable_Housing_Only": "No", "F3F_Allowance": "Permitted", "F3F_Front_Setback": 40.0, "F3F_Side_Setback": 15.0, "F3F_Rear_Setback": 15.0, "F3F_Frontage": 30.0, "F3F_Max_Density": null, "F3F_Max_Height": 35.0, "F3F_Max_Stories": null, "F3F_Min_Lot_Size": 0.46, "F3F_Max_Lot_Building_Coverage": null, "F3F_Max_Lot_Impervious_Coverage": null, "F3F_Min_Parking_Spaces_per_1BR": 1.0, "F3F_Min_Parking_Spaces_per_mult_BR": 1.0, "F3F_Affordable_Housing_Only": "No", "F3F_Proximity_to_Public_Transit_Required": "No", "F3F_Connection_to_Sewage/Water_Required": "No", "F4F_Allowance": "Public Hearing", "F4F_Front_Setback": 40.0, "F4F_Side_Setback": 15.0, "F4F_Rear_Setback": 15.0, "F4F_Frontage": 30.0, "F1F_Max_Density": null, "F4F_Max_Density": null, "F4F_Max_Height": null, "F4F_Max_Stories": null, "F4F_Min_Lot_Size": 0.46, "F4F_Max_Lot_Building_Coverage": null, "F4F_Max_Lot_Impervious_Coverage": null, "F4F_Min_Parking_Spaces_per_1BR": 1.0, "F4F_Min_Parking_Spaces_per_mult_BR": 1.0, "F3F_Elderly_Housing_Only": "No", "F4F_Elderly_Housing_Only": "No", "F4F_Affordable_Housing_Only": "No", "F4F_Proximity_to_Public_Transit_Required": "No", "F4F_Connection_to_Sewage/Water_Required": "No", "ADU_Allowance": "Allowed/Conditional", "ADU_Elderly_Housing_Only": "No", "ADU_Max_Size_as_Percent_of_Primary_Strcture": 30.0, "ADU_Max_Size_in_sq_ft": 900.0, "ADU_Min_Lot_Size": 0.46, "ADU_Max_Bedrooms": null, "ADU_Min_Parking_Spaces": 1.0, "ADU_Owner_Occupancy_Required": "No", "ADU_Renter_Occupancy_Prohibited": "No", "ADU_Employee_or_Family_Occupancy_Required": "No", "ADU_Restricted_to_Primary_Structure": "No", "Affordable_Housing_Allowance": "Allowed/Conditional", "Affordable_Housing_District": "No", "Affordable_Housing_Elderly_Only": "No", "Affordable_Housing_Min_Lot_Size": null, "Affordable_Housing_Max_Density": null, "Affordable_Housing_Min_Parking_Spaces_per_mult_BR": 1.0, "Affordable_Housing_Max_Units_per_Building": null, "Affordable_Housing_Min_Parking_Spaces_per_1BR": 1.0, "PRD_Allowance": "Not Mentioned", "PRD_Max_Density": null, "PRD_Max_Units": null, "PRD_Min_Lot_Size": null, "PRD_Mobile_or_Manufactured_Home_Park": "No", "PUD_Allowance": "Yes", "PUD_Required_with_Subdivision": null, "PUD_Requires_Land_Conservation": "F", "PUD_Threshold_Number": null, "Notes": " Maximum Lot Coverage (Buildings) Must Be Compatible W/Existing Structures. Buildings Over 35' Are Conditional And Must Be Set Back Equal to Height. Maximum Density Is 1 Principal Structure/20000 Sq Ft For All Residential Treatments. ", "FIPS6": null}, "geometry": {"type": "MultiPolygon", "coordinates": [[[[-72.26321661882582, 43.87749525086178], [-72.25950279519566, 43.87805165376129], [-72.25959351630947, 43.87862937463401], [-72.25901095183539, 43.87982678925876], [-72.25891123666905, 43.880550785848364], [-72.2591671769999, 43.8812807246605], [-72.25955983938613, 43.88176259399525], [-72.26036741763279, 43.882365609769074], [-72.25977113882644, 43.88313745830878], [-72.25914133586818, 43.88486753464571], [-72.25448630774234, 43.88566449744754], [-72.25326748623283, 43.88582124000293], [-72.25300908405673, 43.88582943740799], [-72.25150467948598, 43.88542323402956], [-72.25104444746538, 43.88679985731377], [-72.25143080428218, 43.8886233695768], [-72.25354730119835, 43.888558312980734], [-72.25424174952398, 43.8884925601946], [-72.25789674657932, 43.88790342712768], [-72.2576371393753, 43.888476842574775], [-72.26122164019937, 43.88937558499362], [-72.26303209688402, 43.88505484258568], [-72.26330097570457, 43.88418027456939], [-72.26418925110266, 43.883031946438436], [-72.26466837886832, 43.88255282322435], [-72.26457616244113, 43.88236840290974], [-72.26498754688741, 43.881798202128806], [-72.26554162851438, 43.88122346573471], [-72.2658541555622, 43.88076667472083], [-72.26653330277365, 43.880283136109455], [-72.26692868593128, 43.879841215302925], [-72.26518518140503, 43.87930540819593], [-72.26530883862965, 43.878959851692784], [-72.26525409848813, 43.87874261673137], [-72.26331978334339, 43.87789402394328], [-72.26321661882582, 43.87749525086178]]], [[[-72.18738532119369, 43.84040173240786], [-72.18671524910492, 43.840929988765204], [-72.18631209018798, 43.841164160760705], [-72.18604178739943, 43.84124797529536], [-72.18374232029043, 43.8414653393001], [-72.18388539239098, 43.84361490898219], [-72.1842948496027, 43.846114265570165], [-72.18444686722022, 43.84667551991422], [-72.18493383542697, 43.847849502844085], [-72.1857291211854, 43.84934041363326], [-72.18582597791375, 43.849677180280466], [-72.18810530187268, 43.849465067840896], [-72.18689618299443, 43.84392068811434], [-72.1879308116168, 43.84365512659585], [-72.18843066643046, 43.84344686040323], [-72.18900019107961, 43.84312650071676], [-72.18980888189732, 43.842565668451826], [-72.19101320087094, 43.84156676840418], [-72.18940142388024, 43.84080698930287], [-72.18927873863902, 43.8409077203701], [-72.18914785165532, 43.84089475386599], [-72.18738532119369, 43.84040173240786]]], [[[-72.24784895444508, 43.82814487910455], [-72.24425619811517, 43.82883531667238], [-72.24432406582882, 43.82924499298116], [-72.24451095414298, 43.82971224511801], [-72.24623699034515, 43.83360292874668], [-72.24542716714106, 43.835150724931395], [-72.24528919338343, 43.83567296694191], [-72.245806839024, 43.83714625161177], [-72.24813671446572, 43.8367714850432], [-72.24836310911722, 43.835721909559055], [-72.24886941371001, 43.834748522351134], [-72.24970809716451, 43.83479274278504], [-72.25028831333528, 43.834718764321465], [-72.25112190688189, 43.83449554611865], [-72.25199293201064, 43.834185013702196], [-72.2523074190691, 43.83406610800859], [-72.25229984788076, 43.83379202666298], [-72.2526749508331, 43.83354374234422], [-72.25306451695143, 43.83341460413803], [-72.25323002101013, 43.83318750299587], [-72.25308214509397, 43.832764773410545], [-72.25265123534766, 43.83203814536609], [-72.25248709379701, 43.83192948886008], [-72.25188948530298, 43.83172238865363], [-72.25106809952821, 43.83135234999385], [-72.25056342486234, 43.83163050076744], [-72.24950328282607, 43.832008971326964], [-72.24784895444508, 43.82814487910455]]], [[[-72.2325286781108, 43.80813502316814], [-72.2318337660352, 43.809020825410855], [-72.23169499560271, 43.80935786924638], [-72.23160602395954, 43.809915567086065], [-72.23104036218695, 43.810091614305065], [-72.23024626669397, 43.810507266444134], [-72.22929784207352, 43.81131550785578], [-72.22874398483496, 43.81194970733585], [-72.22829551230414, 43.812627736076976], [-72.22809164445744, 43.813228657173326], [-72.22795218322797, 43.81376309040845], [-72.2277902113318, 43.81521763077418], [-72.22753300441475, 43.8173730882662], [-72.22689405258964, 43.817238655283376], [-72.22606403047465, 43.817006623740674], [-72.22536491716131, 43.816576432211285], [-72.2234966322979, 43.815039247215005], [-72.22022493533503, 43.813028763649754], [-72.21989325438999, 43.81273762496646], [-72.2182249064299, 43.81153832544221], [-72.2180382383212, 43.8129953522624], [-72.21660604117527, 43.814445688434944], [-72.22055990272509, 43.81680311576472], [-72.2223123855008, 43.81824038898742], [-72.22368426834424, 43.819147570814096], [-72.22414867423751, 43.81938662122384], [-72.22488051204559, 43.819634301778045], [-72.22654183170073, 43.820021356091765], [-72.22605442758103, 43.82143107556985], [-72.22987530589165, 43.82161289542742], [-72.23008372828578, 43.821049785834276], [-72.23091749321753, 43.82138026062274], [-72.23279494329849, 43.82046909758933], [-72.23294438343886, 43.81845748125881], [-72.23150868289852, 43.81835239455565], [-72.23108023325453, 43.81821547045046], [-72.23124660036727, 43.81793840741699], [-72.23135523169358, 43.81742051303713], [-72.23155739973123, 43.81552735840651], [-72.23170574297288, 43.814153846662904], [-72.23188121021855, 43.81355733124648], [-72.23203214836167, 43.81332914308206], [-72.2327440753305, 43.81258483503216], [-72.23373291539676, 43.812239595941044], [-72.23447182538027, 43.811776348836084], [-72.23477083391234, 43.81147732024051], [-72.23514299739185, 43.81090382194654], [-72.2354356884819, 43.810149688668396], [-72.23542912917046, 43.809940356312055], [-72.23650787419274, 43.80886270756569], [-72.2325286781108, 43.80813502316814]]], [[[-72.25367463009523, 43.785389581705836], [-72.25333429196039, 43.78613391190505], [-72.25304348151987, 43.78724712544769], [-72.25215422391541, 43.78774115231681], [-72.25182487420383, 43.78799891221989], [-72.25145961981866, 43.78832763992991], [-72.25109470420088, 43.78879202815885], [-72.25103041528727, 43.78933841661619], [-72.25122769965103, 43.7907476876155], [-72.25102061605911, 43.79119860838295], [-72.25027875471574, 43.79227654459451], [-72.25103311606654, 43.792313086385825], [-72.25177209299756, 43.79218677422381], [-72.25417797917366, 43.79271528087893], [-72.2545975618001, 43.792181247103436], [-72.25493899565492, 43.79132422300131], [-72.25503446599737, 43.79061382457753], [-72.25499674619185, 43.790289509380834], [-72.25542175503449, 43.79084567044474], [-72.25543727359533, 43.790973633090616], [-72.25596789678691, 43.79076542958808], [-72.25662247981181, 43.79165063424273], [-72.25735866611875, 43.79221039966265], [-72.25800048365117, 43.79229315875874], [-72.25835420863443, 43.79215435534731], [-72.25849960124405, 43.79193371968558], [-72.2585004710219, 43.791712779446534], [-72.2578604667844, 43.79118809960492], [-72.25675882714883, 43.78969724428175], [-72.2564674923761, 43.789160817796464], [-72.25668094948175, 43.78848737155829], [-72.2568845354553, 43.787162914655084], [-72.2571875468813, 43.78641574324467], [-72.25614938174388, 43.786112663873276], [-72.25611323671377, 43.78610211009161], [-72.25441322497383, 43.785605378329194], [-72.25383631224227, 43.785436812201965], [-72.25367463009523, 43.785389581705836]]]]}}, {"type": "Feature", "properties": {"OBJECT_ID": 665, "County": "Orange", "RPC": "TRORC", "Municipal_Name": "Thetford ", "GEO_ID": "5001772400", "District_Name": "Historic Preservation Overlay", "Abbreviated_District_Name": "Hpo", "District_Type": "Overlay not Affecting Use", "Bylaw_Date": "2024-06-06T00:00:00", "Elderly_Housing_District": "No", "District_Mapped": "Yes", "Overlay_District": "Yes", "Base_Density": null, "GIS_ID": null, "Last_Update": null, "Shape_Length": 3695.4177882709187, "Shape_Area": 285956.3430304966, "F1F_Allowance": "Public Hearing", "F1F_Front_Setback": null, "F1F_Side_Setback": null, "F1F_Rear_Setback": null, "F1F_Frontage": null, "F1F_Max_Height": null, "F1F_Max_Stories": null, "F1F_Min_Lot_Size": null, "F1F_Max_Lot_Building_Coverage": null, "F1F_Max_Lot_Impervious_Coverage": null, "F1F_Min_Parking_Spaces": null, "F1F_Elderly_Housing_Only": null, "F1F_Affordable_Housing_Only": null, "F2F_Allowance": "Public Hearing", "F2F_Front_Setback": null, "F2F_Side_Setback": null, "F2F_Rear_Setback": null, "F2F_Frontage": null, "F2F_Max_Density": null, "F2F_Max_Height": null, "F2F_Max_Stories": null, "F2F_Min_Lot_Size": null, "F2F_Max_Lot_Building_Coverage": null, "F2F_Max_Lot_Impervious_Coverage": null, "F2F_Min_Parking_Spaces_per_1BR": null, "F2F_Min_Parking_Spaces_per_mult_BR": null, "F2F_Elderly_Housing_Only": "No", "F2F_Affordable_Housing_Only": "No", "F3F_Allowance": "Public Hearing", "F3F_Front_Setback": null, "F3F_Side_Setback": null, "F3F_Rear_Setback": null, "F3F_Frontage": null, "F3F_Max_Density": null, "F3F_Max_Height": null, "F3F_Max_Stories": null, "F3F_Min_Lot_Size": null, "F3F_Max_Lot_Building_Coverage": null, "F3F_Max_Lot_Impervious_Coverage": null, "F3F_Min_Parking_Spaces_per_1BR": null, "F3F_Min_Parking_Spaces_per_mult_BR": null, "F3F_Affordable_Housing_Only": "No", "F3F_Proximity_to_Public_Transit_Required": "No", "F3F_Connection_to_Sewage/Water_Required": "No", "F4F_Allowance": "Public Hearing", "F4F_Front_Setback": null, "F4F_Side_Setback": null, "F4F_Rear_Setback": null, "F4F_Frontage": null, "F1F_Max_Density": null, "F4F_Max_Density": null, "F4F_Max_Height": null, "F4F_Max_Stories": null, "F4F_Min_Lot_Size": null, "F4F_Max_Lot_Building_Coverage": null, "F4F_Max_Lot_Impervious_Coverage": null, "F4F_Min_Parking_Spaces_per_1BR": null, "F4F_Min_Parking_Spaces_per_mult_BR": null, "F3F_Elderly_Housing_Only": "No", "F4F_Elderly_Housing_Only": "No", "F4F_Affordable_Housing_Only": "No", "F4F_Proximity_to_Public_Transit_Required": "No", "F4F_Connection_to_Sewage/Water_Required": "No", "ADU_Allowance": "Not Mentioned", "ADU_Elderly_Housing_Only": "No", "ADU_Max_Size_as_Percent_of_Primary_Strcture": null, "ADU_Max_Size_in_sq_ft": null, "ADU_Min_Lot_Size": null, "ADU_Max_Bedrooms": null, "ADU_Min_Parking_Spaces": null, "ADU_Owner_Occupancy_Required": "No", "ADU_Renter_Occupancy_Prohibited": "No", "ADU_Employee_or_Family_Occupancy_Required": "No", "ADU_Restricted_to_Primary_Structure": "No", "Affordable_Housing_Allowance": "Not Mentioned", "Affordable_Housing_District": "No", "Affordable_Housing_Elderly_Only": "No", "Affordable_Housing_Min_Lot_Size": null, "Affordable_Housing_Max_Density": null, "Affordable_Housing_Min_Parking_Spaces_per_mult_BR": null, "Affordable_Housing_Max_Units_per_Building": null, "Affordable_Housing_Min_Parking_Spaces_per_1BR": null, "PRD_Allowance": "Not Mentioned", "PRD_Max_Density": null, "PRD_Max_Units": null, "PRD_Min_Lot_Size": null, "PRD_Mobile_or_Manufactured_Home_Park": "No", "PUD_Allowance": null, "PUD_Required_with_Subdivision": null, "PUD_Requires_Land_Conservation": null, "PUD_Threshold_Number": null, "Notes": " Buildings In This District Must Maintain Their Historical Integrity, And Any Construction Must Match The Architectural Features, Materials, And Character Of Other Buildings In The District. Buildings Cannot Be Demolished Unless They Are Significantly Damaged (>70% Of Assessed Value) And Anything That Can Be Repaired As Opposed to Replaced Should Be.  ", "FIPS6": null}, "geometry": {"type": "MultiPolygon", "coordinates": [[[[-72.22689405258964, 43.817238655283376], [-72.22667189303756, 43.818595835678934], [-72.22376655526587, 43.81780344755458], [-72.22464067120258, 43.8173376282358], [-72.22298371950873, 43.816498500354776], [-72.22147658839874, 43.81722668918713], [-72.22361279887691, 43.81907042921231], [-72.22752692669211, 43.82031148044298], [-72.22785057749454, 43.81961610071014], [-72.23095271888485, 43.82053379695275], [-72.23152181799244, 43.820071034689825], [-72.22975067987134, 43.81921005835239], [-72.23067942830131, 43.81551729228809], [-72.23155739973123, 43.81552735840651], [-72.23179855894405, 43.815530123415115], [-72.23216821785402, 43.81334308432643], [-72.23203214836167, 43.81332914308206], [-72.22842311084274, 43.8129593954103], [-72.22829565356116, 43.81388729562003], [-72.22888685498909, 43.81397794964832], [-72.22863453291455, 43.815262554009536], [-72.2277902113318, 43.81521763077418], [-72.22722976083367, 43.81518781059343], [-72.22689405258964, 43.817238655283376]]]]}}, {"type": "Feature", "properties": {"OBJECT_ID": 667, "County": "Orange", "RPC": "TRORC", "Municipal_Name": "Thetford ", "GEO_ID": "5001772400", "District_Name": "Rural Residential", "Abbreviated_District_Name": "Rr", "District_Type": "Mixed with Residential", "Bylaw_Date": "2024-06-06T00:00:00", "Elderly_Housing_District": "No", "District_Mapped": "Yes", "Overlay_District": "No", "Base_Density": null, "GIS_ID": null, "Last_Update": null, "Shape_Length": 70320.59003387889, "Shape_Area": 114676860.47232695, "F1F_Allowance": "Permitted", "F1F_Front_Setback": 40.0, "F1F_Side_Setback": 15.0, "F1F_Rear_Setback": 15.0, "F1F_Frontage": 30.0, "F1F_Max_Height": 35.0, "F1F_Max_Stories": null, "F1F_Min_Lot_Size": 1.84, "F1F_Max_Lot_Building_Coverage": null, "F1F_Max_Lot_Impervious_Coverage": null, "F1F_Min_Parking_Spaces": 1.0, "F1F_Elderly_Housing_Only": null, "F1F_Affordable_Housing_Only": null, "F2F_Allowance": "Permitted", "F2F_Front_Setback": 40.0, "F2F_Side_Setback": 15.0, "F2F_Rear_Setback": 15.0, "F2F_Frontage": 30.0, "F2F_Max_Density": null, "F2F_Max_Height": 35.0, "F2F_Max_Stories": null, "F2F_Min_Lot_Size": 1.84, "F2F_Max_Lot_Building_Coverage": null, "F2F_Max_Lot_Impervious_Coverage": null, "F2F_Min_Parking_Spaces_per_1BR": 1.0, "F2F_Min_Parking_Spaces_per_mult_BR": 1.0, "F2F_Elderly_Housing_Only": "No", "F2F_Affordable_Housing_Only": "No", "F3F_Allowance": "Permitted", "F3F_Front_Setback": 40.0, "F3F_Side_Setback": 15.0, "F3F_Rear_Setback": 15.0, "F3F_Frontage": 30.0, "F3F_Max_Density": null, "F3F_Max_Height": 35.0, "F3F_Max_Stories": null, "F3F_Min_Lot_Size": 1.84, "F3F_Max_Lot_Building_Coverage": null, "F3F_Max_Lot_Impervious_Coverage": null, "F3F_Min_Parking_Spaces_per_1BR": 1.0, "F3F_Min_Parking_Spaces_per_mult_BR": 1.0, "F3F_Affordable_Housing_Only": "No", "F3F_Proximity_to_Public_Transit_Required": "No", "F3F_Connection_to_Sewage/Water_Required": "No", "F4F_Allowance": "Public Hearing", "F4F_Front_Setback": 40.0, "F4F_Side_Setback": 15.0, "F4F_Rear_Setback": 15.0, "F4F_Frontage": 30.0, "F1F_Max_Density": null, "F4F_Max_Density": null, "F4F_Max_Height": 35.0, "F4F_Max_Stories": null, "F4F_Min_Lot_Size": 1.84, "F4F_Max_Lot_Building_Coverage": null, "F4F_Max_Lot_Impervious_Coverage": null, "F4F_Min_Parking_Spaces_per_1BR": 1.0, "F4F_Min_Parking_Spaces_per_mult_BR": 1.0, "F3F_Elderly_Housing_Only": "No", "F4F_Elderly_Housing_Only": "No", "F4F_Affordable_Housing_Only": "No", "F4F_Proximity_to_Public_Transit_Required": "No", "F4F_Connection_to_Sewage/Water_Required": "No", "ADU_Allowance": "Allowed/Conditional", "ADU_Elderly_Housing_Only": "No", "ADU_Max_Size_as_Percent_of_Primary_Strcture": 30.0, "ADU_Max_Size_in_sq_ft": 900.0, "ADU_Min_Lot_Size": 1.84, "ADU_Max_Bedrooms": null, "ADU_Min_Parking_Spaces": 1.0, "ADU_Owner_Occupancy_Required": "No", "ADU_Renter_Occupancy_Prohibited": "No", "ADU_Employee_or_Family_Occupancy_Required": "No", "ADU_Restricted_to_Primary_Structure": "No", "Affordable_Housing_Allowance": "Allowed/Conditional", "Affordable_Housing_District": "No", "Affordable_Housing_Elderly_Only": "No", "Affordable_Housing_Min_Lot_Size": 1.84, "Affordable_Housing_Max_Density": null, "Affordable_Housing_Min_Parking_Spaces_per_mult_BR": null, "Affordable_Housing_Max_Units_per_Building": null, "Affordable_Housing_Min_Parking_Spaces_per_1BR": null, "PRD_Allowance": "Not Mentioned", "PRD_Max_Density": null, "PRD_Max_Units": null, "PRD_Min_Lot_Size": null, "PRD_Mobile_or_Manufactured_Home_Park": "No", "PUD_Allowance": "Yes", "PUD_Required_with_Subdivision": null, "PUD_Requires_Land_Conservation": "F", "PUD_Threshold_Number": null, "Notes": " Minimum Parking Requirements In Affordable Housing Based On Transportation Modes Used By Residents. ", "FIPS6": null}, "geometry": {"type": "MultiPolygon", "coordinates": [[[[-72.2079608546987, 43.77201893098659], [-72.20807591472696, 43.772052987022406], [-72.20979723947411, 43.77255803444549], [-72.22753037248215, 43.7777470634095], [-72.22858415709403, 43.778055421138525], [-72.22965326251297, 43.77836826336331], [-72.23019070369855, 43.77852540533473], [-72.23144604898594, 43.778892404605756], [-72.23570144862651, 43.78013711225084], [-72.2360850671898, 43.780249276407005], [-72.24707945297915, 43.783462728636486], [-72.24840240701546, 43.78384936712551], [-72.25367463009523, 43.785389581705836], [-72.25333429196039, 43.78613391190505], [-72.25304348151987, 43.78724712544769], [-72.25215422391541, 43.78774115231681], [-72.25182487420383, 43.78799891221989], [-72.25145961981866, 43.78832763992991], [-72.25109470420088, 43.78879202815885], [-72.25103041528727, 43.78933841661619], [-72.25122769965103, 43.7907476876155], [-72.25102061605911, 43.79119860838295], [-72.25027875471574, 43.79227654459451], [-72.25103311606654, 43.792313086385825], [-72.25177209299756, 43.79218677422381], [-72.25417797917366, 43.79271528087893], [-72.2545975618001, 43.792181247103436], [-72.25493899565492, 43.79132422300131], [-72.25503446599737, 43.79061382457753], [-72.25499674619185, 43.790289509380834], [-72.25542175503449, 43.79084567044474], [-72.25543727359533, 43.790973633090616], [-72.25596789678691, 43.79076542958808], [-72.25662247981181, 43.79165063424273], [-72.25735866611875, 43.79221039966265], [-72.25800048365117, 43.79229315875874], [-72.25835420863443, 43.79215435534731], [-72.25849960124405, 43.79193371968558], [-72.2585004710219, 43.791712779446534], [-72.2578604667844, 43.79118809960492], [-72.25675882714883, 43.78969724428175], [-72.2564674923761, 43.789160817796464], [-72.25668094948175, 43.78848737155829], [-72.2568845354553, 43.787162914655084], [-72.2571875468813, 43.78641574324467], [-72.2583630934459, 43.78675891770292], [-72.25876345720646, 43.786875708720224], [-72.26471502715437, 43.788610603869714], [-72.26722656516974, 43.789342307895375], [-72.27645833298736, 43.79203244931985], [-72.2781163270735, 43.79251549439743], [-72.29293525435727, 43.796864882313294], [-72.29538018238262, 43.79759144295751], [-72.29565170344488, 43.79767205613142], [-72.29758868783817, 43.79824717637341], [-72.299337742168, 43.79876676058764], [-72.30087587556646, 43.79922357512512], [-72.30507782140526, 43.80047062673461], [-72.30565756417926, 43.800639909783456], [-72.31046545664509, 43.8020419521727], [-72.3116386035226, 43.80238384660072], [-72.31685470320772, 43.80390394960407], [-72.31870329249318, 43.8044428367072], [-72.32005395794887, 43.80483639565493], [-72.3248862297079, 43.80624443113303], [-72.32599412936965, 43.80656725696887], [-72.32654764138383, 43.80672840417314], [-72.33933847072036, 43.810464553270094], [-72.33176544143554, 43.82119975688883], [-72.3316130236838, 43.821415435818395], [-72.32434732752377, 43.831709717919175], [-72.32424238650509, 43.83185831317596], [-72.32396295727996, 43.83224725533848], [-72.31564426264812, 43.842997020718364], [-72.31410428131967, 43.84498687159128], [-72.30502625333689, 43.85671168155719], [-72.29718436721936, 43.86681044192391], [-72.28933982856151, 43.87690864098972], [-72.28713945947811, 43.87974464669212], [-72.27934604820514, 43.889787059488675], [-72.27155001300677, 43.89982891742466], [-72.2644243356194, 43.89786517868881], [-72.26254366325117, 43.89595337075401], [-72.26019441465824, 43.89334600273751], [-72.26025253768975, 43.893520346271806], [-72.26009090916592, 43.89318801843001], [-72.25997734746403, 43.892481632161214], [-72.26019446984688, 43.89198765918308], [-72.26036158562522, 43.89134286289902], [-72.26122164019937, 43.88937558499362], [-72.26303209688402, 43.88505484258568], [-72.26330097570457, 43.88418027456939], [-72.26418925110266, 43.883031946438436], [-72.26466837886832, 43.88255282322435], [-72.26457616244113, 43.88236840290974], [-72.26498754688741, 43.881798202128806], [-72.26554162851438, 43.88122346573471], [-72.2658541555622, 43.88076667472083], [-72.26653330277365, 43.880283136109455], [-72.26692868593128, 43.879841215302925], [-72.26518518140503, 43.87930540819593], [-72.26530883862965, 43.878959851692784], [-72.26525409848813, 43.87874261673137], [-72.26331978334339, 43.87789402394328], [-72.26321661882582, 43.87749525086178], [-72.25950279519566, 43.87805165376129], [-72.25959351630947, 43.87862937463401], [-72.25901095183539, 43.87982678925876], [-72.25891123666905, 43.880550785848364], [-72.2591671769999, 43.8812807246605], [-72.25955983938613, 43.88176259399525], [-72.26036741763279, 43.882365609769074], [-72.25977113882644, 43.88313745830878], [-72.25914133586818, 43.88486753464571], [-72.25448630774234, 43.88566449744754], [-72.25326748623283, 43.88582124000293], [-72.25300908405673, 43.88582943740799], [-72.25150467948598, 43.88542323402956], [-72.24846298913496, 43.88465730763826], [-72.24788081957469, 43.88429793711783], [-72.2461146142062, 43.88295700402661], [-72.24429641057355, 43.88392488580544], [-72.24392208162723, 43.883924024216434], [-72.24354869881016, 43.88370319256632], [-72.24345095389602, 43.884667540918464], [-72.24311897932729, 43.88569904942427], [-72.24206275002864, 43.886475097582334], [-72.24117126950989, 43.887014591431004], [-72.24051365611375, 43.88758845916556], [-72.2393163169813, 43.88742418317571], [-72.23892934072144, 43.8872504190832], [-72.2401554535188, 43.88843249165121], [-72.2412138636075, 43.889647961394], [-72.24419225781328, 43.89154823726944], [-72.24623347361165, 43.89258833359789], [-72.24692652180828, 43.89305251791473], [-72.23364352600944, 43.88941224914452], [-72.22036215486189, 43.885770438369036], [-72.2203568059829, 43.885768896110996], [-72.22013368697421, 43.88570454512288], [-72.2148263463513, 43.88425001600786], [-72.20492065299568, 43.88153566804035], [-72.18313400326689, 43.87555071557022], [-72.1813363804313, 43.87505669893483], [-72.17426488192983, 43.87310762226747], [-72.1691862308474, 43.8717176783274], [-72.16863704453687, 43.870800112696166], [-72.16826298330993, 43.869983410281485], [-72.16817450533352, 43.869628896440325], [-72.16823506214145, 43.86909624579275], [-72.16837199323811, 43.86887937189351], [-72.1692431787818, 43.86839407407945], [-72.17114632459928, 43.86792884283206], [-72.17270567371497, 43.8672873590724], [-72.17281216364717, 43.867287664004834], [-72.17464666338714, 43.866623179056965], [-72.17568864930632, 43.86644451199365], [-72.17860193054206, 43.866378397794456], [-72.18144280522247, 43.866032094812844], [-72.18186285391411, 43.86594991997053], [-72.18310346111846, 43.86553961761998], [-72.18395322161611, 43.865122191247], [-72.18415570619143, 43.86496506244764], [-72.18466013735492, 43.86449609337443], [-72.18505444617261, 43.86381845659321], [-72.18536658922743, 43.861589816669316], [-72.18558206283271, 43.86130167632127], [-72.18558343971739, 43.8610396762441], [-72.18590272331913, 43.85976654100671], [-72.18651932286296, 43.85867539957574], [-72.1874962597691, 43.857271484777094], [-72.18814343563803, 43.85610238466861], [-72.18817886904226, 43.85550173615547], [-72.18824610188209, 43.855328715733755], [-72.18813690570431, 43.85496821779477], [-72.18814319730699, 43.85454854641954], [-72.18792913822446, 43.853809742848526], [-72.18762721447497, 43.853320734077236], [-72.18736332101611, 43.852647228202095], [-72.18693498152257, 43.851979300685265], [-72.18672372630758, 43.85146974664983], [-72.18556696894954, 43.84928458685609], [-72.1841116401136, 43.84680391614045], [-72.18311597476477, 43.844527011923496], [-72.1829113263606, 43.8435794137032], [-72.18333190085308, 43.840828773649314], [-72.18315263434566, 43.83973885889931], [-72.18295577000323, 43.83730035264649], [-72.18267460690855, 43.83603743355305], [-72.18253914169577, 43.83445342360139], [-72.1827072620256, 43.8329952704051], [-72.18304107086296, 43.832061495740966], [-72.18360278087148, 43.830818825058984], [-72.18411703322009, 43.829989771125405], [-72.185239119136, 43.828519306766], [-72.18617576771278, 43.827122845181144], [-72.1866243733476, 43.826257868944666], [-72.18767100844548, 43.82452147615341], [-72.18824517461223, 43.823648193934034], [-72.18856710657677, 43.82329814286526], [-72.18877407780917, 43.82287010079998], [-72.18890120578413, 43.82230422596886], [-72.18884410162728, 43.82063708730841], [-72.18872943780175, 43.8201922398941], [-72.18813574798153, 43.819116318612075], [-72.18781800551434, 43.8183798401533], [-72.18768180839366, 43.817871479972574], [-72.18692252660539, 43.81630826322558], [-72.18612506275953, 43.81508893597195], [-72.18525722752943, 43.81397453519737], [-72.18471314748462, 43.81313148688535], [-72.18380612973675, 43.812151254423185], [-72.18348206471568, 43.811616717290335], [-72.1835042382662, 43.81092472660797], [-72.1833889878456, 43.810578338113835], [-72.18330270855094, 43.80978299172559], [-72.18349058475505, 43.808685357856604], [-72.18421779410679, 43.80618063182685], [-72.18446240990636, 43.805583852989216], [-72.18518850270603, 43.80448364993897], [-72.18553130537788, 43.804166063838956], [-72.1864471302896, 43.803516673047916], [-72.18826881329218, 43.80256903942679], [-72.18962762772793, 43.801699772622634], [-72.19057434957688, 43.80099471901339], [-72.19125283821069, 43.80027407958061], [-72.1915708671391, 43.799833461683434], [-72.19293638700958, 43.796419810717545], [-72.19399201407825, 43.7941216523629], [-72.19466363649425, 43.792944647167374], [-72.19506515181433, 43.792371212882735], [-72.19640864317314, 43.790805991741436], [-72.1967970308306, 43.79039029875205], [-72.19725055209156, 43.790090882359934], [-72.19761839670758, 43.78968106887483], [-72.19866538980263, 43.78901698536516], [-72.19959618574424, 43.78860270790727], [-72.20101982310206, 43.78821653660086], [-72.20159218387501, 43.78797096790974], [-72.20209055856144, 43.787737083358074], [-72.20338467162243, 43.786954610088095], [-72.20439054827355, 43.78626660198383], [-72.20480741031074, 43.78590450662529], [-72.20552273480325, 43.78497461426062], [-72.2057810150733, 43.784266843914956], [-72.20589145857636, 43.78353178176796], [-72.2058506476664, 43.78179627686051], [-72.20555825220964, 43.78110491009621], [-72.2052526126089, 43.780885588404615], [-72.2051124578963, 43.780865785643314], [-72.20485747823125, 43.78072750783292], [-72.20471934529674, 43.780600152962265], [-72.20469935691494, 43.780219108847646], [-72.20408091353566, 43.77972535791698], [-72.20405975528855, 43.77958237400982], [-72.20412020025857, 43.779164452893], [-72.2045195054817, 43.77817065311642], [-72.20545388413419, 43.776781213713946], [-72.2055178959438, 43.77565945815627], [-72.20543199176423, 43.77529408321066], [-72.20555950292332, 43.77462233920835], [-72.20540077140059, 43.771330595300675], [-72.20622937373945, 43.771536137718165], [-72.2079608546987, 43.77201893098659]], [[-72.18835334748469, 43.810019000405106], [-72.18769180473824, 43.811594340352706], [-72.18759033782585, 43.8124877555597], [-72.18767748857469, 43.81636456595835], [-72.19196075813824, 43.81635944627485], [-72.19207531488004, 43.81579673755732], [-72.19200813561554, 43.81454530360567], [-72.19190265635963, 43.814143243317716], [-72.19102660463172, 43.812472908956835], [-72.1907915744096, 43.81080121269884], [-72.19076749100496, 43.810182831239835], [-72.19097227416523, 43.80948504238571], [-72.19215086281167, 43.807185394571945], [-72.18974705920078, 43.807236531143936], [-72.18835334748469, 43.810019000405106]], [[-72.23169499560271, 43.80935786924638], [-72.23160602395954, 43.809915567086065], [-72.23104036218695, 43.810091614305065], [-72.23024626669397, 43.810507266444134], [-72.22929784207352, 43.81131550785578], [-72.22874398483496, 43.81194970733585], [-72.22829551230414, 43.812627736076976], [-72.22809164445744, 43.813228657173326], [-72.22795218322797, 43.81376309040845], [-72.2277902113318, 43.81521763077418], [-72.22753300441475, 43.8173730882662], [-72.22689405258964, 43.817238655283376], [-72.22606403047465, 43.817006623740674], [-72.22536491716131, 43.816576432211285], [-72.2234966322979, 43.815039247215005], [-72.22022493533503, 43.813028763649754], [-72.21989325438999, 43.81273762496646], [-72.2182249064299, 43.81153832544221], [-72.2180382383212, 43.8129953522624], [-72.21660604117527, 43.814445688434944], [-72.22055990272509, 43.81680311576472], [-72.2223123855008, 43.81824038898742], [-72.22368426834424, 43.819147570814096], [-72.22414867423751, 43.81938662122384], [-72.22488051204559, 43.819634301778045], [-72.22654183170073, 43.820021356091765], [-72.22605442758103, 43.82143107556985], [-72.22987530589165, 43.82161289542742], [-72.23008372828578, 43.821049785834276], [-72.23091749321753, 43.82138026062274], [-72.23279494329849, 43.82046909758933], [-72.23294438343886, 43.81845748125881], [-72.23150868289852, 43.81835239455565], [-72.23108023325453, 43.81821547045046], [-72.23124660036727, 43.81793840741699], [-72.23135523169358, 43.81742051303713], [-72.23155739973123, 43.81552735840651], [-72.23170574297288, 43.814153846662904], [-72.23188121021855, 43.81355733124648], [-72.23203214836167, 43.81332914308206], [-72.2327440753305, 43.81258483503216], [-72.23373291539676, 43.812239595941044], [-72.23447182538027, 43.811776348836084], [-72.23477083391234, 43.81147732024051], [-72.23514299739185, 43.81090382194654], [-72.2354356884819, 43.810149688668396], [-72.23542912917046, 43.809940356312055], [-72.23650787419274, 43.80886270756569], [-72.2325286781108, 43.80813502316814], [-72.2318337660352, 43.809020825410855], [-72.23169499560271, 43.80935786924638]], [[-72.24432406582882, 43.82924499298116], [-72.24451095414298, 43.82971224511801], [-72.24623699034515, 43.83360292874668], [-72.24542716714106, 43.835150724931395], [-72.24528919338343, 43.83567296694191], [-72.245806839024, 43.83714625161177], [-72.24813671446572, 43.8367714850432], [-72.24836310911722, 43.835721909559055], [-72.24886941371001, 43.834748522351134], [-72.24970809716451, 43.83479274278504], [-72.25028831333528, 43.834718764321465], [-72.25112190688189, 43.83449554611865], [-72.25199293201064, 43.834185013702196], [-72.2523074190691, 43.83406610800859], [-72.25229984788076, 43.83379202666298], [-72.2526749508331, 43.83354374234422], [-72.25306451695143, 43.83341460413803], [-72.25323002101013, 43.83318750299587], [-72.25308214509397, 43.832764773410545], [-72.25265123534766, 43.83203814536609], [-72.25248709379701, 43.83192948886008], [-72.25188948530298, 43.83172238865363], [-72.25106809952821, 43.83135234999385], [-72.25056342486234, 43.83163050076744], [-72.24950328282607, 43.832008971326964], [-72.24784895444508, 43.82814487910455], [-72.24425619811517, 43.82883531667238], [-72.24432406582882, 43.82924499298116]], [[-72.18631209018798, 43.841164160760705], [-72.18604178739943, 43.84124797529536], [-72.18374232029043, 43.8414653393001], [-72.18388539239098, 43.84361490898219], [-72.1842948496027, 43.846114265570165], [-72.18444686722022, 43.84667551991422], [-72.18493383542697, 43.847849502844085], [-72.1857291211854, 43.84934041363326], [-72.18582597791375, 43.849677180280466], [-72.18810530187268, 43.849465067840896], [-72.18689618299443, 43.84392068811434], [-72.1879308116168, 43.84365512659585], [-72.18843066643046, 43.84344686040323], [-72.18900019107961, 43.84312650071676], [-72.18980888189732, 43.842565668451826], [-72.19101320087094, 43.84156676840418], [-72.18940142388024, 43.84080698930287], [-72.18927873863902, 43.8409077203701], [-72.18914785165532, 43.84089475386599], [-72.18738532119369, 43.84040173240786], [-72.18671524910492, 43.840929988765204], [-72.18631209018798, 43.841164160760705]]], [[[-72.25672003970526, 43.890502482177915], [-72.25650085438124, 43.89134771370603], [-72.25618387045802, 43.892025342155385], [-72.2561469351593, 43.89266193173056], [-72.25637153283299, 43.8937939001835], [-72.25665343122758, 43.89442969473676], [-72.25815015463961, 43.89613722088438], [-72.24763774327255, 43.893247323856244], [-72.25018409486769, 43.88871961677833], [-72.25143080428218, 43.8886233695768], [-72.25354730119835, 43.888558312980734], [-72.25424174952398, 43.8884925601946], [-72.25789674657932, 43.88790342712768], [-72.2576371393753, 43.888476842574775], [-72.25672003970526, 43.890502482177915]]]]}}, {"type": "Feature", "properties": {"OBJECT_ID": 664, "County": "Orange", "RPC": "TRORC", "Municipal_Name": "Thetford ", "GEO_ID": "5001772400", "District_Name": "Community Business", "Abbreviated_District_Name": "Cb", "District_Type": "Mixed with Residential", "Bylaw_Date": "2024-06-06T00:00:00", "Elderly_Housing_District": "No", "District_Mapped": "Yes", "Overlay_District": "No", "Base_Density": null, "GIS_ID": null, "Last_Update": null, "Shape_Length": 2633.83558447777, "Shape_Area": 269174.0676455059, "F1F_Allowance": "Permitted", "F1F_Front_Setback": 40.0, "F1F_Side_Setback": 15.0, "F1F_Rear_Setback": 15.0, "F1F_Frontage": 30.0, "F1F_Max_Height": 35.0, "F1F_Max_Stories": null, "F1F_Min_Lot_Size": 0.46, "F1F_Max_Lot_Building_Coverage": null, "F1F_Max_Lot_Impervious_Coverage": null, "F1F_Min_Parking_Spaces": 1.0, "F1F_Elderly_Housing_Only": null, "F1F_Affordable_Housing_Only": null, "F2F_Allowance": "Permitted", "F2F_Front_Setback": 40.0, "F2F_Side_Setback": 15.0, "F2F_Rear_Setback": 15.0, "F2F_Frontage": 30.0, "F2F_Max_Density": null, "F2F_Max_Height": 35.0, "F2F_Max_Stories": null, "F2F_Min_Lot_Size": 0.46, "F2F_Max_Lot_Building_Coverage": null, "F2F_Max_Lot_Impervious_Coverage": null, "F2F_Min_Parking_Spaces_per_1BR": 1.0, "F2F_Min_Parking_Spaces_per_mult_BR": 1.0, "F2F_Elderly_Housing_Only": "No", "F2F_Affordable_Housing_Only": "No", "F3F_Allowance": "Public Hearing", "F3F_Front_Setback": 40.0, "F3F_Side_Setback": 15.0, "F3F_Rear_Setback": 15.0, "F3F_Frontage": 30.0, "F3F_Max_Density": null, "F3F_Max_Height": 35.0, "F3F_Max_Stories": null, "F3F_Min_Lot_Size": 0.46, "F3F_Max_Lot_Building_Coverage": null, "F3F_Max_Lot_Impervious_Coverage": null, "F3F_Min_Parking_Spaces_per_1BR": 1.0, "F3F_Min_Parking_Spaces_per_mult_BR": 1.0, "F3F_Affordable_Housing_Only": "No", "F3F_Proximity_to_Public_Transit_Required": "No", "F3F_Connection_to_Sewage/Water_Required": "No", "F4F_Allowance": "Public Hearing", "F4F_Front_Setback": 40.0, "F4F_Side_Setback": 15.0, "F4F_Rear_Setback": 15.0, "F4F_Frontage": 30.0, "F1F_Max_Density": null, "F4F_Max_Density": null, "F4F_Max_Height": 35.0, "F4F_Max_Stories": null, "F4F_Min_Lot_Size": 0.46, "F4F_Max_Lot_Building_Coverage": null, "F4F_Max_Lot_Impervious_Coverage": null, "F4F_Min_Parking_Spaces_per_1BR": 1.0, "F4F_Min_Parking_Spaces_per_mult_BR": 1.0, "F3F_Elderly_Housing_Only": "No", "F4F_Elderly_Housing_Only": "No", "F4F_Affordable_Housing_Only": "No", "F4F_Proximity_to_Public_Transit_Required": "No", "F4F_Connection_to_Sewage/Water_Required": "No", "ADU_Allowance": "Allowed/Conditional", "ADU_Elderly_Housing_Only": "No", "ADU_Max_Size_as_Percent_of_Primary_Strcture": 30.0, "ADU_Max_Size_in_sq_ft": 900.0, "ADU_Min_Lot_Size": 0.46, "ADU_Max_Bedrooms": null, "ADU_Min_Parking_Spaces": 1.0, "ADU_Owner_Occupancy_Required": "No", "ADU_Renter_Occupancy_Prohibited": "No", "ADU_Employee_or_Family_Occupancy_Required": "No", "ADU_Restricted_to_Primary_Structure": "No", "Affordable_Housing_Allowance": "Allowed/Conditional", "Affordable_Housing_District": "No", "Affordable_Housing_Elderly_Only": "No", "Affordable_Housing_Min_Lot_Size": 0.46, "Affordable_Housing_Max_Density": null, "Affordable_Housing_Min_Parking_Spaces_per_mult_BR": 1.0, "Affordable_Housing_Max_Units_per_Building": null, "Affordable_Housing_Min_Parking_Spaces_per_1BR": 1.0, "PRD_Allowance": "Not Mentioned", "PRD_Max_Density": null, "PRD_Max_Units": null, "PRD_Min_Lot_Size": null, "PRD_Mobile_or_Manufactured_Home_Park": "No", "PUD_Allowance": "Yes", "PUD_Required_with_Subdivision": null, "PUD_Requires_Land_Conservation": "F", "PUD_Threshold_Number": null, "Notes": "None", "FIPS6": null}, "geometry": {"type": "MultiPolygon", "coordinates": [[[[-72.18767748857469, 43.81636456595835], [-72.19196075813824, 43.81635944627485], [-72.19207531488004, 43.81579673755732], [-72.19200813561554, 43.81454530360567], [-72.19190265635963, 43.814143243317716], [-72.19102660463172, 43.812472908956835], [-72.1907915744096, 43.81080121269884], [-72.19076749100496, 43.810182831239835], [-72.19097227416523, 43.80948504238571], [-72.19215086281167, 43.807185394571945], [-72.18974705920078, 43.807236531143936], [-72.18835334748469, 43.810019000405106], [-72.18769180473824, 43.811594340352706], [-72.18759033782585, 43.8124877555597], [-72.18767748857469, 43.81636456595835]]]]}}, {"type": "Feature", "properties": {"OBJECT_ID": 666, "County": "Orange", "RPC": "TRORC", "Municipal_Name": "Thetford ", "GEO_ID": "5001772400", "District_Name": "Neighborhood Residential", "Abbreviated_District_Name": "Nr", "District_Type": "Primarily Residential", "Bylaw_Date": "2024-06-06T00:00:00", "Elderly_Housing_District": "No", "District_Mapped": "Yes", "Overlay_District": "No", "Base_Density": null, "GIS_ID": null, "Last_Update": null, "Shape_Length": 6276.882581382724, "Shape_Area": 903835.8376429563, "F1F_Allowance": "Permitted", "F1F_Front_Setback": 40.0, "F1F_Side_Setback": 15.0, "F1F_Rear_Setback": 15.0, "F1F_Frontage": 30.0, "F1F_Max_Height": 35.0, "F1F_Max_Stories": null, "F1F_Min_Lot_Size": 0.46, "F1F_Max_Lot_Building_Coverage": null, "F1F_Max_Lot_Impervious_Coverage": null, "F1F_Min_Parking_Spaces": 1.0, "F1F_Elderly_Housing_Only": null, "F1F_Affordable_Housing_Only": null, "F2F_Allowance": "Permitted", "F2F_Front_Setback": 40.0, "F2F_Side_Setback": 15.0, "F2F_Rear_Setback": 15.0, "F2F_Frontage": 30.0, "F2F_Max_Density": null, "F2F_Max_Height": 35.0, "F2F_Max_Stories": null, "F2F_Min_Lot_Size": 0.46, "F2F_Max_Lot_Building_Coverage": null, "F2F_Max_Lot_Impervious_Coverage": null, "F2F_Min_Parking_Spaces_per_1BR": 1.0, "F2F_Min_Parking_Spaces_per_mult_BR": 1.0, "F2F_Elderly_Housing_Only": "No", "F2F_Affordable_Housing_Only": "No", "F3F_Allowance": "Permitted", "F3F_Front_Setback": 40.0, "F3F_Side_Setback": 15.0, "F3F_Rear_Setback": 15.0, "F3F_Frontage": 30.0, "F3F_Max_Density": null, "F3F_Max_Height": 35.0, "F3F_Max_Stories": null, "F3F_Min_Lot_Size": 0.46, "F3F_Max_Lot_Building_Coverage": null, "F3F_Max_Lot_Impervious_Coverage": null, "F3F_Min_Parking_Spaces_per_1BR": 1.0, "F3F_Min_Parking_Spaces_per_mult_BR": 1.0, "F3F_Affordable_Housing_Only": "No", "F3F_Proximity_to_Public_Transit_Required": "No", "F3F_Connection_to_Sewage/Water_Required": "No", "F4F_Allowance": "Public Hearing", "F4F_Front_Setback": 40.0, "F4F_Side_Setback": 15.0, "F4F_Rear_Setback": 15.0, "F4F_Frontage": 30.0, "F1F_Max_Density": null, "F4F_Max_Density": null, "F4F_Max_Height": 35.0, "F4F_Max_Stories": null, "F4F_Min_Lot_Size": 0.46, "F4F_Max_Lot_Building_Coverage": null, "F4F_Max_Lot_Impervious_Coverage": null, "F4F_Min_Parking_Spaces_per_1BR": 1.0, "F4F_Min_Parking_Spaces_per_mult_BR": 1.0, "F3F_Elderly_Housing_Only": "No", "F4F_Elderly_Housing_Only": "No", "F4F_Affordable_Housing_Only": "No", "F4F_Proximity_to_Public_Transit_Required": "No", "F4F_Connection_to_Sewage/Water_Required": "No", "ADU_Allowance": "Allowed/Conditional", "ADU_Elderly_Housing_Only": "No", "ADU_Max_Size_as_Percent_of_Primary_Strcture": 30.0, "ADU_Max_Size_in_sq_ft": 900.0, "ADU_Min_Lot_Size": 0.46, "ADU_Max_Bedrooms": null, "ADU_Min_Parking_Spaces": 1.0, "ADU_Owner_Occupancy_Required": "No", "ADU_Renter_Occupancy_Prohibited": "No", "ADU_Employee_or_Family_Occupancy_Required": "No", "ADU_Restricted_to_Primary_Structure": "No", "Affordable_Housing_Allowance": "Allowed/Conditional", "Affordable_Housing_District": "No", "Affordable_Housing_Elderly_Only": "No", "Affordable_Housing_Min_Lot_Size": 0.46, "Affordable_Housing_Max_Density": null, "Affordable_Housing_Min_Parking_Spaces_per_mult_BR": 1.0, "Affordable_Housing_Max_Units_per_Building": null, "Affordable_Housing_Min_Parking_Spaces_per_1BR": 1.0, "PRD_Allowance": "Not Mentioned", "PRD_Max_Density": null, "PRD_Max_Units": null, "PRD_Min_Lot_Size": null, "PRD_Mobile_or_Manufactured_Home_Park": "No", "PUD_Allowance": "Yes", "PUD_Required_with_Subdivision": null, "PUD_Requires_Land_Conservation": "F", "PUD_Threshold_Number": null, "Notes": "None", "FIPS6": null}, "geometry": {"type": "MultiPolygon", "coordinates": [[[[-72.2576371393753, 43.888476842574775], [-72.25672003970526, 43.890502482177915], [-72.25650085438124, 43.89134771370603], [-72.25618387045802, 43.892025342155385], [-72.2561469351593, 43.89266193173056], [-72.25637153283299, 43.8937939001835], [-72.25665343122758, 43.89442969473676], [-72.25815015463961, 43.89613722088438], [-72.2644243356194, 43.89786517868881], [-72.26254366325117, 43.89595337075401], [-72.26019441465824, 43.89334600273751], [-72.26025253768975, 43.893520346271806], [-72.26009090916592, 43.89318801843001], [-72.25997734746403, 43.892481632161214], [-72.26019446984688, 43.89198765918308], [-72.26036158562522, 43.89134286289902], [-72.26122164019937, 43.88937558499362], [-72.2576371393753, 43.888476842574775]]], [[[-72.2461146142062, 43.88295700402661], [-72.24429641057355, 43.88392488580544], [-72.24392208162723, 43.883924024216434], [-72.24354869881016, 43.88370319256632], [-72.24345095389602, 43.884667540918464], [-72.24311897932729, 43.88569904942427], [-72.24206275002864, 43.886475097582334], [-72.24117126950989, 43.887014591431004], [-72.24051365611375, 43.88758845916556], [-72.2393163169813, 43.88742418317571], [-72.23892934072144, 43.8872504190832], [-72.2401554535188, 43.88843249165121], [-72.2412138636075, 43.889647961394], [-72.24419225781328, 43.89154823726944], [-72.24623347361165, 43.89258833359789], [-72.24692652180828, 43.89305251791473], [-72.24763774327255, 43.893247323856244], [-72.25018409486769, 43.88871961677833], [-72.25143080428218, 43.8886233695768], [-72.25104444746538, 43.88679985731377], [-72.25150467948598, 43.88542323402956], [-72.24846298913496, 43.88465730763826], [-72.24788081957469, 43.88429793711783], [-72.2461146142062, 43.88295700402661]]]]}}]}