{"type": "FeatureCollection", "name": "Orange_Chelsea", "features": [{"type": "Feature", "properties": {"OBJECT_ID": 1093, "County": "Orange", "RPC": "TRORC", "Municipal_Name": "Chelsea ", "GEO_ID": "5001713525", "District_Name": "Mixed Use Development", "Abbreviated_District_Name": "Mu", "District_Type": "Mixed with Residential", "Bylaw_Date": null, "Elderly_Housing_District": "No", "District_Mapped": "Yes", "Overlay_District": "No", "Base_Density": null, "GIS_ID": null, "Last_Update": null, "Shape_Length": 6845.1406082772055, "Shape_Area": 2316211.155029814, "F1F_Allowance": "Permitted", "F1F_Front_Setback": 65.0, "F1F_Side_Setback": 50.0, "F1F_Rear_Setback": 35.0, "F1F_Frontage": 20.0, "F1F_Max_Height": null, "F1F_Max_Stories": null, "F1F_Min_Lot_Size": 2.0, "F1F_Max_Lot_Building_Coverage": null, "F1F_Max_Lot_Impervious_Coverage": null, "F1F_Min_Parking_Spaces": null, "F1F_Elderly_Housing_Only": null, "F1F_Affordable_Housing_Only": null, "F2F_Allowance": "Permitted", "F2F_Front_Setback": 65.0, "F2F_Side_Setback": 50.0, "F2F_Rear_Setback": 35.0, "F2F_Frontage": 20.0, "F2F_Max_Density": null, "F2F_Max_Height": null, "F2F_Max_Stories": null, "F2F_Min_Lot_Size": 2.0, "F2F_Max_Lot_Building_Coverage": null, "F2F_Max_Lot_Impervious_Coverage": null, "F2F_Min_Parking_Spaces_per_1BR": null, "F2F_Min_Parking_Spaces_per_mult_BR": null, "F2F_Elderly_Housing_Only": "No", "F2F_Affordable_Housing_Only": "No", "F3F_Allowance": "Public Hearing", "F3F_Front_Setback": 65.0, "F3F_Side_Setback": 50.0, "F3F_Rear_Setback": 35.0, "F3F_Frontage": 20.0, "F3F_Max_Density": null, "F3F_Max_Height": null, "F3F_Max_Stories": null, "F3F_Min_Lot_Size": 2.0, "F3F_Max_Lot_Building_Coverage": null, "F3F_Max_Lot_Impervious_Coverage": null, "F3F_Min_Parking_Spaces_per_1BR": null, "F3F_Min_Parking_Spaces_per_mult_BR": null, "F3F_Affordable_Housing_Only": "No", "F3F_Proximity_to_Public_Transit_Required": "No", "F3F_Connection_to_Sewage/Water_Required": "No", "F4F_Allowance": "Public Hearing", "F4F_Front_Setback": 65.0, "F4F_Side_Setback": 50.0, "F4F_Rear_Setback": 35.0, "F4F_Frontage": 20.0, "F1F_Max_Density": null, "F4F_Max_Density": null, "F4F_Max_Height": null, "F4F_Max_Stories": null, "F4F_Min_Lot_Size": 2.0, "F4F_Max_Lot_Building_Coverage": null, "F4F_Max_Lot_Impervious_Coverage": null, "F4F_Min_Parking_Spaces_per_1BR": null, "F4F_Min_Parking_Spaces_per_mult_BR": null, "F3F_Elderly_Housing_Only": "No", "F4F_Elderly_Housing_Only": "No", "F4F_Affordable_Housing_Only": "No", "F4F_Proximity_to_Public_Transit_Required": "No", "F4F_Connection_to_Sewage/Water_Required": "No", "ADU_Allowance": "Allowed/Conditional", "ADU_Elderly_Housing_Only": "No", "ADU_Max_Size_as_Percent_of_Primary_Strcture": 30.0, "ADU_Max_Size_in_sq_ft": null, "ADU_Min_Lot_Size": null, "ADU_Max_Bedrooms": 1.0, "ADU_Min_Parking_Spaces": null, "ADU_Owner_Occupancy_Required": "No", "ADU_Renter_Occupancy_Prohibited": "No", "ADU_Employee_or_Family_Occupancy_Required": "No", "ADU_Restricted_to_Primary_Structure": "No", "Affordable_Housing_Allowance": null, "Affordable_Housing_District": "No", "Affordable_Housing_Elderly_Only": null, "Affordable_Housing_Min_Lot_Size": null, "Affordable_Housing_Max_Density": null, "Affordable_Housing_Min_Parking_Spaces_per_mult_BR": null, "Affordable_Housing_Max_Units_per_Building": null, "Affordable_Housing_Min_Parking_Spaces_per_1BR": null, "PRD_Allowance": "Public Hearing", "PRD_Max_Density": null, "PRD_Max_Units": null, "PRD_Min_Lot_Size": null, "PRD_Mobile_or_Manufactured_Home_Park": "Yes", "PUD_Allowance": "Yes", "PUD_Required_with_Subdivision": null, "PUD_Requires_Land_Conservation": "Yes", "PUD_Threshold_Number": null, "Notes": "None", "FIPS6": null}, "geometry": {"type": "MultiPolygon", "coordinates": [[[[-72.38284306288391, 44.001953142596506], [-72.38368630823851, 44.00174471007036], [-72.38455233666332, 44.001633987312154], [-72.3876900595928, 44.00208352031999], [-72.38840151798833, 44.0019502958], [-72.38976225016074, 44.001862335309106], [-72.39081414814723, 44.001562021247295], [-72.39225293063834, 44.001055600399006], [-72.3935580248332, 44.00072550713823], [-72.39437999224513, 44.00037751455459], [-72.3957099184155, 43.99964635222301], [-72.3969251238228, 43.999302187982266], [-72.39853413717519, 43.99863401887565], [-72.39943169211568, 43.99812144533871], [-72.40303625267825, 43.9966625807434], [-72.40379345354619, 43.996096730575374], [-72.40450617015289, 43.99588305437128], [-72.40576377414966, 43.99521270408276], [-72.40673475671909, 43.99433318732295], [-72.40786428450451, 43.99367565416839], [-72.40834670328782, 43.9916002522596], [-72.40741439933328, 43.99158276020624], [-72.40623128455474, 43.99132022945147], [-72.40475820020076, 43.99114463318779], [-72.39943723890794, 43.991907475615605], [-72.40009599016, 43.98919390240449], [-72.39042069428486, 43.98590045433089], [-72.38940656649044, 43.98577741317704], [-72.38829672104434, 43.98518344910881], [-72.38554002209972, 43.98424223743364], [-72.38284306288391, 44.001953142596506]]]]}}, {"type": "Feature", "properties": {"OBJECT_ID": 1092, "County": "Orange", "RPC": "TRORC", "Municipal_Name": "Chelsea ", "GEO_ID": "5001713525", "District_Name": "Industrial", "Abbreviated_District_Name": "Ind", "District_Type": "Mixed with Residential", "Bylaw_Date": null, "Elderly_Housing_District": "No", "District_Mapped": "Yes", "Overlay_District": "No", "Base_Density": null, "GIS_ID": null, "Last_Update": null, "Shape_Length": 5472.984760145653, "Shape_Area": 1536653.24909117, "F1F_Allowance": "Permitted", "F1F_Front_Setback": 65.0, "F1F_Side_Setback": 50.0, "F1F_Rear_Setback": 35.0, "F1F_Frontage": 20.0, "F1F_Max_Height": null, "F1F_Max_Stories": null, "F1F_Min_Lot_Size": 2.0, "F1F_Max_Lot_Building_Coverage": null, "F1F_Max_Lot_Impervious_Coverage": null, "F1F_Min_Parking_Spaces": null, "F1F_Elderly_Housing_Only": null, "F1F_Affordable_Housing_Only": null, "F2F_Allowance": "Permitted", "F2F_Front_Setback": 65.0, "F2F_Side_Setback": 50.0, "F2F_Rear_Setback": 35.0, "F2F_Frontage": 20.0, "F2F_Max_Density": null, "F2F_Max_Height": null, "F2F_Max_Stories": null, "F2F_Min_Lot_Size": 2.0, "F2F_Max_Lot_Building_Coverage": null, "F2F_Max_Lot_Impervious_Coverage": null, "F2F_Min_Parking_Spaces_per_1BR": null, "F2F_Min_Parking_Spaces_per_mult_BR": null, "F2F_Elderly_Housing_Only": "No", "F2F_Affordable_Housing_Only": "No", "F3F_Allowance": "Prohibited", "F3F_Front_Setback": null, "F3F_Side_Setback": null, "F3F_Rear_Setback": null, "F3F_Frontage": null, "F3F_Max_Density": null, "F3F_Max_Height": null, "F3F_Max_Stories": null, "F3F_Min_Lot_Size": null, "F3F_Max_Lot_Building_Coverage": null, "F3F_Max_Lot_Impervious_Coverage": null, "F3F_Min_Parking_Spaces_per_1BR": null, "F3F_Min_Parking_Spaces_per_mult_BR": null, "F3F_Affordable_Housing_Only": null, "F3F_Proximity_to_Public_Transit_Required": null, "F3F_Connection_to_Sewage/Water_Required": null, "F4F_Allowance": "Prohibited", "F4F_Front_Setback": null, "F4F_Side_Setback": null, "F4F_Rear_Setback": null, "F4F_Frontage": null, "F1F_Max_Density": null, "F4F_Max_Density": null, "F4F_Max_Height": null, "F4F_Max_Stories": null, "F4F_Min_Lot_Size": null, "F4F_Max_Lot_Building_Coverage": null, "F4F_Max_Lot_Impervious_Coverage": null, "F4F_Min_Parking_Spaces_per_1BR": null, "F4F_Min_Parking_Spaces_per_mult_BR": null, "F3F_Elderly_Housing_Only": null, "F4F_Elderly_Housing_Only": null, "F4F_Affordable_Housing_Only": null, "F4F_Proximity_to_Public_Transit_Required": null, "F4F_Connection_to_Sewage/Water_Required": null, "ADU_Allowance": "Allowed/Conditional", "ADU_Elderly_Housing_Only": "No", "ADU_Max_Size_as_Percent_of_Primary_Strcture": 30.0, "ADU_Max_Size_in_sq_ft": null, "ADU_Min_Lot_Size": null, "ADU_Max_Bedrooms": 1.0, "ADU_Min_Parking_Spaces": null, "ADU_Owner_Occupancy_Required": "No", "ADU_Renter_Occupancy_Prohibited": "No", "ADU_Employee_or_Family_Occupancy_Required": "No", "ADU_Restricted_to_Primary_Structure": "No", "Affordable_Housing_Allowance": "Allowed/Conditional", "Affordable_Housing_District": "No", "Affordable_Housing_Elderly_Only": "No", "Affordable_Housing_Min_Lot_Size": 2.0, "Affordable_Housing_Max_Density": null, "Affordable_Housing_Min_Parking_Spaces_per_mult_BR": null, "Affordable_Housing_Max_Units_per_Building": null, "Affordable_Housing_Min_Parking_Spaces_per_1BR": null, "PRD_Allowance": "Public Hearing", "PRD_Max_Density": null, "PRD_Max_Units": null, "PRD_Min_Lot_Size": null, "PRD_Mobile_or_Manufactured_Home_Park": null, "PUD_Allowance": "Yes", "PUD_Required_with_Subdivision": null, "PUD_Requires_Land_Conservation": "Yes", "PUD_Threshold_Number": null, "Notes": "None", "FIPS6": null}, "geometry": {"type": "MultiPolygon", "coordinates": [[[[-72.46596673196754, 43.96046886666022], [-72.46532746589477, 43.96272057458741], [-72.46479594252766, 43.96340048838309], [-72.46484371217502, 43.964272395246894], [-72.46423956219394, 43.965248726342395], [-72.46614677716589, 43.96538880988536], [-72.4695751208147, 43.965320022742915], [-72.47189297994682, 43.96504161104886], [-72.47437989137919, 43.96458881158197], [-72.47621484693774, 43.964310202903434], [-72.47812230325853, 43.96378744942056], [-72.4812128951958, 43.96261966357296], [-72.48239611072958, 43.96173052057172], [-72.48379183874749, 43.96045427758268], [-72.4856819190709, 43.958437783362335], [-72.46417278490114, 43.95150773293683], [-72.46615178653421, 43.95656525969726], [-72.46613550140441, 43.95905265556866], [-72.4661015443264, 43.96001794068392], [-72.46596673196754, 43.96046886666022]]]]}}, {"type": "Feature", "properties": {"OBJECT_ID": 1095, "County": "Orange", "RPC": "TRORC", "Municipal_Name": "Chelsea ", "GEO_ID": "5001713525", "District_Name": "Village", "Abbreviated_District_Name": "Vil", "District_Type": "Mixed with Residential", "Bylaw_Date": null, "Elderly_Housing_District": "No", "District_Mapped": "Yes", "Overlay_District": "No", "Base_Density": null, "GIS_ID": null, "Last_Update": null, "Shape_Length": 6763.578178950624, "Shape_Area": 1292778.8971648535, "F1F_Allowance": "Permitted", "F1F_Front_Setback": 35.0, "F1F_Side_Setback": 20.0, "F1F_Rear_Setback": 20.0, "F1F_Frontage": 20.0, "F1F_Max_Height": null, "F1F_Max_Stories": null, "F1F_Min_Lot_Size": null, "F1F_Max_Lot_Building_Coverage": null, "F1F_Max_Lot_Impervious_Coverage": null, "F1F_Min_Parking_Spaces": null, "F1F_Elderly_Housing_Only": null, "F1F_Affordable_Housing_Only": null, "F2F_Allowance": "Permitted", "F2F_Front_Setback": 35.0, "F2F_Side_Setback": 20.0, "F2F_Rear_Setback": 20.0, "F2F_Frontage": 20.0, "F2F_Max_Density": null, "F2F_Max_Height": null, "F2F_Max_Stories": null, "F2F_Min_Lot_Size": null, "F2F_Max_Lot_Building_Coverage": null, "F2F_Max_Lot_Impervious_Coverage": null, "F2F_Min_Parking_Spaces_per_1BR": null, "F2F_Min_Parking_Spaces_per_mult_BR": null, "F2F_Elderly_Housing_Only": null, "F2F_Affordable_Housing_Only": null, "F3F_Allowance": "Public Hearing", "F3F_Front_Setback": 35.0, "F3F_Side_Setback": 20.0, "F3F_Rear_Setback": 20.0, "F3F_Frontage": 20.0, "F3F_Max_Density": null, "F3F_Max_Height": null, "F3F_Max_Stories": null, "F3F_Min_Lot_Size": null, "F3F_Max_Lot_Building_Coverage": null, "F3F_Max_Lot_Impervious_Coverage": null, "F3F_Min_Parking_Spaces_per_1BR": null, "F3F_Min_Parking_Spaces_per_mult_BR": null, "F3F_Affordable_Housing_Only": null, "F3F_Proximity_to_Public_Transit_Required": "No", "F3F_Connection_to_Sewage/Water_Required": "No", "F4F_Allowance": "Public Hearing", "F4F_Front_Setback": 35.0, "F4F_Side_Setback": 20.0, "F4F_Rear_Setback": 20.0, "F4F_Frontage": 20.0, "F1F_Max_Density": null, "F4F_Max_Density": null, "F4F_Max_Height": null, "F4F_Max_Stories": null, "F4F_Min_Lot_Size": null, "F4F_Max_Lot_Building_Coverage": null, "F4F_Max_Lot_Impervious_Coverage": null, "F4F_Min_Parking_Spaces_per_1BR": null, "F4F_Min_Parking_Spaces_per_mult_BR": null, "F3F_Elderly_Housing_Only": null, "F4F_Elderly_Housing_Only": null, "F4F_Affordable_Housing_Only": null, "F4F_Proximity_to_Public_Transit_Required": "No", "F4F_Connection_to_Sewage/Water_Required": "No", "ADU_Allowance": "Allowed/Conditional", "ADU_Elderly_Housing_Only": "No", "ADU_Max_Size_as_Percent_of_Primary_Strcture": 30.0, "ADU_Max_Size_in_sq_ft": null, "ADU_Min_Lot_Size": null, "ADU_Max_Bedrooms": 1.0, "ADU_Min_Parking_Spaces": null, "ADU_Owner_Occupancy_Required": "No", "ADU_Renter_Occupancy_Prohibited": "No", "ADU_Employee_or_Family_Occupancy_Required": "No", "ADU_Restricted_to_Primary_Structure": "No", "Affordable_Housing_Allowance": "Allowed/Conditional", "Affordable_Housing_District": "No", "Affordable_Housing_Elderly_Only": "No", "Affordable_Housing_Min_Lot_Size": null, "Affordable_Housing_Max_Density": null, "Affordable_Housing_Min_Parking_Spaces_per_mult_BR": null, "Affordable_Housing_Max_Units_per_Building": null, "Affordable_Housing_Min_Parking_Spaces_per_1BR": null, "PRD_Allowance": "Public Hearing", "PRD_Max_Density": null, "PRD_Max_Units": null, "PRD_Min_Lot_Size": null, "PRD_Mobile_or_Manufactured_Home_Park": "Yes", "PUD_Allowance": "Yes", "PUD_Required_with_Subdivision": null, "PUD_Requires_Land_Conservation": "Yes", "PUD_Threshold_Number": null, "Notes": "None", "FIPS6": null}, "geometry": {"type": "MultiPolygon", "coordinates": [[[[-72.44675652402492, 43.97814571187178], [-72.44605229902545, 43.97803981385772], [-72.44587132572799, 43.980065095587555], [-72.44473443936123, 43.9850030321875], [-72.44391621714787, 43.98807691731802], [-72.44355156849493, 43.99046421202742], [-72.44332417444069, 43.99247619959791], [-72.44332348909883, 43.993196369873225], [-72.44367924003026, 43.99374524639961], [-72.44426070646473, 43.99422564485796], [-72.44512783756186, 43.99482459940269], [-72.44599912096635, 43.99577613000154], [-72.44690727111885, 43.99703577962184], [-72.44725873825656, 43.998295167064775], [-72.44710917201769, 43.999540924592424], [-72.44675584402239, 44.000357917614544], [-72.44543678898086, 44.00192462685073], [-72.4448978853839, 44.0026879385694], [-72.44604243963143, 44.00305388766654], [-72.4467094037722, 44.003267137014646], [-72.44762525457907, 44.00355996160263], [-72.4481822700865, 44.00327889998957], [-72.44859122540493, 44.002515512669575], [-72.4487030156806, 44.00200651542631], [-72.44894458700013, 44.0016449314348], [-72.45046785951178, 43.99986393521759], [-72.45136106830299, 43.999085962623674], [-72.45204315118418, 43.99884062465762], [-72.45252841280802, 43.99907444543012], [-72.45284360581985, 43.99943626828214], [-72.45330754843489, 43.99943645879789], [-72.45149598341162, 43.996424114995484], [-72.45071447039619, 43.99479114276886], [-72.45028308740866, 43.99056283887351], [-72.45042489652575, 43.98981749103842], [-72.45080072906066, 43.98783026618269], [-72.45239600227853, 43.978993751865595], [-72.44851823028498, 43.97841063013144], [-72.44675652402492, 43.97814571187178]]]]}}, {"type": "Feature", "properties": {"OBJECT_ID": 1091, "County": "Orange", "RPC": "TRORC", "Municipal_Name": "Chelsea ", "GEO_ID": "5001713525", "District_Name": "Flood Hazard Overlay", "Abbreviated_District_Name": "Fho", "District_Type": "Mixed with Residential", "Bylaw_Date": null, "Elderly_Housing_District": "No", "District_Mapped": "Yes", "Overlay_District": "Yes", "Base_Density": null, "GIS_ID": null, "Last_Update": null, "Shape_Length": 36366.55155595924, "Shape_Area": 1465342.8850297106, "F1F_Allowance": "Public Hearing", "F1F_Front_Setback": 65.0, "F1F_Side_Setback": 50.0, "F1F_Rear_Setback": 35.0, "F1F_Frontage": 20.0, "F1F_Max_Height": null, "F1F_Max_Stories": null, "F1F_Min_Lot_Size": 2.0, "F1F_Max_Lot_Building_Coverage": null, "F1F_Max_Lot_Impervious_Coverage": null, "F1F_Min_Parking_Spaces": null, "F1F_Elderly_Housing_Only": null, "F1F_Affordable_Housing_Only": null, "F2F_Allowance": "Public Hearing", "F2F_Front_Setback": 65.0, "F2F_Side_Setback": 50.0, "F2F_Rear_Setback": 35.0, "F2F_Frontage": 20.0, "F2F_Max_Density": null, "F2F_Max_Height": null, "F2F_Max_Stories": null, "F2F_Min_Lot_Size": 2.0, "F2F_Max_Lot_Building_Coverage": null, "F2F_Max_Lot_Impervious_Coverage": null, "F2F_Min_Parking_Spaces_per_1BR": null, "F2F_Min_Parking_Spaces_per_mult_BR": null, "F2F_Elderly_Housing_Only": "No", "F2F_Affordable_Housing_Only": "No", "F3F_Allowance": "Public Hearing", "F3F_Front_Setback": 65.0, "F3F_Side_Setback": 50.0, "F3F_Rear_Setback": 35.0, "F3F_Frontage": 20.0, "F3F_Max_Density": null, "F3F_Max_Height": null, "F3F_Max_Stories": null, "F3F_Min_Lot_Size": 2.0, "F3F_Max_Lot_Building_Coverage": null, "F3F_Max_Lot_Impervious_Coverage": null, "F3F_Min_Parking_Spaces_per_1BR": null, "F3F_Min_Parking_Spaces_per_mult_BR": null, "F3F_Affordable_Housing_Only": "No", "F3F_Proximity_to_Public_Transit_Required": "No", "F3F_Connection_to_Sewage/Water_Required": "No", "F4F_Allowance": "Public Hearing", "F4F_Front_Setback": 65.0, "F4F_Side_Setback": 50.0, "F4F_Rear_Setback": 25.0, "F4F_Frontage": 20.0, "F1F_Max_Density": null, "F4F_Max_Density": null, "F4F_Max_Height": null, "F4F_Max_Stories": null, "F4F_Min_Lot_Size": 2.0, "F4F_Max_Lot_Building_Coverage": null, "F4F_Max_Lot_Impervious_Coverage": null, "F4F_Min_Parking_Spaces_per_1BR": null, "F4F_Min_Parking_Spaces_per_mult_BR": null, "F3F_Elderly_Housing_Only": "No", "F4F_Elderly_Housing_Only": "No", "F4F_Affordable_Housing_Only": "No", "F4F_Proximity_to_Public_Transit_Required": "No", "F4F_Connection_to_Sewage/Water_Required": "No", "ADU_Allowance": "Prohibited", "ADU_Elderly_Housing_Only": null, "ADU_Max_Size_as_Percent_of_Primary_Strcture": null, "ADU_Max_Size_in_sq_ft": null, "ADU_Min_Lot_Size": null, "ADU_Max_Bedrooms": null, "ADU_Min_Parking_Spaces": null, "ADU_Owner_Occupancy_Required": null, "ADU_Renter_Occupancy_Prohibited": null, "ADU_Employee_or_Family_Occupancy_Required": null, "ADU_Restricted_to_Primary_Structure": null, "Affordable_Housing_Allowance": "Public Hearing", "Affordable_Housing_District": "No", "Affordable_Housing_Elderly_Only": "No", "Affordable_Housing_Min_Lot_Size": 2.0, "Affordable_Housing_Max_Density": null, "Affordable_Housing_Min_Parking_Spaces_per_mult_BR": null, "Affordable_Housing_Max_Units_per_Building": null, "Affordable_Housing_Min_Parking_Spaces_per_1BR": null, "PRD_Allowance": "Public Hearing", "PRD_Max_Density": null, "PRD_Max_Units": null, "PRD_Min_Lot_Size": null, "PRD_Mobile_or_Manufactured_Home_Park": "Yes", "PUD_Allowance": null, "PUD_Required_with_Subdivision": null, "PUD_Requires_Land_Conservation": null, "PUD_Threshold_Number": null, "Notes": "  Separate Flood Hazard Bylaw For Permitting: Https://Www.chelseavt.org/Wp/Wp-Content/Uploads/2023/04/Chelsea_flood_hazard_area_bylaw_11.7.17.Pdf - All Housing Is Prohibited In The Special Flood Hazard Area Unless Unless It Has Been Demonstrated Through Hydrologic And Hydraulic Analyses Performed In Accordance With Standard Engineering Practice That The Proposed Structure Would not Result In Any Increase In Flood Levels Within The Community During The Occurrence Of The Base Flood Discharge. Since Housing Is Allowed If It Meets That Condition, I Have Included It Here As \"Public Hearing Required\"", "FIPS6": null}, "geometry": {"type": "MultiPolygon", "coordinates": [[[[-72.44675652402492, 43.97814571187178], [-72.44656917241036, 43.97841585560104], [-72.44605858309755, 43.979593002425496], [-72.44616019108494, 43.97992419073267], [-72.44605713410036, 43.98119351209182], [-72.44674413481559, 43.98218725426087], [-72.44715140356783, 43.98261056622558], [-72.44702352391884, 43.98316240555664], [-72.44730350671648, 43.983475279569504], [-72.44799095601874, 43.98400909735736], [-72.44816912985867, 43.98421154097828], [-72.44811798067362, 43.98443227784914], [-72.44829572511149, 43.985131431649215], [-72.44829542174061, 43.98548096719866], [-72.44809131591522, 43.98579361819185], [-72.44844726221528, 43.98667681756224], [-72.44882906243339, 43.98713690565113], [-72.44867575492003, 43.98763354636488], [-72.44814052852425, 43.98779887513002], [-72.44765640479235, 43.9877986543948], [-72.44724821726241, 43.988368762141036], [-72.44706854648706, 43.989840411401865], [-72.44648182149028, 43.99057600189689], [-72.44635400006673, 43.991035858124484], [-72.44653167736737, 43.99180859982357], [-72.44637128080922, 43.992219873609436], [-72.44617538736584, 43.99243171023848], [-72.44614236484337, 43.99287910035577], [-72.4462723995778, 43.99336188956045], [-72.44648411823198, 43.99369165605871], [-72.44635322199791, 43.99416254758837], [-72.4469884367819, 43.995104752437726], [-72.44702056388003, 43.99565813710969], [-72.44741080499203, 43.99700053443747], [-72.44759023437715, 43.99697706865594], [-72.44785110904493, 43.997071379078605], [-72.44783458220877, 43.99731862241214], [-72.44798129922104, 43.99740110535259], [-72.44794855631001, 43.997542377036694], [-72.44781797269444, 43.99766005495522], [-72.4480136217884, 43.997742561083996], [-72.4482093725805, 43.99770732945022], [-72.44825820026385, 43.99782508904254], [-72.44801345732346, 43.9979309422228], [-72.44830687482218, 43.99811945744285], [-72.44848641926919, 43.99796647873709], [-72.44869838969976, 43.99803721693893], [-72.44881233805712, 43.99829629208085], [-72.44882841466699, 43.99856709741649], [-72.44897506675323, 43.99873199687132], [-72.44894215258977, 43.99907342311159], [-72.4485010699422, 43.99988561943167], [-72.44791332086555, 44.00053291155375], [-72.44703206544438, 44.00106233020141], [-72.44615061457017, 44.001791895295355], [-72.445937767832, 44.002674831442114], [-72.44604243963143, 44.00305388766654], [-72.44618163994473, 44.00355798217394], [-72.44577332407681, 44.004134706273355], [-72.44526735487752, 44.00446413156686], [-72.44471259859635, 44.00462869820595], [-72.4440437880786, 44.00465192083832], [-72.44249445018858, 44.00434503241082], [-72.4421354983304, 44.00443904125204], [-72.4407804294692, 44.00562750242846], [-72.43901790393197, 44.00641542143827], [-72.43856082878943, 44.006733068894775], [-72.43843216758728, 44.00828576789715], [-72.43825808104754, 44.00863289787231], [-72.43814398962424, 44.009115091209026], [-72.43823691567468, 44.00971313745241], [-72.43836168989036, 44.01000608084539], [-72.43868787184861, 44.01008867310246], [-72.43911199663665, 44.010112447150796], [-72.43922596238764, 44.010336209968195], [-72.43898025871091, 44.01131330517796], [-72.43904501962949, 44.011796065267546], [-72.43943638440318, 44.0119611068604], [-72.43927246411359, 44.01272631686867], [-72.4392885023952, 44.01299712283814], [-72.43967973378703, 44.01330344879441], [-72.44010368044192, 44.01352737382665], [-72.44042956716498, 44.013927852807], [-72.44052097725196, 44.01428626534635], [-72.4409027834453, 44.014856757145154], [-72.44097894925952, 44.01516953842392], [-72.44120813965851, 44.01540881097925], [-72.44115681040262, 44.01575831928373], [-72.44133489269284, 44.016126341975884], [-72.44176797325426, 44.01642090802414], [-72.44350100462609, 44.016900088554245], [-72.44500428743227, 44.0177470634353], [-72.44571767182131, 44.018207317622846], [-72.44592130078362, 44.01855694873002], [-72.4469669902818, 44.01918218512208], [-72.44704815141051, 44.019653173559384], [-72.44740692714761, 44.019853494704755], [-72.44840191274756, 44.02019538800536], [-72.44880951327553, 44.020548784148204], [-72.44907022106759, 44.02096098373488], [-72.44985297270226, 44.021479375917956], [-72.45029319393691, 44.02186810317246], [-72.45035821523724, 44.02216247566608], [-72.45068421825157, 44.022562925745866], [-72.45109190662492, 44.02284567110674], [-72.45169519339261, 44.02338752165282], [-72.45296721732747, 44.024282859658136], [-72.45456534319709, 44.025555074098094], [-72.45469572243748, 44.02576705335734], [-72.45500559866348, 44.025979104180635], [-72.45542971980045, 44.026167650677436], [-72.4564082036009, 44.02696864359331], [-72.45689766865938, 44.02707479389209], [-72.45776206628733, 44.02772267390891], [-72.45774551471641, 44.028052332949336], [-72.45789225455398, 44.02822899418456], [-72.45798990697787, 44.02859401558911], [-72.45776111319955, 44.02906488306627], [-72.45771181422413, 44.02954758885656], [-72.45754820638197, 44.03013621673846], [-72.45723763919554, 44.03084252711267], [-72.45682944807344, 44.031136717389344], [-72.45632340661743, 44.03133667923061], [-72.45575173263532, 44.03200756320477], [-72.45473947965156, 44.03259585503045], [-72.45377639583441, 44.03288981316982], [-72.45315330182326, 44.03326184821935], [-72.4540833555396, 44.03358976563358], [-72.45411865420206, 44.03347863931036], [-72.45532669333492, 44.032984620264806], [-72.45764530771191, 44.03127830756999], [-72.4585767252634, 44.029524357587825], [-72.4588388680845, 44.02801741079138], [-72.45857811088808, 44.02753459241025], [-72.45807264536988, 44.026969267338444], [-72.45743653619175, 44.02655695040861], [-72.45696338420568, 44.02646258260179], [-72.45637608602863, 44.02626220557931], [-72.4558542542806, 44.02580282806352], [-72.45539748186222, 44.02563781758954], [-72.45500622201531, 44.025154939841656], [-72.45397898198505, 44.02416553380002], [-72.45187551971713, 44.02235150517125], [-72.45102758966542, 44.02169181391538], [-72.45073415336988, 44.02137379540933], [-72.45008182822266, 44.02097320329879], [-72.44965810973271, 44.02037255475587], [-72.44928307696178, 44.02008981775571], [-72.44882642739795, 44.0198541392348], [-72.4485004007659, 44.0195125530657], [-72.44724461163462, 44.01889974331578], [-72.44641336323386, 44.01794567889155], [-72.44530457526072, 44.017215179427104], [-72.44483162475208, 44.01700302335405], [-72.4432983890965, 44.01657841627283], [-72.44266232324463, 44.01634262290194], [-72.44220571724078, 44.01611869095882], [-72.44199378197497, 44.015953750196935], [-72.44170042349985, 44.01563570911264], [-72.44145608087123, 44.0152470488552], [-72.44064207804637, 44.013504106626144], [-72.44038143643662, 44.01311543635772], [-72.44016951691759, 44.01295049213393], [-72.44015380738661, 44.01235002041095], [-72.43997295790041, 44.01179137598043], [-72.43961843486255, 44.011331540212936], [-72.43949343553616, 44.01104513499629], [-72.43978666869752, 44.01016366757917], [-72.43967207426515, 44.00991494468434], [-72.43949473775398, 44.009764145908726], [-72.43927554034998, 44.00971128296666], [-72.43911914864015, 44.0095002130833], [-72.43883807585725, 44.0087013279353], [-72.43899519166615, 44.00820408598258], [-72.43891248066605, 44.00741284244858], [-72.43901725260405, 44.00705120657673], [-72.43918454041857, 44.006810168130336], [-72.4393726293676, 44.00664449301614], [-72.4398009130395, 44.006403591829525], [-72.44021863894356, 44.006275711885365], [-72.44074090475443, 44.00600471544679], [-72.44117188775483, 44.00566302600486], [-72.44172713597914, 44.0050157507779], [-72.44237985683546, 44.00476883213784], [-72.44487532544876, 44.00505263425685], [-72.44582182003747, 44.00461745631297], [-72.44622988353392, 44.004323303025615], [-72.446474868892, 44.00398197741641], [-72.44658948438962, 44.00349930485654], [-72.4467094037722, 44.003267137014646], [-72.44737378417828, 44.001980846248784], [-72.44778201812477, 44.00146298487165], [-72.44889193802263, 44.00056867664509], [-72.4495449695331, 43.99986253692227], [-72.44983963438699, 43.999362984571874], [-72.44969389985893, 43.9988806664361], [-72.44954856352636, 43.9979311595901], [-72.45000824731582, 43.99746417742355], [-72.44995663222022, 43.99677844575827], [-72.4495604568993, 43.99621312779588], [-72.44945628618095, 43.995964417804096], [-72.4496233921896, 43.99585146300939], [-72.4498111888362, 43.99595703923393], [-72.44993615427516, 43.996303715697366], [-72.45044684735704, 43.99723831044837], [-72.45097905929241, 43.997411850339006], [-72.45161804465789, 43.99786188242013], [-72.4517971878111, 43.99819162591754], [-72.45176426276512, 43.99856837441605], [-72.45136106830299, 43.999085962623674], [-72.45130708479226, 43.99916864457147], [-72.45262785481158, 43.99964015400326], [-72.45341030072977, 44.00022916643764], [-72.45419297046445, 44.0005473764144], [-72.45549755427037, 44.000924654167655], [-72.45587651257098, 44.001667644951795], [-72.45618988912103, 44.00252618027871], [-72.45711131862643, 44.003312606936326], [-72.45806182389282, 44.00435463141136], [-72.45849963526025, 44.00528916118309], [-72.45869784886901, 44.00549268483569], [-72.45833098472383, 44.007594883577426], [-72.45807978399836, 44.00849902026785], [-72.45813173718224, 44.008853195180194], [-72.45831954771701, 44.00901903974097], [-72.45971833238595, 44.009358626363], [-72.46074128313933, 44.009682998275935], [-72.46104389153199, 44.00993929928474], [-72.46132555587359, 44.010293550736286], [-72.46260862190594, 44.01209489894322], [-72.46307784638444, 44.0137651603643], [-72.46315767666515, 44.014343890580435], [-72.46336464566367, 44.01464777896047], [-72.46391193090864, 44.01576678328793], [-72.4639049210114, 44.01630690683915], [-72.46403178698532, 44.016480558106196], [-72.46405822353215, 44.01696764311643], [-72.46439063808808, 44.01775442531525], [-72.4645575513323, 44.018018210159724], [-72.46494379437921, 44.01820670984964], [-72.46558071780215, 44.018274719998544], [-72.46565371198723, 44.01844805255877], [-72.46560124831805, 44.01888507938134], [-72.4657258949664, 44.02003047066895], [-72.46587179814757, 44.02053537421949], [-72.46644595233596, 44.02085202364201], [-72.46761523164376, 44.021364755778286], [-72.46798046626033, 44.021839577708064], [-72.46785476001081, 44.02257045915694], [-72.4683453178297, 44.023045314105815], [-72.46859564457966, 44.02361806015331], [-72.46860597585983, 44.0238290491377], [-72.46832374953645, 44.0243262958354], [-72.46882723573717, 44.02507713043901], [-72.46879424912338, 44.02574822609489], [-72.46889198901741, 44.026066143971406], [-72.469234564857, 44.02625461789582], [-72.46982194812048, 44.02637251141239], [-72.46994132085007, 44.02651947997094], [-72.47012911789659, 44.0268887547778], [-72.47021242818384, 44.027363495069054], [-72.47014960472198, 44.02768749263958], [-72.47027482673315, 44.027890976320144], [-72.47052541271783, 44.02801913909484], [-72.47080739042136, 44.02802674733594], [-72.47114153155545, 44.028147395115084], [-72.4716948142797, 44.02864485771064], [-72.4719762791142, 44.02974506742865], [-72.47233100547973, 44.03054388597867], [-72.47235173677049, 44.03088297558582], [-72.47245604555874, 44.03116933887795], [-72.47238067237669, 44.031712372749], [-72.47336879899116, 44.03299107121396], [-72.47307952714863, 44.033567134578036], [-72.47339880142361, 44.03392935041271], [-72.47371054603984, 44.034126952156804], [-72.47444801346947, 44.034785555284884], [-72.47447828342158, 44.03514221562951], [-72.47431082079453, 44.035454935107765], [-72.47389240761517, 44.0356633446376], [-72.47378577557248, 44.0360035124314], [-72.47422676123047, 44.03636575185389], [-72.47470565343585, 44.037035269258524], [-72.47511620734335, 44.03744688058763], [-72.47514655144752, 44.037638931962825], [-72.47507034997038, 44.03797362004736], [-72.47487249941348, 44.03818756838352], [-72.47481913001724, 44.038483853058736], [-72.47500924704715, 44.03857717256192], [-72.47491882553447, 44.038926349453], [-72.47474266458656, 44.039433079594524], [-72.4744155061084, 44.039630538021655], [-72.47423279627742, 44.03999263674696], [-72.4744989038471, 44.040267044062524], [-72.47516045953711, 44.040761016365515], [-72.47512840879105, 44.04106274538397], [-72.4765192234166, 44.0415372772892], [-72.47655538122979, 44.04123183617978], [-72.47637694009983, 44.04102943788934], [-72.4762751478183, 44.04047752296092], [-72.47599476680033, 44.04010953484856], [-72.47589291251478, 44.03972318658177], [-72.47596987400561, 44.03860101755706], [-72.47640407813411, 44.0369086329463], [-72.47620012744393, 44.03676141891881], [-72.47533309553485, 44.03674283779517], [-72.47489979393616, 44.03622764189692], [-72.47507875527404, 44.035142288761556], [-72.4749770005775, 44.03455357759156], [-72.47479855366973, 44.0344247638453], [-72.47456921781924, 44.03403838672701], [-72.47416171385679, 44.03289771258969], [-72.47370290939168, 44.0324744887768], [-72.47349905436398, 44.0321617007162], [-72.4730661673091, 44.030837051775805], [-72.47263315688576, 44.029825141069246], [-72.47248050805293, 44.029089243896266], [-72.47138494065459, 44.02734130682834], [-72.47092645952932, 44.026384571815726], [-72.47049321677746, 44.02597973842116], [-72.46995793820673, 44.02568525401632], [-72.4694484161213, 44.024894067800396], [-72.46934674411101, 44.02428695598508], [-72.46965323842258, 44.023220038708985], [-72.46914360791459, 44.022686403064405], [-72.46863386046935, 44.02239192007819], [-72.46860850153881, 44.02213436169975], [-72.46832836083925, 44.02156399142404], [-72.4672581325898, 44.02057027761813], [-72.46674843441586, 44.020238992410604], [-72.46654478072769, 44.0197054344227], [-72.46618821188036, 44.019098243432985], [-72.46618852548038, 44.018546346660706], [-72.46565366425426, 44.017681549369264], [-72.46542432402198, 44.017515911561034], [-72.46514379376696, 44.01769979139523], [-72.46491433557021, 44.01773651400389], [-72.46463444901264, 44.016834996985175], [-72.46455840871701, 44.01609911123526], [-72.46432932022438, 44.015528747274104], [-72.46381992633668, 44.01479272476629], [-72.46369283765542, 44.014185597893736], [-72.46343822855245, 44.0136888095585], [-72.46343857889704, 44.01311851675096], [-72.46323525319842, 44.01214343341022], [-72.46221656298243, 44.01067137633235], [-72.46160521826647, 44.01002729267261], [-72.46142698113738, 44.0097328877893], [-72.46137618141353, 44.0094569213006], [-72.46096850735299, 44.00921762812157], [-72.46017847217959, 44.00901499285799], [-72.45966884878753, 44.008775659450144], [-72.45926131216636, 44.00835239304348], [-72.45900675231009, 44.00787399079105], [-72.45898161866124, 44.00735887761836], [-72.4591349277842, 44.00680703544544], [-72.45939018816638, 44.0062552283905], [-72.45933961445054, 44.00566652028807], [-72.45918705305448, 44.005132964191155], [-72.4589070571742, 44.004599362984784], [-72.4585255285603, 44.00347703299167], [-72.45822015027264, 44.00281464458627], [-72.45806765802605, 44.0022075017904], [-72.45740548769076, 44.001544978676044], [-72.45565318087681, 44.000458001428996], [-72.45449468218645, 44.00017120541265], [-72.45395192568765, 44.00008810035509], [-72.45321096975492, 43.99983160057762], [-72.45230342220542, 43.99904755984682], [-72.45203001734495, 43.99894892795003], [-72.45204315118418, 43.99884062465762], [-72.45208132739882, 43.99852582780775], [-72.4520052443263, 43.99806588031715], [-72.45182726903707, 43.99755070038745], [-72.45106335870037, 43.9967961146299], [-72.45108949228172, 43.99600507158432], [-72.45068219417912, 43.99547139481144], [-72.45052966125455, 43.9950298095604], [-72.45042820234555, 43.99445947080547], [-72.45042864642177, 43.993925969140214], [-72.45014867386946, 43.993521120893305], [-72.44971576487097, 43.993171396020095], [-72.44938460193704, 43.993042473447126], [-72.44915546467156, 43.99280321457762], [-72.44953787074381, 43.99260102172809], [-72.45002177108385, 43.992913978432135], [-72.45022572209233, 43.99280368667599], [-72.45037880012129, 43.992582992593654], [-72.45032834109666, 43.99197588264248], [-72.45009929661637, 43.9916262475626], [-72.45012528662483, 43.99101916987862], [-72.45042489652575, 43.98981749103842], [-72.45089173636518, 43.98859114596295], [-72.45080072906066, 43.98783026618269], [-72.45058711435514, 43.98721126634557], [-72.45091888410978, 43.98656752679274], [-72.45066460489633, 43.98594193120472], [-72.45066492484142, 43.98555560174494], [-72.45046127484454, 43.9853347536013], [-72.45033415493634, 43.98500355924709], [-72.45033450768825, 43.984580435793504], [-72.45023299276349, 43.98410207931644], [-72.45028419523538, 43.98380775540854], [-72.4505902118848, 43.98347674797289], [-72.45023388408015, 43.98303507309708], [-72.4500813541671, 43.982630280243335], [-72.45018360498365, 43.98222559941211], [-72.45000561547455, 43.9818023969662], [-72.45000583159002, 43.98154484381114], [-72.44990409119085, 43.98134243559277], [-72.4496495352068, 43.981084771343504], [-72.4493183456907, 43.9810662284008], [-72.44896144288452, 43.981323622821584], [-72.4487580813799, 43.9807900287221], [-72.44878390752761, 43.98038531291669], [-72.4486570452663, 43.97977816665809], [-72.44847907389746, 43.97935496256113], [-72.44858139220871, 43.97887669589725], [-72.44851823028498, 43.97841063013144], [-72.4486332180653, 43.97786490215273], [-72.4489137995604, 43.977460300341654], [-72.4497549497403, 43.9769271698365], [-72.4501630501905, 43.976338655398514], [-72.45125924055283, 43.97541929257194], [-72.45169273061784, 43.974904369557045], [-72.45212611098687, 43.97451822159313], [-72.45276370185285, 43.97359865369058], [-72.45342648904713, 43.973010232245386], [-72.45416557025035, 43.972569010015604], [-72.45485356849095, 43.97229333366558], [-72.45559271248217, 43.97174172278902], [-72.45661204719565, 43.971190212904446], [-72.45750435260936, 43.9701419366507], [-72.45829453141033, 43.96938796296681], [-72.45936468320122, 43.96892843059947], [-72.46104620284527, 43.96837711533336], [-72.46155580669867, 43.96811973405024], [-72.46186163306096, 43.96786228265568], [-72.46219318484036, 43.96720011242089], [-72.46277947410447, 43.966482831956775], [-72.46323821357097, 43.96605985636413], [-72.46359495206282, 43.96582081318703], [-72.46405372626417, 43.96532424704208], [-72.46441069869422, 43.96468047375731], [-72.46456384871712, 43.96412862010835], [-72.46464065116972, 43.963466362157156], [-72.46458994141786, 43.96308001532918], [-72.46441187373087, 43.9627120245552], [-72.46441208236877, 43.962362488432305], [-72.46456511707692, 43.96199459958224], [-72.46489647618382, 43.96155318173145], [-72.46504949503803, 43.9612036905739], [-72.46550347911926, 43.96070305760681], [-72.46578781948935, 43.96050573424352], [-72.46596673196754, 43.96046886666022], [-72.46623230001074, 43.96033302480043], [-72.4666596451898, 43.96023438284785], [-72.46696723079548, 43.96034558530362], [-72.46758258917102, 43.9602346483876], [-72.46778776147733, 43.96009890276243], [-72.46840303603045, 43.9601361116486], [-72.46859111482668, 43.960000359851136], [-72.46835193112787, 43.95981510559608], [-72.46802724783454, 43.959716248679854], [-72.46744618049301, 43.959642010402334], [-72.46695059786933, 43.95951840930249], [-72.46657467154317, 43.95937014970068], [-72.46613550140441, 43.95905265556866], [-72.46596778971168, 43.95872040840558], [-72.46553498604555, 43.95846272439998], [-72.46515295006566, 43.958499402657694], [-72.46474534823075, 43.95870164121459], [-72.46451616077103, 43.95866477706728], [-72.46459289113542, 43.95811289904137], [-72.4651281818769, 43.957303607411404], [-72.46573983806678, 43.95653112840512], [-72.46553638950539, 43.95603435504405], [-72.46518008258475, 43.95564791540392], [-72.46487496293645, 43.954838365450186], [-72.46459509746686, 43.954396756613875], [-72.46441715442828, 43.95386319572909], [-72.4640864106078, 43.953347983223395], [-72.46362825744279, 43.952979903135635], [-72.4632464015553, 43.95277741718435], [-72.46306862349532, 43.95200469614051], [-72.46329806872454, 43.951581643997315], [-72.46314542809566, 43.95134243778425], [-72.46276355112039, 43.95119513914714], [-72.46161765798436, 43.951176363392264], [-72.46118479740785, 43.95112102729545], [-72.46070117747621, 43.950808116572105], [-72.4603978880405, 43.95028662123655], [-72.4599793705995, 43.95015109277113], [-72.45991201736052, 43.95045830464536], [-72.45998821204392, 43.95075267927081], [-72.46026805082, 43.9511575064008], [-72.46095533896607, 43.9515440743247], [-72.46248322079236, 43.95154458613377], [-72.46261038313563, 43.95180218241852], [-72.46240634024835, 43.95231722466007], [-72.46232964237478, 43.952795515288315], [-72.4640348033154, 43.95447016903475], [-72.46487412859464, 43.95625491457984], [-72.4647719787013, 43.95673319869074], [-72.46441495900501, 43.957542544384296], [-72.46387973444274, 43.95822305640501], [-72.4637267052034, 43.95859094188272], [-72.46357341559074, 43.95938195256319], [-72.46413318228764, 43.96026517375916], [-72.46423484556803, 43.96061474283848], [-72.46367366312815, 43.962049511271495], [-72.46367339411816, 43.96249103216501], [-72.46410584114946, 43.9633742115695], [-72.464080050156, 43.9639077081911], [-72.4637485264823, 43.964588281781246], [-72.46344263606996, 43.964992912845354], [-72.46293297559062, 43.965397476247844], [-72.46257608684586, 43.96587567471473], [-72.46201550649366, 43.96622502662883], [-72.46168418283645, 43.96653766060705], [-72.4612760230449, 43.967494150564384], [-72.46002761110208, 43.96795363963444], [-72.4581678292042, 43.96844968511107], [-72.45765822097817, 43.96868865469341], [-72.45702110183812, 43.969129937310505], [-72.45694442000676, 43.96949784258727], [-72.45645986704523, 43.97028871691434], [-72.45623020787355, 43.97084052982269], [-72.4544461607802, 43.97207241142959], [-72.45276422676261, 43.97293637327224], [-72.45194859046963, 43.97352472761335], [-72.45156588023647, 43.9742604328356], [-72.45105590878785, 43.97484890981283], [-72.45031686831067, 43.975179732450854], [-72.44990925669055, 43.975197950156804], [-72.4495270103732, 43.97534495528446], [-72.44957732152457, 43.97609924240059], [-72.44950055355811, 43.976503934389385], [-72.44909256991701, 43.976945273218746], [-72.4487611188487, 43.97725786907616], [-72.44830235001692, 43.97749681934426], [-72.44718140011088, 43.97751470326474], [-72.44675652402492, 43.97814571187178]]]]}}, {"type": "Feature", "properties": {"OBJECT_ID": 1094, "County": "Orange", "RPC": "TRORC", "Municipal_Name": "Chelsea ", "GEO_ID": "5001713525", "District_Name": "Rural Residential", "Abbreviated_District_Name": "Rr", "District_Type": "Primarily Residential", "Bylaw_Date": null, "Elderly_Housing_District": "No", "District_Mapped": "Yes", "Overlay_District": "No", "Base_Density": null, "GIS_ID": null, "Last_Update": null, "Shape_Length": 55231.573898898525, "Shape_Area": 98684885.29168884, "F1F_Allowance": "Permitted", "F1F_Front_Setback": 65.0, "F1F_Side_Setback": 35.0, "F1F_Rear_Setback": 35.0, "F1F_Frontage": 20.0, "F1F_Max_Height": null, "F1F_Max_Stories": null, "F1F_Min_Lot_Size": 2.0, "F1F_Max_Lot_Building_Coverage": null, "F1F_Max_Lot_Impervious_Coverage": null, "F1F_Min_Parking_Spaces": null, "F1F_Elderly_Housing_Only": null, "F1F_Affordable_Housing_Only": null, "F2F_Allowance": "Permitted", "F2F_Front_Setback": 65.0, "F2F_Side_Setback": 35.0, "F2F_Rear_Setback": 35.0, "F2F_Frontage": 20.0, "F2F_Max_Density": null, "F2F_Max_Height": null, "F2F_Max_Stories": null, "F2F_Min_Lot_Size": 2.0, "F2F_Max_Lot_Building_Coverage": null, "F2F_Max_Lot_Impervious_Coverage": null, "F2F_Min_Parking_Spaces_per_1BR": null, "F2F_Min_Parking_Spaces_per_mult_BR": null, "F2F_Elderly_Housing_Only": "No", "F2F_Affordable_Housing_Only": "No", "F3F_Allowance": "Public Hearing", "F3F_Front_Setback": 65.0, "F3F_Side_Setback": 35.0, "F3F_Rear_Setback": 35.0, "F3F_Frontage": 20.0, "F3F_Max_Density": null, "F3F_Max_Height": null, "F3F_Max_Stories": null, "F3F_Min_Lot_Size": 2.0, "F3F_Max_Lot_Building_Coverage": null, "F3F_Max_Lot_Impervious_Coverage": null, "F3F_Min_Parking_Spaces_per_1BR": null, "F3F_Min_Parking_Spaces_per_mult_BR": null, "F3F_Affordable_Housing_Only": "No", "F3F_Proximity_to_Public_Transit_Required": "No", "F3F_Connection_to_Sewage/Water_Required": "No", "F4F_Allowance": "Public Hearing", "F4F_Front_Setback": 65.0, "F4F_Side_Setback": 35.0, "F4F_Rear_Setback": 35.0, "F4F_Frontage": 20.0, "F1F_Max_Density": null, "F4F_Max_Density": null, "F4F_Max_Height": null, "F4F_Max_Stories": null, "F4F_Min_Lot_Size": 2.0, "F4F_Max_Lot_Building_Coverage": null, "F4F_Max_Lot_Impervious_Coverage": null, "F4F_Min_Parking_Spaces_per_1BR": null, "F4F_Min_Parking_Spaces_per_mult_BR": null, "F3F_Elderly_Housing_Only": "No", "F4F_Elderly_Housing_Only": "No", "F4F_Affordable_Housing_Only": "No", "F4F_Proximity_to_Public_Transit_Required": "No", "F4F_Connection_to_Sewage/Water_Required": "No", "ADU_Allowance": "Allowed/Conditional", "ADU_Elderly_Housing_Only": "No", "ADU_Max_Size_as_Percent_of_Primary_Strcture": 30.0, "ADU_Max_Size_in_sq_ft": null, "ADU_Min_Lot_Size": null, "ADU_Max_Bedrooms": 1.0, "ADU_Min_Parking_Spaces": null, "ADU_Owner_Occupancy_Required": "No", "ADU_Renter_Occupancy_Prohibited": "No", "ADU_Employee_or_Family_Occupancy_Required": "No", "ADU_Restricted_to_Primary_Structure": "No", "Affordable_Housing_Allowance": "Allowed/Conditional", "Affordable_Housing_District": "No", "Affordable_Housing_Elderly_Only": "No", "Affordable_Housing_Min_Lot_Size": 2.0, "Affordable_Housing_Max_Density": null, "Affordable_Housing_Min_Parking_Spaces_per_mult_BR": null, "Affordable_Housing_Max_Units_per_Building": null, "Affordable_Housing_Min_Parking_Spaces_per_1BR": null, "PRD_Allowance": "Public Hearing", "PRD_Max_Density": null, "PRD_Max_Units": null, "PRD_Min_Lot_Size": null, "PRD_Mobile_or_Manufactured_Home_Park": "Yes", "PUD_Allowance": "Yes", "PUD_Required_with_Subdivision": null, "PUD_Requires_Land_Conservation": "Yes", "PUD_Threshold_Number": null, "Notes": "None", "FIPS6": null}, "geometry": {"type": "MultiPolygon", "coordinates": [[[[-72.38189919207863, 44.008172322099064], [-72.38578497686476, 44.009666618154384], [-72.38999242944344, 44.01117207208204], [-72.39328780731886, 44.01228042324966], [-72.40477081960323, 44.01636649375423], [-72.42895862280783, 44.0248167358638], [-72.45315330182326, 44.03326184821935], [-72.4540833555396, 44.03358976563358], [-72.4641054584413, 44.03711285400386], [-72.47512840879105, 44.04106274538397], [-72.4765192234166, 44.0415372772892], [-72.47893542706642, 44.04236166834155], [-72.49627211400248, 44.04832498374043], [-72.50242519408432, 44.050367064373155], [-72.52031847878172, 44.05643025663449], [-72.53821541380111, 44.062490638959574], [-72.53224522007163, 44.04210381402543], [-72.52674995364504, 44.023127430899756], [-72.5212581947239, 44.00415071948852], [-72.51576993822995, 43.985173680314226], [-72.51028517909278, 43.96619631389873], [-72.4998536336807, 43.96299366464498], [-72.4856819190709, 43.958437783362335], [-72.48379183874749, 43.96045427758268], [-72.48239611072958, 43.96173052057172], [-72.4812128951958, 43.96261966357296], [-72.47812230325853, 43.96378744942056], [-72.47621484693774, 43.964310202903434], [-72.47437989137919, 43.96458881158197], [-72.47189297994682, 43.96504161104886], [-72.4695751208147, 43.965320022742915], [-72.46614677716589, 43.96538880988536], [-72.46423956219394, 43.965248726342395], [-72.46484371217502, 43.964272395246894], [-72.46479594252766, 43.96340048838309], [-72.46532746589477, 43.96272057458741], [-72.46596673196754, 43.96046886666022], [-72.4661015443264, 43.96001794068392], [-72.46613550140441, 43.95905265556866], [-72.46615178653421, 43.95656525969726], [-72.46417278490114, 43.95150773293683], [-72.44250762186795, 43.94448699822293], [-72.42557581088049, 43.939074061312375], [-72.40864707519218, 43.93365861303775], [-72.39420148593622, 43.92898226606515], [-72.39176202278996, 43.93939426906426], [-72.38905619677132, 43.95915410620529], [-72.38554002209972, 43.98424223743364], [-72.38829672104434, 43.98518344910881], [-72.38940656649044, 43.98577741317704], [-72.39042069428486, 43.98590045433089], [-72.40009599016, 43.98919390240449], [-72.39943723890794, 43.991907475615605], [-72.40475820020076, 43.99114463318779], [-72.40623128455474, 43.99132022945147], [-72.40741439933328, 43.99158276020624], [-72.40834670328782, 43.9916002522596], [-72.40786428450451, 43.99367565416839], [-72.40673475671909, 43.99433318732295], [-72.40576377414966, 43.99521270408276], [-72.40450617015289, 43.99588305437128], [-72.40379345354619, 43.996096730575374], [-72.40303625267825, 43.9966625807434], [-72.39943169211568, 43.99812144533871], [-72.39853413717519, 43.99863401887565], [-72.3969251238228, 43.999302187982266], [-72.3957099184155, 43.99964635222301], [-72.39437999224513, 44.00037751455459], [-72.3935580248332, 44.00072550713823], [-72.39225293063834, 44.001055600399006], [-72.39081414814723, 44.001562021247295], [-72.38976225016074, 44.001862335309106], [-72.38840151798833, 44.0019502958], [-72.3876900595928, 44.00208352031999], [-72.38455233666332, 44.001633987312154], [-72.38368630823851, 44.00174471007036], [-72.38284306288391, 44.001953142596506], [-72.38189919207863, 44.008172322099064]], [[-72.44604243963143, 44.00305388766654], [-72.4448978853839, 44.0026879385694], [-72.44543678898086, 44.00192462685073], [-72.44675584402239, 44.000357917614544], [-72.44710917201769, 43.999540924592424], [-72.44725873825656, 43.998295167064775], [-72.44690727111885, 43.99703577962184], [-72.44599912096635, 43.99577613000154], [-72.44512783756186, 43.99482459940269], [-72.44426070646473, 43.99422564485796], [-72.44367924003026, 43.99374524639961], [-72.44332348909883, 43.993196369873225], [-72.44332417444069, 43.99247619959791], [-72.44355156849493, 43.99046421202742], [-72.44391621714787, 43.98807691731802], [-72.44473443936123, 43.9850030321875], [-72.44587132572799, 43.980065095587555], [-72.44605229902545, 43.97803981385772], [-72.44675652402492, 43.97814571187178], [-72.44851823028498, 43.97841063013144], [-72.45239600227853, 43.978993751865595], [-72.45080072906066, 43.98783026618269], [-72.45042489652575, 43.98981749103842], [-72.45028308740866, 43.99056283887351], [-72.45071447039619, 43.99479114276886], [-72.45149598341162, 43.996424114995484], [-72.45330754843489, 43.99943645879789], [-72.45284360581985, 43.99943626828214], [-72.45252841280802, 43.99907444543012], [-72.45204315118418, 43.99884062465762], [-72.45136106830299, 43.999085962623674], [-72.45046785951178, 43.99986393521759], [-72.44894458700013, 44.0016449314348], [-72.4487030156806, 44.00200651542631], [-72.44859122540493, 44.002515512669575], [-72.4481822700865, 44.00327889998957], [-72.44762525457907, 44.00355996160263], [-72.4467094037722, 44.003267137014646], [-72.44604243963143, 44.00305388766654]]]]}}]}