{"type":"FeatureCollection","name":"Orange_Vershire","features":[{"type":"Feature","properties":{"OBJECT_ID":703,"County":"Orange","RPC":"TRORC","Municipal_Name":"Vershire","GEO_ID":"5001774950","District_Name":"Flood Hazard Overlay","Abbreviated_District_Name":"Fho","District_Type":"Overlay","Bylaw_Date":"2024-06-06","Elderly_Housing_District":"No","District_Mapped":"Yes","Overlay_District":"Yes","Base_Density":null,"FIPS6":null,"GIS_ID":null,"Last_Update":null,"Shape_Length":8229.736357107215,"Shape_Area":577924.0760168802,"F1F_Allowance":null,"F1F_Front_Setback":null,"F1F_Side_Setback":null,"F1F_Rear_Setback":null,"F1F_Frontage":null,"F1F_Max_Height":null,"F1F_Max_Stories":null,"F1F_Min_Lot_Size":null,"F1F_Max_Lot_Building_Coverage":null,"F1F_Max_Lot_Impervious_Coverage":null,"F1F_Min_Parking_Spaces":null,"F1F_Elderly_Housing_Only":null,"F1F_Affordable_Housing_Only":null,"F2F_Allowance":null,"F2F_Front_Setback":null,"F2F_Side_Setback":null,"F2F_Rear_Setback":null,"F2F_Frontage":null,"F2F_Max_Density":null,"F2F_Max_Height":null,"F2F_Max_Stories":null,"F2F_Min_Lot_Size":null,"F2F_Max_Lot_Building_Coverage":null,"F2F_Max_Lot_Impervious_Coverage":null,"F2F_Min_Parking_Spaces_per_1BR":null,"F2F_Min_Parking_Spaces_per_mult_BR":null,"F2F_Elderly_Housing_Only":"No","F2F_Affordable_Housing_Only":"No","F3F_Allowance":null,"F3F_Front_Setback":null,"F3F_Side_Setback":null,"F3F_Rear_Setback":null,"F3F_Frontage":null,"F3F_Max_Density":null,"F3F_Max_Height":null,"F3F_Max_Stories":null,"F3F_Min_Lot_Size":null,"F3F_Max_Lot_Building_Coverage":null,"F3F_Max_Lot_Impervious_Coverage":null,"F3F_Min_Parking_Spaces_per_1BR":null,"F3F_Min_Parking_Spaces_per_mult_BR":null,"F3F_Affordable_Housing_Only":"No","F3F_Proximity_to_Public_Transit_Required":"No","F3F_Connection_to_Sewage/Water_Required":"No","F4F_Allowance":null,"F4F_Front_Setback":null,"F4F_Side_Setback":null,"F4F_Rear_Setback":null,"F4F_Frontage":null,"F1F_Max_Density":null,"F4F_Max_Density":null,"F4F_Max_Height":null,"F4F_Max_Stories":null,"F4F_Min_Lot_Size":null,"F4F_Max_Lot_Building_Coverage":null,"F4F_Max_Lot_Impervious_Coverage":null,"F4F_Min_Parking_Spaces_per_1BR":null,"F4F_Min_Parking_Spaces_per_mult_BR":null,"F3F_Elderly_Housing_Only":"No","F4F_Elderly_Housing_Only":"No","F4F_Affordable_Housing_Only":"No","F4F_Proximity_to_Public_Transit_Required":"No","F4F_Connection_to_Sewage/Water_Required":"No","ADU_Allowance":"Not Mentioned","ADU_Elderly_Housing_Only":"No","ADU_Max_Size_as_Percent_of_Primary_Strcture":null,"ADU_Max_Size_in_sq_ft":null,"ADU_Min_Lot_Size":null,"ADU_Max_Bedrooms":null,"ADU_Min_Parking_Spaces":null,"ADU_Owner_Occupancy_Required":"No","ADU_Renter_Occupancy_Prohibited":"No","ADU_Employee_or_Family_Occupancy_Required":"No","ADU_Restricted_to_Primary_Structure":"No","Affordable_Housing_Allowance":"Not Mentioned","Affordable_Housing_District":"No","Affordable_Housing_Elderly_Only":"No","Affordable_Housing_Min_Lot_Size":null,"Affordable_Housing_Max_Density":null,"Affordable_Housing_Min_Parking_Spaces_per_mult_BR":null,"Affordable_Housing_Max_Units_per_Building":null,"Affordable_Housing_Min_Parking_Spaces_per_1BR":null,"PRD_Allowance":"Not Mentioned","PRD_Max_Density":null,"PRD_Max_Units":null,"PRD_Min_Lot_Size":null,"PRD_Mobile_or_Manufactured_Home_Park":"No","PUD_Allowance":null,"PUD_Required_with_Subdivision":null,"PUD_Requires_Land_Conservation":null,"PUD_Threshold_Number":null,"Notes":" Only Improvements to Existing Structures Are Allowed In The Floodway. Building In Special Flood Hazard Areas Is Permitted As Long As The Lowest Floor, Including Basement, Is Elevated to At Least 1 Ft Above Base Flood Elevation. Manufactured Homes Must Be Placed On A Permanent Foundation So The Lowest Floor Is Elevated to 1 Ft Above Base Flood Elevation; If This Is not Possible, The Lowest Floor Must Be Supported By Reinforced Piers Or Similar Material At Least 48 Inches In Height.  "},"geometry":{"type":"MultiPolygon","coordinates":[[[[-72.26507819472727,43.937806093110666],[-72.26590919009318,43.938273150445845],[-72.26653507689139,43.939318769241794],[-72.26678767849067,43.94105984944295],[-72.26704499986367,43.94159593213443],[-72.26733990739632,43.94199820106595],[-72.26785686630815,43.94248125467699],[-72.26807797619772,43.942803038450926],[-72.26940271879992,43.9452425076123],[-72.27003018355418,43.94591321911667],[-72.2710662751887,43.94634374509503],[-72.27176861358434,43.94682715189683],[-72.27217374501043,43.94749740717088],[-72.27294860119193,43.948409396574135],[-72.27331659104775,43.94910635242914],[-72.27367968926602,43.95010976411188],[-72.27404255356856,43.95050533739873],[-72.27485636464549,43.952097334666895],[-72.27550535818769,43.95311865464894],[-72.27595456816354,43.954786703561794],[-72.27616593441392,43.955105195591955],[-72.27677115718075,43.9556657580228],[-72.27708721343747,43.956412212637765],[-72.27731410189831,43.956642987035075],[-72.27770796925782,43.95688505458632],[-72.27791861698067,43.95740096876414],[-72.27847877729369,43.95784078358239],[-72.27908392760243,43.95843423843897],[-72.27978088357443,43.95884140700676],[-72.28050865998199,43.95912798066643],[-72.28194945144521,43.95959140290456],[-72.2825252469806,43.959921546397034],[-72.28384463872138,43.960373745813634],[-72.28523071698152,43.96103488906873],[-72.28563834533365,43.96118306844118],[-72.28606566293269,43.96126108365562],[-72.28648351537933,43.961268885421475],[-72.28742370981357,43.96161986490344],[-72.28863785605054,43.96179760839716],[-72.2891845040404,43.96179861821928],[-72.29074767604351,43.96204279189283],[-72.29144605732007,43.96207697281068],[-72.29445282157526,43.962027580380166],[-72.2949086276069,43.96195162240703],[-72.29512155279525,43.96185329009383],[-72.29518289442822,43.96167790881003],[-72.29503270714858,43.96119503944946],[-72.29471797480575,43.96094942805421],[-72.29412322803462,43.96073274078038],[-72.29169426328032,43.96057478386652],[-72.29081349486147,43.96059511129456],[-72.28770214928821,43.960183550000686],[-72.28547365853002,43.95918128343597],[-72.28362352219858,43.958541638068674],[-72.28279001033098,43.95810132924233],[-72.27984789619599,43.95714146584025],[-72.2787417011723,43.95654704672899],[-72.27768426784665,43.95509719098623],[-72.27751864732802,43.954723950207665],[-72.27698240106253,43.951958916442265],[-72.27656120586387,43.9509161138462],[-72.27529233413414,43.94921355306881],[-72.27506651572587,43.94870857123272],[-72.2739029596578,43.94728040695606],[-72.27358620021556,43.9467423369092],[-72.27310212460567,43.94629167969015],[-72.2723161622243,43.94539072215164],[-72.27076676795193,43.94422279909717],[-72.26921167434432,43.941875101196544],[-72.26873880005026,43.941059863616594],[-72.26848047721666,43.94003446929371],[-72.2679695616229,43.93901558094303],[-72.26725408766816,43.938143687320704],[-72.26671376360729,43.937201949634726],[-72.26600445514846,43.9362309227765],[-72.26591782566511,43.9363839939586],[-72.26507819472727,43.937806093110666]]]]}},{"type":"Feature","properties":{"OBJECT_ID":705,"County":"Orange","RPC":"TRORC","Municipal_Name":"Vershire","GEO_ID":"5001774950","District_Name":"Rural Residential","Abbreviated_District_Name":"Rr","District_Type":"Primarily Residential","Bylaw_Date":"2024-06-06","Elderly_Housing_District":"No","District_Mapped":"Yes","Overlay_District":"No","Base_Density":null,"FIPS6":null,"GIS_ID":null,"Last_Update":null,"Shape_Length":37259.52918936619,"Shape_Area":32749932.179012626,"F1F_Allowance":"Permitted","F1F_Front_Setback":null,"F1F_Side_Setback":null,"F1F_Rear_Setback":null,"F1F_Frontage":20.0,"F1F_Max_Height":35.0,"F1F_Max_Stories":null,"F1F_Min_Lot_Size":2.0,"F1F_Max_Lot_Building_Coverage":null,"F1F_Max_Lot_Impervious_Coverage":null,"F1F_Min_Parking_Spaces":2.0,"F1F_Elderly_Housing_Only":null,"F1F_Affordable_Housing_Only":null,"F2F_Allowance":"Permitted","F2F_Front_Setback":null,"F2F_Side_Setback":null,"F2F_Rear_Setback":null,"F2F_Frontage":20.0,"F2F_Max_Density":null,"F2F_Max_Height":35.0,"F2F_Max_Stories":null,"F2F_Min_Lot_Size":2.0,"F2F_Max_Lot_Building_Coverage":null,"F2F_Max_Lot_Impervious_Coverage":null,"F2F_Min_Parking_Spaces_per_1BR":2.0,"F2F_Min_Parking_Spaces_per_mult_BR":2.0,"F2F_Elderly_Housing_Only":"No","F2F_Affordable_Housing_Only":"No","F3F_Allowance":"Permitted","F3F_Front_Setback":null,"F3F_Side_Setback":null,"F3F_Rear_Setback":null,"F3F_Frontage":20.0,"F3F_Max_Density":null,"F3F_Max_Height":35.0,"F3F_Max_Stories":null,"F3F_Min_Lot_Size":2.0,"F3F_Max_Lot_Building_Coverage":null,"F3F_Max_Lot_Impervious_Coverage":null,"F3F_Min_Parking_Spaces_per_1BR":2.0,"F3F_Min_Parking_Spaces_per_mult_BR":2.0,"F3F_Affordable_Housing_Only":"No","F3F_Proximity_to_Public_Transit_Required":"No","F3F_Connection_to_Sewage/Water_Required":"No","F4F_Allowance":"Public Hearing","F4F_Front_Setback":null,"F4F_Side_Setback":null,"F4F_Rear_Setback":null,"F4F_Frontage":20.0,"F1F_Max_Density":null,"F4F_Max_Density":null,"F4F_Max_Height":35.0,"F4F_Max_Stories":null,"F4F_Min_Lot_Size":2.0,"F4F_Max_Lot_Building_Coverage":null,"F4F_Max_Lot_Impervious_Coverage":null,"F4F_Min_Parking_Spaces_per_1BR":2.0,"F4F_Min_Parking_Spaces_per_mult_BR":2.0,"F3F_Elderly_Housing_Only":"No","F4F_Elderly_Housing_Only":"No","F4F_Affordable_Housing_Only":"No","F4F_Proximity_to_Public_Transit_Required":"No","F4F_Connection_to_Sewage/Water_Required":"No","ADU_Allowance":"Allowed/Conditional","ADU_Elderly_Housing_Only":"No","ADU_Max_Size_as_Percent_of_Primary_Strcture":30.0,"ADU_Max_Size_in_sq_ft":null,"ADU_Min_Lot_Size":2.0,"ADU_Max_Bedrooms":1.0,"ADU_Min_Parking_Spaces":2.0,"ADU_Owner_Occupancy_Required":"Yes","ADU_Renter_Occupancy_Prohibited":"No","ADU_Employee_or_Family_Occupancy_Required":"No","ADU_Restricted_to_Primary_Structure":"No","Affordable_Housing_Allowance":"Not Mentioned","Affordable_Housing_District":"No","Affordable_Housing_Elderly_Only":"No","Affordable_Housing_Min_Lot_Size":null,"Affordable_Housing_Max_Density":null,"Affordable_Housing_Min_Parking_Spaces_per_mult_BR":null,"Affordable_Housing_Max_Units_per_Building":null,"Affordable_Housing_Min_Parking_Spaces_per_1BR":null,"PRD_Allowance":"Not Mentioned","PRD_Max_Density":null,"PRD_Max_Units":null,"PRD_Min_Lot_Size":null,"PRD_Mobile_or_Manufactured_Home_Park":"No","PUD_Allowance":null,"PUD_Required_with_Subdivision":null,"PUD_Requires_Land_Conservation":null,"PUD_Threshold_Number":null,"Notes":"None"},"geometry":{"type":"MultiPolygon","coordinates":[[[[-72.26630569350617,43.94393307539731],[-72.26534949045723,43.94521393634725],[-72.26514655272119,43.94501002411247],[-72.26460305180733,43.94473200298431],[-72.26243317577007,43.94795831083866],[-72.26114521918323,43.950175624155534],[-72.26082877761311,43.95055681109375],[-72.26044087871765,43.9513440293437],[-72.25999889098411,43.95185685370108],[-72.25926024669006,43.95588597240926],[-72.2590214826972,43.959348588425456],[-72.25884187326609,43.96029772321376],[-72.25872784781349,43.960537020757954],[-72.25730196520942,43.96314096362768],[-72.25582641864169,43.96438556664793],[-72.25408776938107,43.96677510158484],[-72.25100978443483,43.972124984004765],[-72.24845898370152,43.97578828871069],[-72.2459022994955,43.980318402622686],[-72.26194396723828,43.98363045316402],[-72.27798742712764,43.98694025342152],[-72.294032677757,43.990247802616615],[-72.31007971771827,43.99355309997112],[-72.31153594991693,43.99179444289191],[-72.31283040918473,43.990038110997766],[-72.3151550915097,43.98719350492863],[-72.31692435999935,43.98423451428171],[-72.31824384169542,43.980893922432045],[-72.31832201102372,43.979176108357116],[-72.3178704111611,43.97575977432596],[-72.31602632605637,43.973047594841766],[-72.31606198206973,43.97292877934479],[-72.31629750890157,43.97214392309946],[-72.31630880629494,43.97210626971504],[-72.31246858450659,43.970186689419265],[-72.30868610210456,43.967782476747814],[-72.30825212687988,43.967506614358456],[-72.3047036363869,43.965533121379394],[-72.30288265417435,43.964620638267434],[-72.30202355891427,43.96438625358029],[-72.30100747764861,43.96454913717475],[-72.29986052016905,43.96494281359243],[-72.29563001137754,43.97103071930813],[-72.29399050627336,43.97146602384046],[-72.29308967996886,43.97234006074856],[-72.29072729373777,43.97319911875007],[-72.28851647243565,43.972571316946976],[-72.28807638059467,43.97228004298547],[-72.28765192683187,43.97144777281373],[-72.28704942066159,43.97086520231468],[-72.28589168888684,43.97028266421323],[-72.28480728135776,43.96991575956395],[-72.28385387102234,43.96951856982751],[-72.28504278448479,43.96761554444381],[-72.28133928366177,43.96484636776034],[-72.28332485152592,43.96141329131135],[-72.27893847259517,43.960363622686295],[-72.27669254239711,43.958454940393665],[-72.2742618867752,43.95549645607924],[-72.273707309354,43.952347147256084],[-72.27159402981248,43.94959855942892],[-72.267447060594,43.94541825817313],[-72.26630569350617,43.94393307539731]]],[[[-72.35050128151026,43.918174945606815],[-72.35037067002867,43.91865323826226],[-72.35053160846337,43.91903315240614],[-72.35055813875398,43.919933056357024],[-72.35022203733085,43.92052559221336],[-72.3501366953028,43.92109629637167],[-72.3499015069158,43.921109029212424],[-72.34937844760931,43.92126718194951],[-72.34885512313474,43.92152406492493],[-72.3484986105762,43.92158370439745],[-72.3480820628865,43.921905111158935],[-72.3474818017288,43.922058862963986],[-72.34730333692113,43.92216594844907],[-72.34674498014122,43.92218667134005],[-72.3465309987428,43.92225077539483],[-72.34641786516302,43.922362251181774],[-72.34603167158437,43.92240894374821],[-72.34584416063807,43.922567537277715],[-72.34530936919735,43.92266555386572],[-72.34496990600383,43.92301712011568],[-72.34467878688427,43.923055362411176],[-72.34438753683246,43.923136527363994],[-72.34425657846893,43.92324796501867],[-72.34387626976408,43.92331613225145],[-72.34366264316259,43.92361007157337],[-72.34177386353345,43.923048317928],[-72.33923619973575,43.92038310142155],[-72.33403923429215,43.92065586936066],[-72.3320595028292,43.91937518385857],[-72.33199858236274,43.919451898862505],[-72.33178622797347,43.9194963308491],[-72.3316901438173,43.91966189044705],[-72.3314064655035,43.919580851581784],[-72.331254273677,43.91961726920108],[-72.33106298554675,43.91985993590595],[-72.33092931996372,43.919893548064834],[-72.33027128091156,43.92051806584583],[-72.32639219491286,43.9237644998831],[-72.3243876020516,43.926819203405],[-72.32402090646791,43.93078938965288],[-72.3266119923292,43.93435753415411],[-72.32785621147572,43.93779261490568],[-72.3307113935691,43.94069252376218],[-72.3332228763605,43.942943579202016],[-72.33457303349195,43.94611131981183],[-72.33795700825829,43.9486863124232],[-72.34289957797125,43.95085951418253],[-72.34667878705663,43.951926179581],[-72.35146267644109,43.953488334083765],[-72.35640481933675,43.95464937132856],[-72.36007915195883,43.95598287525821],[-72.36301362104916,43.957164109986614],[-72.36560083223328,43.95567341331763],[-72.36604907631495,43.955043220135856],[-72.36940318053522,43.95414352360436],[-72.37138562521005,43.95469545026491],[-72.37331384667077,43.95436940281363],[-72.37566631888842,43.9549972790565],[-72.3779152805897,43.95690402167486],[-72.38130001200426,43.95846613056291],[-72.38439283642127,43.959245861332974],[-72.38751116023212,43.959452888758825],[-72.38905619677132,43.95915410620529],[-72.39176202278996,43.93939426906426],[-72.39420148593622,43.92898226606515],[-72.38780220357143,43.926633551598805],[-72.36345937891026,43.92111504531231],[-72.36269541598753,43.92094172274059],[-72.36260535936789,43.92092129169736],[-72.3620259690334,43.92078984995586],[-72.35050128151026,43.918174945606815]]]]}},{"type":"Feature","properties":{"OBJECT_ID":704,"County":"Orange","RPC":"TRORC","Municipal_Name":"Vershire","GEO_ID":"5001774950","District_Name":"Open Space","Abbreviated_District_Name":"Os","District_Type":"Mixed with Residential","Bylaw_Date":"2024-06-06","Elderly_Housing_District":"No","District_Mapped":"Yes","Overlay_District":"No","Base_Density":null,"FIPS6":null,"GIS_ID":null,"Last_Update":null,"Shape_Length":56859.04433983704,"Shape_Area":59330817.351310916,"F1F_Allowance":"Permitted","F1F_Front_Setback":50.0,"F1F_Side_Setback":50.0,"F1F_Rear_Setback":50.0,"F1F_Frontage":20.0,"F1F_Max_Height":35.0,"F1F_Max_Stories":null,"F1F_Min_Lot_Size":10.0,"F1F_Max_Lot_Building_Coverage":null,"F1F_Max_Lot_Impervious_Coverage":null,"F1F_Min_Parking_Spaces":2.0,"F1F_Elderly_Housing_Only":null,"F1F_Affordable_Housing_Only":null,"F2F_Allowance":"Permitted","F2F_Front_Setback":50.0,"F2F_Side_Setback":50.0,"F2F_Rear_Setback":50.0,"F2F_Frontage":20.0,"F2F_Max_Density":null,"F2F_Max_Height":35.0,"F2F_Max_Stories":null,"F2F_Min_Lot_Size":10.0,"F2F_Max_Lot_Building_Coverage":null,"F2F_Max_Lot_Impervious_Coverage":null,"F2F_Min_Parking_Spaces_per_1BR":2.0,"F2F_Min_Parking_Spaces_per_mult_BR":2.0,"F2F_Elderly_Housing_Only":"No","F2F_Affordable_Housing_Only":"No","F3F_Allowance":"Permitted","F3F_Front_Setback":50.0,"F3F_Side_Setback":50.0,"F3F_Rear_Setback":50.0,"F3F_Frontage":20.0,"F3F_Max_Density":null,"F3F_Max_Height":35.0,"F3F_Max_Stories":null,"F3F_Min_Lot_Size":10.0,"F3F_Max_Lot_Building_Coverage":null,"F3F_Max_Lot_Impervious_Coverage":null,"F3F_Min_Parking_Spaces_per_1BR":2.0,"F3F_Min_Parking_Spaces_per_mult_BR":2.0,"F3F_Affordable_Housing_Only":"No","F3F_Proximity_to_Public_Transit_Required":"No","F3F_Connection_to_Sewage/Water_Required":"No","F4F_Allowance":"Public Hearing","F4F_Front_Setback":50.0,"F4F_Side_Setback":50.0,"F4F_Rear_Setback":50.0,"F4F_Frontage":20.0,"F1F_Max_Density":null,"F4F_Max_Density":null,"F4F_Max_Height":35.0,"F4F_Max_Stories":null,"F4F_Min_Lot_Size":10.0,"F4F_Max_Lot_Building_Coverage":null,"F4F_Max_Lot_Impervious_Coverage":null,"F4F_Min_Parking_Spaces_per_1BR":2.0,"F4F_Min_Parking_Spaces_per_mult_BR":2.0,"F3F_Elderly_Housing_Only":"No","F4F_Elderly_Housing_Only":"No","F4F_Affordable_Housing_Only":"No","F4F_Proximity_to_Public_Transit_Required":"No","F4F_Connection_to_Sewage/Water_Required":"No","ADU_Allowance":"Allowed/Conditional","ADU_Elderly_Housing_Only":"No","ADU_Max_Size_as_Percent_of_Primary_Strcture":30.0,"ADU_Max_Size_in_sq_ft":null,"ADU_Min_Lot_Size":10.0,"ADU_Max_Bedrooms":1.0,"ADU_Min_Parking_Spaces":2.0,"ADU_Owner_Occupancy_Required":"Yes","ADU_Renter_Occupancy_Prohibited":"No","ADU_Employee_or_Family_Occupancy_Required":"No","ADU_Restricted_to_Primary_Structure":"No","Affordable_Housing_Allowance":"Not Mentioned","Affordable_Housing_District":"No","Affordable_Housing_Elderly_Only":"No","Affordable_Housing_Min_Lot_Size":null,"Affordable_Housing_Max_Density":null,"Affordable_Housing_Min_Parking_Spaces_per_mult_BR":null,"Affordable_Housing_Max_Units_per_Building":null,"Affordable_Housing_Min_Parking_Spaces_per_1BR":null,"PRD_Allowance":"Not Mentioned","PRD_Max_Density":null,"PRD_Max_Units":null,"PRD_Min_Lot_Size":null,"PRD_Mobile_or_Manufactured_Home_Park":"No","PUD_Allowance":null,"PUD_Required_with_Subdivision":null,"PUD_Requires_Land_Conservation":null,"PUD_Threshold_Number":null,"Notes":"None"},"geometry":{"type":"MultiPolygon","coordinates":[[[[-72.30868610210456,43.967782476747814],[-72.31246858450659,43.970186689419265],[-72.31630880629494,43.97210626971504],[-72.31629750890157,43.97214392309946],[-72.31632058422147,43.97207646264043],[-72.31262197388928,43.9702505172066],[-72.30868610210456,43.967782476747814]]],[[[-72.28473461745094,43.9032256980794],[-72.28448940477108,43.90360118094678],[-72.27520617216184,43.91999299374674],[-72.26591782566511,43.9363839939586],[-72.26507819472727,43.937806093110666],[-72.25916362527263,43.94820258909666],[-72.25324698706811,43.95859875516756],[-72.24732827854476,43.96899459099181],[-72.24140749813242,43.97939009623771],[-72.2459022994955,43.980318402622686],[-72.24845898370152,43.97578828871069],[-72.25100978443483,43.972124984004765],[-72.25408776938107,43.96677510158484],[-72.25582641864169,43.96438556664793],[-72.25730196520942,43.96314096362768],[-72.25872784781349,43.960537020757954],[-72.25884187326609,43.96029772321376],[-72.2590214826972,43.959348588425456],[-72.25926024669006,43.95588597240926],[-72.25999889098411,43.95185685370108],[-72.26044087871765,43.9513440293437],[-72.26082877761311,43.95055681109375],[-72.26114521918323,43.950175624155534],[-72.26243317577007,43.94795831083866],[-72.26460305180733,43.94473200298431],[-72.26514655272119,43.94501002411247],[-72.26534949045723,43.94521393634725],[-72.26630569350617,43.94393307539731],[-72.267447060594,43.94541825817313],[-72.27159402981248,43.94959855942892],[-72.273707309354,43.952347147256084],[-72.2742618867752,43.95549645607924],[-72.27669254239711,43.958454940393665],[-72.27893847259517,43.960363622686295],[-72.28332485152592,43.96141329131135],[-72.28133928366177,43.96484636776034],[-72.28504278448479,43.96761554444381],[-72.28385387102234,43.96951856982751],[-72.28480728135776,43.96991575956395],[-72.28589168888684,43.97028266421323],[-72.28704942066159,43.97086520231468],[-72.28765192683187,43.97144777281373],[-72.28807638059467,43.97228004298547],[-72.28851647243565,43.972571316946976],[-72.29072729373777,43.97319911875007],[-72.29308967996886,43.97234006074856],[-72.29399050627336,43.97146602384046],[-72.29563001137754,43.97103071930813],[-72.29986052016905,43.96494281359243],[-72.30100747764861,43.96454913717475],[-72.30202355891427,43.96438625358029],[-72.30288265417435,43.964620638267434],[-72.3047036363869,43.965533121379394],[-72.30825212687988,43.967506614358456],[-72.30764301798115,43.96658067397474],[-72.30829469516529,43.96485209459727],[-72.30880795578287,43.964145732775684],[-72.3091745533184,43.9633817964001],[-72.30943970888869,43.96304952885622],[-72.31002333062276,43.96281512060281],[-72.31031240439313,43.96310039875233],[-72.31089032884562,43.96321948812901],[-72.31106124790988,43.96312574125657],[-72.31231761926357,43.9639005070727],[-72.31270066226251,43.96349578783591],[-72.3182857823652,43.965291280841505],[-72.31896907182457,43.964239074577996],[-72.31936995113414,43.96412819992023],[-72.33078893675989,43.96799495625713],[-72.3307841162906,43.96925135395158],[-72.3316748951599,43.96959591681594],[-72.3303554890925,43.97135546917588],[-72.33000402802328,43.97216596879856],[-72.3310427864351,43.975043414863244],[-72.32589895507422,43.973597610349174],[-72.32493333073178,43.97559119158892],[-72.31606198206973,43.97292877934479],[-72.31602632605637,43.973047594841766],[-72.3178704111611,43.97575977432596],[-72.31832201102372,43.979176108357116],[-72.31824384169542,43.980893922432045],[-72.31692435999935,43.98423451428171],[-72.3151550915097,43.98719350492863],[-72.31283040918473,43.990038110997766],[-72.31153594991693,43.99179444289191],[-72.31007971771827,43.99355309997112],[-72.32801478037614,43.99724412927282],[-72.34595207389609,44.000932344287335],[-72.36389159630671,44.00461774393113],[-72.38183334563455,44.00830032712153],[-72.38189919207863,44.008172322099064],[-72.38284306288391,44.001953142596506],[-72.38554002209972,43.98424223743364],[-72.38905619677132,43.95915410620529],[-72.38751116023212,43.959452888758825],[-72.38439283642127,43.959245861332974],[-72.38130001200426,43.95846613056291],[-72.3779152805897,43.95690402167486],[-72.37566631888842,43.9549972790565],[-72.37331384667077,43.95436940281363],[-72.37138562521005,43.95469545026491],[-72.36940318053522,43.95414352360436],[-72.36604907631495,43.955043220135856],[-72.36560083223328,43.95567341331763],[-72.36301362104916,43.957164109986614],[-72.36007915195883,43.95598287525821],[-72.35640481933675,43.95464937132856],[-72.35146267644109,43.953488334083765],[-72.34667878705663,43.951926179581],[-72.34289957797125,43.95085951418253],[-72.33795700825829,43.9486863124232],[-72.33457303349195,43.94611131981183],[-72.3332228763605,43.942943579202016],[-72.3307113935691,43.94069252376218],[-72.32785621147572,43.93779261490568],[-72.3266119923292,43.93435753415411],[-72.32402090646791,43.93078938965288],[-72.3243876020516,43.926819203405],[-72.32639219491286,43.9237644998831],[-72.33027128091156,43.92051806584583],[-72.33092931996372,43.919893548064834],[-72.33106298554675,43.91985993590595],[-72.331254273677,43.91961726920108],[-72.3314064655035,43.919580851581784],[-72.3316901438173,43.91966189044705],[-72.33178622797347,43.9194963308491],[-72.33199858236274,43.919451898862505],[-72.3320595028292,43.91937518385857],[-72.33403923429215,43.92065586936066],[-72.33923619973575,43.92038310142155],[-72.34177386353345,43.923048317928],[-72.34366264316259,43.92361007157337],[-72.34387626976408,43.92331613225145],[-72.34425657846893,43.92324796501867],[-72.34438753683246,43.923136527363994],[-72.34467878688427,43.923055362411176],[-72.34496990600383,43.92301712011568],[-72.34530936919735,43.92266555386572],[-72.34584416063807,43.922567537277715],[-72.34603167158437,43.92240894374821],[-72.34641786516302,43.922362251181774],[-72.3465309987428,43.92225077539483],[-72.34674498014122,43.92218667134005],[-72.34730333692113,43.92216594844907],[-72.3474818017288,43.922058862963986],[-72.3480820628865,43.921905111158935],[-72.3484986105762,43.92158370439745],[-72.34885512313474,43.92152406492493],[-72.34937844760931,43.92126718194951],[-72.3499015069158,43.921109029212424],[-72.3501366953028,43.92109629637167],[-72.35022203733085,43.92052559221336],[-72.35055813875398,43.919933056357024],[-72.35053160846337,43.91903315240614],[-72.35037067002867,43.91865323826226],[-72.35050128151026,43.918174945606815],[-72.33837319676236,43.915421630936265],[-72.33187874461804,43.91394646599379],[-72.3180164298621,43.910796608618824],[-72.30894037210119,43.90873312994803],[-72.3087736585703,43.90869525563498],[-72.29382687284816,43.90529513270829],[-72.29006953434389,43.90444004773634],[-72.28473461745094,43.9032256980794]]]]}},{"type":"Feature","properties":{"OBJECT_ID":706,"County":"Orange","RPC":"TRORC","Municipal_Name":"Vershire","GEO_ID":"5001774950","District_Name":"Village","Abbreviated_District_Name":"Vil","District_Type":"Mixed with Residential","Bylaw_Date":"2024-06-06","Elderly_Housing_District":"No","District_Mapped":"Yes","Overlay_District":"No","Base_Density":null,"FIPS6":null,"GIS_ID":null,"Last_Update":null,"Shape_Length":5782.939748515143,"Shape_Area":1543892.4783615915,"F1F_Allowance":"Permitted","F1F_Front_Setback":null,"F1F_Side_Setback":null,"F1F_Rear_Setback":null,"F1F_Frontage":20.0,"F1F_Max_Height":35.0,"F1F_Max_Stories":null,"F1F_Min_Lot_Size":1.0,"F1F_Max_Lot_Building_Coverage":null,"F1F_Max_Lot_Impervious_Coverage":null,"F1F_Min_Parking_Spaces":2.0,"F1F_Elderly_Housing_Only":null,"F1F_Affordable_Housing_Only":null,"F2F_Allowance":"Permitted","F2F_Front_Setback":null,"F2F_Side_Setback":null,"F2F_Rear_Setback":null,"F2F_Frontage":20.0,"F2F_Max_Density":null,"F2F_Max_Height":35.0,"F2F_Max_Stories":null,"F2F_Min_Lot_Size":1.0,"F2F_Max_Lot_Building_Coverage":null,"F2F_Max_Lot_Impervious_Coverage":null,"F2F_Min_Parking_Spaces_per_1BR":2.0,"F2F_Min_Parking_Spaces_per_mult_BR":2.0,"F2F_Elderly_Housing_Only":"No","F2F_Affordable_Housing_Only":"No","F3F_Allowance":"Permitted","F3F_Front_Setback":null,"F3F_Side_Setback":null,"F3F_Rear_Setback":null,"F3F_Frontage":20.0,"F3F_Max_Density":null,"F3F_Max_Height":35.0,"F3F_Max_Stories":null,"F3F_Min_Lot_Size":1.0,"F3F_Max_Lot_Building_Coverage":null,"F3F_Max_Lot_Impervious_Coverage":null,"F3F_Min_Parking_Spaces_per_1BR":2.0,"F3F_Min_Parking_Spaces_per_mult_BR":2.0,"F3F_Affordable_Housing_Only":"No","F3F_Proximity_to_Public_Transit_Required":"No","F3F_Connection_to_Sewage/Water_Required":"No","F4F_Allowance":"Public Hearing","F4F_Front_Setback":null,"F4F_Side_Setback":null,"F4F_Rear_Setback":null,"F4F_Frontage":20.0,"F1F_Max_Density":null,"F4F_Max_Density":null,"F4F_Max_Height":35.0,"F4F_Max_Stories":null,"F4F_Min_Lot_Size":1.0,"F4F_Max_Lot_Building_Coverage":null,"F4F_Max_Lot_Impervious_Coverage":null,"F4F_Min_Parking_Spaces_per_1BR":2.0,"F4F_Min_Parking_Spaces_per_mult_BR":2.0,"F3F_Elderly_Housing_Only":"No","F4F_Elderly_Housing_Only":"No","F4F_Affordable_Housing_Only":"No","F4F_Proximity_to_Public_Transit_Required":"No","F4F_Connection_to_Sewage/Water_Required":"No","ADU_Allowance":"Allowed/Conditional","ADU_Elderly_Housing_Only":"No","ADU_Max_Size_as_Percent_of_Primary_Strcture":30.0,"ADU_Max_Size_in_sq_ft":null,"ADU_Min_Lot_Size":null,"ADU_Max_Bedrooms":1.0,"ADU_Min_Parking_Spaces":2.0,"ADU_Owner_Occupancy_Required":"Yes","ADU_Renter_Occupancy_Prohibited":"No","ADU_Employee_or_Family_Occupancy_Required":"No","ADU_Restricted_to_Primary_Structure":"No","Affordable_Housing_Allowance":"Not Mentioned","Affordable_Housing_District":"No","Affordable_Housing_Elderly_Only":"No","Affordable_Housing_Min_Lot_Size":null,"Affordable_Housing_Max_Density":null,"Affordable_Housing_Min_Parking_Spaces_per_mult_BR":null,"Affordable_Housing_Max_Units_per_Building":null,"Affordable_Housing_Min_Parking_Spaces_per_1BR":null,"PRD_Allowance":"Not Mentioned","PRD_Max_Density":null,"PRD_Max_Units":null,"PRD_Min_Lot_Size":null,"PRD_Mobile_or_Manufactured_Home_Park":"No","PUD_Allowance":null,"PUD_Required_with_Subdivision":null,"PUD_Requires_Land_Conservation":null,"PUD_Threshold_Number":null,"Notes":"None"},"geometry":{"type":"MultiPolygon","coordinates":[[[[-72.31606198206973,43.97292877934479],[-72.32493333073178,43.97559119158892],[-72.32589895507422,43.973597610349174],[-72.3310427864351,43.975043414863244],[-72.33000402802328,43.97216596879856],[-72.3303554890925,43.97135546917588],[-72.3316748951599,43.96959591681594],[-72.3307841162906,43.96925135395158],[-72.33078893675989,43.96799495625713],[-72.31936995113414,43.96412819992023],[-72.31896907182457,43.964239074577996],[-72.3182857823652,43.965291280841505],[-72.31270066226251,43.96349578783591],[-72.31231761926357,43.9639005070727],[-72.31106124790988,43.96312574125657],[-72.31089032884562,43.96321948812901],[-72.31031240439313,43.96310039875233],[-72.31002333062276,43.96281512060281],[-72.30943970888869,43.96304952885622],[-72.3091745533184,43.9633817964001],[-72.30880795578287,43.964145732775684],[-72.30829469516529,43.96485209459727],[-72.30764301798115,43.96658067397474],[-72.30825212687988,43.967506614358456],[-72.30868610210456,43.967782476747814],[-72.31262197388928,43.9702505172066],[-72.31632058422147,43.97207646264043],[-72.31629750890157,43.97214392309946],[-72.31606198206973,43.97292877934479]]]]}}]}