{"type": "FeatureCollection", "crs": {"type": "name", "properties": {"name": "urn:ogc:def:crs:OGC:1.3:CRS84"}}, "features": [{"type": "Feature", "properties": {"ABB_DIST_NAME": "IND", "Jurisdiction_County": "Orange", "Jurisdiction_District_Name": "Chelsea"}, "geometry": {"type": "Polygon", "coordinates": [[[-72.46615178653421, 43.95656525969726], [-72.4661751547867, 43.957925419706605], [-72.4661015443264, 43.96001794068392], [-72.465496852645, 43.9620405503737], [-72.46532746589426, 43.962720575487424], [-72.46479594252766, 43.96340048838309], [-72.46484371217502, 43.964272395246894], [-72.46423956219394, 43.965248726342395], [-72.46614677716589, 43.96538880988536], [-72.4695751208147, 43.965320022742915], [-72.47189297994682, 43.96504161104886], [-72.47437989137879, 43.964588812482006], [-72.47621484693774, 43.964310202903434], [-72.47812230325853, 43.96378744942056], [-72.48027125213859, 43.96295082358525], [-72.4812128951958, 43.96261966357296], [-72.48239611072933, 43.96173052147176], [-72.48379183874749, 43.96045427758268], [-72.4846572823674, 43.959561579506264], [-72.4856819190709, 43.958437783362335], [-72.48566648653716, 43.95843280966376], [-72.46935819037844, 43.953178941864806], [-72.46735322058271, 43.952535426424845], [-72.46417278490114, 43.95150773293683], [-72.46615178653421, 43.95656525969726]]]}}, {"type": "Feature", "properties": {"ABB_DIST_NAME": "MU", "Jurisdiction_County": "Orange", "Jurisdiction_District_Name": "Chelsea"}, "geometry": {"type": "Polygon", "coordinates": [[[-72.3876900595928, 44.00208352031999], [-72.38840151798833, 44.0019502958], [-72.38976225016074, 44.001862335309106], [-72.39081414814723, 44.001562021247295], [-72.39225293063834, 44.001055600399006], [-72.3935580248332, 44.00072550713823], [-72.39437999224354, 44.00037751545462], [-72.3957099184155, 43.99964635222301], [-72.3969251238228, 43.999302187982266], [-72.39853413717519, 43.99863401887565], [-72.39943169211568, 43.99812144533871], [-72.40147374148857, 43.99731969329998], [-72.40303625267825, 43.9966625807434], [-72.40379345354472, 43.9960967314754], [-72.40450617015289, 43.99588305437128], [-72.40576377414966, 43.99521270408276], [-72.40673475671909, 43.99433318732295], [-72.40786428450451, 43.99367565416839], [-72.40834670328782, 43.9916002522596], [-72.40741439933328, 43.99158276020624], [-72.40623128455474, 43.99132022945147], [-72.40475820020076, 43.99114463318779], [-72.39943723890794, 43.991907475615605], [-72.4000959901615, 43.98919390150447], [-72.39042069428486, 43.98590045433089], [-72.38940656649044, 43.98577741317704], [-72.38829672104434, 43.98518344910881], [-72.38554002334796, 43.984242236534875], [-72.38522673297413, 43.98628849096856], [-72.38435960254759, 43.99195651201225], [-72.38434773118604, 43.992035163025356], [-72.38433901735593, 43.99209275486293], [-72.38410804175136, 43.99361410176397], [-72.3837588290091, 43.99591996920806], [-72.38306135465521, 44.00051369589963], [-72.38293743132145, 44.00133159985337], [-72.38291418844003, 44.00148448992234], [-72.38284306662453, 44.00195314260034], [-72.38368630823851, 44.00174471007036], [-72.38455233666332, 44.001633987312154], [-72.3876900595928, 44.00208352031999]]]}}, {"type": "Feature", "properties": {"ABB_DIST_NAME": "RR", "Jurisdiction_County": "Orange", "Jurisdiction_District_Name": "Chelsea"}, "geometry": {"type": "Polygon", "coordinates": [[[-72.38200204189371, 44.00749444100443], [-72.38189919207863, 44.008172322099064], [-72.38578497686476, 44.009666618154384], [-72.38999242944344, 44.01117207208204], [-72.39328780731886, 44.01228042324966], [-72.39738822982278, 44.01372952196871], [-72.4015113928193, 44.01519829504106], [-72.40477081960323, 44.01636649375423], [-72.40862103646185, 44.017704367970055], [-72.41299413302167, 44.01921801629812], [-72.41822488182645, 44.021051440004534], [-72.42311857061755, 44.022776575050784], [-72.42688121473431, 44.02408506202197], [-72.43131232231102, 44.02564367478076], [-72.4356181042477, 44.02715101366709], [-72.43908202316273, 44.02835614794249], [-72.44300498120018, 44.02973151122997], [-72.44667796926417, 44.03100231011418], [-72.44958998202938, 44.03201156222876], [-72.45220899948667, 44.03292890595766], [-72.4546496180027, 44.03378941682343], [-72.45927062945766, 44.03542820041678], [-72.4641054584413, 44.03711285400386], [-72.4697023259419, 44.03913501257145], [-72.47461732498903, 44.04088836277484], [-72.47893542706642, 44.04236166834155], [-72.48352659504116, 44.0439472611506], [-72.48693731812311, 44.04512312203825], [-72.49038723192001, 44.04630158602031], [-72.49627211400248, 44.04832498374043], [-72.50242519408432, 44.050367064373155], [-72.50454316271438, 44.05107441072222], [-72.51438467549319, 44.054399870016354], [-72.52723005362479, 44.058759720105556], [-72.53821541380111, 44.062490638959574], [-72.53405796519608, 44.04831699841971], [-72.53224522007163, 44.04210381402543], [-72.52994016176893, 44.034113279385764], [-72.52686726075918, 44.0234661034212], [-72.52362453519879, 44.01232204843902], [-72.52079498233235, 44.002595341112155], [-72.51877857210539, 43.995649309735555], [-72.51545428034561, 43.98418349259399], [-72.51317954856403, 43.97632573921243], [-72.51028517909278, 43.96619631389873], [-72.4998536336807, 43.96299366464498], [-72.49453698761714, 43.96130426960201], [-72.48868216738954, 43.95940477777491], [-72.4856819190709, 43.958437783362335], [-72.4846572823674, 43.959561579506264], [-72.48379183874749, 43.96045427758268], [-72.48239611072933, 43.96173052147176], [-72.4812128951958, 43.96261966357296], [-72.48027125213859, 43.96295082358525], [-72.47812230325853, 43.96378744942056], [-72.47621484693774, 43.964310202903434], [-72.47437989137879, 43.964588812482006], [-72.47189297994682, 43.96504161104886], [-72.4695751208147, 43.965320022742915], [-72.46614677716589, 43.96538880988536], [-72.46423956219394, 43.965248726342395], [-72.46484371217502, 43.964272395246894], [-72.46479594252766, 43.96340048838309], [-72.46532746589426, 43.962720575487424], [-72.465496852645, 43.9620405503737], [-72.4661015443264, 43.96001794068392], [-72.4661751547867, 43.957925419706605], [-72.46615178653421, 43.95656525969726], [-72.46417278490114, 43.95150773293683], [-72.46224632733443, 43.95088517701411], [-72.4547035932235, 43.948442450997426], [-72.44961733701916, 43.946786063991546], [-72.44250762186795, 43.94448699822293], [-72.43635598330243, 43.942520676910526], [-72.42945173200688, 43.940289132958014], [-72.42506006592757, 43.93889317678552], [-72.41925367366456, 43.93704874510084], [-72.41355807409266, 43.935231910893535], [-72.40864707519218, 43.93365861303775], [-72.4048998366465, 43.932452210970546], [-72.4008980049588, 43.93113287102099], [-72.39728712755486, 43.92996863768099], [-72.39420148593622, 43.92898226606515], [-72.39176202278996, 43.93939426906426], [-72.3917379075801, 43.93957335181865], [-72.39157060399278, 43.94082018918181], [-72.39032014239436, 43.95003990984167], [-72.39001407734874, 43.952188350134605], [-72.38878673378743, 43.961113659162045], [-72.38876779118173, 43.96124891511677], [-72.38804740905891, 43.96638890614031], [-72.38730972414501, 43.97164992371859], [-72.38726032962423, 43.97200232577958], [-72.38711820319124, 43.973018047326505], [-72.387021558384, 43.973706651799766], [-72.38696230658192, 43.9741290659725], [-72.38609717505766, 43.98030085989628], [-72.38561582418264, 43.983733347954086], [-72.38559244438659, 43.98389983019147], [-72.38554002334796, 43.984242236534875], [-72.38829672104434, 43.98518344910881], [-72.38940656649044, 43.98577741317704], [-72.39042069428486, 43.98590045433089], [-72.4000959901615, 43.98919390150447], [-72.39943723890794, 43.991907475615605], [-72.40475820020076, 43.99114463318779], [-72.40623128455474, 43.99132022945147], [-72.40741439933328, 43.99158276020624], [-72.40834670328782, 43.9916002522596], [-72.40786428450451, 43.99367565416839], [-72.40673475671909, 43.99433318732295], [-72.40576377414966, 43.99521270408276], [-72.40450617015289, 43.99588305437128], [-72.40379345354472, 43.9960967314754], [-72.40303625267825, 43.9966625807434], [-72.40147374148857, 43.99731969329998], [-72.39943169211568, 43.99812144533871], [-72.39853413717519, 43.99863401887565], [-72.3969251238228, 43.999302187982266], [-72.3957099184155, 43.99964635222301], [-72.39437999224354, 44.00037751545462], [-72.3935580248332, 44.00072550713823], [-72.39225293063834, 44.001055600399006], [-72.39081414814723, 44.001562021247295], [-72.38976225016074, 44.001862335309106], [-72.38840151798833, 44.0019502958], [-72.3876900595928, 44.00208352031999], [-72.38455233666332, 44.001633987312154], [-72.38368630823851, 44.00174471007036], [-72.38284306662453, 44.00195314260034], [-72.38200204189371, 44.00749444100443]], [[-72.45046785951178, 43.99986393521759], [-72.44894458700013, 44.0016449314348], [-72.4487030156806, 44.00200651542631], [-72.44859122540493, 44.002515512669575], [-72.4481822700865, 44.00327889998957], [-72.44762525457907, 44.00355996160263], [-72.44489788538306, 44.00268793946941], [-72.44543678898086, 44.00192462685073], [-72.44595699896887, 44.00129526216208], [-72.44675584402239, 44.000357917614544], [-72.44710917201691, 43.99954092549245], [-72.44725873825656, 43.998295167064775], [-72.44690727111885, 43.99703577962184], [-72.44599912096635, 43.99577613000154], [-72.44512783756268, 43.99482459850265], [-72.44426070646473, 43.99422564485796], [-72.44367924003026, 43.99374524639961], [-72.44332348909883, 43.993196369873225], [-72.44332417443984, 43.99247620049794], [-72.44355156849493, 43.99046421202742], [-72.44391621714787, 43.98807691731802], [-72.44473443936123, 43.9850030321875], [-72.44514390960293, 43.98304091974522], [-72.44587132572799, 43.980065095587555], [-72.44605229902545, 43.97803981385772], [-72.45239600227853, 43.978993751865595], [-72.45185554729976, 43.982044473912396], [-72.4507489858587, 43.988114080288874], [-72.45028308740866, 43.99056283887351], [-72.45048415247444, 43.992823503183025], [-72.45071447039619, 43.99479114276886], [-72.45149598341162, 43.996424114995484], [-72.45271453076683, 43.99839132658386], [-72.45330754843489, 43.99943645879789], [-72.45284360581985, 43.99943626828214], [-72.45252841280802, 43.99907444543012], [-72.45202755095686, 43.99883310831487], [-72.45132214571817, 43.999100729832016], [-72.45046785951178, 43.99986393521759]]]}}, {"type": "Feature", "properties": {"ABB_DIST_NAME": "VIL", "Jurisdiction_County": "Orange", "Jurisdiction_District_Name": "Chelsea"}, "geometry": {"type": "Polygon", "coordinates": [[[-72.44710917201691, 43.99954092549245], [-72.44675584402239, 44.000357917614544], [-72.44595699896887, 44.00129526216208], [-72.44543678898086, 44.00192462685073], [-72.44489788538306, 44.00268793946941], [-72.44762525457907, 44.00355996160263], [-72.4481822700865, 44.00327889998957], [-72.44859122540493, 44.002515512669575], [-72.4487030156806, 44.00200651542631], [-72.44894458700013, 44.0016449314348], [-72.45046785951178, 43.99986393521759], [-72.45132214571817, 43.999100729832016], [-72.45202755095686, 43.99883310831487], [-72.45252841280802, 43.99907444543012], [-72.45284360581985, 43.99943626828214], [-72.45330754843489, 43.99943645879789], [-72.45271453076683, 43.99839132658386], [-72.45149598341162, 43.996424114995484], [-72.45071447039619, 43.99479114276886], [-72.45048415247444, 43.992823503183025], [-72.45028308740866, 43.99056283887351], [-72.4507489858587, 43.988114080288874], [-72.45185554729976, 43.982044473912396], [-72.45239600227853, 43.978993751865595], [-72.44605229902545, 43.97803981385772], [-72.44587132572799, 43.980065095587555], [-72.44514390960293, 43.98304091974522], [-72.44473443936123, 43.9850030321875], [-72.44391621714787, 43.98807691731802], [-72.44355156849493, 43.99046421202742], [-72.44332417443984, 43.99247620049794], [-72.44332348909883, 43.993196369873225], [-72.44367924003026, 43.99374524639961], [-72.44426070646473, 43.99422564485796], [-72.44512783756268, 43.99482459850265], [-72.44599912096635, 43.99577613000154], [-72.44690727111885, 43.99703577962184], [-72.44725873825656, 43.998295167064775], [-72.44710917201691, 43.99954092549245]]]}}]}