{"type": "FeatureCollection", "crs": {"type": "name", "properties": {"name": "urn:ogc:def:crs:OGC:1.3:CRS84"}}, "features": [{"type": "Feature", "properties": {"ABB_DIST_NAME": "SLO", "Jurisdiction_County": "Orange", "Jurisdiction_District_Name": "Brookfield"}, "geometry": {"type": "MultiPolygon", "coordinates": [[[[-72.58532346914421, 44.07344791100152], [-72.58448276630205, 44.0740777562591], [-72.58376326446499, 44.07531953121693], [-72.58573424388334, 44.07587092082927], [-72.59041483315004, 44.077163672249476], [-72.59062738672587, 44.0767022896349], [-72.59062563750446, 44.07555621152829], [-72.59015656483963, 44.07456780779835], [-72.58915811927933, 44.07391689849286], [-72.58819086608027, 44.073265956313044], [-72.58681911599652, 44.07308722964023], [-72.58532346914421, 44.07344791100152]]], [[[-72.63286131911752, 44.06370802079077], [-72.63248312128279, 44.06405363293199], [-72.63202580672738, 44.064701361566385], [-72.6316285758224, 44.06546407671793], [-72.63147062921327, 44.066197750889486], [-72.63125353766014, 44.06724790108853], [-72.63129413077637, 44.06756426280878], [-72.63151456638595, 44.068024239591814], [-72.63183467791852, 44.06845533654907], [-72.63173542010928, 44.068671183968426], [-72.63174167351154, 44.06897262773772], [-72.63180609768055, 44.06923948713257], [-72.63198554366056, 44.06956144110196], [-72.6320757695013, 44.06994792980458], [-72.63228089537569, 44.070334286335935], [-72.63252420138397, 44.07066536986339], [-72.63276728251027, 44.070895202682145], [-72.63304858524089, 44.07108817188738], [-72.63334244848815, 44.071189079728185], [-72.63363635540655, 44.07130839650134], [-72.63389200385578, 44.07144616619809], [-72.63414777824016, 44.07163916259178], [-72.63422462921228, 44.07174952807064], [-72.63454405327693, 44.07185960719629], [-72.6349145676868, 44.07197883042722], [-72.63515745520212, 44.072116612343876], [-72.63571964658288, 44.07230924229896], [-72.63616670517364, 44.07240075635075], [-72.6366517903779, 44.07237256303313], [-72.63735332137364, 44.0720863794173], [-72.63793981316721, 44.07174510301037], [-72.63854296105589, 44.0710218113711], [-72.63899968074182, 44.070129560850646], [-72.63905848028568, 44.06968364135511], [-72.63889694814665, 44.06884967062929], [-72.63873639480263, 44.0684327820484], [-72.63861466387183, 44.0675556158091], [-72.63919086735793, 44.06659130795927], [-72.63930909669912, 44.065972729223056], [-72.63944750614768, 44.065454801090915], [-72.63928635115259, 44.06477903408932], [-72.63906606952138, 44.06440536508975], [-72.63862665571187, 44.064147019383235], [-72.63816733345311, 44.06390307825899], [-72.6372095399397, 44.06373164603191], [-72.63627179652472, 44.063603328480944], [-72.63549365462308, 44.063489196276244], [-72.63525453676995, 44.06359015505441], [-72.63481537401427, 44.06343246981217], [-72.63409723605193, 44.06339016831628], [-72.63347914997746, 44.06349156754383], [-72.63286131911752, 44.06370802079077]]], [[[-72.61138611867982, 44.05911068845782], [-72.61082544193614, 44.05924606744852], [-72.6102339747124, 44.059583722670965], [-72.60964283128965, 44.06010115221761], [-72.60945663912888, 44.060528303474534], [-72.6087092917375, 44.06084362752395], [-72.60830568007552, 44.061675482822956], [-72.60821374368933, 44.062529514227556], [-72.60812245786117, 44.063743099123506], [-72.60812372584832, 44.06443973585123], [-72.60781317256443, 44.06504677928957], [-72.60728448953387, 44.065676498372696], [-72.606942511677, 44.06614873522687], [-72.60678805293881, 44.06691293367156], [-72.60703844035399, 44.067496976658035], [-72.60784952053004, 44.06790071277191], [-72.60940842447216, 44.06819136918731], [-72.61115308838765, 44.06780765782385], [-72.61230551311327, 44.067402031970545], [-72.61361130661777, 44.06571532613908], [-72.61454308462746, 44.06405145379296], [-72.61457199646642, 44.062882870363815], [-72.61425939929967, 44.06238879446877], [-72.61394671988677, 44.06184977379302], [-72.61394590094943, 44.061422802882525], [-72.6137881441467, 44.0604117103936], [-72.61360034798867, 44.059984925436744], [-72.61325673948292, 44.05955829379942], [-72.61272645740517, 44.05928915162716], [-72.61207169901925, 44.05911001802152], [-72.61138611867982, 44.05911068845782]]], [[[-72.6125133109724, 44.045468930625596], [-72.61251416170154, 44.04591837520758], [-72.61279537440741, 44.0463450708225], [-72.61285819908454, 44.046614675997226], [-72.61304569103615, 44.04690663033518], [-72.61329566972543, 44.04728841056429], [-72.6135763792477, 44.04744543839024], [-72.61379490534132, 44.04766994313736], [-72.61401364862296, 44.04800680967604], [-72.61429470914166, 44.04834361255335], [-72.61463773995784, 44.048500574481544], [-72.61494935552129, 44.048522733879246], [-72.61479396003831, 44.04872514067402], [-72.61479469789656, 44.04910716764714], [-72.61495152865952, 44.04964634411967], [-72.61517028578905, 44.04998320831208], [-72.6156384851056, 44.05040970798242], [-72.61604393623927, 44.05061154738995], [-72.61620021113086, 44.05085858309548], [-72.61648147372865, 44.05128526921337], [-72.61751033008466, 44.051598827587924], [-72.61825827467943, 44.051665472393324], [-72.61937972071247, 44.05152947310229], [-72.62003360047036, 44.05130406508336], [-72.62059363405322, 44.05089897530705], [-72.6219282352098, 44.0483581937942], [-72.62192722102516, 44.047863804680524], [-72.62264113913822, 44.04655964878399], [-72.62273326156233, 44.04590785474881], [-72.62254475108278, 44.04514399941657], [-72.62257599945451, 44.04518891089215], [-72.62276265403503, 44.045053876402854], [-72.62285546948955, 44.044739164354304], [-72.62285467994128, 44.04435713719959], [-72.62297902086426, 44.04422216932439], [-72.62319635966469, 44.043862378747896], [-72.62322635010587, 44.04330053920589], [-72.62344340406928, 44.04280591516793], [-72.62353626038195, 44.042513674906765], [-72.62418988314731, 44.04222082640392], [-72.62446989166443, 44.04204074342672], [-72.62487323864744, 44.0412537735004], [-72.62515262555412, 44.040781549511614], [-72.62558805612952, 44.040443987585526], [-72.62642808657971, 44.03992619774652], [-72.62689417679927, 44.03936387436184], [-72.6268307209694, 44.03882460970046], [-72.62658030839809, 44.038263079704684], [-72.62608087937183, 44.037791713373025], [-72.62539511994096, 44.037590217105254], [-72.62486516797334, 44.03741101907323], [-72.6238060222721, 44.03741217166087], [-72.62293383156512, 44.03743558595651], [-72.62203108806904, 44.03775116638978], [-72.62134662693863, 44.0381788688804], [-72.62103579519395, 44.03851628285229], [-72.61997676694, 44.038584816492346], [-72.61938564737414, 44.03896746497655], [-72.61873261877794, 44.039552425613415], [-72.61820369691272, 44.03989005822963], [-72.61764339358186, 44.04011535900597], [-72.61708326427285, 44.040430546915], [-72.61695953679367, 44.040880119453305], [-72.61680478620642, 44.04139714018084], [-72.61683748570783, 44.042183637441624], [-72.61680792113292, 44.04299266986332], [-72.61649690762525, 44.04326265477573], [-72.6155629739303, 44.04362315969745], [-72.61522057863921, 44.04378081122702], [-72.61465996726278, 44.0438712643161], [-72.61416166433793, 44.043961652412385], [-72.61378802217897, 44.04407438675276], [-72.61329023015247, 44.04443443785433], [-72.6126990946005, 44.044861995473994], [-72.6125133109724, 44.045468930625596]]], [[[-72.6090711004596, 44.03384689980886], [-72.60841353817516, 44.0340201130396], [-72.60789583566923, 44.034365777879984], [-72.60548889680082, 44.03735436159715], [-72.60517054228455, 44.03771363682576], [-72.60486484600276, 44.03801767177983], [-72.60466106336276, 44.038229565146636], [-72.60429112672934, 44.03828513116689], [-72.6037810729455, 44.03847889405831], [-72.6033860629228, 44.03879221058059], [-72.60309347876921, 44.03930793534748], [-72.6030810541534, 44.03950124407948], [-72.60308154888139, 44.039786587667585], [-72.60308188402375, 44.03997988487076], [-72.60280203674137, 44.04048639282151], [-72.60264973938426, 44.04096517210882], [-72.60230622403583, 44.041554577963225], [-72.60221720061332, 44.04172954615054], [-72.60216666572708, 44.04202413974146], [-72.60207797309948, 44.04239240493395], [-72.60200196214831, 44.04271463547741], [-72.60183635596901, 44.042880467210175], [-72.60165800530135, 44.043055514504864], [-72.60070426503883, 44.045016947961614], [-72.60052629379753, 44.045422109163965], [-72.60047577729559, 44.045735111625014], [-72.6005273834749, 44.046066433162046], [-72.60061716498335, 44.046333288915264], [-72.60089846453249, 44.04665520327973], [-72.60121791149793, 44.04689424120185], [-72.60166494759096, 44.04711475584099], [-72.60199697204195, 44.04724332505643], [-72.60237990240812, 44.04728900576295], [-72.60276299250037, 44.047426731437746], [-72.60304394181965, 44.047536933711775], [-72.60338862232098, 44.04760105534414], [-72.60372042833501, 44.047600754610116], [-72.60425621266847, 44.047480606294236], [-72.60471537731745, 44.04733291233349], [-72.60509774069052, 44.047056422056535], [-72.6055819146241, 44.04662335791832], [-72.60586175185293, 44.04610763835235], [-72.60603957381367, 44.04563803689276], [-72.60616086913811, 44.04522601667354], [-72.60623944464947, 44.04456435988144], [-72.6062981822593, 44.043960250448656], [-72.6064574371527, 44.04381627959159], [-72.60693574051243, 44.0436863926015], [-72.60749371944273, 44.04351328189615], [-72.6077127607571, 44.04335487075461], [-72.60791165324358, 44.04308142014115], [-72.60807035281574, 44.04263542006073], [-72.60808979457377, 44.042362137799614], [-72.60808919313062, 44.04203134633473], [-72.60812870372307, 44.04182995726715], [-72.608307257931, 44.04134079117484], [-72.6084656088005, 44.04070782128393], [-72.6087035232477, 44.03997409955858], [-72.60890226817432, 44.03962873585615], [-72.60926061641185, 44.039340748350504], [-72.60961906724576, 44.039110288688924], [-72.60989686204863, 44.03839090827706], [-72.61013525578234, 44.037930446007934], [-72.61077090972915, 44.036678573611454], [-72.6111682437379, 44.03593030929072], [-72.61150567852388, 44.03513895512371], [-72.61132536511043, 44.03466451569142], [-72.61096587412223, 44.03431969063507], [-72.61040692343212, 44.033917528208804], [-72.60964915515635, 44.03380319967166], [-72.6090711004596, 44.03384689980886]]], [[[-72.60790335882375, 43.99455097631219], [-72.60715654794282, 43.99470898621616], [-72.60675235410076, 43.99497903422779], [-72.60647283568956, 43.99533885456749], [-72.60578810962062, 43.995406907758365], [-72.60500999409194, 43.9954750436123], [-72.60441896927193, 43.995722782193944], [-72.60385934263398, 43.99612779711772], [-72.60348656684765, 43.99657758467276], [-72.6034565701299, 43.99722931261339], [-72.60355066425213, 43.997633732138766], [-72.60373795580152, 43.99792570445792], [-72.6039874722348, 43.998195147157595], [-72.6042680828484, 43.99844208824598], [-72.60420637220447, 43.99875675939321], [-72.6044249203337, 43.99911611915818], [-72.60461202341665, 43.9992957276445], [-72.60417642038749, 43.999430959910796], [-72.60389662900751, 43.99965593965228], [-72.60364824138492, 44.00003819625429], [-72.60352449575748, 44.00048775835197], [-72.60361879109416, 44.00100453897138], [-72.60399300666813, 44.00136375814371], [-72.60430472581147, 44.00158819801573], [-72.60439859618698, 44.0018577816226], [-72.60464825063019, 44.00219464056996], [-72.60492888286375, 44.0024415798407], [-72.60533405011208, 44.00268840367222], [-72.60573906105635, 44.00284533644016], [-72.60598864720944, 44.00313724713463], [-72.60639398299388, 44.00347395767253], [-72.60707916492576, 44.00360815177768], [-72.60782645393837, 44.00365239432953], [-72.6087288792487, 44.003404341659696], [-72.60950651535278, 44.003021568233294], [-72.61015919180214, 44.002414184268545], [-72.61053174497646, 44.0018520131775], [-72.61059250820212, 44.00104294633516], [-72.61024930407325, 44.00063877439261], [-72.6106221793596, 44.00025638212754], [-72.61083947475106, 43.99991908500246], [-72.61105597124512, 43.9991548109217], [-72.61133459859586, 43.99832305865673], [-72.61148936965094, 43.99785098588066], [-72.61130182906949, 43.99744666487728], [-72.61111437615828, 43.99708728792791], [-72.61105152828598, 43.99677273408877], [-72.61101939230694, 43.99623342615267], [-72.61089386870556, 43.99569420883063], [-72.61045693068276, 43.99508787560476], [-72.6099272362734, 43.99481871678247], [-72.60936654249177, 43.99461700236089], [-72.60899287172626, 43.994549942222214], [-72.60843250974882, 43.994528002678344], [-72.60790335882375, 43.99455097631219]]]]}}, {"type": "Feature", "properties": {"ABB_DIST_NAME": "FHO", "Jurisdiction_County": "Orange", "Jurisdiction_District_Name": "Brookfield"}, "geometry": {"type": "MultiPolygon", "coordinates": [[[[-72.52797226852897, 43.97872884917318], [-72.5278705716228, 43.979327183715725], [-72.52774820894919, 43.98003367748733], [-72.52711141907766, 43.98129948321192], [-72.52661395475701, 43.98239266376788], [-72.5265146952912, 43.98314057234242], [-72.52665445456788, 43.9838740437103], [-72.52673425308444, 43.98414729086058], [-72.52711286576988, 43.98447799705886], [-72.5274317446914, 43.98485186356534], [-72.52773074167725, 43.98529764602004], [-72.52789040701445, 43.985959197838454], [-72.52775150546464, 43.98710982397034], [-72.52751283028759, 43.987900913771746], [-72.52749315562767, 43.988433067298104], [-72.52741383777605, 43.9892241182508], [-72.52701622516287, 43.99099324752695], [-72.52669794784866, 43.992028854516946], [-72.52647924409635, 43.99300690784829], [-72.52620070916439, 43.99385553376274], [-72.52614128321346, 43.99463219613197], [-72.52612171398751, 43.99543761402144], [-72.52594149274607, 43.996194527403304], [-72.52559925821961, 43.99664405393799], [-72.52494579968868, 43.99729590019047], [-72.5243856371726, 43.99774547037885], [-72.52441684185199, 43.997925243405646], [-72.52513294321018, 43.998149813176674], [-72.52516420734985, 43.99846442027871], [-72.52494653415846, 43.9990487523676], [-72.5246043500248, 43.99967805532243], [-72.52423108125444, 44.00044219803835], [-72.5242313465253, 44.001093899252744], [-72.52460526027684, 44.001880355657164], [-72.52516589828744, 44.00246451664198], [-72.52557099454157, 44.00331837991823], [-72.52591386564855, 44.00423967284444], [-72.52635008966627, 44.00502610805353], [-72.52672388460051, 44.00543052456166], [-72.52706665287745, 44.006059672816605], [-72.52737828119355, 44.00666635388855], [-72.52818821472319, 44.007542581272176], [-72.5284997331063, 44.00787959009978], [-72.52906041099494, 44.00835136992517], [-72.52934087943393, 44.008845691907595], [-72.52949671787907, 44.00916026517234], [-72.52980816334247, 44.00931749192987], [-72.53039979452308, 44.00938475306361], [-72.53046195356568, 44.00916001189522], [-72.53008803027856, 44.00859830121045], [-72.52980764559541, 44.00828376038267], [-72.52940264223396, 44.007811944261384], [-72.52893526535877, 44.00711541868602], [-72.52840567135893, 44.006508796308516], [-72.52812522045939, 44.006014471822866], [-72.52772017261837, 44.0053853427663], [-72.52731510365045, 44.004688795131614], [-72.52681665164623, 44.00401473969444], [-72.52659853255582, 44.00361028725222], [-72.52647368791045, 44.00291366993443], [-72.52628666025471, 44.002396847168974], [-72.52591290691247, 44.00203737344493], [-72.52563243973282, 44.00140820822314], [-72.5253209702117, 44.001071191183364], [-72.52522743054644, 44.000734124461395], [-72.52528952372799, 44.00032960706981], [-72.52563180111589, 43.99992502620042], [-72.52594292239108, 43.999475506896275], [-72.52625405012678, 43.99904845938974], [-72.52650293059655, 43.99866636992707], [-72.52662720379557, 43.998104529325516], [-72.52662687212836, 43.99736293793786], [-72.52678222135404, 43.99668872813884], [-72.5267820292906, 43.99626175153994], [-72.52706191235173, 43.99563245646041], [-72.52721741525738, 43.99531780448143], [-72.5270303438269, 43.99466614696157], [-72.52696788159051, 43.99421671222589], [-72.52712331089155, 43.99374475319841], [-72.52730990756721, 43.99336267729162], [-72.52743402751578, 43.99250869283666], [-72.52749598177007, 43.99185697569027], [-72.52762020015257, 43.991227716112995], [-72.52780674378856, 43.990755748382156], [-72.52799332547686, 43.99037367026253], [-72.52811760978999, 43.98990171809085], [-72.52830413465566, 43.989407276723135], [-72.528552864745, 43.98882293039205], [-72.5287082011896, 43.988216133340316], [-72.52883245358635, 43.98769923476771], [-72.52908117136784, 43.98711488621456], [-72.5291743053693, 43.98662046781743], [-72.52920518683185, 43.986126064331245], [-72.52886252293331, 43.98551939389477], [-72.52864440495965, 43.98500258125794], [-72.52764801006035, 43.9840814534243], [-72.52758559593116, 43.983721908247915], [-72.52761647991701, 43.98320503309431], [-72.52786529600954, 43.98284541146306], [-72.52817622748981, 43.98221610459528], [-72.52817589798285, 43.98151945664333], [-72.52848695772305, 43.981182291837584], [-72.5284867642919, 43.98077778593247], [-72.528517660461, 43.98030585487646], [-72.52879748289418, 43.9797439720722], [-72.52904624454389, 43.979316930286664], [-72.52913934344983, 43.97877756572658], [-72.52923159959957, 43.9784215708685], [-72.52942022894342, 43.97787589572767], [-72.52965896041384, 43.97732930180145], [-72.5298977825755, 43.9769696788677], [-72.53023624898934, 43.976739470944814], [-72.53095302924115, 43.97632218856455], [-72.53162998211833, 43.97593367755147], [-72.53198849117595, 43.97596234260233], [-72.53254608532667, 43.97584712568509], [-72.53276503789576, 43.97561694420798], [-72.53330268702818, 43.975458582014326], [-72.53370090433354, 43.97527149363379], [-72.53403940392008, 43.975141951396886], [-72.53439771010278, 43.97482543056175], [-72.53487553274407, 43.97455201946956], [-72.535233958504, 43.97445123246255], [-72.5356521734234, 43.97442233786142], [-72.53626943209339, 43.97420640706749], [-72.53662774732673, 43.973933026492254], [-72.5369462370883, 43.97367404010159], [-72.53703306242218, 43.973570923764505], [-72.53682478917911, 43.973514100352936], [-72.53645600224688, 43.973412468726124], [-72.5364340980547, 43.97345582102975], [-72.53623839711295, 43.97357959562326], [-72.53593661486528, 43.973650383584825], [-72.53558586808691, 43.9736858392371], [-72.53506385270084, 43.97378614846583], [-72.53465610051266, 43.97399245921912], [-72.53425649694913, 43.9741869847108], [-72.53384061567688, 43.97445220535611], [-72.53366125008023, 43.97462899037479], [-72.53328609622007, 43.97479404915774], [-72.53295167479928, 43.974864838725125], [-72.53223382082666, 43.97488860711042], [-72.5315650079539, 43.97509498104587], [-72.5309696046914, 43.97528954803067], [-72.5306271435054, 43.975601866018955], [-72.53019594933107, 43.97581900609745], [-72.52969817744021, 43.97609240274815], [-72.5290211330995, 43.976322695605106], [-72.52838438933802, 43.97754536195669], [-72.52800642889864, 43.97852346015224], [-72.52803151218684, 43.97852315249205], [-72.52797226852897, 43.97872884917318]]], [[[-72.66871879699957, 44.01896949443798], [-72.66894723789535, 44.019221970697934], [-72.66921035602738, 44.019347988239936], [-72.66942106705717, 44.01952464601306], [-72.6694391244591, 44.01971423002923], [-72.66935222074873, 44.01995453277199], [-72.66914269430248, 44.02019501612956], [-72.66893302259518, 44.020384937096594], [-72.66879384955843, 44.0207264419736], [-72.66883046344113, 44.021282579342596], [-72.66888531380728, 44.022091503378185], [-72.66904487978744, 44.02276122479675], [-72.66911595942652, 44.02311505943286], [-72.66937970700697, 44.023455966876455], [-72.6697488569644, 44.02389784420749], [-72.67003099759671, 44.02454210032685], [-72.67026029767379, 44.025085309190125], [-72.67043745431819, 44.025771687546225], [-72.67057455332406, 44.02666138740013], [-72.67074469013663, 44.027340696921776], [-72.67094788855924, 44.02781770627056], [-72.67122981198061, 44.028375497229675], [-72.67139907531924, 44.02874738488406], [-72.67153495907992, 44.029208313499474], [-72.67165944485546, 44.02960453872353], [-72.6717502233533, 44.02997654366528], [-72.67182108082348, 44.03030705432973], [-72.67249276090094, 44.029244430197444], [-72.67228585096028, 44.02883655883093], [-72.67198614544445, 44.0281923352112], [-72.67173900701171, 44.02754803173077], [-72.67142208580209, 44.02700495756541], [-72.67127992815759, 44.0263099323457], [-72.6713484751971, 44.02577892012888], [-72.67138234827414, 44.025374367505066], [-72.67129329658782, 44.024868873053826], [-72.67125238604696, 44.02453269174464], [-72.67092598173386, 44.02409631750261], [-72.67059951261803, 44.02363567337149], [-72.67040817040598, 44.023377077358795], [-72.67015013590635, 44.023320830894214], [-72.67001531688467, 44.02322395099971], [-72.66970037163163, 44.02286845704615], [-72.66974471064346, 44.02269041054656], [-72.66976630351479, 44.022399136674956], [-72.66965349452312, 44.02215660227915], [-72.6695180795979, 44.02184938179749], [-72.6693604740759, 44.02162309409417], [-72.66937053427964, 44.02121857616481], [-72.66939421591466, 44.020715987163584], [-72.66948668349126, 44.02043108018815], [-72.66970845039683, 44.02019775748765], [-72.66978691826137, 44.020037134076645], [-72.66978635678633, 44.01984038517135], [-72.66967802104662, 44.01959201911416], [-72.66967731228155, 44.019343494064444], [-72.66971299563822, 44.01927613127585], [-72.66989928138818, 44.01918265735816], [-72.66996364953268, 44.019110074917315], [-72.66994896003861, 44.018991010622386], [-72.6700922533803, 44.018918310685294], [-72.67023584265606, 44.01894916282959], [-72.67056645800349, 44.01914541953083], [-72.67071036004178, 44.019285001122135], [-72.67105550687712, 44.01954336665923], [-72.67119220586864, 44.01967260278826], [-72.67127857598423, 44.01976567040693], [-72.67151550374554, 44.01981709133843], [-72.6717958280759, 44.019987532662775], [-72.6717745560107, 44.020075583884584], [-72.67183266085817, 44.02031884567111], [-72.67220641428662, 44.020540920863205], [-72.67242926635024, 44.02068555904981], [-72.67301817790508, 44.020871063776454], [-72.67326949273959, 44.02093281399987], [-72.67331959815188, 44.02089131729908], [-72.67331204681939, 44.020761887919534], [-72.67323260634004, 44.02058596903193], [-72.67295955589358, 44.020451764036636], [-72.67262187139886, 44.02029694569793], [-72.67226251250005, 44.02009038269631], [-72.67195540630841, 44.01983134797367], [-72.67168095582494, 44.019574995811155], [-72.67124222678305, 44.019299139267005], [-72.67107754717019, 44.019141376653714], [-72.67074836310981, 44.01888510505807], [-72.6702822733277, 44.0186092847782], [-72.66992600639662, 44.018451805852614], [-72.66943283508974, 44.018274778866555], [-72.66913125735402, 44.01809746539994], [-72.66858351831127, 44.01797976832514], [-72.66789876394274, 44.01780301631419], [-72.66726880980185, 44.0176459309256], [-72.66688574093139, 44.0176859938648], [-72.6663383413812, 44.01768679208448], [-72.66600990213914, 44.017687269756784], [-72.66548948774702, 44.01754976719206], [-72.6649962275238, 44.01733321746546], [-72.66472214659952, 44.01719535541059], [-72.66453028449713, 44.017096876222205], [-72.66428303106312, 44.016761463208596], [-72.66389882335744, 44.01638674338046], [-72.66331884566853, 44.01624617705004], [-72.66229218622125, 44.01599911367137], [-72.66197618965396, 44.01588565367977], [-72.6617104888949, 44.01579801072952], [-72.66150211399199, 44.01568439705478], [-72.66134390780887, 44.015550001792775], [-72.66108531300394, 44.015436459156966], [-72.66077656775184, 44.015348873804946], [-72.6604678221618, 44.015261288517735], [-72.66005356404884, 44.0151905294275], [-72.66005388123557, 44.01519021847607], [-72.6600514719104, 44.01518935333113], [-72.6596480311275, 44.015114343919365], [-72.65922776679771, 44.01504891204723], [-72.6592281533618, 44.01504982502945], [-72.65897481788832, 44.015004493642785], [-72.65842212878533, 44.01491206325552], [-72.65805600691833, 44.014829727901876], [-72.65739543040705, 44.01463388985489], [-72.65721576677609, 44.0145202287843], [-72.65717951138069, 44.01437530512391], [-72.65696368983056, 44.01415296277626], [-72.6566907600627, 44.01403942985713], [-72.65650404745264, 44.0139723758997], [-72.65646062071454, 44.01382746181965], [-72.65648896410235, 44.013692804185546], [-72.65645981754783, 44.01352198233828], [-72.65636612819365, 44.0133616035657], [-72.65622200227453, 44.01311845125503], [-72.65596771574549, 44.012844222050134], [-72.6557746155453, 44.012680156040126], [-72.65563399762976, 44.01249073663278], [-72.65552824478806, 44.01223806651254], [-72.65551010315754, 44.0119979169719], [-72.65531674305149, 44.01173272503912], [-72.6550886852184, 44.011593986946586], [-72.65491304198689, 44.0114046141513], [-72.6547900105715, 44.01124045141402], [-72.6546143352486, 44.011038437392166], [-72.65435115483281, 44.010861822934515], [-72.65419306243676, 44.01068506609686], [-72.65403490679745, 44.01048302841992], [-72.65387675223089, 44.01028098961532], [-72.6537887540719, 44.0101167785812], [-72.65371807511973, 44.009876699367], [-72.65366484723353, 44.009611315926556], [-72.65369912420206, 44.00932053316743], [-72.65371601833323, 44.00908033608339], [-72.65364553795392, 44.00891610133569], [-72.65343474838808, 44.008676210217295], [-72.65294376762236, 44.00844933580218], [-72.65217279243308, 44.00831131724817], [-72.65154148293871, 44.007996137958706], [-72.65131335182058, 44.007819469916406], [-72.65110251135788, 44.00755429290194], [-72.65113702561669, 44.00735199614231], [-72.65127588221425, 44.006858823584466], [-72.65129249629128, 44.00650486074455], [-72.651186451509, 44.00612577862634], [-72.65111556444373, 44.00579721313424], [-72.65100961826488, 44.00545605310843], [-72.65088651381873, 44.00525396365538], [-72.65079856339536, 44.005102390920975], [-72.65085043024608, 44.0048368671944], [-72.6510075659621, 44.004647048335144], [-72.651176322313, 44.00453590643067], [-72.6510847538219, 44.00441731910288], [-72.65058001954469, 44.00427996966626], [-72.65055146184582, 44.004344272494066], [-72.65044667284086, 44.00445817694189], [-72.65035958679245, 44.00464790287632], [-72.65025482879393, 44.004774447914336], [-72.65034312728395, 44.005065068654744], [-72.65039630555542, 44.00531781400999], [-72.65060726285574, 44.00563355462302], [-72.65046776447768, 44.00587391291625], [-72.65036335455606, 44.00613950557864], [-72.65045149711479, 44.00636692322415], [-72.65048709947321, 44.00659440910324], [-72.65057546577557, 44.006910311097904], [-72.65057645708377, 44.00730217303097], [-72.65054206883211, 44.00755503268436], [-72.65056015828777, 44.00778254246585], [-72.65075325898071, 44.00795925823763], [-72.65103389913335, 44.008123217191525], [-72.65129699457718, 44.00827455787939], [-72.65154283467076, 44.00852704638175], [-72.65192859613651, 44.00870350445424], [-72.65224414228373, 44.00881685167903], [-72.65238483779979, 44.009044196789134], [-72.65275364348597, 44.00943556741848], [-72.65312248529858, 44.00983957668318], [-72.65326279597896, 44.0099152333714], [-72.65342114424601, 44.01019311668437], [-72.65349169073, 44.010382633045616], [-72.65356230414379, 44.010597430866866], [-72.65373800600088, 44.010812087286084], [-72.65394873897652, 44.01102669533258], [-72.65415953896255, 44.011266585388654], [-72.6542650876636, 44.01144341320759], [-72.65454627913692, 44.01180961364607], [-72.65459948135725, 44.012062356711], [-72.65472261254605, 44.012264441883204], [-72.65507360755448, 44.012529420961606], [-72.65531938230083, 44.01274397974992], [-72.65546033127995, 44.01305980613107], [-72.65563584891282, 44.01319861502427], [-72.6557765677818, 44.01342595664888], [-72.65598708544145, 44.01355207647694], [-72.65600509818108, 44.013741662880726], [-72.65598814574666, 44.013956577700654], [-72.65598867590877, 44.0141588287517], [-72.65607688506793, 44.014398882434584], [-72.65616506176548, 44.014626294392585], [-72.65632363416829, 44.01498001788552], [-72.65649965816249, 44.01530843565544], [-72.6567104836344, 44.0155483207874], [-72.65692141081182, 44.01582612684519], [-72.65706244236637, 44.01616723253908], [-72.6572033073148, 44.01644513433358], [-72.65715122514949, 44.01662217609249], [-72.65699447776421, 44.01696369099969], [-72.65783584298426, 44.0171774242942], [-72.65797527207265, 44.016911776007134], [-72.65793956770766, 44.016659011445284], [-72.65792148079869, 44.016444143973175], [-72.65778061250107, 44.01616624306899], [-72.65751723142893, 44.01592643240365], [-72.6573415676554, 44.01573706441605], [-72.65730610061644, 44.015572783899124], [-72.65774356902152, 44.015407851418594], [-72.65807597159484, 44.015255702554064], [-72.65849632344188, 44.01524248033804], [-72.65882929798664, 44.01530522100737], [-72.65914465561222, 44.015330063776894], [-72.65935086013265, 44.015339514602715], [-72.65935132451537, 44.01534061108017], [-72.65943156829034, 44.01534321360182], [-72.65951253963746, 44.01534692387675], [-72.6595117334922, 44.015345812576726], [-72.65958245568913, 44.015348106077305], [-72.65980757769573, 44.01536843880526], [-72.65982736425072, 44.0153727933294], [-72.65996808135819, 44.01539211785135], [-72.6603886722243, 44.01546737206247], [-72.66084450166029, 44.01561841985577], [-72.66119540797544, 44.015832817840355], [-72.66142373632887, 44.01606002876958], [-72.6618619877083, 44.01618581574544], [-72.6624929209072, 44.0163113271773], [-72.66293107254849, 44.016399187828135], [-72.66352756775022, 44.01673963511153], [-72.66389628554077, 44.01705512464784], [-72.66412469863049, 44.01730761157736], [-72.66447517122135, 44.01735767074827], [-72.66489623704756, 44.01759723695124], [-72.66517706686977, 44.01779908295867], [-72.6656330318504, 44.017988033737424], [-72.66615860889881, 44.01801255220005], [-72.66661401226693, 44.017999248245744], [-72.66712171778023, 44.01789738050465], [-72.66761258121383, 44.01803570919762], [-72.66848928415845, 44.01833779763137], [-72.66866481189597, 44.018463945579946], [-72.66866549273095, 44.018704117629966], [-72.66871879699957, 44.01896949443798]]], [[[-72.67148005995466, 44.03047673407263], [-72.67048461390796, 44.030924074721064], [-72.66962861430854, 44.031342435145916], [-72.6693905440251, 44.03174549240524], [-72.66919266794923, 44.03226354791747], [-72.66881520782404, 44.03272434027891], [-72.66863738126766, 44.033285511967044], [-72.66847883503074, 44.033616538376116], [-72.66830043279407, 44.033976358359546], [-72.66838103062493, 44.034278267520186], [-72.6687006147845, 44.03449353031004], [-72.66901803259908, 44.034741131231584], [-72.67177030517145, 44.03038738079862], [-72.67148005995466, 44.03047673407263]]], [[[-72.60340224056571, 44.04121589519731], [-72.60352244541109, 44.04154657842977], [-72.60370251685414, 44.04190597172089], [-72.60366334231965, 44.0423087106247], [-72.60362524528406, 44.04332988660375], [-72.60336631535321, 44.04348832600491], [-72.60310723436804, 44.04356047139807], [-72.60274870659431, 44.04377652826471], [-72.60278905709832, 44.0440497548742], [-72.60288907615828, 44.044236634195684], [-72.60286946055905, 44.044423621199876], [-72.60263081075777, 44.044783392229235], [-72.60247186631044, 44.04511432676939], [-72.60217344207571, 44.045502914903025], [-72.60215426871926, 44.04594878190671], [-72.60201535708661, 44.046337226839576], [-72.6016771175718, 44.04676899589028], [-72.6013787289113, 44.04718634630428], [-72.60112006982044, 44.04751736725957], [-72.60086121260429, 44.04773332979855], [-72.60050252991675, 44.04787746835731], [-72.60036336014457, 44.04812208890502], [-72.60024439659544, 44.048524896259394], [-72.60050406205487, 44.04878354856848], [-72.60080312345139, 44.048754520613734], [-72.60156037734532, 44.04846620507314], [-72.60199847756489, 44.04812064087592], [-72.60229716358758, 44.04787587562532], [-72.60269525041274, 44.04745843329491], [-72.60323276242406, 44.0469545701546], [-72.60355125221021, 44.046637872425514], [-72.60382998451688, 44.046393121187855], [-72.60398892480576, 44.04606218483678], [-72.60434695688541, 44.045558479546365], [-72.60426674440635, 44.04529967219903], [-72.60434589651669, 44.04495442581848], [-72.60434531585261, 44.04462363446413], [-72.60456383838095, 44.044163202465164], [-72.60488233151662, 44.04386088312698], [-72.60510107594165, 44.04352989016828], [-72.60524021549108, 44.04328526368228], [-72.60545898132428, 44.04296865224592], [-72.60571792898452, 44.0428245903328], [-72.6060167782945, 44.04269487307263], [-72.60633535908194, 44.04245007767303], [-72.60631518904522, 44.042320656086225], [-72.60617518282024, 44.042076287817586], [-72.60615493621614, 44.0419037194759], [-72.60637374357299, 44.04161587070106], [-72.60655264668713, 44.041313676449406], [-72.6067114033952, 44.04089644259574], [-72.60675086625987, 44.04066628947642], [-72.60683012704047, 44.0403929523288], [-72.60686948570421, 44.04010527017533], [-72.60690879226588, 44.03978882350574], [-72.60704791564734, 44.03954419467384], [-72.607186908242, 44.03922765443597], [-72.6073262368673, 44.03909808321133], [-72.60766478244514, 44.0388820306377], [-72.60782394219994, 44.038694911024905], [-72.60796313761028, 44.03849342777934], [-72.60812211230935, 44.03820563200737], [-72.60824102813545, 44.03781719804408], [-72.60843984725545, 44.037514981767885], [-72.60899678842065, 44.03680972033899], [-72.60927521440621, 44.03643551520145], [-72.60949382767176, 44.036061366696835], [-72.60967232688932, 44.035557815751176], [-72.60959213132008, 44.03531339395192], [-72.60939258455382, 44.03521290922107], [-72.6091534830922, 44.035285049295204], [-72.60897432134895, 44.03542904311228], [-72.60869568784487, 44.0356881895509], [-72.60841713058285, 44.03599048206029], [-72.60823851471825, 44.036436502010794], [-72.60803964590431, 44.03670995348842], [-72.60768159408558, 44.03715614204592], [-72.60738303597574, 44.03742968625673], [-72.60690545624122, 44.03793351369527], [-72.60650741112894, 44.038322206803734], [-72.60628866793199, 44.03863882048336], [-72.605950118729, 44.0388548689924], [-72.60549194255687, 44.039071027004894], [-72.60515328624923, 44.0392295441565], [-72.60479456385931, 44.03931616735851], [-72.60451564110761, 44.03943148100228], [-72.60429658046797, 44.03957550387207], [-72.60417728255239, 44.03976258220425], [-72.60433696043702, 44.0398631123777], [-72.60457641503154, 44.03997795160313], [-72.60473622085223, 44.040150392435905], [-72.60471668838368, 44.04038052661589], [-72.60455759022065, 44.04061078858888], [-72.60445833013362, 44.04085537790511], [-72.60409989912365, 44.04111458582003], [-72.60388068049755, 44.04117231440494], [-72.60376100155113, 44.041143658624684], [-72.60374086266297, 44.0410286187904], [-72.60366083451011, 44.04087048650507], [-72.60322189835463, 44.04069829670764], [-72.60300238139418, 44.040583436685694], [-72.60254353619887, 44.04042564448676], [-72.6023837359908, 44.04025320059015], [-72.60220402367551, 44.04009515654618], [-72.60194448748936, 44.03989403666171], [-72.60156552383908, 44.03980808055571], [-72.60110668843419, 44.03965028255573], [-72.60074766513087, 44.03956430608584], [-72.6002492497134, 44.039579126761204], [-72.59955148215413, 44.039608501403286], [-72.59927247579634, 44.03968065550891], [-72.59903320032134, 44.03966648088886], [-72.59875388250148, 44.03955166450124], [-72.5986141511826, 44.03945110930482], [-72.59845443643495, 44.039321806617956], [-72.59819503506532, 44.039192589422974], [-72.59795543007007, 44.03897706104236], [-72.59775563050997, 44.03871835128693], [-72.59763551070908, 44.038416426292265], [-72.59733591111947, 44.038085889652876], [-72.59697629279826, 44.03762596270132], [-72.59649717604151, 44.03723804694441], [-72.59599831462019, 44.03696520395017], [-72.59553942346537, 44.036749854454044], [-72.59512015569702, 44.036376265078324], [-72.59480085033752, 44.03617517857692], [-72.59448152428455, 44.03595970891477], [-72.5942020048099, 44.035701058701946], [-72.5940221460687, 44.03542794354492], [-72.59392173811342, 44.03496779316005], [-72.59360185576014, 44.0343927644046], [-72.59318203083986, 44.033645228840506], [-72.59292217127249, 44.033199589649016], [-72.5927022758995, 44.032811446558505], [-72.59238234993813, 44.03219326644159], [-72.5922423356263, 44.03189135151266], [-72.59188299419897, 44.031560848408326], [-72.59126459267732, 44.03128808054033], [-72.59092550287913, 44.031158910281334], [-72.5906262840149, 44.03102970739468], [-72.59034715408012, 44.031001163875175], [-72.59016789422371, 44.03110198151928], [-72.59020793825788, 44.03121700823441], [-72.59044733077283, 44.03133187729795], [-72.59070679070052, 44.0315330236659], [-72.59096629638199, 44.03176293397902], [-72.59110614968198, 44.031964174588865], [-72.59124602599651, 44.03217979728993], [-72.59152587021241, 44.032668571227255], [-72.59176553743785, 44.032956025613025], [-72.59174597927097, 44.033200540175535], [-72.59162678756472, 44.033473899238025], [-72.59162711997118, 44.033689633236925], [-72.59176686907534, 44.03381896163474], [-72.59212588930109, 44.033933730983456], [-72.59230546690759, 44.03403426202913], [-72.59242541664021, 44.03424989930416], [-72.59250545073311, 44.03443680420499], [-72.59262564843611, 44.034810646149566], [-72.59264609981604, 44.03514142202699], [-72.59272609095167, 44.03529956221876], [-72.59274618414028, 44.0354002218691], [-72.59276632227217, 44.03552964603656], [-72.59278672980317, 44.0358316573253], [-72.5928070028572, 44.03604737503559], [-72.59304693748145, 44.036493030493546], [-72.59328649211255, 44.03669418702798], [-72.59374562412377, 44.03706775041048], [-72.59444384453258, 44.037340438618145], [-72.59512218042272, 44.03764190365025], [-72.59556102436567, 44.03778536018904], [-72.59625921494448, 44.03802927274663], [-72.59667875878402, 44.03856106259037], [-72.59683858475316, 44.03876227903919], [-72.59701849000487, 44.03904977183232], [-72.59719825592305, 44.039250970827], [-72.59733805377093, 44.03939467451095], [-72.59753754706024, 44.039466415728036], [-72.59911340635536, 44.039939674442195], [-72.59947240550908, 44.0400112737947], [-72.5998909288345, 44.03991023277634], [-72.6002099563222, 44.03992433567876], [-72.6010276711506, 44.04008182050303], [-72.60146654732048, 44.04022525426777], [-72.6020451387091, 44.04045485524515], [-72.60232471465366, 44.040713486000485], [-72.60264399532758, 44.04087140453721], [-72.60306284341551, 44.040957321078956], [-72.60340196540285, 44.04105769053025], [-72.60340224056571, 44.04121589519731]]], [[[-72.56195836772473, 44.05522598810455], [-72.56192551385563, 44.055239832837614], [-72.5619059605714, 44.05561378140146], [-72.5619062752378, 44.05591580803281], [-72.56190673975435, 44.05636165684029], [-72.56186743730302, 44.05692258496082], [-72.56186767691015, 44.05715270043819], [-72.56194821568732, 44.05788615023286], [-72.56190877775992, 44.05831763829245], [-72.56188967283083, 44.05912305302991], [-72.56203000277061, 44.05981332345311], [-72.56222992883401, 44.06027344570324], [-72.56256971331295, 44.06096360651058], [-72.56294912141432, 44.0613948645449], [-72.56312893144623, 44.06168240961357], [-72.5633086359319, 44.061869278951484], [-72.56334880216882, 44.06212813651946], [-72.5635484385491, 44.06230061219991], [-72.56368811686154, 44.06235806327062], [-72.56400741136956, 44.06251609006514], [-72.5643466685122, 44.062688486032656], [-72.5646061615786, 44.06287530833101], [-72.56472600651256, 44.06303344481337], [-72.56478612528417, 44.06329229051739], [-72.5651252314446, 44.063320862141445], [-72.56538455558903, 44.0633494784454], [-72.56528452734949, 44.06307627366076], [-72.56516447574643, 44.06273116914314], [-72.5650045979662, 44.062443615092405], [-72.5645653172043, 44.06199801560217], [-72.56404649568393, 44.0617681922107], [-72.56364728640894, 44.06148077102558], [-72.56332781445212, 44.061150157616225], [-72.56294834421205, 44.06066137199035], [-72.56270858294154, 44.06025880176969], [-72.56266834491265, 44.059928032840666], [-72.56276750489589, 44.05939583631092], [-72.5627071408243, 44.05889249175419], [-72.562726599017, 44.05843224999023], [-72.56266643348111, 44.05811587411603], [-72.56276581837332, 44.05779941065177], [-72.56266572053266, 44.057439909999495], [-72.56262519665131, 44.0568358787617], [-72.56268405578867, 44.05591538394863], [-72.56278305701412, 44.05523936481951], [-72.5628823451718, 44.05483660776202], [-72.56286426998176, 44.054844224631104], [-72.56294103587365, 44.0545155636794], [-72.56316984453437, 44.05364099763839], [-72.56356456594257, 44.0527663388187], [-72.56375522932711, 44.05203906649286], [-72.56371632872015, 44.051468401319006], [-72.56377977632687, 44.05112779393607], [-72.56408548222025, 44.05057534481326], [-72.56454417973563, 44.04988473895612], [-72.56497744346235, 44.04928619201048], [-72.5654743869129, 44.0485771506898], [-72.56606031335411, 44.047564303146736], [-72.56645507421219, 44.04680008961872], [-72.56684970070424, 44.0459254184576], [-72.56682381615919, 44.045603271112846], [-72.56672127014977, 44.04519832656855], [-72.56646572557203, 44.044913131743336], [-72.56626124883114, 44.04464631565517], [-72.56622261745567, 44.04433337995836], [-72.56643915426228, 44.043974272906254], [-72.5670637795424, 44.043384810457425], [-72.56738221742239, 44.042869163059855], [-72.56791741232745, 44.04220611099323], [-72.56823563576263, 44.04151557272351], [-72.56822268539361, 44.041349897306496], [-72.5679289105873, 44.041101546262325], [-72.56782660763507, 44.040908309566845], [-72.56788991537984, 44.040475653744416], [-72.56819562342974, 44.040006033739814], [-72.56861596435604, 44.03936145641123], [-72.5688067468411, 44.03882747232651], [-72.56892109543386, 44.038403988599605], [-72.56898397606714, 44.03761235049946], [-72.56904732535524, 44.03722571704221], [-72.56898238488576, 44.03624085742215], [-72.56887989496384, 44.03588193740758], [-72.5688155339939, 44.03539412981158], [-72.56886573818002, 44.03467613573598], [-72.56899302931649, 44.03441832808404], [-72.569184071046, 44.03412366376853], [-72.56942614647339, 44.033828968119344], [-72.5695406210201, 44.03352514429527], [-72.56946388586373, 44.03336871207367], [-72.56927245120634, 44.03332280498848], [-72.56913207336147, 44.03329527566574], [-72.56881315860146, 44.03334149150051], [-72.56871102444389, 44.03328632517279], [-72.56868529487352, 44.03310224738728], [-72.56885089052714, 44.03287203113889], [-72.56910566735338, 44.0325313042301], [-72.56909265238146, 44.03231039998411], [-72.56904137230948, 44.032098724241855], [-72.56920666511273, 44.031610776636136], [-72.56941012179465, 44.031030759808964], [-72.56965193558418, 44.03052435508109], [-72.5698303226346, 44.03033094836059], [-72.56998300755986, 44.02998107810731], [-72.57018676612746, 44.02966799421944], [-72.57041643138103, 44.02968626188181], [-72.57090112284682, 44.02959391544736], [-72.57118174288547, 44.02954771761971], [-72.57146230594005, 44.02945549579418], [-72.57179382334824, 44.02929880894842], [-72.57188294988761, 44.02915147838233], [-72.57175533826202, 44.029123944229426], [-72.57137263664613, 44.02915179830448], [-72.57110470043081, 44.02913355548609], [-72.57070915206758, 44.02908777761808], [-72.57036459348008, 44.02900514813116], [-72.57014786336836, 44.029134146953034], [-72.56994368300262, 44.02908824878233], [-72.56994322836618, 44.02870165329125], [-72.57010858031278, 44.028278136389645], [-72.5704143608196, 44.02793737588083], [-72.5706562409905, 44.027504607348725], [-72.57124229091802, 44.02684150646535], [-72.57148439292335, 44.026602033924576], [-72.57208380629729, 44.026454382728424], [-72.57241546098896, 44.026426558624195], [-72.5726578601614, 44.026435609226944], [-72.5729768252448, 44.02646302032441], [-72.57316784437324, 44.02618675794087], [-72.57334607079206, 44.025882889053946], [-72.57343482473938, 44.02544100818624], [-72.57349832557685, 44.025210850467595], [-72.57372730151131, 44.02468603586424], [-72.57405812047202, 44.02399547113144], [-72.57424867860318, 44.023360224483895], [-72.57424833394366, 44.023084084341136], [-72.57422999977135, 44.02308617169892], [-72.57422969711936, 44.022843624743686], [-72.57416927352604, 44.022340282151106], [-72.57428819997126, 44.021808059282165], [-72.57428757138896, 44.02130467866668], [-72.57434621553969, 44.02038417224838], [-72.57434479572535, 44.019247969941674], [-72.57432400253393, 44.01855763202889], [-72.57442284577854, 44.0179103631366], [-72.5747006246633, 44.01691780140735], [-72.57479929839268, 44.01614109115766], [-72.57477851913693, 44.01546513527218], [-72.57459832401125, 44.01480366582876], [-72.57441786310761, 44.013926461187424], [-72.57407813894952, 44.01317880052138], [-72.57343965544696, 44.01256077130843], [-72.57292112537053, 44.012244691983156], [-72.57214368928634, 44.012058215110336], [-72.57116704364148, 44.011929386554314], [-72.57062880647257, 44.01178589714271], [-72.57007037395266, 44.01141230013308], [-72.56947192446421, 44.010894901290115], [-72.56925223116733, 44.01047794672713], [-72.5691921466176, 44.01021910094875], [-72.56943102817444, 44.010003220876854], [-72.56988909498479, 44.0097728240909], [-72.56994852287212, 44.00947075847552], [-72.56970924103392, 44.00934146360249], [-72.56931059102098, 44.00925541205099], [-72.56887202075, 44.00911185379178], [-72.56889158190016, 44.00879543036754], [-72.56891120945288, 44.00853653627436], [-72.5689309034633, 44.00833517152003], [-72.56895044738897, 44.00800436570367], [-72.56916947755903, 44.00786040982155], [-72.56928873806699, 44.00760145526142], [-72.56916895942614, 44.00741455727879], [-72.56892938774708, 44.00702637857521], [-72.56855046570762, 44.006753341853916], [-72.56823134318671, 44.00649465052087], [-72.56809159427681, 44.00626461623529], [-72.5679118296169, 44.005890782016344], [-72.56763241989455, 44.005502624160705], [-72.56731312916683, 44.005085724384195], [-72.56703400247073, 44.00494206491819], [-72.56669521205512, 44.00489911611057], [-72.56645618046024, 44.00497116717529], [-72.56613715649566, 44.00478438164196], [-72.56599751537368, 44.004640638810685], [-72.56589751965586, 44.00430990228723], [-72.56575775312481, 44.004051100349926], [-72.5654188422509, 44.00389308894364], [-72.5653787540038, 44.00367737648968], [-72.56545837725389, 44.00360541909932], [-72.56589685095992, 44.00370584357745], [-72.5665745301425, 44.00389242140228], [-72.56687352803571, 44.00399292331065], [-72.56699292029404, 44.00384902977321], [-72.56691297524152, 44.003633341218475], [-72.56675329653766, 44.00338893448874], [-72.56689258099058, 44.00321626469473], [-72.56687238090433, 44.002971776369996], [-72.5667325487946, 44.00265544525165], [-72.56649317283025, 44.00241108463589], [-72.5663135259954, 44.00212354176542], [-72.56643286771559, 44.00193650170156], [-72.56671175322387, 44.001878809749975], [-72.56699091332523, 44.00206561715467], [-72.56728995151174, 44.002209265074356], [-72.56782819110867, 44.00243906463898], [-72.56830662612535, 44.002640132701686], [-72.56870541296864, 44.00288439376243], [-72.56896439207345, 44.00284109065293], [-72.56902405124107, 44.00274037809073], [-72.56898391738112, 44.002495902159666], [-72.56862511484175, 44.002366676955376], [-72.56844560667159, 44.00220857862883], [-72.56826608296252, 44.00203609766077], [-72.56822608455505, 44.00190668027095], [-72.56816619431393, 44.00180603946333], [-72.56774775391, 44.001791905973555], [-72.56748872956616, 44.0017920592652], [-72.56713006425343, 44.00177788819031], [-72.56695067504951, 44.001720463985905], [-72.56675136128469, 44.00166305114123], [-72.56643233808555, 44.00146188395647], [-72.56621292490753, 44.00124627582633], [-72.56613303411659, 44.001073733696195], [-72.56623256166094, 44.000987381844155], [-72.56623240165482, 44.00084355826466], [-72.56611266219927, 44.00067103920032], [-72.5660128320081, 44.00048412613607], [-72.56627153047405, 44.000196329005824], [-72.56639070808735, 43.99986546532103], [-72.56623104165067, 43.99962105769203], [-72.56607136056493, 43.999362267466644], [-72.56579216835166, 43.99913231062939], [-72.5655330922455, 43.99907493002987], [-72.56519436779637, 43.99906074143252], [-72.56505471096003, 43.99888823256811], [-72.56499481341952, 43.99877320767603], [-72.56483507733626, 43.99845688622186], [-72.56463558917444, 43.9982268812662], [-72.56457561511601, 43.998039944312126], [-72.56449545295415, 43.99760851833784], [-72.56421608891497, 43.9972059691582], [-72.56369760311664, 43.99676040569166], [-72.56353775655666, 43.99632902334348], [-72.56333851002626, 43.996314751589736], [-72.56305943405151, 43.996171082162746], [-72.56287988340647, 43.995941063043574], [-72.56260073468648, 43.9957254806253], [-72.56246094232736, 43.99540914475321], [-72.56220151002886, 43.99499219721163], [-72.5620218314341, 43.99463273531898], [-72.56176249510143, 43.99430208097594], [-72.56146331697992, 43.993971447464084], [-72.56100480858655, 43.993684045487086], [-72.56084529841362, 43.99355468906996], [-72.56072557457331, 43.99336778174349], [-72.56054595366558, 43.99305146455785], [-72.56054576356792, 43.99286449272246], [-72.56038605241122, 43.99253378231701], [-72.56032606830492, 43.99231807817201], [-72.56032577691866, 43.992030430538335], [-72.56022590667652, 43.991771600202604], [-72.55994659891151, 43.991369040139595], [-72.55974712453612, 43.99111026156985], [-72.55970710874709, 43.990937693780104], [-72.55970693571689, 43.990765105157834], [-72.55956738617644, 43.990664501244076], [-72.5594078298308, 43.99047761320085], [-72.559268124027, 43.99021880266235], [-72.55904852156652, 43.98974429733063], [-72.55878920885291, 43.98939925354521], [-72.55827081758495, 43.98893928239211], [-72.55811118573651, 43.98866609813086], [-72.55811084895373, 43.988320920733386], [-72.55817028721606, 43.987990095298514], [-72.55838936860832, 43.98794683635191], [-72.55836960333014, 43.988105052849434], [-72.55840969796051, 43.988363915548206], [-72.5586089874822, 43.98845010789001], [-72.55898732009102, 43.98829170680916], [-72.55908669398252, 43.98806153707128], [-72.55906655967676, 43.98784581148075], [-72.5589467959751, 43.987601372519464], [-72.55884685391291, 43.987256246403255], [-72.558786738765, 43.98689671729175], [-72.5586869263533, 43.986681032557044], [-72.5587063784621, 43.98620640323641], [-72.55864632187051, 43.985904403575795], [-72.55874559381604, 43.98557355724885], [-72.55872540487844, 43.98530030190517], [-72.55862555290435, 43.98504146985447], [-72.55862531226822, 43.98479696904659], [-72.55862519902873, 43.984681909839274], [-72.55878425480324, 43.984379797535944], [-72.55886376076765, 43.9842071676923], [-72.55870446489993, 43.9842647792846], [-72.55842565406998, 43.984322451829854], [-72.55834592128465, 43.98426496293558], [-72.55836560081082, 43.984020451919896], [-72.55858448358364, 43.983790221336605], [-72.55838505463349, 43.98354582243111], [-72.55848445119557, 43.983344417837216], [-72.5586633803104, 43.98299914731963], [-72.55850363548768, 43.98259652165808], [-72.55834404777076, 43.982352102223], [-72.55822436838561, 43.98217957429865], [-72.55794539897177, 43.98206465679692], [-72.55786561379281, 43.98194963791046], [-72.55794524508802, 43.98190645030835], [-72.55806450256986, 43.98164750628415], [-72.55816388301362, 43.98143171949368], [-72.5581039883113, 43.981287925800125], [-72.55802406378783, 43.98102908290563], [-72.5578842744026, 43.98065521093993], [-72.55774455647477, 43.98035325083927], [-72.55774444495376, 43.98023819154029], [-72.5575849361848, 43.98006568300388], [-72.55750512661808, 43.979921898996814], [-72.55750496003287, 43.97974931003366], [-72.55748476490992, 43.97946167177241], [-72.55744472193143, 43.979245955584254], [-72.5574047208162, 43.979073386620506], [-72.55740588964187, 43.979064029358405], [-72.5549825197128, 43.978416619805735], [-72.5548348115638, 43.978456204653696], [-72.55455602415472, 43.97851386780365], [-72.55437684839697, 43.97860024775801], [-72.55425751548186, 43.97878727599244], [-72.5542775768698, 43.97894547311797], [-72.55431767374164, 43.979233102513376], [-72.55451691363277, 43.9793049197335], [-72.55459671516229, 43.97944870584745], [-72.55449720669287, 43.9795350478812], [-72.5542981495652, 43.97966458444099], [-72.55439797370728, 43.979923420532046], [-72.55457736421806, 43.98006715918695], [-72.55477654109399, 43.9800670638742], [-72.55493596216638, 43.98015328185524], [-72.55499588791072, 43.98034022448158], [-72.5550958359265, 43.980728501639085], [-72.55515586927709, 43.98103050345258], [-72.55519629161422, 43.98166331027112], [-72.55533618674257, 43.98216662714223], [-72.55529680387039, 43.98265564828795], [-72.55507800563325, 43.98298654946832], [-72.55507852425144, 43.98354746418379], [-72.55507912267477, 43.98419467236364], [-72.55494044531508, 43.985014536417275], [-72.55494101573709, 43.985632979632726], [-72.55486174819261, 43.98607887228798], [-72.55458321509771, 43.98645294820058], [-72.5542772367131, 43.987316613245845], [-72.55422660132956, 43.98771244132965], [-72.55426515899094, 43.9880529979024], [-72.55426538542594, 43.988301526198796], [-72.55415087776281, 43.98855931257336], [-72.55397273992723, 43.98894599626049], [-72.55394746709993, 43.98919453566092], [-72.55410082578395, 43.98959947161319], [-72.55431774194896, 43.98979266791641], [-72.55468765233586, 43.989985790675696], [-72.55499364770984, 43.9899948492595], [-72.55543995538481, 43.9900774754496], [-72.55589902216714, 43.990169299106235], [-72.55611590162749, 43.99031646923328], [-72.55615428953033, 43.990463725907055], [-72.55632024177747, 43.990684557969864], [-72.55632045069305, 43.99090547070178], [-72.55610375068082, 43.9909516009688], [-72.55604018432932, 43.991144932235876], [-72.55604052213695, 43.99150391674363], [-72.55604086861268, 43.991872105774206], [-72.55627079252233, 43.992323023788764], [-72.55662826282816, 43.9928199027029], [-72.557151553459, 43.99338113126379], [-72.55757255871194, 43.99363865172009], [-72.55784057244877, 43.99390545361079], [-72.55824905940189, 43.99439309693223], [-72.55851706147533, 43.99464148721611], [-72.5587086538364, 43.99498196339467], [-72.55888757088081, 43.9953960848175], [-72.55902794585403, 43.995515673253884], [-72.55924478841654, 43.99559840371655], [-72.55921947987197, 43.99579171585044], [-72.55942373860323, 43.99604013786646], [-72.56007197456292, 43.99716507597975], [-72.5602317255241, 43.9975245512855], [-72.56015223484812, 43.9977259464203], [-72.55995324512652, 43.99797055138302], [-72.55985388700694, 43.998229486214285], [-72.55957527096535, 43.99854604404861], [-72.55971502653026, 43.998833618551274], [-72.55995424442662, 43.99896293462864], [-72.56011338960859, 43.998718350676725], [-72.56029238450387, 43.99840184415219], [-72.56067070254976, 43.99817152590925], [-72.56096938192528, 43.99799877842734], [-72.56112884521802, 43.998070605097254], [-72.56108913061465, 43.998200067706726], [-72.56089002549139, 43.99832961535274], [-72.56091012584781, 43.998502193122285], [-72.56099014537891, 43.998818562641866], [-72.56134914710165, 43.99917792974771], [-72.56160844287548, 43.999451055283124], [-72.56184789147328, 43.99979610281292], [-72.56214716108573, 44.00018426440514], [-72.56226703849869, 44.00050061125011], [-72.56212789705772, 44.00081709908758], [-72.56192886025626, 44.00101856028282], [-72.56192936893778, 44.001507560464454], [-72.56204924786616, 44.00182390746347], [-72.5622686781928, 44.00206828828701], [-72.56248818580575, 44.002384580454525], [-72.56274730371021, 44.00247073262789], [-72.56318574922986, 44.002556785182634], [-72.56358446843838, 44.00275791707026], [-72.5637639037446, 44.00285849361056], [-72.56386366915042, 44.00298788005031], [-72.56402333491795, 44.003232290843236], [-72.56406335604072, 44.00339047438381], [-72.56400379607305, 44.00359186081355], [-72.56416332451751, 44.00370683022147], [-72.56432254276297, 44.003534152373646], [-72.56460154706113, 44.003577142045934], [-72.56478100220619, 44.003692099323374], [-72.56494062656002, 44.00389336174853], [-72.56516010787391, 44.00416650161881], [-72.56539943803296, 44.00436771790268], [-72.5650607778157, 44.00443982303771], [-72.56484170327637, 44.00454062408127], [-72.56474223034921, 44.00468450406847], [-72.56476251616316, 44.005015286789906], [-72.56478263002427, 44.00518786366728], [-72.56496232582121, 44.005518555828935], [-72.56512190848784, 44.00567667089426], [-72.56540112883664, 44.005906629087534], [-72.56570010312396, 44.00597836933526], [-72.56574009878743, 44.00610778751844], [-72.56550101370192, 44.00613668953878], [-72.56546144560349, 44.00639559458225], [-72.56588010885963, 44.00658232454092], [-72.56603923406163, 44.00632335032104], [-72.56621818826014, 44.00597807025163], [-72.56653683303195, 44.00581967923463], [-72.56661682795672, 44.00607851500324], [-72.56697642533103, 44.00689809890552], [-72.56681710893065, 44.00698448629615], [-72.56673749893517, 44.00707082693468], [-72.56667808935521, 44.007401655699056], [-72.56671862012539, 44.008005690741776], [-72.5668186912237, 44.00839395568088], [-72.56693844828683, 44.00856647376014], [-72.56695868293188, 44.00883972650695], [-72.56699887754543, 44.00914173222745], [-72.56731815532994, 44.00952986790091], [-72.56767770149311, 44.010277537410715], [-72.56815680846991, 44.01101075209058], [-72.56825682804292, 44.01134148623212], [-72.56819715897328, 44.011442198247906], [-72.56791808238567, 44.01137045277795], [-72.5678784721376, 44.01158621142453], [-72.56771929180051, 44.01180204098035], [-72.56783930426982, 44.01219029294518], [-72.56801887384582, 44.01237715658567], [-72.56819844454985, 44.01256401993713], [-72.56843781877592, 44.012765229531745], [-72.56867727761286, 44.01303835115016], [-72.56887684774352, 44.01328273073461], [-72.56907646959905, 44.01357025693446], [-72.56923620194074, 44.01382904228081], [-72.56929639083727, 44.01417418181115], [-72.56923697170691, 44.01449062916573], [-72.56919748125289, 44.014807064404046], [-72.56935716715607, 44.015022702558554], [-72.5697759033427, 44.01520941791215], [-72.57025431179989, 44.015295418734034], [-72.57059323221453, 44.01539588614985], [-72.57083218080264, 44.01522315029608], [-72.57064146234397, 44.0150598849083], [-72.57002900348445, 44.014866963574875], [-72.56972262994225, 44.01464623814113], [-72.56970975685586, 44.01454499455433], [-72.56974773015075, 44.01429644412454], [-72.5697092392714, 44.01410316923094], [-72.56959411386103, 44.013817894081356], [-72.56947902179652, 44.01356023232483], [-72.56946596669734, 44.01330250934957], [-72.56949118609352, 44.013053966704234], [-72.56972066712869, 44.012970984463784], [-72.5701034389605, 44.01309041165116], [-72.5704223966892, 44.01317305794294], [-72.57084353363939, 44.01337530052794], [-72.57102231588378, 44.01355928342994], [-72.57125224860356, 44.01385369102927], [-72.57146916515859, 44.0139271925627], [-72.57171145780525, 44.013890221792295], [-72.57178780723996, 44.01374289892127], [-72.571774797612, 44.01353119966306], [-72.5716470311463, 44.013347185958494], [-72.57127696463839, 44.01319093706202], [-72.57116203161428, 44.013071348205095], [-72.57182550346192, 44.01327343598478], [-72.57251455679929, 44.01353073255954], [-72.5729613022193, 44.01380658898367], [-72.57335739624259, 44.014377026009115], [-72.57357470425336, 44.014763483023245], [-72.57367709477316, 44.01504876322644], [-72.57372858185316, 44.01542612219812], [-72.57376738333781, 44.01585871727756], [-72.57375514203139, 44.01627293625134], [-72.57364074487764, 44.01659517418564], [-72.57355161745826, 44.01672409742861], [-72.57299076378179, 44.017028212199634], [-72.57285069191136, 44.01722159988042], [-72.57273624427854, 44.017507017955516], [-72.57274937076122, 44.017810764659075], [-72.572813429368, 44.01804084104032], [-72.57282659016555, 44.01837220120488], [-72.57290323581714, 44.01846419919214], [-72.57320948225832, 44.01855605024065], [-72.57326067475132, 44.018694087722665], [-72.57305665340563, 44.01874944629547], [-72.57278887489583, 44.018823255051], [-72.57291660026725, 44.01896124389841], [-72.57295514987445, 44.01919133643023], [-72.57283972796444, 44.0195179922505], [-72.5727585954704, 44.01993041420905], [-72.57276703250547, 44.02015426629837], [-72.57276784671521, 44.020819949284366], [-72.57256372870363, 44.020802405412425], [-72.57224513752291, 44.02063765976827], [-72.5720570627986, 44.02038446524051], [-72.57171370014154, 44.01998409410081], [-72.57159098170122, 44.01976620332183], [-72.57144377211216, 44.01954832861952], [-72.57123952482858, 44.01941885416621], [-72.57104349785939, 44.019336502884585], [-72.57085572001318, 44.01932483732656], [-72.5706272416184, 44.01941334365833], [-72.57048040754609, 44.01950768982867], [-72.57050514267351, 44.019713860154404], [-72.57061958890317, 44.01984339145359], [-72.57072576609437, 44.01988456289342], [-72.57091370140567, 44.02002582964102], [-72.57107730718005, 44.020302605612876], [-72.57121638093845, 44.02054404925018], [-72.57126556800759, 44.020714857650624], [-72.57129923704618, 44.0211345707849], [-72.57137602746569, 44.0213462299881], [-72.5714401066946, 44.02159471688665], [-72.57156783489798, 44.021732707172696], [-72.57189958588359, 44.02180613579777], [-72.57197640282956, 44.022036204457336], [-72.57173417707429, 44.022156018002526], [-72.57146335912878, 44.02238119801197], [-72.57132317978042, 44.022605690182026], [-72.57134007929697, 44.02275528267852], [-72.5713903903296, 44.02288072477407], [-72.57150086247282, 44.022979586737165], [-72.57173170327245, 44.0230638953722], [-72.57210967425726, 44.023140871920006], [-72.57236051044205, 44.02316725580915], [-72.57259124424112, 44.02316228354305], [-72.57277517306848, 44.02316699244176], [-72.57294727203595, 44.02323245721074], [-72.57287112564934, 44.02348997705893], [-72.57285862733119, 44.023701692990414], [-72.57279520446959, 44.02399628274886], [-72.57279563250935, 44.024346060576114], [-72.572639883912, 44.02469187419398], [-72.57214170477789, 44.02480455183227], [-72.5720174249695, 44.02505182590364], [-72.57189317129003, 44.02532157239004], [-72.57158204600384, 44.025591435958454], [-72.5710840172133, 44.025838942526974], [-72.57086578614089, 44.025659299286204], [-72.57008683756996, 44.02539011154885], [-72.569619687983, 44.02541286973187], [-72.56915261641248, 44.02550304278802], [-72.56893506952969, 44.02590767701633], [-72.56874843055476, 44.02611003994345], [-72.56878012202024, 44.02658194041003], [-72.5688741573161, 44.02709874750497], [-72.5690612947172, 44.027323358442196], [-72.56887478184854, 44.02763808339163], [-72.56850133733342, 44.02790797691288], [-72.56828372564281, 44.02826766463814], [-72.56797302961697, 44.028942019634655], [-72.56784880075917, 44.0292567066489], [-72.5678490827608, 44.02950390195652], [-72.56763184462194, 44.030200672900015], [-72.56763279018635, 44.031032148830555], [-72.56766452660817, 44.0315489933779], [-72.56778945284327, 44.031841059803796], [-72.56707351890273, 44.0322684563056], [-72.56679348456747, 44.032538288251715], [-72.56673169063974, 44.03298777172074], [-72.56663912516609, 44.03377435674326], [-72.56635948177488, 44.034403744402965], [-72.56592405782959, 44.035010748761], [-72.56617363392468, 44.03534768986115], [-72.56623655971111, 44.035909460516464], [-72.56617453425864, 44.0361566925443], [-72.56589457592136, 44.036516411293476], [-72.56573924343675, 44.036898529326464], [-72.56573983974755, 44.03743786431905], [-72.5657403366869, 44.0378873110072], [-72.565615804575, 44.03795479927708], [-72.56542926616414, 44.038291990557425], [-72.56521208967754, 44.03910111750788], [-72.5649952033486, 44.04017991129738], [-72.56477823571217, 44.041191287873154], [-72.56496554816277, 44.0415507381437], [-72.56502807711351, 44.04175295338848], [-72.56496618666836, 44.04213501769803], [-72.56443703488783, 44.04256229055236], [-72.56440617266146, 44.042831975360244], [-72.56412631768417, 44.04332652343815], [-72.56471852159176, 44.04357338438254], [-72.56503048622108, 44.043955236222295], [-72.56524948224616, 44.04478658494591], [-72.56472106619583, 44.04591049962064], [-72.5643477070821, 44.04638262840909], [-72.56373204683001, 44.04752995800464], [-72.56385179664453, 44.04763056688827], [-72.56409162317533, 44.048133811304695], [-72.5643515345687, 44.048766484080545], [-72.5643321698778, 44.04929863807498], [-72.56381403154886, 44.04960095578683], [-72.56337560623047, 44.04986008021343], [-72.56327613062601, 44.05007586899891], [-72.56343579783592, 44.050205220644344], [-72.56313738306449, 44.05086696906883], [-72.56265771955812, 44.052122515531146], [-72.562403353531, 44.05296948048963], [-72.56223824578267, 44.053742759671096], [-72.56202221364386, 44.0546449311408], [-72.56195836772473, 44.05522598810455]]], [[[-72.63805355262215, 44.075020651811705], [-72.63823366693057, 44.07526493106713], [-72.63853321203703, 44.075394007854726], [-72.63919195288702, 44.07556579334413], [-72.6395714017464, 44.07573791655949], [-72.64027011811396, 44.07593841133283], [-72.6410084643784, 44.07602379551257], [-72.64168682601408, 44.076051720619674], [-72.64220527978716, 44.075950401257245], [-72.64280342695795, 44.075805833428845], [-72.64306311622762, 44.075763889334716], [-72.64375973307702, 44.07466367739654], [-72.64311957200675, 44.07453980614319], [-72.64276041555523, 44.074511491123886], [-72.64192247681773, 44.07448377071924], [-72.64136420521186, 44.074613902457], [-72.6408856944894, 44.0747295509577], [-72.64034716374067, 44.074773360300156], [-72.63996782050961, 44.074644386041776], [-72.63944890020026, 44.07454434532627], [-72.63898959503928, 44.07434355448132], [-72.63886922697793, 44.07405605723022], [-72.63854883281158, 44.07353868766082], [-72.63802895635315, 44.073021558317045], [-72.63780868530074, 44.07266226960822], [-72.63748857428759, 44.072259953183845], [-72.63732785525902, 44.07177115213769], [-72.63702796602827, 44.07148386845497], [-72.63690761328847, 44.071196368973226], [-72.63696702661771, 44.07100932930881], [-72.6369271303907, 44.071009377130146], [-72.63628879074521, 44.07101014037687], [-72.63616943181832, 44.07115410458405], [-72.6362098559186, 44.07138417141193], [-72.63617038813456, 44.071571186900265], [-72.63609099041415, 44.07174386775126], [-72.63591260717925, 44.07224745662246], [-72.63533432922017, 44.072348819273486], [-72.63465637150391, 44.07247905999236], [-72.63399855417053, 44.072695566175554], [-72.63334063515451, 44.07286892212917], [-72.63286225148731, 44.073042065649844], [-72.63240374975227, 44.07318641975633], [-72.63208472811914, 44.073258699936446], [-72.6314864529835, 44.0733456831289], [-72.63154661828226, 44.0734894357021], [-72.63184594833936, 44.07353223721614], [-72.63232459530487, 44.073474155124345], [-72.63298287827728, 44.073459008629676], [-72.63386079369474, 44.073529894321574], [-72.63465904570093, 44.073658395917], [-72.63543738490291, 44.073801297721154], [-72.63611591640606, 44.07391554880741], [-72.63679451677226, 44.074058560141765], [-72.63731362668426, 44.07424490578013], [-72.6375335009138, 44.0744316096593], [-72.63783344089141, 44.074733273983284], [-72.63805355262215, 44.075020651811705]]]]}}]}