{"type": "FeatureCollection", "name": "Orange_Washington", "features": [{"type": "Feature", "properties": {"OBJECT_ID": 756, "County": "Orange", "RPC": "CVRPC", "Municipal_Name": "Washington ", "GEO_ID": "5001776750", "District_Name": "Village District", "Abbreviated_District_Name": "Vil", "District_Type": "Mixed with Residential", "Bylaw_Date": null, "Elderly_Housing_District": "No", "District_Mapped": "Yes", "Overlay_District": "No", "Base_Density": null, "GIS_ID": null, "Last_Update": null, "Shape_Length": 10317.270119106473, "Shape_Area": 3128929.049477787, "F1F_Allowance": "Permitted", "F1F_Front_Setback": 20.0, "F1F_Side_Setback": 20.0, "F1F_Rear_Setback": 20.0, "F1F_Frontage": 150.0, "F1F_Max_Height": 35.0, "F1F_Max_Stories": null, "F1F_Min_Lot_Size": 1.0, "F1F_Max_Lot_Building_Coverage": null, "F1F_Max_Lot_Impervious_Coverage": null, "F1F_Min_Parking_Spaces": null, "F1F_Elderly_Housing_Only": null, "F1F_Affordable_Housing_Only": null, "F2F_Allowance": "Public Hearing", "F2F_Front_Setback": 20.0, "F2F_Side_Setback": 20.0, "F2F_Rear_Setback": 20.0, "F2F_Frontage": 150.0, "F2F_Max_Density": null, "F2F_Max_Height": 35.0, "F2F_Max_Stories": null, "F2F_Min_Lot_Size": 1.0, "F2F_Max_Lot_Building_Coverage": null, "F2F_Max_Lot_Impervious_Coverage": null, "F2F_Min_Parking_Spaces_per_1BR": null, "F2F_Min_Parking_Spaces_per_mult_BR": null, "F2F_Elderly_Housing_Only": "No", "F2F_Affordable_Housing_Only": "No", "F3F_Allowance": "Public Hearing", "F3F_Front_Setback": 20.0, "F3F_Side_Setback": 20.0, "F3F_Rear_Setback": 20.0, "F3F_Frontage": 150.0, "F3F_Max_Density": null, "F3F_Max_Height": 35.0, "F3F_Max_Stories": null, "F3F_Min_Lot_Size": 1.0, "F3F_Max_Lot_Building_Coverage": null, "F3F_Max_Lot_Impervious_Coverage": null, "F3F_Min_Parking_Spaces_per_1BR": null, "F3F_Min_Parking_Spaces_per_mult_BR": null, "F3F_Affordable_Housing_Only": "No", "F3F_Proximity_to_Public_Transit_Required": null, "F3F_Connection_to_Sewage/Water_Required": null, "F4F_Allowance": "Public Hearing", "F4F_Front_Setback": 20.0, "F4F_Side_Setback": 20.0, "F4F_Rear_Setback": 20.0, "F4F_Frontage": 150.0, "F1F_Max_Density": null, "F4F_Max_Density": null, "F4F_Max_Height": 35.0, "F4F_Max_Stories": null, "F4F_Min_Lot_Size": 1.0, "F4F_Max_Lot_Building_Coverage": null, "F4F_Max_Lot_Impervious_Coverage": null, "F4F_Min_Parking_Spaces_per_1BR": null, "F4F_Min_Parking_Spaces_per_mult_BR": null, "F3F_Elderly_Housing_Only": "No", "F4F_Elderly_Housing_Only": "No", "F4F_Affordable_Housing_Only": "No", "F4F_Proximity_to_Public_Transit_Required": null, "F4F_Connection_to_Sewage/Water_Required": null, "ADU_Allowance": "Allowed/Conditional", "ADU_Elderly_Housing_Only": "No", "ADU_Max_Size_as_Percent_of_Primary_Strcture": 30.0, "ADU_Max_Size_in_sq_ft": null, "ADU_Min_Lot_Size": 1.0, "ADU_Max_Bedrooms": 1.0, "ADU_Min_Parking_Spaces": null, "ADU_Owner_Occupancy_Required": "No", "ADU_Renter_Occupancy_Prohibited": "No", "ADU_Employee_or_Family_Occupancy_Required": "No", "ADU_Restricted_to_Primary_Structure": "No", "Affordable_Housing_Allowance": "Not Mentioned", "Affordable_Housing_District": "No", "Affordable_Housing_Elderly_Only": null, "Affordable_Housing_Min_Lot_Size": null, "Affordable_Housing_Max_Density": null, "Affordable_Housing_Min_Parking_Spaces_per_mult_BR": null, "Affordable_Housing_Max_Units_per_Building": null, "Affordable_Housing_Min_Parking_Spaces_per_1BR": null, "PRD_Allowance": "Not Mentioned", "PRD_Max_Density": null, "PRD_Max_Units": null, "PRD_Min_Lot_Size": null, "PRD_Mobile_or_Manufactured_Home_Park": null, "PUD_Allowance": null, "PUD_Required_with_Subdivision": null, "PUD_Requires_Land_Conservation": null, "PUD_Threshold_Number": null, "Notes": "None", "FIPS6": null}, "geometry": {"type": "MultiPolygon", "coordinates": [[[[-72.42871506897453, 44.11659129181992], [-72.4291659596967, 44.11679167478665], [-72.42939779315846, 44.11699628313471], [-72.42960747204897, 44.11732293057849], [-72.4296961318176, 44.11777622565067], [-72.42965193789654, 44.118020315662726], [-72.43798433877222, 44.12330410244869], [-72.43988645067392, 44.122259403847735], [-72.439929471822, 44.12219348859642], [-72.43982618655548, 44.121790963330774], [-72.43940719959906, 44.121061463315336], [-72.43825039351498, 44.119697787771045], [-72.43759976133809, 44.118733052699206], [-72.43702362841677, 44.11825221434728], [-72.43471799586771, 44.117381883090225], [-72.43580654726182, 44.10752560356668], [-72.43506679817719, 44.10718641873535], [-72.43457460357011, 44.10682291974915], [-72.4348250698334, 44.10640174566463], [-72.43589252677822, 44.10538884790558], [-72.43646794632717, 44.1049691506875], [-72.4373183266293, 44.104657561106556], [-72.43801915119326, 44.10449790156366], [-72.4383816482828, 44.10420939440881], [-72.43884989892965, 44.10394694123087], [-72.43952917391206, 44.10383298571049], [-72.44032255488005, 44.103582083179546], [-72.4419079369673, 44.10326860527977], [-72.440936146417, 44.10175822664848], [-72.44219155503104, 44.101127745053816], [-72.44322080209075, 44.100496273420994], [-72.44459117551699, 44.09955602365617], [-72.44551429985812, 44.09793182262783], [-72.44481084685704, 44.09746559603171], [-72.44411989921686, 44.097238730950316], [-72.44315139397872, 44.09729028982379], [-72.44226005522764, 44.09741866096847], [-72.44119286241973, 44.0974290949711], [-72.43983718882494, 44.097275533660145], [-72.43877269078037, 44.09690950742479], [-72.43775190408203, 44.09634521613596], [-72.43642646149318, 44.09591176612439], [-72.43540364630371, 44.09566286944035], [-72.4345633019333, 44.0955826712421], [-72.43341682815075, 44.097785878770296], [-72.43300922825576, 44.09844543519074], [-72.4328118870308, 44.09936557606664], [-72.43289152851892, 44.10006298817125], [-72.43323238668692, 44.10083801669896], [-72.43273134086819, 44.100739015416444], [-72.4320483746601, 44.10037465735517], [-72.43112107361529, 44.09959705018357], [-72.41592081204632, 44.10135338097034], [-72.41479216140023, 44.10860903811883], [-72.41529248416288, 44.10882007003778], [-72.41708627250084, 44.109011631810596], [-72.41766642170363, 44.10894313429978], [-72.41918190397979, 44.10854821192976], [-72.41974193853417, 44.108347358165865], [-72.42038787762402, 44.10796870144875], [-72.42804641243212, 44.117168272452055], [-72.4285880492638, 44.11653974843143], [-72.42871506897453, 44.11659129181992]]]]}}, {"type": "Feature", "properties": {"OBJECT_ID": 755, "County": "Orange", "RPC": "CVRPC", "Municipal_Name": "Washington ", "GEO_ID": "5001776750", "District_Name": "Rural Residential District", "Abbreviated_District_Name": "Rr", "District_Type": "Primarily Residential", "Bylaw_Date": null, "Elderly_Housing_District": "No", "District_Mapped": "Yes", "Overlay_District": "No", "Base_Density": null, "GIS_ID": null, "Last_Update": null, "Shape_Length": 50650.00061015167, "Shape_Area": 97962123.73668247, "F1F_Allowance": "Permitted", "F1F_Front_Setback": 20.0, "F1F_Side_Setback": 20.0, "F1F_Rear_Setback": 20.0, "F1F_Frontage": 150.0, "F1F_Max_Height": 35.0, "F1F_Max_Stories": null, "F1F_Min_Lot_Size": 1.0, "F1F_Max_Lot_Building_Coverage": null, "F1F_Max_Lot_Impervious_Coverage": null, "F1F_Min_Parking_Spaces": null, "F1F_Elderly_Housing_Only": null, "F1F_Affordable_Housing_Only": null, "F2F_Allowance": "Public Hearing", "F2F_Front_Setback": 20.0, "F2F_Side_Setback": 20.0, "F2F_Rear_Setback": 20.0, "F2F_Frontage": 150.0, "F2F_Max_Density": null, "F2F_Max_Height": 35.0, "F2F_Max_Stories": null, "F2F_Min_Lot_Size": 1.0, "F2F_Max_Lot_Building_Coverage": null, "F2F_Max_Lot_Impervious_Coverage": null, "F2F_Min_Parking_Spaces_per_1BR": null, "F2F_Min_Parking_Spaces_per_mult_BR": null, "F2F_Elderly_Housing_Only": "No", "F2F_Affordable_Housing_Only": "No", "F3F_Allowance": "Public Hearing", "F3F_Front_Setback": 20.0, "F3F_Side_Setback": 20.0, "F3F_Rear_Setback": 20.0, "F3F_Frontage": 150.0, "F3F_Max_Density": null, "F3F_Max_Height": 35.0, "F3F_Max_Stories": null, "F3F_Min_Lot_Size": 1.0, "F3F_Max_Lot_Building_Coverage": null, "F3F_Max_Lot_Impervious_Coverage": null, "F3F_Min_Parking_Spaces_per_1BR": null, "F3F_Min_Parking_Spaces_per_mult_BR": null, "F3F_Affordable_Housing_Only": "No", "F3F_Proximity_to_Public_Transit_Required": null, "F3F_Connection_to_Sewage/Water_Required": null, "F4F_Allowance": "Public Hearing", "F4F_Front_Setback": 20.0, "F4F_Side_Setback": 20.0, "F4F_Rear_Setback": 20.0, "F4F_Frontage": 150.0, "F1F_Max_Density": null, "F4F_Max_Density": null, "F4F_Max_Height": 35.0, "F4F_Max_Stories": null, "F4F_Min_Lot_Size": 1.0, "F4F_Max_Lot_Building_Coverage": null, "F4F_Max_Lot_Impervious_Coverage": null, "F4F_Min_Parking_Spaces_per_1BR": null, "F4F_Min_Parking_Spaces_per_mult_BR": null, "F3F_Elderly_Housing_Only": "No", "F4F_Elderly_Housing_Only": "No", "F4F_Affordable_Housing_Only": "No", "F4F_Proximity_to_Public_Transit_Required": null, "F4F_Connection_to_Sewage/Water_Required": null, "ADU_Allowance": "Allowed/Conditional", "ADU_Elderly_Housing_Only": "No", "ADU_Max_Size_as_Percent_of_Primary_Strcture": 30.0, "ADU_Max_Size_in_sq_ft": null, "ADU_Min_Lot_Size": 1.0, "ADU_Max_Bedrooms": 1.0, "ADU_Min_Parking_Spaces": null, "ADU_Owner_Occupancy_Required": "No", "ADU_Renter_Occupancy_Prohibited": "No", "ADU_Employee_or_Family_Occupancy_Required": "No", "ADU_Restricted_to_Primary_Structure": "No", "Affordable_Housing_Allowance": "Not Mentioned", "Affordable_Housing_District": "No", "Affordable_Housing_Elderly_Only": null, "Affordable_Housing_Min_Lot_Size": null, "Affordable_Housing_Max_Density": null, "Affordable_Housing_Min_Parking_Spaces_per_mult_BR": null, "Affordable_Housing_Max_Units_per_Building": null, "Affordable_Housing_Min_Parking_Spaces_per_1BR": null, "PRD_Allowance": "Not Mentioned", "PRD_Max_Density": null, "PRD_Max_Units": null, "PRD_Min_Lot_Size": null, "PRD_Mobile_or_Manufactured_Home_Park": null, "PUD_Allowance": null, "PUD_Required_with_Subdivision": null, "PUD_Requires_Land_Conservation": null, "PUD_Threshold_Number": null, "Notes": "None", "FIPS6": null}, "geometry": {"type": "MultiPolygon", "coordinates": [[[[-72.45365207038688, 44.13264845314018], [-72.45553959075023, 44.13335300397379], [-72.4581304820293, 44.12907087234452], [-72.46316270528266, 44.12032385237283], [-72.46815078626331, 44.11145580423772], [-72.47580818064557, 44.09805307413049], [-72.4817436887164, 44.08738655608032], [-72.4835273822035, 44.084326793700654], [-72.49392749644997, 44.065845368986125], [-72.50242519408432, 44.050367064373155], [-72.49627211400248, 44.04832498374043], [-72.47893542706642, 44.04236166834155], [-72.47512840879105, 44.04106274538397], [-72.4641054584413, 44.03711285400386], [-72.4540833555396, 44.03358976563358], [-72.45315330182326, 44.03326184821935], [-72.42895862280783, 44.0248167358638], [-72.40477081960323, 44.01636649375423], [-72.39328780731886, 44.01228042324966], [-72.38999242944344, 44.01117207208204], [-72.38578497686476, 44.009666618154384], [-72.38189919207863, 44.008172322099064], [-72.38183334563455, 44.00830032712153], [-72.3766550690196, 44.021128925037445], [-72.37147455314755, 44.03395725666818], [-72.3641208372909, 44.053533010381535], [-72.35592750918075, 44.07417629008926], [-72.3490440843942, 44.093401062222306], [-72.3487807736335, 44.09626912875786], [-72.35294335100515, 44.09766876512176], [-72.35842643320026, 44.09960872599323], [-72.37070383089231, 44.10385430232216], [-72.38298298814765, 44.10809855808509], [-72.3952639047078, 44.11234149269845], [-72.40754658031379, 44.116583105578776], [-72.42546006511438, 44.12269836029925], [-72.44337724805287, 44.12881080171439], [-72.44433840758239, 44.12916999529911], [-72.44454031099667, 44.12924544800887], [-72.44472669472596, 44.12931506533647], [-72.45365207038688, 44.13264845314018]], [[-72.42871506897453, 44.11659129181992], [-72.4285880492638, 44.11653974843143], [-72.42804641243212, 44.117168272452055], [-72.42038787762402, 44.10796870144875], [-72.41974193853417, 44.108347358165865], [-72.41918190397979, 44.10854821192976], [-72.41766642170363, 44.10894313429978], [-72.41708627250084, 44.109011631810596], [-72.41529248416288, 44.10882007003778], [-72.41479216140023, 44.10860903811883], [-72.41592081204632, 44.10135338097034], [-72.43112107361529, 44.09959705018357], [-72.4320483746601, 44.10037465735517], [-72.43273134086819, 44.100739015416444], [-72.43323238668692, 44.10083801669896], [-72.43289152851892, 44.10006298817125], [-72.4328118870308, 44.09936557606664], [-72.43300922825576, 44.09844543519074], [-72.43341682815075, 44.097785878770296], [-72.4345633019333, 44.0955826712421], [-72.43540364630371, 44.09566286944035], [-72.43642646149318, 44.09591176612439], [-72.43775190408203, 44.09634521613596], [-72.43877269078037, 44.09690950742479], [-72.43983718882494, 44.097275533660145], [-72.44119286241973, 44.0974290949711], [-72.44226005522764, 44.09741866096847], [-72.44315139397872, 44.09729028982379], [-72.44411989921686, 44.097238730950316], [-72.44481084685704, 44.09746559603171], [-72.44551429985812, 44.09793182262783], [-72.44459117551699, 44.09955602365617], [-72.44322080209075, 44.100496273420994], [-72.44219155503104, 44.101127745053816], [-72.440936146417, 44.10175822664848], [-72.4419079369673, 44.10326860527977], [-72.44032255488005, 44.103582083179546], [-72.43952917391206, 44.10383298571049], [-72.43884989892965, 44.10394694123087], [-72.4383816482828, 44.10420939440881], [-72.43801915119326, 44.10449790156366], [-72.4373183266293, 44.104657561106556], [-72.43646794632717, 44.1049691506875], [-72.43589252677822, 44.10538884790558], [-72.4348250698334, 44.10640174566463], [-72.43457460357011, 44.10682291974915], [-72.43506679817719, 44.10718641873535], [-72.43580654726182, 44.10752560356668], [-72.43471799586771, 44.117381883090225], [-72.43702362841677, 44.11825221434728], [-72.43759976133809, 44.118733052699206], [-72.43825039351498, 44.119697787771045], [-72.43940719959906, 44.121061463315336], [-72.43982618655548, 44.121790963330774], [-72.439929471822, 44.12219348859642], [-72.43988645067392, 44.122259403847735], [-72.43798433877222, 44.12330410244869], [-72.42965193789654, 44.118020315662726], [-72.4296961318176, 44.11777622565067], [-72.42960747204897, 44.11732293057849], [-72.42939779315846, 44.11699628313471], [-72.4291659596967, 44.11679167478665], [-72.42871506897453, 44.11659129181992]]]]}}]}