{"type": "FeatureCollection", "crs": {"type": "name", "properties": {"name": "urn:ogc:def:crs:OGC:1.3:CRS84"}}, "features": [{"type": "Feature", "properties": {"ABB_DIST_NAME": "OS", "Jurisdiction_County": "Orange", "Jurisdiction_District_Name": "Vershire"}, "geometry": {"type": "MultiPolygon", "coordinates": [[[[-72.31246858450943, 43.97018668851924], [-72.31630880629494, 43.97210626971504], [-72.31629750890157, 43.97214392309946], [-72.31632058422147, 43.97207646264043], [-72.31262197388928, 43.9702505172066], [-72.30868610210456, 43.967782476747814], [-72.31246858450943, 43.97018668851924]]], [[[-72.38183334563455, 44.00830032712153], [-72.38188747903342, 44.00816789898541], [-72.38189919207863, 44.008172322099064], [-72.38200204189371, 44.00749444100443], [-72.38291418844003, 44.00148448992234], [-72.38293743132145, 44.00133159985337], [-72.38306135465521, 44.00051369589963], [-72.3837588290091, 43.99591996920806], [-72.38410804175136, 43.99361410176397], [-72.38433901735593, 43.99209275486293], [-72.38434773118604, 43.992035163025356], [-72.38435960254759, 43.99195651201225], [-72.38522673297413, 43.98628849096856], [-72.38559244438659, 43.98389983019147], [-72.38561582418264, 43.983733347954086], [-72.38609717505766, 43.98030085989628], [-72.38696230658192, 43.9741290659725], [-72.387021558384, 43.973706651799766], [-72.38711820319124, 43.973018047326505], [-72.38726032962423, 43.97200232577958], [-72.38730972414501, 43.97164992371859], [-72.38804740905891, 43.96638890614031], [-72.38876779118173, 43.96124891511677], [-72.38878673378743, 43.961113659162045], [-72.38905623042434, 43.959154099937756], [-72.38751116023212, 43.959452888758825], [-72.38439283642127, 43.959245861332974], [-72.38130001200426, 43.95846613056291], [-72.3779152805897, 43.95690402167486], [-72.37566631888842, 43.9549972790565], [-72.37331384667077, 43.95436940281363], [-72.37138562521005, 43.95469545026491], [-72.36940318053522, 43.95414352360436], [-72.36604907631495, 43.955043220135856], [-72.36560083223328, 43.95567341331763], [-72.36301362104916, 43.957164109986614], [-72.36007915195883, 43.95598287525821], [-72.35640481933675, 43.95464937132856], [-72.35146267644109, 43.953488334083765], [-72.34667878705663, 43.951926179581], [-72.34452796035043, 43.95131913781656], [-72.34289957797125, 43.95085951418253], [-72.33795700826073, 43.94868631152317], [-72.33457303349195, 43.94611131981183], [-72.3338705431095, 43.94446318245303], [-72.3332228763605, 43.942943579202016], [-72.3307113935691, 43.94069252376218], [-72.32785621147572, 43.93779261490568], [-72.3266119923292, 43.93435753415411], [-72.32402090646791, 43.93078938965288], [-72.32438760205424, 43.92681920250498], [-72.32639219491286, 43.9237644998831], [-72.33027128091156, 43.92051806584583], [-72.33092931996372, 43.919893548064834], [-72.33099814669606, 43.9198818702069], [-72.33106298554675, 43.91985993590595], [-72.33114245779262, 43.91971239081148], [-72.331254273677, 43.91961726920108], [-72.33140646550093, 43.91958085248181], [-72.33146068466495, 43.91959661468231], [-72.33150779490246, 43.919610307993906], [-72.33156851687295, 43.91964705416302], [-72.33162934903123, 43.9196544664985], [-72.33165555543764, 43.91965766693289], [-72.33169014381983, 43.91966188954701], [-72.3316928162395, 43.919654265680485], [-72.33169574096512, 43.91964592125689], [-72.33171068319463, 43.91964003362836], [-72.33174614222023, 43.9196017353208], [-72.33176396585064, 43.91955381755979], [-72.33178622797347, 43.9194963308491], [-72.33184818027894, 43.91948043829201], [-72.33192336064337, 43.91946777018519], [-72.33199858236274, 43.919451898862505], [-72.3320517724566, 43.91940723537094], [-72.3320595028292, 43.91937518385857], [-72.33403923429215, 43.92065586936066], [-72.33923619973817, 43.92038310052152], [-72.34177386353345, 43.923048317928], [-72.34366264316023, 43.923610072473416], [-72.34363828764798, 43.92359722445076], [-72.34367963079016, 43.92355628081389], [-72.34370944434497, 43.923517685785896], [-72.34377494629706, 43.92344479420483], [-72.34380142995096, 43.92342001553911], [-72.34383451076745, 43.92338906534167], [-72.34387626976408, 43.92331613225145], [-72.34395951434898, 43.923277611042195], [-72.34406048946599, 43.92328205014548], [-72.34411958198065, 43.923272422088694], [-72.34419119059767, 43.923260754486876], [-72.34425657846893, 43.92324796501867], [-72.34432802665195, 43.92317937168852], [-72.34438753683246, 43.923136527363994], [-72.34444697857262, 43.92311943922163], [-72.34453610511066, 43.923106678304045], [-72.34461933907409, 43.92307674653399], [-72.34467878688659, 43.92305536151114], [-72.34477381818907, 43.92305119656926], [-72.34488672565989, 43.92303418261104], [-72.34496990600383, 43.92301712011568], [-72.34501158928595, 43.9229914230503], [-72.34502651811631, 43.92296988745395], [-72.345035391129, 43.92295710188618], [-72.34507715330194, 43.922884181856226], [-72.34512480311594, 43.9228327257293], [-72.345137180013, 43.92282382585394], [-72.34514863621355, 43.92281558985562], [-72.34517589724189, 43.922806670542634], [-72.34521399834395, 43.92279421076742], [-72.34526170740861, 43.92272558649071], [-72.34530936919735, 43.92266555386572], [-72.34537470511562, 43.92265276728609], [-72.34537473999316, 43.9226527628331], [-72.34547574875029, 43.922644318527155], [-72.34553513282114, 43.92264439701166], [-72.34562434952053, 43.92258869918401], [-72.34565408737869, 43.922580154817105], [-72.34573725100451, 43.922575979344074], [-72.34577881845111, 43.92257173868115], [-72.34584416063807, 43.922567537277715], [-72.34594837762171, 43.92246035041162], [-72.34598409668199, 43.92243034818004], [-72.34603167158437, 43.92240894374821], [-72.3461148410357, 43.92240047303969], [-72.34621581969999, 43.92240060447489], [-72.3463108644703, 43.92238785913591], [-72.34634042027888, 43.922380785902895], [-72.34641786516302, 43.922362251181774], [-72.34647148010387, 43.92230220896809], [-72.3465309987428, 43.92225077539483], [-72.3466439283797, 43.922216591553784], [-72.34674498014122, 43.92218667134005], [-72.34686380990159, 43.922165364799056], [-72.34692323918097, 43.922156853585555], [-72.34703609993106, 43.922148427375326], [-72.3472023431094, 43.92217870106033], [-72.34730333692343, 43.922165947549026], [-72.34735687641391, 43.92213597229746], [-72.34740446504273, 43.922105989974476], [-72.3474818017288, 43.922058862963986], [-72.34751745621969, 43.92205033320813], [-72.3476184616807, 43.92202900209663], [-72.34770170458172, 43.92199046644945], [-72.34785033301141, 43.92193915361101], [-72.3479453695237, 43.92193069196876], [-72.3480820628865, 43.921905111158935], [-72.34817127261607, 43.92185372249543], [-72.34826650342568, 43.92177657824358], [-72.3483378916695, 43.92172515048361], [-72.34842126348995, 43.921639410323934], [-72.3484986105762, 43.92158370439745], [-72.34857588041176, 43.92156232746711], [-72.34866560843405, 43.921553191264664], [-72.3487422485809, 43.92154538772216], [-72.34880044430076, 43.921534392500895], [-72.34885512313474, 43.92152406492493], [-72.34899786754798, 43.92144698739268], [-72.34917031350034, 43.921361355348786], [-72.34926546888383, 43.92131424974187], [-72.34937844760931, 43.92126718194951], [-72.349461622093, 43.921254414740574], [-72.34955670968303, 43.92123306601638], [-72.34964591380023, 43.92118596935724], [-72.34976478830004, 43.92115607171566], [-72.34984102098875, 43.9211367338451], [-72.3499015069158, 43.921109029212424], [-72.34997870920876, 43.92110913239024], [-72.3500381382396, 43.92110062045474], [-72.3501366953028, 43.92109629637167], [-72.35018496504257, 43.92096767078563], [-72.35019242687127, 43.92085324734998], [-72.35022203733085, 43.92052559221336], [-72.35041363372518, 43.92016693506804], [-72.35052191079603, 43.92003704049889], [-72.35055813875398, 43.919933056357024], [-72.35056571453529, 43.91978221578024], [-72.35056948226345, 43.9196509144955], [-72.3505736225955, 43.91950654877578], [-72.35052346472929, 43.919412856058116], [-72.3505268724126, 43.919294095394015], [-72.35053137293778, 43.919137186338794], [-72.35053149070411, 43.91908516802267], [-72.35053160846337, 43.91903315240614], [-72.35040645501036, 43.918731300223016], [-72.35037067002867, 43.91865323826226], [-72.35037812193141, 43.91854400436198], [-72.35042163541739, 43.91840882282909], [-72.35042547444417, 43.918368440541634], [-72.35042905006749, 43.91833081381904], [-72.350501281508, 43.91817494650685], [-72.33837319676236, 43.915421630936265], [-72.3379314714783, 43.915321282193624], [-72.33453222661348, 43.91454930878394], [-72.33434173024638, 43.91450601194727], [-72.32567611458609, 43.91253734084619], [-72.3180164298621, 43.910796608618824], [-72.30894037210119, 43.90873312994803], [-72.30854564507865, 43.908643455621004], [-72.29749925282613, 43.90613086090882], [-72.29502663114418, 43.90556816006212], [-72.29188398844698, 43.90485298013917], [-72.29169230995599, 43.90480942907925], [-72.28473461745094, 43.9032256980794], [-72.28448940477108, 43.90360118094678], [-72.27856805786837, 43.91407853620888], [-72.27853234096781, 43.91414146864678], [-72.27849674848802, 43.914204403114084], [-72.27437353772562, 43.92145836596848], [-72.27212607104377, 43.9254120802155], [-72.26591782566511, 43.9363839939586], [-72.2658901976613, 43.93637835715618], [-72.265407342816, 43.93722717792378], [-72.26481397459868, 43.938270806196094], [-72.26476606217051, 43.93835521973797], [-72.2647179004961, 43.93843963364536], [-72.26378497419108, 43.940079189063795], [-72.26180430651094, 43.94356081080018], [-72.26058543280033, 43.94570357890355], [-72.26021659478506, 43.94635127904496], [-72.26013580107207, 43.94649304441894], [-72.259649642646, 43.94734804170387], [-72.25670078770145, 43.95253083939453], [-72.25669790320573, 43.95253551341068], [-72.25503077578811, 43.955464518816015], [-72.25489197651713, 43.95570849017859], [-72.25311848971687, 43.958824083926494], [-72.25069986662129, 43.96307263987878], [-72.24454637542468, 43.973879184125124], [-72.24344556337148, 43.975811595445585], [-72.24338164157746, 43.97592395523685], [-72.24332475164213, 43.97602409042414], [-72.24331533332119, 43.97604053885427], [-72.24326937067342, 43.97612107797853], [-72.24140749813242, 43.97939009623771], [-72.24492820572887, 43.98011722040468], [-72.24514264879383, 43.98016153016073], [-72.24590228191529, 43.980318433184465], [-72.24591309905077, 43.98029926868558], [-72.24845898370152, 43.97578828871069], [-72.24987187202908, 43.97373643191232], [-72.25100978443483, 43.972124984004765], [-72.25408776938107, 43.96677510158484], [-72.25582641864169, 43.96438556664793], [-72.25730196520942, 43.96314096362768], [-72.25872784781349, 43.960537020757954], [-72.25884187326609, 43.96029772321376], [-72.2590214826972, 43.959348588425456], [-72.25926024669006, 43.95588597240926], [-72.25965388194204, 43.95381070366593], [-72.25981444987417, 43.95281813243282], [-72.25999889098411, 43.95185685370108], [-72.26044087871765, 43.9513440293437], [-72.26060343512661, 43.95098332905386], [-72.26082877761311, 43.95055681109375], [-72.26114521918323, 43.950175624155534], [-72.26163697192877, 43.94926538510683], [-72.262019182927, 43.948674312411434], [-72.26243317577007, 43.94795831083866], [-72.26294325747148, 43.94723643544279], [-72.26460305180733, 43.94473200298431], [-72.2648843985454, 43.94485247091693], [-72.26514655272119, 43.94501002411247], [-72.26530514622674, 43.94516937652205], [-72.26534949045723, 43.94521393634725], [-72.26630569350617, 43.94393307539731], [-72.267447060594, 43.94541825817313], [-72.27159402981248, 43.94959855942892], [-72.273707309354, 43.952347147256084], [-72.2742618867752, 43.95549645607924], [-72.27669254239711, 43.958454940393665], [-72.27893847259517, 43.960363622686295], [-72.28332485152592, 43.96141329131135], [-72.28133928366177, 43.96484636776034], [-72.28504278448803, 43.967615543543786], [-72.28385387102234, 43.96951856982751], [-72.28480728135776, 43.96991575956395], [-72.28521362455405, 43.97005324548079], [-72.28589168888684, 43.97028266421323], [-72.28660024556176, 43.9706391936547], [-72.28704942066159, 43.97086520231468], [-72.28765192683187, 43.97144777281373], [-72.28807638059467, 43.97228004298547], [-72.28851647243565, 43.972571316946976], [-72.29072729373777, 43.97319911875007], [-72.29308967996886, 43.97234006074856], [-72.29399050627336, 43.97146602384046], [-72.29563001137754, 43.97103071930813], [-72.29986052016604, 43.96494281449245], [-72.30100747764861, 43.96454913717475], [-72.30202355891129, 43.964386254480324], [-72.30288265417435, 43.964620638267434], [-72.3047036363869, 43.965533121379394], [-72.30811518220864, 43.967419559665714], [-72.30825212687988, 43.967506614358456], [-72.30791448126817, 43.96702353859192], [-72.30764301798115, 43.96658067397474], [-72.30798362994875, 43.96567721520689], [-72.30829469516529, 43.96485209459727], [-72.30846040723526, 43.96462404244868], [-72.30880795578287, 43.964145732775684], [-72.30903211180521, 43.963678626419835], [-72.3091745533184, 43.9633817964001], [-72.30943970888869, 43.96304952885622], [-72.31002333062276, 43.96281512060281], [-72.31031240439313, 43.96310039875233], [-72.31089032884562, 43.96321948812901], [-72.31100323767902, 43.96315755584531], [-72.31106124790988, 43.96312574125657], [-72.31231761926357, 43.9639005070727], [-72.31270066226251, 43.96349578783591], [-72.3182857823652, 43.965291280841505], [-72.31896907182457, 43.964239074577996], [-72.31936995113414, 43.96412819992023], [-72.32382293007565, 43.96562568133814], [-72.33078893675989, 43.96799495625713], [-72.3307841162906, 43.96925135395158], [-72.33123365220696, 43.96942523902774], [-72.3316748951599, 43.96959591681594], [-72.3303554890925, 43.97135546917588], [-72.33000402802328, 43.97216596879856], [-72.3310427864351, 43.975043414863244], [-72.32589895507422, 43.973597610349174], [-72.32493333072914, 43.975591192488935], [-72.31606198206973, 43.97292877934479], [-72.31602632605637, 43.973047594841766], [-72.3178704111611, 43.97575977432596], [-72.31832201102372, 43.979176108357116], [-72.31824384169542, 43.980893922432045], [-72.31692435999935, 43.98423451428171], [-72.3151550915097, 43.98719350492863], [-72.31283040918473, 43.990038110997766], [-72.31209956113113, 43.9910297465029], [-72.31153594991693, 43.99179444289191], [-72.31007971771827, 43.99355309997112], [-72.31097613094508, 43.9937376629615], [-72.3131540802606, 43.994186036017524], [-72.31333473623016, 43.99422332316468], [-72.32097234320905, 43.99579528602561], [-72.33656852192931, 43.999003390236], [-72.34019698164182, 43.99974942139366], [-72.34037966573592, 43.99978693679181], [-72.34293813815428, 44.00031285642339], [-72.34834433865046, 44.00142412676867], [-72.35277654783486, 44.00233471713391], [-72.35299464091463, 44.00237963905044], [-72.35415216153368, 44.00261737832135], [-72.35513508883646, 44.0028194228505], [-72.3577339534499, 44.00335316233569], [-72.36871929237553, 44.00560889733404], [-72.37096791189629, 44.00607046998083], [-72.37461368894307, 44.006818667004126], [-72.37919478405024, 44.00775899494054], [-72.38183334563455, 44.00830032712153]]]]}}, {"type": "Feature", "properties": {"ABB_DIST_NAME": "VIL", "Jurisdiction_County": "Orange", "Jurisdiction_District_Name": "Vershire"}, "geometry": {"type": "Polygon", "coordinates": [[[-72.32493333072914, 43.975591192488935], [-72.32589895507422, 43.973597610349174], [-72.3310427864351, 43.975043414863244], [-72.33000402802328, 43.97216596879856], [-72.3303554890925, 43.97135546917588], [-72.3316748951599, 43.96959591681594], [-72.33123365220696, 43.96942523902774], [-72.3307841162906, 43.96925135395158], [-72.33078893675989, 43.96799495625713], [-72.32382293007565, 43.96562568133814], [-72.31936995113414, 43.96412819992023], [-72.31896907182457, 43.964239074577996], [-72.3182857823652, 43.965291280841505], [-72.31270066226251, 43.96349578783591], [-72.31231761926357, 43.9639005070727], [-72.31106124790988, 43.96312574125657], [-72.31100323767902, 43.96315755584531], [-72.31089032884562, 43.96321948812901], [-72.31031240439313, 43.96310039875233], [-72.31002333062276, 43.96281512060281], [-72.30943970888869, 43.96304952885622], [-72.3091745533184, 43.9633817964001], [-72.30903211180521, 43.963678626419835], [-72.30880795578287, 43.964145732775684], [-72.30846040723526, 43.96462404244868], [-72.30829469516529, 43.96485209459727], [-72.30798362994875, 43.96567721520689], [-72.30764301798115, 43.96658067397474], [-72.30791448126817, 43.96702353859192], [-72.30825212687988, 43.967506614358456], [-72.30868610210456, 43.967782476747814], [-72.31262197388928, 43.9702505172066], [-72.31632058422147, 43.97207646264043], [-72.31629750890157, 43.97214392309946], [-72.31606198206973, 43.97292877934479], [-72.32493333072914, 43.975591192488935]]]}}, {"type": "Feature", "properties": {"ABB_DIST_NAME": "RR", "Jurisdiction_County": "Orange", "Jurisdiction_District_Name": "Vershire"}, "geometry": {"type": "MultiPolygon", "coordinates": [[[[-72.37566631888842, 43.9549972790565], [-72.3779152805897, 43.95690402167486], [-72.38130001200426, 43.95846613056291], [-72.38439283642127, 43.959245861332974], [-72.38751116023212, 43.959452888758825], [-72.38905623042434, 43.959154099937756], [-72.39001407734874, 43.952188350134605], [-72.39032014239436, 43.95003990984167], [-72.39157060399278, 43.94082018918181], [-72.3917379075801, 43.93957335181865], [-72.39176202278996, 43.93939426906426], [-72.39420148593622, 43.92898226606515], [-72.38780220357143, 43.926633551598805], [-72.38761934728369, 43.926592151232036], [-72.36909268691956, 43.922392757380116], [-72.36599444032373, 43.92169010782918], [-72.36442605420979, 43.921334273946044], [-72.36419917349272, 43.92128288343861], [-72.36232154365604, 43.92085689998006], [-72.3620259690334, 43.92078984995586], [-72.350501281508, 43.91817494650685], [-72.35042905006749, 43.91833081381904], [-72.35042547444417, 43.918368440541634], [-72.35042163541739, 43.91840882282909], [-72.35037812193141, 43.91854400436198], [-72.35037067002867, 43.91865323826226], [-72.35040645501036, 43.918731300223016], [-72.35053160846337, 43.91903315240614], [-72.35053149070411, 43.91908516802267], [-72.35053137293778, 43.919137186338794], [-72.3505268724126, 43.919294095394015], [-72.35052346472929, 43.919412856058116], [-72.3505736225955, 43.91950654877578], [-72.35056948226345, 43.9196509144955], [-72.35056571453529, 43.91978221578024], [-72.35055813875398, 43.919933056357024], [-72.35052191079603, 43.92003704049889], [-72.35041363372518, 43.92016693506804], [-72.35022203733085, 43.92052559221336], [-72.35019242687127, 43.92085324734998], [-72.35018496504257, 43.92096767078563], [-72.3501366953028, 43.92109629637167], [-72.3500381382396, 43.92110062045474], [-72.34997870920876, 43.92110913239024], [-72.3499015069158, 43.921109029212424], [-72.34984102098875, 43.9211367338451], [-72.34976478830004, 43.92115607171566], [-72.34964591380023, 43.92118596935724], [-72.34955670968303, 43.92123306601638], [-72.349461622093, 43.921254414740574], [-72.34937844760931, 43.92126718194951], [-72.34926546888383, 43.92131424974187], [-72.34917031350034, 43.921361355348786], [-72.34899786754798, 43.92144698739268], [-72.34885512313474, 43.92152406492493], [-72.34880044430076, 43.921534392500895], [-72.3487422485809, 43.92154538772216], [-72.34866560843405, 43.921553191264664], [-72.34857588041176, 43.92156232746711], [-72.3484986105762, 43.92158370439745], [-72.34842126348995, 43.921639410323934], [-72.3483378916695, 43.92172515048361], [-72.34826650342568, 43.92177657824358], [-72.34817127261607, 43.92185372249543], [-72.3480820628865, 43.921905111158935], [-72.3479453695237, 43.92193069196876], [-72.34785033301141, 43.92193915361101], [-72.34770170458172, 43.92199046644945], [-72.3476184616807, 43.92202900209663], [-72.34751745621969, 43.92205033320813], [-72.3474818017288, 43.922058862963986], [-72.34740446504273, 43.922105989974476], [-72.34735687641391, 43.92213597229746], [-72.34730333692343, 43.922165947549026], [-72.3472023431094, 43.92217870106033], [-72.34703609993106, 43.922148427375326], [-72.34692323918097, 43.922156853585555], [-72.34686380990159, 43.922165364799056], [-72.34674498014122, 43.92218667134005], [-72.3466439283797, 43.922216591553784], [-72.3465309987428, 43.92225077539483], [-72.34647148010387, 43.92230220896809], [-72.34641786516302, 43.922362251181774], [-72.34634042027888, 43.922380785902895], [-72.3463108644703, 43.92238785913591], [-72.34621581969999, 43.92240060447489], [-72.3461148410357, 43.92240047303969], [-72.34603167158437, 43.92240894374821], [-72.34598409668199, 43.92243034818004], [-72.34594837762171, 43.92246035041162], [-72.34584416063807, 43.922567537277715], [-72.34577881845111, 43.92257173868115], [-72.34573725100451, 43.922575979344074], [-72.34565408737869, 43.922580154817105], [-72.34562434952053, 43.92258869918401], [-72.34553513282114, 43.92264439701166], [-72.34547574875029, 43.922644318527155], [-72.34537473999316, 43.9226527628331], [-72.34537470511562, 43.92265276728609], [-72.34530936919735, 43.92266555386572], [-72.34526170740861, 43.92272558649071], [-72.34521399834395, 43.92279421076742], [-72.34517589724189, 43.922806670542634], [-72.34514863621355, 43.92281558985562], [-72.345137180013, 43.92282382585394], [-72.34512480311594, 43.9228327257293], [-72.34507715330194, 43.922884181856226], [-72.345035391129, 43.92295710188618], [-72.34502651811631, 43.92296988745395], [-72.34501158928595, 43.9229914230503], [-72.34496990600383, 43.92301712011568], [-72.34488672565989, 43.92303418261104], [-72.34477381818907, 43.92305119656926], [-72.34467878688659, 43.92305536151114], [-72.34461933907409, 43.92307674653399], [-72.34453610511066, 43.923106678304045], [-72.34444697857262, 43.92311943922163], [-72.34438753683246, 43.923136527363994], [-72.34432802665195, 43.92317937168852], [-72.34425657846893, 43.92324796501867], [-72.34419119059767, 43.923260754486876], [-72.34411958198065, 43.923272422088694], [-72.34406048946599, 43.92328205014548], [-72.34395951434898, 43.923277611042195], [-72.34387626976408, 43.92331613225145], [-72.34383451076745, 43.92338906534167], [-72.34380142995096, 43.92342001553911], [-72.34377494629706, 43.92344479420483], [-72.34370944434497, 43.923517685785896], [-72.34367963079016, 43.92355628081389], [-72.34363828764798, 43.92359722445076], [-72.34366264316023, 43.923610072473416], [-72.34177386353345, 43.923048317928], [-72.33923619973817, 43.92038310052152], [-72.33403923429215, 43.92065586936066], [-72.3320595028292, 43.91937518385857], [-72.3320517724566, 43.91940723537094], [-72.33199858236274, 43.919451898862505], [-72.33192336064337, 43.91946777018519], [-72.33184818027894, 43.91948043829201], [-72.33178622797347, 43.9194963308491], [-72.33176396585064, 43.91955381755979], [-72.33174614222023, 43.9196017353208], [-72.33171068319463, 43.91964003362836], [-72.33169574096512, 43.91964592125689], [-72.3316928162395, 43.919654265680485], [-72.33169014381983, 43.91966188954701], [-72.33165555543764, 43.91965766693289], [-72.33162934903123, 43.9196544664985], [-72.33156851687295, 43.91964705416302], [-72.33150779490246, 43.919610307993906], [-72.33146068466495, 43.91959661468231], [-72.33140646550093, 43.91958085248181], [-72.331254273677, 43.91961726920108], [-72.33114245779262, 43.91971239081148], [-72.33106298554675, 43.91985993590595], [-72.33099814669606, 43.9198818702069], [-72.33092931996372, 43.919893548064834], [-72.33027128091156, 43.92051806584583], [-72.32639219491286, 43.9237644998831], [-72.32438760205424, 43.92681920250498], [-72.32402090646791, 43.93078938965288], [-72.3266119923292, 43.93435753415411], [-72.32785621147572, 43.93779261490568], [-72.3307113935691, 43.94069252376218], [-72.3332228763605, 43.942943579202016], [-72.3338705431095, 43.94446318245303], [-72.33457303349195, 43.94611131981183], [-72.33795700826073, 43.94868631152317], [-72.34289957797125, 43.95085951418253], [-72.34452796035043, 43.95131913781656], [-72.34667878705663, 43.951926179581], [-72.35146267644109, 43.953488334083765], [-72.35640481933675, 43.95464937132856], [-72.36007915195883, 43.95598287525821], [-72.36301362104916, 43.957164109986614], [-72.36560083223328, 43.95567341331763], [-72.36604907631495, 43.955043220135856], [-72.36940318053522, 43.95414352360436], [-72.37138562521005, 43.95469545026491], [-72.37331384667077, 43.95436940281363], [-72.37566631888842, 43.9549972790565]]], [[[-72.24987187202908, 43.97373643191232], [-72.24845898370152, 43.97578828871069], [-72.24591309905077, 43.98029926868558], [-72.24590228191529, 43.980318433184465], [-72.25465443307746, 43.9821257749628], [-72.2641590012466, 43.98408759244845], [-72.26434432871798, 43.98412586497679], [-72.26875614209719, 43.98503625384799], [-72.26894023003382, 43.9850742482006], [-72.28460040574929, 43.988303709938705], [-72.29173658006438, 43.98977471020428], [-72.29200054823497, 43.989829101585606], [-72.29552797690125, 43.990555847784364], [-72.3033709469998, 43.992171567398245], [-72.3084188486361, 43.993211120017435], [-72.31007971771827, 43.99355309997112], [-72.31153594991693, 43.99179444289191], [-72.31209956113113, 43.9910297465029], [-72.31283040918473, 43.990038110997766], [-72.3151550915097, 43.98719350492863], [-72.31692435999935, 43.98423451428171], [-72.31824384169542, 43.980893922432045], [-72.31832201102372, 43.979176108357116], [-72.3178704111611, 43.97575977432596], [-72.31602632605637, 43.973047594841766], [-72.31606198206973, 43.97292877934479], [-72.31629750890157, 43.97214392309946], [-72.31630880629494, 43.97210626971504], [-72.31246858450943, 43.97018668851924], [-72.30868610210456, 43.967782476747814], [-72.30825212687988, 43.967506614358456], [-72.30811518220864, 43.967419559665714], [-72.3047036363869, 43.965533121379394], [-72.30288265417435, 43.964620638267434], [-72.30202355891129, 43.964386254480324], [-72.30100747764861, 43.96454913717475], [-72.29986052016604, 43.96494281449245], [-72.29563001137754, 43.97103071930813], [-72.29399050627336, 43.97146602384046], [-72.29308967996886, 43.97234006074856], [-72.29072729373777, 43.97319911875007], [-72.28851647243565, 43.972571316946976], [-72.28807638059467, 43.97228004298547], [-72.28765192683187, 43.97144777281373], [-72.28704942066159, 43.97086520231468], [-72.28660024556176, 43.9706391936547], [-72.28589168888684, 43.97028266421323], [-72.28521362455405, 43.97005324548079], [-72.28480728135776, 43.96991575956395], [-72.28385387102234, 43.96951856982751], [-72.28504278448803, 43.967615543543786], [-72.28133928366177, 43.96484636776034], [-72.28332485152592, 43.96141329131135], [-72.27893847259517, 43.960363622686295], [-72.27669254239711, 43.958454940393665], [-72.2742618867752, 43.95549645607924], [-72.273707309354, 43.952347147256084], [-72.27159402981248, 43.94959855942892], [-72.267447060594, 43.94541825817313], [-72.26630569350617, 43.94393307539731], [-72.26534949045723, 43.94521393634725], [-72.26530514622674, 43.94516937652205], [-72.26514655272119, 43.94501002411247], [-72.2648843985454, 43.94485247091693], [-72.26460305180733, 43.94473200298431], [-72.26294325747148, 43.94723643544279], [-72.26243317577007, 43.94795831083866], [-72.262019182927, 43.948674312411434], [-72.26163697192877, 43.94926538510683], [-72.26114521918323, 43.950175624155534], [-72.26082877761311, 43.95055681109375], [-72.26060343512661, 43.95098332905386], [-72.26044087871765, 43.9513440293437], [-72.25999889098411, 43.95185685370108], [-72.25981444987417, 43.95281813243282], [-72.25965388194204, 43.95381070366593], [-72.25926024669006, 43.95588597240926], [-72.2590214826972, 43.959348588425456], [-72.25884187326609, 43.96029772321376], [-72.25872784781349, 43.960537020757954], [-72.25730196520942, 43.96314096362768], [-72.25582641864169, 43.96438556664793], [-72.25408776938107, 43.96677510158484], [-72.25100978443483, 43.972124984004765], [-72.24987187202908, 43.97373643191232]]]]}}]}