{"type":"FeatureCollection","name":"Orleans_Troy","features":[{"type":"Feature","properties":{"OBJECT_ID":680,"County":"Orleans","RPC":"NVDA","Municipal_Name":"Troy","GEO_ID":"5001973525","District_Name":"Rural District","Abbreviated_District_Name":"Ru","District_Type":"Mixed with Residential","Bylaw_Date":null,"Elderly_Housing_District":"No","District_Mapped":"Yes","Overlay_District":"No","Base_Density":null,"FIPS6":null,"GIS_ID":null,"Last_Update":null,"Shape_Length":61331.535413199854,"Shape_Area":84798073.70902385,"F1F_Allowance":"Permitted","F1F_Front_Setback":40.0,"F1F_Side_Setback":25.0,"F1F_Rear_Setback":25.0,"F1F_Frontage":125.0,"F1F_Max_Height":null,"F1F_Max_Stories":null,"F1F_Min_Lot_Size":5.0,"F1F_Max_Lot_Building_Coverage":null,"F1F_Max_Lot_Impervious_Coverage":null,"F1F_Min_Parking_Spaces":2.0,"F1F_Elderly_Housing_Only":null,"F1F_Affordable_Housing_Only":null,"F2F_Allowance":"Permitted","F2F_Front_Setback":40.0,"F2F_Side_Setback":25.0,"F2F_Rear_Setback":25.0,"F2F_Frontage":125.0,"F2F_Max_Density":null,"F2F_Max_Height":null,"F2F_Max_Stories":null,"F2F_Min_Lot_Size":5.0,"F2F_Max_Lot_Building_Coverage":null,"F2F_Max_Lot_Impervious_Coverage":null,"F2F_Min_Parking_Spaces_per_1BR":1.5,"F2F_Min_Parking_Spaces_per_mult_BR":1.5,"F2F_Elderly_Housing_Only":"No","F2F_Affordable_Housing_Only":"No","F3F_Allowance":"Public Hearing","F3F_Front_Setback":40.0,"F3F_Side_Setback":25.0,"F3F_Rear_Setback":25.0,"F3F_Frontage":125.0,"F3F_Max_Density":null,"F3F_Max_Height":null,"F3F_Max_Stories":null,"F3F_Min_Lot_Size":5.0,"F3F_Max_Lot_Building_Coverage":null,"F3F_Max_Lot_Impervious_Coverage":null,"F3F_Min_Parking_Spaces_per_1BR":1.5,"F3F_Min_Parking_Spaces_per_mult_BR":1.5,"F3F_Affordable_Housing_Only":"No","F3F_Proximity_to_Public_Transit_Required":"No","F3F_Connection_to_Sewage/Water_Required":"No","F4F_Allowance":"Public Hearing","F4F_Front_Setback":40.0,"F4F_Side_Setback":25.0,"F4F_Rear_Setback":25.0,"F4F_Frontage":125.0,"F1F_Max_Density":null,"F4F_Max_Density":null,"F4F_Max_Height":null,"F4F_Max_Stories":null,"F4F_Min_Lot_Size":5.0,"F4F_Max_Lot_Building_Coverage":null,"F4F_Max_Lot_Impervious_Coverage":null,"F4F_Min_Parking_Spaces_per_1BR":1.5,"F4F_Min_Parking_Spaces_per_mult_BR":1.5,"F3F_Elderly_Housing_Only":"No","F4F_Elderly_Housing_Only":"No","F4F_Affordable_Housing_Only":"No","F4F_Proximity_to_Public_Transit_Required":"No","F4F_Connection_to_Sewage/Water_Required":"No","ADU_Allowance":"Allowed/Conditional","ADU_Elderly_Housing_Only":"No","ADU_Max_Size_as_Percent_of_Primary_Strcture":50.0,"ADU_Max_Size_in_sq_ft":1500.0,"ADU_Min_Lot_Size":5.0,"ADU_Max_Bedrooms":1.0,"ADU_Min_Parking_Spaces":1.0,"ADU_Owner_Occupancy_Required":"Yes","ADU_Renter_Occupancy_Prohibited":"No","ADU_Employee_or_Family_Occupancy_Required":"No","ADU_Restricted_to_Primary_Structure":"No","Affordable_Housing_Allowance":"Not Mentioned","Affordable_Housing_District":"No","Affordable_Housing_Elderly_Only":null,"Affordable_Housing_Min_Lot_Size":null,"Affordable_Housing_Max_Density":null,"Affordable_Housing_Min_Parking_Spaces_per_mult_BR":null,"Affordable_Housing_Max_Units_per_Building":null,"Affordable_Housing_Min_Parking_Spaces_per_1BR":null,"PRD_Allowance":"Not Mentioned","PRD_Max_Density":null,"PRD_Max_Units":null,"PRD_Min_Lot_Size":null,"PRD_Mobile_or_Manufactured_Home_Park":null,"PUD_Allowance":"Yes","PUD_Required_with_Subdivision":"No","PUD_Requires_Land_Conservation":"No","PUD_Threshold_Number":null,"Notes":"None"},"geometry":{"type":"MultiPolygon","coordinates":[[[[-72.39539478639524,44.841281344571826],[-72.39472962300734,44.841291308014625],[-72.39460764745444,44.84129306819197],[-72.39230474393591,44.841326269335546],[-72.38529577698014,44.841418447357945],[-72.38289771400177,44.841449142272545],[-72.37457182536077,44.84150583916427],[-72.37132558962804,44.84158412778468],[-72.37108634916055,44.84253862768527],[-72.3704167582829,44.84520995176509],[-72.36706836873695,44.859593536121196],[-72.3670675189247,44.859597198572565],[-72.36504120030452,44.868235906116745],[-72.36355069574532,44.874601952669565],[-72.36331348521844,44.8755422581873],[-72.36330488322385,44.875574239689676],[-72.35962262368376,44.8892650130991],[-72.35954340761307,44.8895595804018],[-72.35937707184773,44.8901770315602],[-72.35916998251247,44.89094539009968],[-72.3566252487798,44.900387780643676],[-72.35650299455416,44.90084132532621],[-72.35560239237847,44.90418213523771],[-72.35288850291774,44.914423564136634],[-72.35272974047287,44.915022994404126],[-72.35245687650844,44.91604932235513],[-72.35245594431143,44.91605281357815],[-72.346182450965,44.939468001254134],[-72.34260676547618,44.95317137813209],[-72.33961080953134,44.964720225418006],[-72.33952158300697,44.96506254038786],[-72.33675256473613,44.975693784329984],[-72.33597762722655,44.97874818659929],[-72.33512533278692,44.98210710166092],[-72.33415628168432,44.985925561243015],[-72.33405499077017,44.98632479133683],[-72.33392560779296,44.98683069569601],[-72.33392391618514,44.98683729915983],[-72.32919993891448,45.00494612167991],[-72.34685038266174,45.00551858337491],[-72.36450118443761,45.00608831757704],[-72.36810276392603,45.006207833308004],[-72.37904199291036,45.00638510206699],[-72.38800538212203,45.006269800277195],[-72.393369663316,45.00646886331546],[-72.39387294123239,45.00648753903113],[-72.39212521003996,45.004824064212485],[-72.39159772358065,45.004322008353974],[-72.39159946376425,45.003399232442405],[-72.39126668864742,45.00250249722772],[-72.39114267311464,45.00116726072557],[-72.3908845678654,45.00069106244344],[-72.39083768716998,45.00071990060522],[-72.39075078824108,45.00062828866309],[-72.39014340744302,44.99913892358554],[-72.38809905186353,44.997322790793646],[-72.3872967830973,44.99727186232586],[-72.38613481146699,44.9959202375681],[-72.3863450080372,44.99588356594701],[-72.38642836136141,44.99571675079373],[-72.38602185862061,44.99431426596384],[-72.38590912597884,44.994330066631136],[-72.38558808593301,44.99396726600902],[-72.3852487965098,44.99376927096926],[-72.38533720703134,44.99184476221708],[-72.38694901066164,44.992431263160704],[-72.38545762238196,44.99082685800389],[-72.38475251691514,44.98941576271796],[-72.38591036106772,44.98898954255743],[-72.38591327555223,44.98893882628347],[-72.38599874522711,44.98745162618714],[-72.38756678666722,44.98711982489943],[-72.38745260178796,44.98686521745143],[-72.38741749794372,44.986565016007546],[-72.38759081511162,44.986298265453044],[-72.38807743755379,44.98583425265162],[-72.3880677741082,44.98657897410179],[-72.38857800016746,44.98658514937636],[-72.39731108216682,44.986690850411335],[-72.39725590742576,44.986687333601274],[-72.39682548091596,44.98396223482669],[-72.39649891701303,44.98259430981113],[-72.39625173249489,44.98226822004188],[-72.40689293619509,44.9820609267012],[-72.40717544292836,44.98233192866345],[-72.40766674317786,44.982046890663],[-72.41614024404736,44.981859444935],[-72.41688216113748,44.98256964278267],[-72.41727299748842,44.98274646618885],[-72.41845354450423,44.98765513460888],[-72.41843316310639,44.987910826222475],[-72.41837740239508,44.98791102485043],[-72.41942309583034,44.992195814942484],[-72.42051711179495,44.99764555201787],[-72.42048090336843,44.99770088742655],[-72.4221896268779,45.00511241871098],[-72.42224250999756,45.00511479887333],[-72.42284233346045,45.00763800477057],[-72.42484626196293,45.007755811245495],[-72.4333389021632,45.00804643061762],[-72.4317084246002,45.0017076592693],[-72.43150070866352,45.00089833512501],[-72.43149943609995,45.00089335810951],[-72.43143173909148,45.00062878332878],[-72.4294643789857,44.992940754700555],[-72.42933380854176,44.99243260959406],[-72.42701551926024,44.98345165314549],[-72.42701488590052,44.98344916460698],[-72.42266417602939,44.96627321403351],[-72.42184690460792,44.96309755997277],[-72.42165806424917,44.96236442731522],[-72.41886126915271,44.95151403933459],[-72.40966556623081,44.95131995008892],[-72.4092401085954,44.95128197110777],[-72.40924028980909,44.951166987324804],[-72.40672948779236,44.95114015856283],[-72.40597146157333,44.94869522316628],[-72.40530682440651,44.94866517260005],[-72.40490161781881,44.94538751082083],[-72.40294528125645,44.94545345009493],[-72.40279068502136,44.94405199124336],[-72.40305978153195,44.944036295801155],[-72.40317549393035,44.9418945913667],[-72.4042069169729,44.94187953695631],[-72.40427385110338,44.94207864523033],[-72.40481198527523,44.94207113292039],[-72.40482345922045,44.941911900760914],[-72.40999193869912,44.941732962975905],[-72.41031963093364,44.94007710473375],[-72.41199014992802,44.939974897094395],[-72.41204655467045,44.9397440399624],[-72.41582210615414,44.93950519143332],[-72.41366065445162,44.93080527723229],[-72.41256931565471,44.92633546096465],[-72.41245883832808,44.92503043185829],[-72.41143721772603,44.91290784369988],[-72.41128434233724,44.91107585336907],[-72.40551740160674,44.91105940192017],[-72.4053969975711,44.91106103631635],[-72.40585448416708,44.912087047747214],[-72.405081759802,44.91290860039657],[-72.40502155871499,44.91290844596233],[-72.40410396144449,44.913717663553676],[-72.40362586713397,44.91397834558656],[-72.40316524282365,44.914524850821806],[-72.40309896829052,44.91477816528138],[-72.4020826989902,44.915978393090604],[-72.40173672149018,44.91613141179305],[-72.40110256840575,44.91620124569383],[-72.40037905799393,44.91610924056042],[-72.40016493505249,44.91613797027343],[-72.39965691105243,44.915981021840295],[-72.39938488944208,44.91598679190774],[-72.39901686866192,44.91607360410606],[-72.39862639727586,44.91625541422927],[-72.39696270382126,44.91635672657767],[-72.39669786277163,44.91627746723455],[-72.39656914310237,44.91623894213484],[-72.39642800086075,44.91605084226899],[-72.39630379677365,44.9161665960827],[-72.39644310078803,44.91591209384012],[-72.39645489486529,44.91575798688622],[-72.39633879674757,44.91520740711659],[-72.39614549946336,44.914993604884835],[-72.39577589579282,44.914744807268335],[-72.39555629793075,44.91469119437467],[-72.39510819607837,44.914733890584586],[-72.39492159487449,44.91482000479538],[-72.39459130033391,44.91525508498122],[-72.39440610117398,44.915341201435574],[-72.39410839736556,44.91530189537808],[-72.39384269536471,44.91519080710309],[-72.39356989821592,44.914972793447326],[-72.3935530003047,44.914740694561],[-72.3937529993166,44.91441839495464],[-72.39392299907041,44.913935803253544],[-72.39413149678913,44.91376758624305],[-72.39463049236413,44.91357090320663],[-72.3947434982248,44.9134333925735],[-72.39478720244057,44.91323210209571],[-72.39484005095495,44.91207463043849],[-72.39494232554675,44.91154380502338],[-72.39523498965353,44.910779181226],[-72.39534393301192,44.910641353946524],[-72.3960475308108,44.909628067596415],[-72.39622562998751,44.90917829533126],[-72.39627699891837,44.90878239689089],[-72.3962139246846,44.90864735408547],[-72.39603696506019,44.90846722175913],[-72.39584719596412,44.908368061221545],[-72.39568293647861,44.90816993783048],[-72.39567071291876,44.90792697090519],[-72.39579763165948,44.907765094064764],[-72.39602521429634,44.907712468653585],[-72.39609334408047,44.907696715275165],[-72.3968745605439,44.90744211132188],[-72.39712805638435,44.90730735889787],[-72.39733111556775,44.907055587026356],[-72.39712974031772,44.90636249216341],[-72.39705529495247,44.90550559732511],[-72.39713161082699,44.90531864045093],[-72.39709403467684,44.90508462792053],[-72.39651272710782,44.90443618906865],[-72.39664009863357,44.904022364074535],[-72.39719798484028,44.90359993203248],[-72.39799627820834,44.9032676849276],[-72.39840187192664,44.90303406499212],[-72.39866865982584,44.9025303879342],[-72.3988968890055,44.90235060242994],[-72.39935283811792,44.90227901741529],[-72.4002895923133,44.902405823243036],[-72.40047936243883,44.90249598669893],[-72.40071998051104,44.902469197006894],[-72.40088472550684,44.902388333767256],[-72.40103695250558,44.9022174858016],[-72.4010120021533,44.90200149467936],[-72.40091085662513,44.90192041593002],[-72.4009110486856,44.9018034406364],[-72.40054389199993,44.90178513288757],[-72.40044318901363,44.90144308516184],[-72.40063455397494,44.90060635657049],[-72.40083741324725,44.90044454986459],[-72.40120452282686,44.90048987375077],[-72.40155881573054,44.90061615487195],[-72.40160932821414,44.900697184057876],[-72.40158357300591,44.900949148237615],[-72.40136780639716,44.901254922398735],[-72.40130390472125,44.90160580170116],[-72.40154405921736,44.90184897941067],[-72.401784427678,44.90196618342755],[-72.40302500145414,44.902129202213715],[-72.4032401260948,44.902201377805255],[-72.40351873695893,44.902174625195435],[-72.40372145724108,44.90209380163222],[-72.40382285338589,44.90203090713299],[-72.40386111348664,44.90186895636713],[-72.40365954249422,44.901256868669876],[-72.40355847973512,44.901121803090064],[-72.40355885330685,44.90089682155967],[-72.40359706570946,44.900761889725665],[-72.4038888754504,44.90040217980391],[-72.40399084385086,44.899997323744685],[-72.40401779569063,44.89901646279834],[-72.403929456964,44.898845404850185],[-72.40394244123623,44.89864744556257],[-72.40405645093492,44.898611549756126],[-72.40452481784196,44.89866593511307],[-72.40475276217163,44.89863913440963],[-72.40528440270539,44.898711567021074],[-72.40533522604498,44.89875501491594],[-72.40544890932988,44.89876570068671],[-72.40561318658413,44.898954809764966],[-72.40573843709745,44.899791786199216],[-72.4058392893934,44.90005285101082],[-72.40602893618589,44.90022397374848],[-72.40629477961954,44.9002512020934],[-72.40666256644695,44.8998735479484],[-72.40668836918577,44.899576613770265],[-72.40660001788416,44.89940555789427],[-72.40643545631163,44.89938741928204],[-72.40634738104492,44.89904539416145],[-72.40619552424998,44.899000265592925],[-72.40632146243435,44.899414317763174],[-72.4063206245004,44.899927247333096],[-72.40623180950676,44.90004416524576],[-72.40611783267731,44.90006206562702],[-72.40592847002814,44.89971995241965],[-72.40577796966747,44.89883794871023],[-72.40563898212528,44.89866687098013],[-72.40538321057953,44.898549269000355],[-72.40496824275061,44.89848632514579],[-72.40470230779317,44.89852210869434],[-72.40444916381436,44.89847688694033],[-72.4040186764232,44.89848553108019],[-72.40423456797585,44.898089761962325],[-72.40429843072148,44.897756870293584],[-72.40443781324313,44.89768499021587],[-72.40464086358503,44.897397197069004],[-72.40474292410673,44.89692934041622],[-72.40494621974612,44.89648856887274],[-72.40508575271217,44.89632672517774],[-72.40552914315924,44.89615610904391],[-72.4060486900231,44.89586856567618],[-72.40674621861467,44.895122233935275],[-72.40713908969049,44.894870603410894],[-72.40938065026867,44.894413462554745],[-72.40958321069976,44.89441361679698],[-72.40989203361225,44.89451970944265],[-72.40986846138455,44.89424118107467],[-72.40982672449366,44.89374903072382],[-72.40862279452173,44.879365689449784],[-72.4082999515098,44.87534530632357],[-72.40815977928078,44.87364388501584],[-72.40716380898759,44.862262231013915],[-72.40653847577548,44.857130436819986],[-72.40627403944096,44.8549275793774],[-72.40609471755793,44.85341486613076],[-72.4057641171773,44.85062615212238],[-72.40568151849267,44.84992937937441],[-72.40557268152985,44.849011209446765],[-72.4055453652943,44.84880431141507],[-72.40547000390698,44.84823351793044],[-72.40531405781839,44.84705233118849],[-72.4053017660797,44.846962807225495],[-72.40450299174034,44.84114451603533],[-72.39539478639524,44.841281344571826]]]]}},{"type":"Feature","properties":{"OBJECT_ID":679,"County":"Orleans","RPC":"NVDA","Municipal_Name":"Troy","GEO_ID":"5001973525","District_Name":"River Corridor Overlay District","Abbreviated_District_Name":"Rco","District_Type":"Overlay","Bylaw_Date":null,"Elderly_Housing_District":"No","District_Mapped":"Yes","Overlay_District":"Yes","Base_Density":null,"FIPS6":null,"GIS_ID":null,"Last_Update":null,"Shape_Length":71954.23717503432,"Shape_Area":5312943.2114702305,"F1F_Allowance":null,"F1F_Front_Setback":null,"F1F_Side_Setback":null,"F1F_Rear_Setback":null,"F1F_Frontage":null,"F1F_Max_Height":null,"F1F_Max_Stories":null,"F1F_Min_Lot_Size":null,"F1F_Max_Lot_Building_Coverage":null,"F1F_Max_Lot_Impervious_Coverage":null,"F1F_Min_Parking_Spaces":null,"F1F_Elderly_Housing_Only":null,"F1F_Affordable_Housing_Only":null,"F2F_Allowance":null,"F2F_Front_Setback":null,"F2F_Side_Setback":null,"F2F_Rear_Setback":null,"F2F_Frontage":null,"F2F_Max_Density":null,"F2F_Max_Height":null,"F2F_Max_Stories":null,"F2F_Min_Lot_Size":null,"F2F_Max_Lot_Building_Coverage":null,"F2F_Max_Lot_Impervious_Coverage":null,"F2F_Min_Parking_Spaces_per_1BR":null,"F2F_Min_Parking_Spaces_per_mult_BR":null,"F2F_Elderly_Housing_Only":null,"F2F_Affordable_Housing_Only":null,"F3F_Allowance":null,"F3F_Front_Setback":null,"F3F_Side_Setback":null,"F3F_Rear_Setback":null,"F3F_Frontage":null,"F3F_Max_Density":null,"F3F_Max_Height":null,"F3F_Max_Stories":null,"F3F_Min_Lot_Size":null,"F3F_Max_Lot_Building_Coverage":null,"F3F_Max_Lot_Impervious_Coverage":null,"F3F_Min_Parking_Spaces_per_1BR":null,"F3F_Min_Parking_Spaces_per_mult_BR":null,"F3F_Affordable_Housing_Only":null,"F3F_Proximity_to_Public_Transit_Required":null,"F3F_Connection_to_Sewage/Water_Required":null,"F4F_Allowance":null,"F4F_Front_Setback":null,"F4F_Side_Setback":null,"F4F_Rear_Setback":null,"F4F_Frontage":null,"F1F_Max_Density":null,"F4F_Max_Density":null,"F4F_Max_Height":null,"F4F_Max_Stories":null,"F4F_Min_Lot_Size":null,"F4F_Max_Lot_Building_Coverage":null,"F4F_Max_Lot_Impervious_Coverage":null,"F4F_Min_Parking_Spaces_per_1BR":null,"F4F_Min_Parking_Spaces_per_mult_BR":null,"F3F_Elderly_Housing_Only":null,"F4F_Elderly_Housing_Only":null,"F4F_Affordable_Housing_Only":null,"F4F_Proximity_to_Public_Transit_Required":null,"F4F_Connection_to_Sewage/Water_Required":null,"ADU_Allowance":"Overlay","ADU_Elderly_Housing_Only":null,"ADU_Max_Size_as_Percent_of_Primary_Strcture":null,"ADU_Max_Size_in_sq_ft":null,"ADU_Min_Lot_Size":null,"ADU_Max_Bedrooms":null,"ADU_Min_Parking_Spaces":null,"ADU_Owner_Occupancy_Required":null,"ADU_Renter_Occupancy_Prohibited":null,"ADU_Employee_or_Family_Occupancy_Required":null,"ADU_Restricted_to_Primary_Structure":null,"Affordable_Housing_Allowance":"Not Mentioned","Affordable_Housing_District":"No","Affordable_Housing_Elderly_Only":null,"Affordable_Housing_Min_Lot_Size":null,"Affordable_Housing_Max_Density":null,"Affordable_Housing_Min_Parking_Spaces_per_mult_BR":null,"Affordable_Housing_Max_Units_per_Building":null,"Affordable_Housing_Min_Parking_Spaces_per_1BR":null,"PRD_Allowance":"Not Mentioned","PRD_Max_Density":null,"PRD_Max_Units":null,"PRD_Min_Lot_Size":null,"PRD_Mobile_or_Manufactured_Home_Park":null,"PUD_Allowance":null,"PUD_Required_with_Subdivision":null,"PUD_Requires_Land_Conservation":null,"PUD_Threshold_Number":null,"Notes":"  All Development Requires A Permit From The Za. Development Within Designated Centers Allowed If It Is not Closer to The River Than Pre-Existing Structures; Otherwise, Development Must Be Located Within 300' Of Pre-Existing Structures And Accessory Structures Must Be Located Directly Behind And Further From River Than Primary Structure. If Neither Of Those Are Met, The Development Must Be Proven to not Be Placed On Land With A History Of Flood Erosion, Does not Alter The River's Width/Depth/Meander Pattern, And Does not Require Stream Channelization. Full Details In Section 204.7 Of Zoning Bylaws."},"geometry":{"type":"MultiPolygon","coordinates":[[[[-72.33597762722655,44.97874818659929],[-72.33512533278692,44.98210710166092],[-72.33486102348886,44.9838083829568],[-72.33598694803075,44.98434557683962],[-72.33694344291645,44.98593831132721],[-72.33685669332509,44.98828734413992],[-72.33920227052859,44.98961680685738],[-72.33997337564804,44.99073563386904],[-72.34216023617103,44.99159119337572],[-72.34535689528404,44.99361437021633],[-72.34961242087542,44.99347204673984],[-72.35148417995529,44.99560578502589],[-72.35336098381607,44.99581541863546],[-72.35665255051951,44.997506866754975],[-72.36022995625711,45.001833076987985],[-72.36397900687778,45.00438330566974],[-72.36450118443761,45.00608831757704],[-72.36810276392603,45.006207833308004],[-72.36660688093193,45.005045114769],[-72.3650254655325,45.00296369108267],[-72.3636748577452,45.002191578825666],[-72.35982037649873,44.998694847835274],[-72.3584604394832,44.99659503562456],[-72.35616776582843,44.99517131323738],[-72.35282712826836,44.994507202793756],[-72.35235234557172,44.99414342573721],[-72.35112854750957,44.992455750970784],[-72.34986666409151,44.99196271821393],[-72.34677866581266,44.99234343319377],[-72.3456099792471,44.992578668980194],[-72.3427376255472,44.99035465655393],[-72.3413621032916,44.9899679380054],[-72.34083545544186,44.98901337457919],[-72.33848730448484,44.98753186861934],[-72.33859568294329,44.98696367757384],[-72.33734746157856,44.98466958418608],[-72.33764372528654,44.98374170879884],[-72.33623086819969,44.983057678353276],[-72.3364461973989,44.98243280656931],[-72.33618125653443,44.98173146855949],[-72.33762579959443,44.980634731559334],[-72.33754984104108,44.97917587165593],[-72.33597762722655,44.97874818659929]]],[[[-72.37841892877124,44.88261022169956],[-72.37713982088259,44.882620976989976],[-72.37618422638654,44.88287456793816],[-72.37625161213154,44.883262638308665],[-72.37647039821097,44.883354539081616],[-72.37764936254104,44.88328596913068],[-72.37750541153757,44.88425580714778],[-72.37715468953039,44.88493054530229],[-72.3760261303826,44.8865073192642],[-72.37511779764834,44.88754831294244],[-72.37404841450035,44.889100640124],[-72.37441966755061,44.88995358133516],[-72.37465561685815,44.891753627414005],[-72.37009686832137,44.89271207460531],[-72.36913315869526,44.89419135371286],[-72.36809213714015,44.894872180873975],[-72.36483862592361,44.89564512661464],[-72.35914930362969,44.90060187142707],[-72.3566252487798,44.900387780643676],[-72.35650299455416,44.90084132532621],[-72.35968098940235,44.90118982308182],[-72.36552822438573,44.89618777092979],[-72.3685832585053,44.89550020922761],[-72.37001811823029,44.89462886090608],[-72.37073762259637,44.893259566229965],[-72.37328018576024,44.89281379483174],[-72.3744066110564,44.89252404158841],[-72.37634144738522,44.89258683374625],[-72.37635625660866,44.89412362201712],[-72.37994848187492,44.89696922163899],[-72.38549210241302,44.89720225581031],[-72.38743938175494,44.89642744198848],[-72.39015703930961,44.89697949710001],[-72.39092732355891,44.89840111792088],[-72.39265911559781,44.89881955116727],[-72.3939652477179,44.89880182609066],[-72.39732054713943,44.90062362212596],[-72.39777218614482,44.90147655704365],[-72.39542337726238,44.90316054355871],[-72.39512708410814,44.90484638534081],[-72.39504490403853,44.9060587954085],[-72.3939767225601,44.90706189816325],[-72.39417652950638,44.90824465476905],[-72.39453199847782,44.908739823670125],[-72.39399572978162,44.90939116016646],[-72.39473643094425,44.909839238208704],[-72.39365014080957,44.91158472970219],[-72.39158256512093,44.912784173407935],[-72.39231222893052,44.91418842241147],[-72.39272557646154,44.91593530883819],[-72.39417068999006,44.916227701071264],[-72.39493052919838,44.91762465074602],[-72.39659174707563,44.917992476651875],[-72.39800860298045,44.92040999436868],[-72.39611019401163,44.922092899630016],[-72.39712710560038,44.92407980298874],[-72.39724444439268,44.92837805941113],[-72.3957755743873,44.92953237367466],[-72.39558470245447,44.931843489168585],[-72.39534288057183,44.93282840757682],[-72.39592898786982,44.93318889787009],[-72.39878227964353,44.93347563841188],[-72.40011652455618,44.93307896823911],[-72.40075703055224,44.932059352041264],[-72.40206082676318,44.93465308626702],[-72.4011780634069,44.93616792436913],[-72.40045607805877,44.93722821573794],[-72.39864769742495,44.93843509496807],[-72.39963568533247,44.94086644923152],[-72.4010111384484,44.9411833480492],[-72.4011199442347,44.94143760817491],[-72.40009514747153,44.94171558643599],[-72.40005915344811,44.94278253472368],[-72.40080816156264,44.94404416387152],[-72.400345564724,44.944989493335825],[-72.40000398050935,44.94506194415607],[-72.39921773418095,44.94557049241057],[-72.4006411693898,44.947081208899846],[-72.4008423195238,44.94760693489723],[-72.40031620552182,44.94853765933873],[-72.39975666662038,44.949826758647326],[-72.39883392728171,44.95023818666114],[-72.39849288703628,44.949983265045496],[-72.39734903350353,44.94990949426152],[-72.39629011617194,44.95072435597208],[-72.39637700226228,44.9510165164187],[-72.39501460155881,44.95198146268828],[-72.39567960157312,44.95308087838298],[-72.3953512712138,44.95352787484186],[-72.39554410513932,44.954236394790854],[-72.3944237242683,44.9541216954405],[-72.39239286203345,44.955022597632194],[-72.3929235483889,44.957378824150354],[-72.39425633354365,44.95809997311108],[-72.39310743889378,44.95893247885688],[-72.39270486756796,44.96018246537548],[-72.39200946254994,44.96105327577816],[-72.39115572245237,44.96097668628846],[-72.39040839440334,44.961070694751776],[-72.38963518018136,44.96074788811055],[-72.38907310658563,44.96163775339659],[-72.38824431742552,44.96245157517752],[-72.38769333516673,44.96356067076106],[-72.38779875250249,44.964299450281416],[-72.38692250021275,44.96462420063196],[-72.38600237151664,44.966044153398336],[-72.38341253299475,44.96832084431316],[-72.38444662819639,44.9706390463854],[-72.38465441933081,44.97285111201639],[-72.38676586835187,44.974452077272495],[-72.38730984447862,44.975798457381025],[-72.38589309551043,44.97741569928344],[-72.38478415753598,44.9789393004421],[-72.38484765569038,44.97965013978081],[-72.3838868665366,44.979976649722495],[-72.38404226132538,44.981941650352454],[-72.3857304621163,44.98207431327847],[-72.38577613637676,44.9825496322062],[-72.384192547573,44.98336952479018],[-72.38448577472762,44.987059474610646],[-72.38497923842803,44.9880663216919],[-72.38591327555223,44.98893882628347],[-72.38634357753179,44.9893407794099],[-72.38888663663563,44.990773993091736],[-72.39045801622545,44.9910786274478],[-72.39141342354644,44.99184339400416],[-72.39274576238984,44.992075022322204],[-72.3939248920649,44.99200337477392],[-72.39457470431753,44.99172510881459],[-72.3965739653917,44.99166631281607],[-72.39715344038893,44.992491315099855],[-72.39695627162436,44.993194117244414],[-72.39683116356447,44.99364005796237],[-72.39701929260416,44.99464711105186],[-72.39805919352679,44.99542478016462],[-72.39904642051452,44.99580455269118],[-72.39965929712943,44.99650605024642],[-72.39954752340506,44.99671674097724],[-72.39933783189248,44.99711200040997],[-72.39733670953902,44.99631453830392],[-72.39658893223627,44.99640858712058],[-72.39642705775707,44.99733673530896],[-72.39707637634083,44.99871437528849],[-72.39730347716463,44.999970849798856],[-72.39567252906832,45.00114394719809],[-72.3921719125312,45.00252366270143],[-72.39212521003996,45.004824064212485],[-72.39211306730687,45.00542215642759],[-72.393369663316,45.00646886331546],[-72.39387294123239,45.00648753903113],[-72.40549179278264,45.0069186990968],[-72.40799160704701,45.00701103265437],[-72.40823721890276,45.007020084916356],[-72.40674606167637,45.006079162739],[-72.40546454529692,45.00588866171237],[-72.40471716037229,45.0056796483242],[-72.40314165361237,45.00564043427394],[-72.40057867169527,45.00525933695884],[-72.39985732405003,45.00544815422352],[-72.39852270328362,45.00510596999251],[-72.39721561444568,45.00430912233507],[-72.39526605628643,45.0044020735794],[-72.39548068546833,45.00385287336324],[-72.39791254161486,45.00283205584668],[-72.39964942450362,45.00155065643144],[-72.40081438931061,44.999890595626646],[-72.40018364751451,44.998992822203554],[-72.4007929176912,44.997168923097334],[-72.40073128764381,44.99700290197341],[-72.40004546326979,44.995155388261736],[-72.40021706123103,44.992432224613324],[-72.39971734340591,44.99192856556842],[-72.39967697034814,44.99115889788986],[-72.39898979559473,44.99057438510883],[-72.3977609592047,44.98952912978533],[-72.39262967385632,44.989761230837395],[-72.39096312050543,44.98869400735951],[-72.39037901955436,44.988752651350026],[-72.38851513653748,44.98795161157084],[-72.3879561744318,44.98709854776983],[-72.38857800016746,44.98658514937636],[-72.38907919251767,44.98617134923009],[-72.39084769903701,44.9835728756962],[-72.38968095967898,44.98297972908294],[-72.38960089172582,44.98123317576906],[-72.38784961261759,44.98099465934809],[-72.38810446640234,44.9786268037745],[-72.38910684162302,44.977887748595215],[-72.38898395136965,44.97673317798698],[-72.38931952855732,44.975727058151804],[-72.39099246056635,44.973212554320156],[-72.38849227095709,44.972203693577484],[-72.38698892068425,44.973267865345015],[-72.38586407295179,44.97270432130816],[-72.38607656656882,44.97069164169116],[-72.3852036319114,44.96929950339674],[-72.38553911255856,44.96835259570141],[-72.38772903548916,44.96669472605333],[-72.3883717142738,44.96555866236762],[-72.38906678944201,44.964915214168016],[-72.39064576370322,44.9642225948037],[-72.3910571665124,44.96342275730303],[-72.39156908267368,44.9636536140644],[-72.39271354198188,44.96354557206742],[-72.39377669226967,44.96331022018219],[-72.39377891785038,44.96210341358314],[-72.39410300554059,44.9608472426309],[-72.39436743941381,44.960378074221694],[-72.39515196447147,44.95977807368982],[-72.39556987301216,44.95891074662146],[-72.39597815436413,44.95840892794327],[-72.39620274143986,44.95798957886834],[-72.39668709965622,44.95749418428344],[-72.39652239386307,44.956979128589865],[-72.39661643453478,44.9569601436734],[-72.397403316926,44.957510721655545],[-72.39816595841721,44.95753842105245],[-72.39898387140978,44.957797394369],[-72.39986451163014,44.95819050669098],[-72.4010455434581,44.95881232322664],[-72.40129210460759,44.95932468579989],[-72.40199088457082,44.95973655939085],[-72.4022852684252,44.960155841191614],[-72.40221920432211,44.96044289935775],[-72.40130021334741,44.9609697771061],[-72.40092696139665,44.96192391293679],[-72.40080971684948,44.964206110216644],[-72.40213824954485,44.96757944476506],[-72.40371147605313,44.9683575218502],[-72.4039790135021,44.96795990468291],[-72.40261999145187,44.966765226609496],[-72.4015364859202,44.963414327398205],[-72.40162614155875,44.962118513288836],[-72.40192234739622,44.961474701588934],[-72.40269917546361,44.960994257184936],[-72.40308231529923,44.960637631077624],[-72.40317033947235,44.960288513427244],[-72.40384779143128,44.96039772272897],[-72.40421879036464,44.96076274595178],[-72.4045337322646,44.962392090220746],[-72.40569456384809,44.962684047682345],[-72.40702738471097,44.962236525120396],[-72.4090947449793,44.96165620230843],[-72.41116079128787,44.96190032261961],[-72.41180138059383,44.96246049742482],[-72.41300271724057,44.96309772379286],[-72.4138877074312,44.96333119015102],[-72.41481711444455,44.96309909236179],[-72.41575714843555,44.96306875036881],[-72.41609628635838,44.96285948400162],[-72.4162178045129,44.96197495244531],[-72.41681893742515,44.96198315232875],[-72.42035881551489,44.963002212938044],[-72.42184690460792,44.96309755997277],[-72.42165806424917,44.96236442731522],[-72.41946039346004,44.96210047293966],[-72.41814642277724,44.96137205518713],[-72.41577307402572,44.96105508583501],[-72.41479644752458,44.96177350865847],[-72.41447513920437,44.96251212011897],[-72.41223537023947,44.96137372824383],[-72.41178348296303,44.960236685381815],[-72.41095661712322,44.96002764973119],[-72.40956792142613,44.96076541043937],[-72.40831381549394,44.96074546465798],[-72.40737903256665,44.961275168215124],[-72.40607111542036,44.961520383045745],[-72.40602025337078,44.95998580444999],[-72.40308683616551,44.95894138293039],[-72.40156830806683,44.9575381609163],[-72.40082058593042,44.95789746808947],[-72.39770187571398,44.95613284036643],[-72.39829014223407,44.95541345922652],[-72.39885141350342,44.95486455432343],[-72.3985065638371,44.95372755327476],[-72.39845504009284,44.95268553630453],[-72.39925577207904,44.95249679619537],[-72.39955119941196,44.95137930584023],[-72.40139652110972,44.948785458419806],[-72.40209105483827,44.948255596959136],[-72.40233334059005,44.94696754770987],[-72.40233446492829,44.946304475177904],[-72.401748443978,44.94579245926867],[-72.40156361578052,44.94467454822858],[-72.4017526124179,44.94334856426839],[-72.40204665681324,44.94298886187101],[-72.40210113364202,44.9423258346236],[-72.40280924907925,44.93962559818544],[-72.4018097331557,44.93918071995431],[-72.40310368347454,44.938027366006345],[-72.4033544386067,44.93761315734811],[-72.40231382937166,44.93684263155938],[-72.40327729859187,44.93391290015553],[-72.40240344837602,44.93314251578719],[-72.40207323244893,44.931277335321965],[-72.40140556860248,44.931809589029434],[-72.40082465070176,44.93035860860114],[-72.4001584744741,44.93003241075359],[-72.39874025409104,44.93083040495179],[-72.39874113701586,44.93032717892729],[-72.40041049719608,44.92887817075971],[-72.39982875917747,44.927930410867155],[-72.40058141548135,44.92642138810488],[-72.40020727107675,44.925917834603986],[-72.39991934517668,44.923756667058576],[-72.39942100061883,44.92280897728268],[-72.40017313788898,44.921566370385975],[-72.40092651571364,44.91958371800599],[-72.39805644332114,44.91691704533164],[-72.39669786277163,44.91627746723455],[-72.39672666442513,44.91502134510228],[-72.39510315457659,44.91433902828984],[-72.39478720244057,44.91323210209571],[-72.3955232921375,44.91238570399264],[-72.39534393301192,44.910641353946524],[-72.39622562998751,44.90917829533126],[-72.39584719596412,44.908368061221545],[-72.39579763165948,44.907765094064764],[-72.39602521429634,44.907712468653585],[-72.39609334408047,44.907696715275165],[-72.39792186622334,44.90727388832323],[-72.39768496812184,44.90496313331935],[-72.39811312154676,44.904042027225216],[-72.39865917247778,44.903981889032444],[-72.39941160126111,44.90297619118133],[-72.40011534859494,44.902975293431446],[-72.40168843293377,44.902787206580534],[-72.40323472300193,44.90267485697923],[-72.40432837619997,44.90224004098493],[-72.40520810793791,44.90220288417133],[-72.4071803327869,44.90243184533524],[-72.40864711361638,44.90201623578427],[-72.41044654096768,44.90268211189115],[-72.4105081159843,44.90179872417504],[-72.40838187208435,44.90118243881648],[-72.40675505051493,44.901673695206725],[-72.40475654093777,44.90123630861695],[-72.40533522604498,44.89875501491594],[-72.40538321057953,44.898549269000355],[-72.40545450650767,44.8982435619765],[-72.40620235090445,44.897315867567976],[-72.40716416451771,44.895914715780826],[-72.40887086950494,44.895366682117505],[-72.40997177789173,44.89546192130924],[-72.40989203361225,44.89451970944265],[-72.40986846138455,44.89424118107467],[-72.40982680546908,44.89374906138373],[-72.40982672449366,44.89374903072382],[-72.40898053201973,44.89343436734053],[-72.4073274345654,44.893830884662684],[-72.40580751536518,44.89426538016014],[-72.40476642309856,44.895249662148906],[-72.40409829245313,44.896328975170434],[-72.40289669921921,44.89761622713758],[-72.40217313998195,44.899907968178674],[-72.4003878054708,44.89956541335732],[-72.39950794718617,44.89969725799909],[-72.3989458914179,44.90100397375546],[-72.39806848494378,44.899733871834066],[-72.39452697784957,44.89772247460893],[-72.39354047922352,44.89787312088263],[-72.39167529669923,44.89753035528256],[-72.39109111564913,44.89635520183256],[-72.38682879451585,44.89517646055968],[-72.3850406783848,44.89634927280723],[-72.38090932361717,44.89634503867888],[-72.37960612783404,44.89497962396808],[-72.37734349951687,44.893613167688976],[-72.37742711974688,44.89188925203725],[-72.3758545802779,44.891925443036534],[-72.37535142801485,44.89042822992021],[-72.37514022616251,44.889499686902056],[-72.37526791782514,44.88862077173576],[-72.37593425745335,44.88808800303818],[-72.37714846325424,44.886573704263405],[-72.37851781049588,44.88424718776863],[-72.37865636551845,44.883240968554155],[-72.37841892877124,44.88261022169956]]],[[[-72.39539478639524,44.841281344571826],[-72.39472962300734,44.841291308014625],[-72.39457752433817,44.84129358572375],[-72.39537308105793,44.843851438850706],[-72.39736310914049,44.84610849172376],[-72.39734272053892,44.84761494813636],[-72.39500951939046,44.84696722597413],[-72.39397000589285,44.84613206744694],[-72.39198803948607,44.84580949867935],[-72.39088428612256,44.84547732170167],[-72.39021964476115,44.84508868485357],[-72.38569035513052,44.84500615708246],[-72.38497516223585,44.844690188841234],[-72.38344327519924,44.84369438824311],[-72.37822272352277,44.84282667662522],[-72.37564089022959,44.84215840978034],[-72.3737783092828,44.84218032964264],[-72.37132558962804,44.84158412778468],[-72.37108634916055,44.84253862768527],[-72.37334713312625,44.842798938714864],[-72.37551056320736,44.842890123902556],[-72.37717407345487,44.84327675119186],[-72.37879643067167,44.843456096563315],[-72.38317357505872,44.84432385272477],[-72.38607335889705,44.845785570421356],[-72.3894824359449,44.845599467384545],[-72.39360800116967,44.84677799163542],[-72.39483140954816,44.847669553314766],[-72.3967745923084,44.84818284824151],[-72.39805207769014,44.848657627050905],[-72.40007584151874,44.84881097939399],[-72.40138158557824,44.84835742659535],[-72.40407130055031,44.84841655443873],[-72.40568151849267,44.84992937937441],[-72.4055453652943,44.84880431141507],[-72.40547672027681,44.848237063652384],[-72.40547000390698,44.84823351793044],[-72.40421225507413,44.847569438971334],[-72.40324098451326,44.847423120773925],[-72.40133209113239,44.847397237385316],[-72.40027498350813,44.847614569328655],[-72.39935007537859,44.84787971027529],[-72.3984513053974,44.84758871216617],[-72.39865628078707,44.84733426972559],[-72.39843764868436,44.84566082781111],[-72.39607269548013,44.84337920270034],[-72.39593838226436,44.842251458195335],[-72.39539478639524,44.841281344571826]]]]}},{"type":"Feature","properties":{"OBJECT_ID":682,"County":"Orleans","RPC":"NVDA","Municipal_Name":"Troy","GEO_ID":"5001973525","District_Name":"Village District","Abbreviated_District_Name":"Vil","District_Type":"Mixed with Residential","Bylaw_Date":null,"Elderly_Housing_District":"No","District_Mapped":"Yes","Overlay_District":"No","Base_Density":null,"FIPS6":null,"GIS_ID":null,"Last_Update":null,"Shape_Length":25376.37903856012,"Shape_Area":9295843.856345294,"F1F_Allowance":"Permitted","F1F_Front_Setback":30.0,"F1F_Side_Setback":20.0,"F1F_Rear_Setback":20.0,"F1F_Frontage":100.0,"F1F_Max_Height":null,"F1F_Max_Stories":null,"F1F_Min_Lot_Size":null,"F1F_Max_Lot_Building_Coverage":null,"F1F_Max_Lot_Impervious_Coverage":null,"F1F_Min_Parking_Spaces":2.0,"F1F_Elderly_Housing_Only":null,"F1F_Affordable_Housing_Only":null,"F2F_Allowance":"Permitted","F2F_Front_Setback":30.0,"F2F_Side_Setback":20.0,"F2F_Rear_Setback":20.0,"F2F_Frontage":100.0,"F2F_Max_Density":null,"F2F_Max_Height":null,"F2F_Max_Stories":null,"F2F_Min_Lot_Size":null,"F2F_Max_Lot_Building_Coverage":null,"F2F_Max_Lot_Impervious_Coverage":null,"F2F_Min_Parking_Spaces_per_1BR":1.5,"F2F_Min_Parking_Spaces_per_mult_BR":1.5,"F2F_Elderly_Housing_Only":"No","F2F_Affordable_Housing_Only":"No","F3F_Allowance":"Public Hearing","F3F_Front_Setback":30.0,"F3F_Side_Setback":20.0,"F3F_Rear_Setback":20.0,"F3F_Frontage":100.0,"F3F_Max_Density":null,"F3F_Max_Height":null,"F3F_Max_Stories":null,"F3F_Min_Lot_Size":null,"F3F_Max_Lot_Building_Coverage":null,"F3F_Max_Lot_Impervious_Coverage":null,"F3F_Min_Parking_Spaces_per_1BR":1.5,"F3F_Min_Parking_Spaces_per_mult_BR":1.5,"F3F_Affordable_Housing_Only":"No","F3F_Proximity_to_Public_Transit_Required":null,"F3F_Connection_to_Sewage/Water_Required":null,"F4F_Allowance":"Public Hearing","F4F_Front_Setback":30.0,"F4F_Side_Setback":20.0,"F4F_Rear_Setback":20.0,"F4F_Frontage":100.0,"F1F_Max_Density":null,"F4F_Max_Density":null,"F4F_Max_Height":null,"F4F_Max_Stories":null,"F4F_Min_Lot_Size":null,"F4F_Max_Lot_Building_Coverage":null,"F4F_Max_Lot_Impervious_Coverage":null,"F4F_Min_Parking_Spaces_per_1BR":1.5,"F4F_Min_Parking_Spaces_per_mult_BR":1.5,"F3F_Elderly_Housing_Only":"No","F4F_Elderly_Housing_Only":"No","F4F_Affordable_Housing_Only":"No","F4F_Proximity_to_Public_Transit_Required":null,"F4F_Connection_to_Sewage/Water_Required":null,"ADU_Allowance":"Allowed/Conditional","ADU_Elderly_Housing_Only":"No","ADU_Max_Size_as_Percent_of_Primary_Strcture":50.0,"ADU_Max_Size_in_sq_ft":1500.0,"ADU_Min_Lot_Size":null,"ADU_Max_Bedrooms":1.0,"ADU_Min_Parking_Spaces":1.0,"ADU_Owner_Occupancy_Required":"Yes","ADU_Renter_Occupancy_Prohibited":"No","ADU_Employee_or_Family_Occupancy_Required":"No","ADU_Restricted_to_Primary_Structure":"No","Affordable_Housing_Allowance":"Not Mentioned","Affordable_Housing_District":"No","Affordable_Housing_Elderly_Only":null,"Affordable_Housing_Min_Lot_Size":null,"Affordable_Housing_Max_Density":null,"Affordable_Housing_Min_Parking_Spaces_per_mult_BR":null,"Affordable_Housing_Max_Units_per_Building":null,"Affordable_Housing_Min_Parking_Spaces_per_1BR":null,"PRD_Allowance":"Not Mentioned","PRD_Max_Density":null,"PRD_Max_Units":null,"PRD_Min_Lot_Size":null,"PRD_Mobile_or_Manufactured_Home_Park":null,"PUD_Allowance":"Yes","PUD_Required_with_Subdivision":"No","PUD_Requires_Land_Conservation":"No","PUD_Threshold_Number":null,"Notes":"None"},"geometry":{"type":"MultiPolygon","coordinates":[[[[-72.40989203361225,44.89451970944265],[-72.40997177789173,44.89546192130924],[-72.4100352644418,44.89621198379552],[-72.4105081159843,44.90179872417504],[-72.41055187602421,44.902315587680135],[-72.41060477826089,44.90294060409167],[-72.41069511648685,44.90401496074783],[-72.41128393586622,44.91107171540968],[-72.40551740160674,44.91105940192017],[-72.4053969975711,44.91106103631635],[-72.40585448416708,44.912087047747214],[-72.405081759802,44.91290860039657],[-72.40502155871499,44.91290844596233],[-72.40410396144449,44.913717663553676],[-72.40362586713397,44.91397834558656],[-72.40316524282365,44.914524850821806],[-72.40309896829052,44.91477816528138],[-72.4020826989902,44.915978393090604],[-72.40173672149018,44.91613141179305],[-72.40110256840575,44.91620124569383],[-72.40037905799393,44.91610924056042],[-72.40016493505249,44.91613797027343],[-72.39965691105243,44.915981021840295],[-72.39938488944208,44.91598679190774],[-72.39901686866192,44.91607360410606],[-72.39862639727586,44.91625541422927],[-72.39696270382126,44.91635672657767],[-72.39669786277163,44.91627746723455],[-72.39656914310237,44.91623894213484],[-72.39642800086075,44.91605084226899],[-72.39630379677365,44.9161665960827],[-72.39644310078803,44.91591209384012],[-72.39645489486529,44.91575798688622],[-72.39633879674757,44.91520740711659],[-72.39614549946336,44.914993604884835],[-72.39577589579282,44.914744807268335],[-72.39555629793075,44.91469119437467],[-72.39510819607837,44.914733890584586],[-72.39492159487449,44.91482000479538],[-72.39459130033391,44.91525508498122],[-72.39440610117398,44.915341201435574],[-72.39410839736556,44.91530189537808],[-72.39384269536471,44.91519080710309],[-72.39356989821592,44.914972793447326],[-72.3935530003047,44.914740694561],[-72.3937529993166,44.91441839495464],[-72.39392299907041,44.913935803253544],[-72.39413149678913,44.91376758624305],[-72.39463049236413,44.91357090320663],[-72.3947434982248,44.9134333925735],[-72.39478720244057,44.91323210209571],[-72.39484005095495,44.91207463043849],[-72.39494232554675,44.91154380502338],[-72.39523498965353,44.910779181226],[-72.39534393301192,44.910641353946524],[-72.3960475308108,44.909628067596415],[-72.39622562998751,44.90917829533126],[-72.39627699891837,44.90878239689089],[-72.3962139246846,44.90864735408547],[-72.39603696506019,44.90846722175913],[-72.39584719596412,44.908368061221545],[-72.39568293647861,44.90816993783048],[-72.39567071291876,44.90792697090519],[-72.39579763165948,44.907765094064764],[-72.39602521429634,44.907712468653585],[-72.39609334408047,44.907696715275165],[-72.3968745605439,44.90744211132188],[-72.39712805638435,44.90730735889787],[-72.39733111556775,44.907055587026356],[-72.39712974031772,44.90636249216341],[-72.39705529495247,44.90550559732511],[-72.39713161082699,44.90531864045093],[-72.39709403467684,44.90508462792053],[-72.39651272710782,44.90443618906865],[-72.39664009863357,44.904022364074535],[-72.39719798484028,44.90359993203248],[-72.39799627820834,44.9032676849276],[-72.39840187192664,44.90303406499212],[-72.39866865982584,44.9025303879342],[-72.3988968890055,44.90235060242994],[-72.39935283811792,44.90227901741529],[-72.4002895923133,44.902405823243036],[-72.40047936243883,44.90249598669893],[-72.40071998051104,44.902469197006894],[-72.40088472550684,44.902388333767256],[-72.40103695250558,44.9022174858016],[-72.4010120021533,44.90200149467936],[-72.40091085662513,44.90192041593002],[-72.4009110486856,44.9018034406364],[-72.40054389199993,44.90178513288757],[-72.40044318901363,44.90144308516184],[-72.40063455397494,44.90060635657049],[-72.40083741324725,44.90044454986459],[-72.40120452282686,44.90048987375077],[-72.40155881573054,44.90061615487195],[-72.40160932821414,44.900697184057876],[-72.40158357300591,44.900949148237615],[-72.40136780639716,44.901254922398735],[-72.40130390472125,44.90160580170116],[-72.40154405921736,44.90184897941067],[-72.401784427678,44.90196618342755],[-72.40302500145414,44.902129202213715],[-72.4032401260948,44.902201377805255],[-72.40351873695893,44.902174625195435],[-72.40372145724108,44.90209380163222],[-72.40382285338589,44.90203090713299],[-72.40386111348664,44.90186895636713],[-72.40365954249422,44.901256868669876],[-72.40355847973512,44.901121803090064],[-72.40355885330685,44.90089682155967],[-72.40359706570946,44.900761889725665],[-72.4038888754504,44.90040217980391],[-72.40399084385086,44.899997323744685],[-72.40401779569063,44.89901646279834],[-72.403929456964,44.898845404850185],[-72.40394244123623,44.89864744556257],[-72.40405645093492,44.898611549756126],[-72.40452481784196,44.89866593511307],[-72.40475276217163,44.89863913440963],[-72.40528440270539,44.898711567021074],[-72.40533522604498,44.89875501491594],[-72.40544890932988,44.89876570068671],[-72.40561318658413,44.898954809764966],[-72.40573843709745,44.899791786199216],[-72.4058392893934,44.90005285101082],[-72.40602893618589,44.90022397374848],[-72.40629477961954,44.9002512020934],[-72.40666256644695,44.8998735479484],[-72.40668836918577,44.899576613770265],[-72.40660001788416,44.89940555789427],[-72.40643545631163,44.89938741928204],[-72.40634738104492,44.89904539416145],[-72.40619552424998,44.899000265592925],[-72.40632146243435,44.899414317763174],[-72.4063206245004,44.899927247333096],[-72.40623180950676,44.90004416524576],[-72.40611783267731,44.90006206562702],[-72.40592847002814,44.89971995241965],[-72.40577796966747,44.89883794871023],[-72.40563898212528,44.89866687098013],[-72.40538321057953,44.898549269000355],[-72.40496824275061,44.89848632514579],[-72.40470230779317,44.89852210869434],[-72.40444916381436,44.89847688694033],[-72.4040186764232,44.89848553108019],[-72.40423456797585,44.898089761962325],[-72.40429843072148,44.897756870293584],[-72.40443781324313,44.89768499021587],[-72.40464086358503,44.897397197069004],[-72.40474292410673,44.89692934041622],[-72.40494621974612,44.89648856887274],[-72.40508575271217,44.89632672517774],[-72.40552914315924,44.89615610904391],[-72.4060486900231,44.89586856567618],[-72.40674621861467,44.895122233935275],[-72.40713908969049,44.894870603410894],[-72.40938065026867,44.894413462554745],[-72.40958321069976,44.89441361679698],[-72.40989203361225,44.89451970944265]]],[[[-72.41727299748842,44.98274646618885],[-72.41845354450423,44.98765513460888],[-72.41843316310639,44.987910826222475],[-72.41837740239508,44.98791102485043],[-72.41942309583034,44.992195814942484],[-72.42051711179495,44.99764555201787],[-72.42048090336843,44.99770088742655],[-72.4221896268779,45.00511241871098],[-72.42224250999756,45.00511479887333],[-72.42284233346045,45.00763800477057],[-72.420470493147,45.00747246941555],[-72.40823721890276,45.007020084916356],[-72.40799160704701,45.00701103265437],[-72.40549179278264,45.0069186990968],[-72.39387294123239,45.00648753903113],[-72.39212521003996,45.004824064212485],[-72.39159772358065,45.004322008353974],[-72.39159946376425,45.003399232442405],[-72.39126668864742,45.00250249722772],[-72.39114267311464,45.00116726072557],[-72.3908845678654,45.00069106244344],[-72.39083768716998,45.00071990060522],[-72.39075078824108,45.00062828866309],[-72.39014340744302,44.99913892358554],[-72.38809905186353,44.997322790793646],[-72.3872967830973,44.99727186232586],[-72.38613481146699,44.9959202375681],[-72.3863450080372,44.99588356594701],[-72.38642836136141,44.99571675079373],[-72.38602185862061,44.99431426596384],[-72.38590912597884,44.994330066631136],[-72.38558808593301,44.99396726600902],[-72.3852487965098,44.99376927096926],[-72.38533720703134,44.99184476221708],[-72.38694901066164,44.992431263160704],[-72.38545762238196,44.99082685800389],[-72.38475251691514,44.98941576271796],[-72.38591036106772,44.98898954255743],[-72.38591327555223,44.98893882628347],[-72.38599874522711,44.98745162618714],[-72.38756678666722,44.98711982489943],[-72.38745260178796,44.98686521745143],[-72.38741749794372,44.986565016007546],[-72.38759081511162,44.986298265453044],[-72.38807743755379,44.98583425265162],[-72.3880677741082,44.98657897410179],[-72.38857800016746,44.98658514937636],[-72.39731108216682,44.986690850411335],[-72.39725590742576,44.986687333601274],[-72.39682548091596,44.98396223482669],[-72.39649891701303,44.98259430981113],[-72.39625173249489,44.98226822004188],[-72.40689293619509,44.9820609267012],[-72.40717544292836,44.98233192866345],[-72.40766674317786,44.982046890663],[-72.41614024404736,44.981859444935],[-72.41688216113748,44.98256964278267],[-72.41727299748842,44.98274646618885]],[[-72.39916877530149,44.99015133606989],[-72.39898979559473,44.99057438510883],[-72.39847097720609,44.99180070563296],[-72.39875684377735,44.992939661708846],[-72.39836138722357,44.99331783820501],[-72.39695627162436,44.993194117244414],[-72.39683813929622,44.993183715233535],[-72.3947557691047,44.99187320391847],[-72.39029096008758,44.992589687129716],[-72.38986368279276,44.99239962190729],[-72.38988892156532,44.99317722681289],[-72.38954073219442,44.99355619759531],[-72.39954752340506,44.99671674097724],[-72.40073128764381,44.99700290197341],[-72.40350455587748,44.99763862559699],[-72.40586395969379,44.99817940159578],[-72.40681478459203,44.99698904042674],[-72.40749788222193,44.99607558166713],[-72.408355572093,44.99459697494516],[-72.40846330085238,44.994084996289786],[-72.40926511649005,44.994104601683944],[-72.40905177104176,44.99380098641601],[-72.40854402797359,44.99374368423771],[-72.40924120173806,44.992321837446134],[-72.41004317107077,44.99222764493185],[-72.40969812807722,44.99069117761702],[-72.40453989188254,44.99068698269752],[-72.40440685762417,44.99032652891231],[-72.40264246298644,44.990590553985356],[-72.40120056534572,44.989811734822226],[-72.40053273747989,44.9896215010766],[-72.40021255098792,44.989317775957645],[-72.39978410973218,44.989791535118755],[-72.39916877530149,44.99015133606989]],[[-72.38889722072417,44.996077323880485],[-72.38909984657647,44.9958312456059],[-72.39133016420948,44.9967523987736],[-72.39112453648458,44.99696758842397],[-72.39155677562198,44.99717024170489],[-72.39177042252419,44.99692562338597],[-72.39202600924094,44.99703261183799],[-72.39309340524885,44.9956061944027],[-72.3916815096624,44.99504547336793],[-72.39204880291022,44.99471131763334],[-72.39108902306893,44.99432931594919],[-72.39124373467564,44.994133616576704],[-72.39034946054191,44.9938606042653],[-72.38807005849725,44.99574136758871],[-72.38889722072417,44.996077323880485]]]]}},{"type":"Feature","properties":{"OBJECT_ID":677,"County":"Orleans","RPC":"NVDA","Municipal_Name":"Troy","GEO_ID":"5001973525","District_Name":"Commercial-Residential District","Abbreviated_District_Name":"C-R","District_Type":"Mixed with Residential","Bylaw_Date":null,"Elderly_Housing_District":"No","District_Mapped":"Yes","Overlay_District":"No","Base_Density":null,"FIPS6":null,"GIS_ID":null,"Last_Update":null,"Shape_Length":4809.4140272329105,"Shape_Area":1187708.276339429,"F1F_Allowance":"Permitted","F1F_Front_Setback":50.0,"F1F_Side_Setback":25.0,"F1F_Rear_Setback":25.0,"F1F_Frontage":150.0,"F1F_Max_Height":null,"F1F_Max_Stories":null,"F1F_Min_Lot_Size":1.0,"F1F_Max_Lot_Building_Coverage":null,"F1F_Max_Lot_Impervious_Coverage":null,"F1F_Min_Parking_Spaces":2.0,"F1F_Elderly_Housing_Only":null,"F1F_Affordable_Housing_Only":null,"F2F_Allowance":"Permitted","F2F_Front_Setback":50.0,"F2F_Side_Setback":25.0,"F2F_Rear_Setback":25.0,"F2F_Frontage":150.0,"F2F_Max_Density":null,"F2F_Max_Height":null,"F2F_Max_Stories":null,"F2F_Min_Lot_Size":1.0,"F2F_Max_Lot_Building_Coverage":null,"F2F_Max_Lot_Impervious_Coverage":null,"F2F_Min_Parking_Spaces_per_1BR":1.5,"F2F_Min_Parking_Spaces_per_mult_BR":1.5,"F2F_Elderly_Housing_Only":"No","F2F_Affordable_Housing_Only":"No","F3F_Allowance":"Public Hearing","F3F_Front_Setback":50.0,"F3F_Side_Setback":25.0,"F3F_Rear_Setback":25.0,"F3F_Frontage":150.0,"F3F_Max_Density":null,"F3F_Max_Height":null,"F3F_Max_Stories":null,"F3F_Min_Lot_Size":1.0,"F3F_Max_Lot_Building_Coverage":null,"F3F_Max_Lot_Impervious_Coverage":null,"F3F_Min_Parking_Spaces_per_1BR":1.5,"F3F_Min_Parking_Spaces_per_mult_BR":1.5,"F3F_Affordable_Housing_Only":"No","F3F_Proximity_to_Public_Transit_Required":null,"F3F_Connection_to_Sewage/Water_Required":null,"F4F_Allowance":"Public Hearing","F4F_Front_Setback":50.0,"F4F_Side_Setback":25.0,"F4F_Rear_Setback":25.0,"F4F_Frontage":150.0,"F1F_Max_Density":null,"F4F_Max_Density":null,"F4F_Max_Height":null,"F4F_Max_Stories":null,"F4F_Min_Lot_Size":1.0,"F4F_Max_Lot_Building_Coverage":null,"F4F_Max_Lot_Impervious_Coverage":null,"F4F_Min_Parking_Spaces_per_1BR":1.5,"F4F_Min_Parking_Spaces_per_mult_BR":1.5,"F3F_Elderly_Housing_Only":"No","F4F_Elderly_Housing_Only":"No","F4F_Affordable_Housing_Only":"No","F4F_Proximity_to_Public_Transit_Required":null,"F4F_Connection_to_Sewage/Water_Required":null,"ADU_Allowance":"Allowed/Conditional","ADU_Elderly_Housing_Only":"No","ADU_Max_Size_as_Percent_of_Primary_Strcture":50.0,"ADU_Max_Size_in_sq_ft":1500.0,"ADU_Min_Lot_Size":1.0,"ADU_Max_Bedrooms":1.0,"ADU_Min_Parking_Spaces":1.0,"ADU_Owner_Occupancy_Required":"Yes","ADU_Renter_Occupancy_Prohibited":"No","ADU_Employee_or_Family_Occupancy_Required":"No","ADU_Restricted_to_Primary_Structure":"No","Affordable_Housing_Allowance":"Not Mentioned","Affordable_Housing_District":"No","Affordable_Housing_Elderly_Only":null,"Affordable_Housing_Min_Lot_Size":null,"Affordable_Housing_Max_Density":null,"Affordable_Housing_Min_Parking_Spaces_per_mult_BR":null,"Affordable_Housing_Max_Units_per_Building":null,"Affordable_Housing_Min_Parking_Spaces_per_1BR":null,"PRD_Allowance":"Not Mentioned","PRD_Max_Density":null,"PRD_Max_Units":null,"PRD_Min_Lot_Size":null,"PRD_Mobile_or_Manufactured_Home_Park":null,"PUD_Allowance":"Yes","PUD_Required_with_Subdivision":"No","PUD_Requires_Land_Conservation":"No","PUD_Threshold_Number":null,"Notes":"None"},"geometry":{"type":"MultiPolygon","coordinates":[[[[-72.41582210615414,44.93950519143332],[-72.41204655467045,44.9397440399624],[-72.41199014992802,44.939974897094395],[-72.41031963093364,44.94007710473375],[-72.40999193869912,44.941732962975905],[-72.40482345922045,44.941911900760914],[-72.40481198527523,44.94207113292039],[-72.40427385110338,44.94207864523033],[-72.4042069169729,44.94187953695631],[-72.40317549393035,44.9418945913667],[-72.40305978153195,44.944036295801155],[-72.40279068502136,44.94405199124336],[-72.40294528125645,44.94545345009493],[-72.40490161781881,44.94538751082083],[-72.40530682440651,44.94866517260005],[-72.40597146157333,44.94869522316628],[-72.40672948779236,44.95114015856283],[-72.40924028980909,44.951166987324804],[-72.4092401085954,44.95128197110777],[-72.40966556623081,44.95131995008892],[-72.41886126915271,44.95151403933459],[-72.41778023957379,44.94731684557655],[-72.41582210615414,44.93950519143332]]]]}},{"type":"Feature","properties":{"OBJECT_ID":681,"County":"Orleans","RPC":"NVDA","Municipal_Name":"Troy","GEO_ID":"5001973525","District_Name":"Village Center District","Abbreviated_District_Name":"Vc","District_Type":"Mixed with Residential","Bylaw_Date":null,"Elderly_Housing_District":"No","District_Mapped":"Yes","Overlay_District":"No","Base_Density":null,"FIPS6":null,"GIS_ID":null,"Last_Update":null,"Shape_Length":5575.5917450917195,"Shape_Area":729267.4832030028,"F1F_Allowance":"Permitted","F1F_Front_Setback":15.0,"F1F_Side_Setback":10.0,"F1F_Rear_Setback":15.0,"F1F_Frontage":80.0,"F1F_Max_Height":null,"F1F_Max_Stories":null,"F1F_Min_Lot_Size":0.23,"F1F_Max_Lot_Building_Coverage":null,"F1F_Max_Lot_Impervious_Coverage":null,"F1F_Min_Parking_Spaces":2.0,"F1F_Elderly_Housing_Only":null,"F1F_Affordable_Housing_Only":null,"F2F_Allowance":"Permitted","F2F_Front_Setback":15.0,"F2F_Side_Setback":10.0,"F2F_Rear_Setback":15.0,"F2F_Frontage":80.0,"F2F_Max_Density":null,"F2F_Max_Height":null,"F2F_Max_Stories":null,"F2F_Min_Lot_Size":0.23,"F2F_Max_Lot_Building_Coverage":null,"F2F_Max_Lot_Impervious_Coverage":null,"F2F_Min_Parking_Spaces_per_1BR":1.5,"F2F_Min_Parking_Spaces_per_mult_BR":1.5,"F2F_Elderly_Housing_Only":"No","F2F_Affordable_Housing_Only":"No","F3F_Allowance":"Public Hearing","F3F_Front_Setback":15.0,"F3F_Side_Setback":10.0,"F3F_Rear_Setback":15.0,"F3F_Frontage":80.0,"F3F_Max_Density":null,"F3F_Max_Height":null,"F3F_Max_Stories":null,"F3F_Min_Lot_Size":0.23,"F3F_Max_Lot_Building_Coverage":null,"F3F_Max_Lot_Impervious_Coverage":null,"F3F_Min_Parking_Spaces_per_1BR":1.5,"F3F_Min_Parking_Spaces_per_mult_BR":1.5,"F3F_Affordable_Housing_Only":"No","F3F_Proximity_to_Public_Transit_Required":null,"F3F_Connection_to_Sewage/Water_Required":null,"F4F_Allowance":"Public Hearing","F4F_Front_Setback":15.0,"F4F_Side_Setback":10.0,"F4F_Rear_Setback":15.0,"F4F_Frontage":80.0,"F1F_Max_Density":null,"F4F_Max_Density":null,"F4F_Max_Height":null,"F4F_Max_Stories":null,"F4F_Min_Lot_Size":0.23,"F4F_Max_Lot_Building_Coverage":null,"F4F_Max_Lot_Impervious_Coverage":null,"F4F_Min_Parking_Spaces_per_1BR":1.5,"F4F_Min_Parking_Spaces_per_mult_BR":1.5,"F3F_Elderly_Housing_Only":"No","F4F_Elderly_Housing_Only":"No","F4F_Affordable_Housing_Only":"No","F4F_Proximity_to_Public_Transit_Required":null,"F4F_Connection_to_Sewage/Water_Required":null,"ADU_Allowance":"Allowed/Conditional","ADU_Elderly_Housing_Only":"No","ADU_Max_Size_as_Percent_of_Primary_Strcture":50.0,"ADU_Max_Size_in_sq_ft":1500.0,"ADU_Min_Lot_Size":0.23,"ADU_Max_Bedrooms":1.0,"ADU_Min_Parking_Spaces":1.0,"ADU_Owner_Occupancy_Required":"Yes","ADU_Renter_Occupancy_Prohibited":"No","ADU_Employee_or_Family_Occupancy_Required":"No","ADU_Restricted_to_Primary_Structure":"No","Affordable_Housing_Allowance":"Not Mentioned","Affordable_Housing_District":"No","Affordable_Housing_Elderly_Only":null,"Affordable_Housing_Min_Lot_Size":null,"Affordable_Housing_Max_Density":null,"Affordable_Housing_Min_Parking_Spaces_per_mult_BR":null,"Affordable_Housing_Max_Units_per_Building":null,"Affordable_Housing_Min_Parking_Spaces_per_1BR":null,"PRD_Allowance":"Not Mentioned","PRD_Max_Density":null,"PRD_Max_Units":null,"PRD_Min_Lot_Size":null,"PRD_Mobile_or_Manufactured_Home_Park":null,"PUD_Allowance":"Yes","PUD_Required_with_Subdivision":"No","PUD_Requires_Land_Conservation":"No","PUD_Threshold_Number":null,"Notes":"None"},"geometry":{"type":"MultiPolygon","coordinates":[[[[-72.40073128764381,44.99700290197341],[-72.40350455587748,44.99763862559699],[-72.40377916251714,44.997040106673495],[-72.40370348685461,44.99646519534938],[-72.40337485463105,44.99657367283163],[-72.4023134372546,44.9965757997549],[-72.40142618248618,44.9964943248837],[-72.4011753999156,44.99589595584278],[-72.40107801502428,44.99522780589123],[-72.40204156543773,44.99515872223303],[-72.4022818025013,44.99552403412915],[-72.40496535520765,44.994765014072144],[-72.4051727777162,44.99512252406189],[-72.40480018296151,44.995339724227115],[-72.40495301996502,44.99560397018799],[-72.40485412629812,44.99582139796018],[-72.40449251321616,44.99601530242468],[-72.40437169505634,44.99624824670545],[-72.40506116838607,44.996411954040674],[-72.40509315306149,44.99693245110537],[-72.4059139535685,44.99713510411751],[-72.40616614865651,44.996902263555384],[-72.40681478459203,44.99698904042674],[-72.40749788222193,44.99607558166713],[-72.408355572093,44.99459697494516],[-72.40846330085238,44.994084996289786],[-72.40926511649005,44.994104601683944],[-72.40905177104176,44.99380098641601],[-72.40854402797359,44.99374368423771],[-72.40924120173806,44.992321837446134],[-72.41004317107077,44.99222764493185],[-72.40969812807722,44.99069117761702],[-72.40453989188254,44.99068698269752],[-72.40440685762417,44.99032652891231],[-72.40264246298644,44.990590553985356],[-72.40120056534572,44.989811734822226],[-72.40053273747989,44.9896215010766],[-72.40021255098792,44.989317775957645],[-72.39978410973218,44.989791535118755],[-72.39916877530149,44.99015133606989],[-72.39898979559473,44.99057438510883],[-72.39847097720609,44.99180070563296],[-72.39875684377735,44.992939661708846],[-72.39836138722357,44.99331783820501],[-72.39695627162436,44.993194117244414],[-72.39683813929622,44.993183715233535],[-72.3947557691047,44.99187320391847],[-72.39029096008758,44.992589687129716],[-72.38986368279276,44.99239962190729],[-72.38988892156532,44.99317722681289],[-72.38954073219442,44.99355619759531],[-72.39954752340506,44.99671674097724],[-72.40073128764381,44.99700290197341]]]]}},{"type":"Feature","properties":{"OBJECT_ID":678,"County":"Orleans","RPC":"NVDA","Municipal_Name":"Troy","GEO_ID":"5001973525","District_Name":"Industrial District","Abbreviated_District_Name":"Ind","District_Type":"Nonresidential","Bylaw_Date":null,"Elderly_Housing_District":"No","District_Mapped":"Yes","Overlay_District":"No","Base_Density":null,"FIPS6":null,"GIS_ID":null,"Last_Update":null,"Shape_Length":1253.7022290552552,"Shape_Area":69025.9437811226,"F1F_Allowance":"Prohibited","F1F_Front_Setback":null,"F1F_Side_Setback":null,"F1F_Rear_Setback":null,"F1F_Frontage":null,"F1F_Max_Height":null,"F1F_Max_Stories":null,"F1F_Min_Lot_Size":null,"F1F_Max_Lot_Building_Coverage":null,"F1F_Max_Lot_Impervious_Coverage":null,"F1F_Min_Parking_Spaces":null,"F1F_Elderly_Housing_Only":null,"F1F_Affordable_Housing_Only":null,"F2F_Allowance":"Prohibited","F2F_Front_Setback":null,"F2F_Side_Setback":null,"F2F_Rear_Setback":null,"F2F_Frontage":null,"F2F_Max_Density":null,"F2F_Max_Height":null,"F2F_Max_Stories":null,"F2F_Min_Lot_Size":null,"F2F_Max_Lot_Building_Coverage":null,"F2F_Max_Lot_Impervious_Coverage":null,"F2F_Min_Parking_Spaces_per_1BR":null,"F2F_Min_Parking_Spaces_per_mult_BR":null,"F2F_Elderly_Housing_Only":null,"F2F_Affordable_Housing_Only":null,"F3F_Allowance":"Prohibited","F3F_Front_Setback":null,"F3F_Side_Setback":null,"F3F_Rear_Setback":null,"F3F_Frontage":null,"F3F_Max_Density":null,"F3F_Max_Height":null,"F3F_Max_Stories":null,"F3F_Min_Lot_Size":null,"F3F_Max_Lot_Building_Coverage":null,"F3F_Max_Lot_Impervious_Coverage":null,"F3F_Min_Parking_Spaces_per_1BR":null,"F3F_Min_Parking_Spaces_per_mult_BR":null,"F3F_Affordable_Housing_Only":null,"F3F_Proximity_to_Public_Transit_Required":null,"F3F_Connection_to_Sewage/Water_Required":null,"F4F_Allowance":"Prohibited","F4F_Front_Setback":null,"F4F_Side_Setback":null,"F4F_Rear_Setback":null,"F4F_Frontage":null,"F1F_Max_Density":null,"F4F_Max_Density":null,"F4F_Max_Height":null,"F4F_Max_Stories":null,"F4F_Min_Lot_Size":null,"F4F_Max_Lot_Building_Coverage":null,"F4F_Max_Lot_Impervious_Coverage":null,"F4F_Min_Parking_Spaces_per_1BR":null,"F4F_Min_Parking_Spaces_per_mult_BR":null,"F3F_Elderly_Housing_Only":null,"F4F_Elderly_Housing_Only":null,"F4F_Affordable_Housing_Only":null,"F4F_Proximity_to_Public_Transit_Required":null,"F4F_Connection_to_Sewage/Water_Required":null,"ADU_Allowance":"Prohibited","ADU_Elderly_Housing_Only":null,"ADU_Max_Size_as_Percent_of_Primary_Strcture":null,"ADU_Max_Size_in_sq_ft":null,"ADU_Min_Lot_Size":null,"ADU_Max_Bedrooms":null,"ADU_Min_Parking_Spaces":null,"ADU_Owner_Occupancy_Required":null,"ADU_Renter_Occupancy_Prohibited":null,"ADU_Employee_or_Family_Occupancy_Required":null,"ADU_Restricted_to_Primary_Structure":null,"Affordable_Housing_Allowance":"Not Mentioned","Affordable_Housing_District":"No","Affordable_Housing_Elderly_Only":null,"Affordable_Housing_Min_Lot_Size":null,"Affordable_Housing_Max_Density":null,"Affordable_Housing_Min_Parking_Spaces_per_mult_BR":null,"Affordable_Housing_Max_Units_per_Building":null,"Affordable_Housing_Min_Parking_Spaces_per_1BR":null,"PRD_Allowance":"Not Mentioned","PRD_Max_Density":null,"PRD_Max_Units":null,"PRD_Min_Lot_Size":null,"PRD_Mobile_or_Manufactured_Home_Park":null,"PUD_Allowance":null,"PUD_Required_with_Subdivision":"No","PUD_Requires_Land_Conservation":null,"PUD_Threshold_Number":null,"Notes":"None"},"geometry":{"type":"MultiPolygon","coordinates":[[[[-72.39112453648458,44.99696758842397],[-72.39155677562198,44.99717024170489],[-72.39177042252419,44.99692562338597],[-72.39202600924094,44.99703261183799],[-72.39309340524885,44.9956061944027],[-72.3916815096624,44.99504547336793],[-72.39204880291022,44.99471131763334],[-72.39108902306893,44.99432931594919],[-72.39124373467564,44.994133616576704],[-72.39034946054191,44.9938606042653],[-72.38807005849725,44.99574136758871],[-72.38889722072417,44.996077323880485],[-72.38909984657647,44.9958312456059],[-72.39133016420948,44.9967523987736],[-72.39112453648458,44.99696758842397]]]]}},{"type":"Feature","properties":{"OBJECT_ID":676,"County":"Orleans","RPC":"NVDA","Municipal_Name":"Troy","GEO_ID":"5001973525","District_Name":"Central Business District","Abbreviated_District_Name":"Cbd","District_Type":"Mixed with Residential","Bylaw_Date":null,"Elderly_Housing_District":"No","District_Mapped":"Yes","Overlay_District":"No","Base_Density":null,"FIPS6":null,"GIS_ID":null,"Last_Update":null,"Shape_Length":1627.3169238006938,"Shape_Area":71816.11080614473,"F1F_Allowance":"Permitted","F1F_Front_Setback":null,"F1F_Side_Setback":5.0,"F1F_Rear_Setback":15.0,"F1F_Frontage":60.0,"F1F_Max_Height":null,"F1F_Max_Stories":null,"F1F_Min_Lot_Size":0.11,"F1F_Max_Lot_Building_Coverage":null,"F1F_Max_Lot_Impervious_Coverage":null,"F1F_Min_Parking_Spaces":2.0,"F1F_Elderly_Housing_Only":null,"F1F_Affordable_Housing_Only":null,"F2F_Allowance":"Permitted","F2F_Front_Setback":null,"F2F_Side_Setback":5.0,"F2F_Rear_Setback":15.0,"F2F_Frontage":60.0,"F2F_Max_Density":null,"F2F_Max_Height":null,"F2F_Max_Stories":null,"F2F_Min_Lot_Size":0.11,"F2F_Max_Lot_Building_Coverage":null,"F2F_Max_Lot_Impervious_Coverage":null,"F2F_Min_Parking_Spaces_per_1BR":1.5,"F2F_Min_Parking_Spaces_per_mult_BR":1.5,"F2F_Elderly_Housing_Only":"No","F2F_Affordable_Housing_Only":"No","F3F_Allowance":"Public Hearing","F3F_Front_Setback":null,"F3F_Side_Setback":5.0,"F3F_Rear_Setback":15.0,"F3F_Frontage":60.0,"F3F_Max_Density":null,"F3F_Max_Height":null,"F3F_Max_Stories":null,"F3F_Min_Lot_Size":0.11,"F3F_Max_Lot_Building_Coverage":null,"F3F_Max_Lot_Impervious_Coverage":null,"F3F_Min_Parking_Spaces_per_1BR":1.5,"F3F_Min_Parking_Spaces_per_mult_BR":null,"F3F_Affordable_Housing_Only":"No","F3F_Proximity_to_Public_Transit_Required":null,"F3F_Connection_to_Sewage/Water_Required":null,"F4F_Allowance":"Public Hearing","F4F_Front_Setback":null,"F4F_Side_Setback":5.0,"F4F_Rear_Setback":15.0,"F4F_Frontage":60.0,"F1F_Max_Density":null,"F4F_Max_Density":null,"F4F_Max_Height":null,"F4F_Max_Stories":null,"F4F_Min_Lot_Size":0.11,"F4F_Max_Lot_Building_Coverage":null,"F4F_Max_Lot_Impervious_Coverage":null,"F4F_Min_Parking_Spaces_per_1BR":1.5,"F4F_Min_Parking_Spaces_per_mult_BR":null,"F3F_Elderly_Housing_Only":"No","F4F_Elderly_Housing_Only":"No","F4F_Affordable_Housing_Only":"No","F4F_Proximity_to_Public_Transit_Required":null,"F4F_Connection_to_Sewage/Water_Required":null,"ADU_Allowance":"Allowed/Conditional","ADU_Elderly_Housing_Only":"No","ADU_Max_Size_as_Percent_of_Primary_Strcture":50.0,"ADU_Max_Size_in_sq_ft":1500.0,"ADU_Min_Lot_Size":0.11,"ADU_Max_Bedrooms":1.0,"ADU_Min_Parking_Spaces":1.0,"ADU_Owner_Occupancy_Required":"Yes","ADU_Renter_Occupancy_Prohibited":"No","ADU_Employee_or_Family_Occupancy_Required":"No","ADU_Restricted_to_Primary_Structure":"No","Affordable_Housing_Allowance":"Not Mentioned","Affordable_Housing_District":"No","Affordable_Housing_Elderly_Only":null,"Affordable_Housing_Min_Lot_Size":null,"Affordable_Housing_Max_Density":null,"Affordable_Housing_Min_Parking_Spaces_per_mult_BR":null,"Affordable_Housing_Max_Units_per_Building":null,"Affordable_Housing_Min_Parking_Spaces_per_1BR":null,"PRD_Allowance":"Not Mentioned","PRD_Max_Density":null,"PRD_Max_Units":null,"PRD_Min_Lot_Size":null,"PRD_Mobile_or_Manufactured_Home_Park":null,"PUD_Allowance":"Yes","PUD_Required_with_Subdivision":"No","PUD_Requires_Land_Conservation":"No","PUD_Threshold_Number":null,"Notes":"None"},"geometry":{"type":"MultiPolygon","coordinates":[[[[-72.40350455587748,44.99763862559699],[-72.40586395969379,44.99817940159578],[-72.40681478459203,44.99698904042674],[-72.40616614865651,44.996902263555384],[-72.4059139535685,44.99713510411751],[-72.40509315306149,44.99693245110537],[-72.40506116838607,44.996411954040674],[-72.40437169505634,44.99624824670545],[-72.40449251321616,44.99601530242468],[-72.40485412629812,44.99582139796018],[-72.40495301996502,44.99560397018799],[-72.40480018296151,44.995339724227115],[-72.4051727777162,44.99512252406189],[-72.40496535520765,44.994765014072144],[-72.4022818025013,44.99552403412915],[-72.40204156543773,44.99515872223303],[-72.40107801502428,44.99522780589123],[-72.4011753999156,44.99589595584278],[-72.40142618248618,44.9964943248837],[-72.4023134372546,44.9965757997549],[-72.40337485463105,44.99657367283163],[-72.40370348685461,44.99646519534938],[-72.40377916251714,44.997040106673495],[-72.40350455587748,44.99763862559699]]]]}}]}