{"type": "FeatureCollection", "name": "Orleans_Westfield", "features": [{"type": "Feature", "properties": {"OBJECT_ID": 805, "County": "Orleans", "RPC": "NVDA", "Municipal_Name": "Westfield ", "GEO_ID": "5001980200", "District_Name": "Villaage", "Abbreviated_District_Name": "Vil", "District_Type": "Mixed with Residential", "Bylaw_Date": null, "Elderly_Housing_District": "No", "District_Mapped": "Yes", "Overlay_District": "No", "Base_Density": null, "GIS_ID": null, "Last_Update": null, "Shape_Length": 4748.6345039440985, "Shape_Area": 527524.3258381368, "F1F_Allowance": "Permitted", "F1F_Front_Setback": null, "F1F_Side_Setback": 20.0, "F1F_Rear_Setback": 10.0, "F1F_Frontage": 60.0, "F1F_Max_Height": 35.0, "F1F_Max_Stories": null, "F1F_Min_Lot_Size": 0.25, "F1F_Max_Lot_Building_Coverage": null, "F1F_Max_Lot_Impervious_Coverage": null, "F1F_Min_Parking_Spaces": 2.0, "F1F_Elderly_Housing_Only": null, "F1F_Affordable_Housing_Only": null, "F2F_Allowance": "Permitted", "F2F_Front_Setback": null, "F2F_Side_Setback": 20.0, "F2F_Rear_Setback": 10.0, "F2F_Frontage": 60.0, "F2F_Max_Density": null, "F2F_Max_Height": 35.0, "F2F_Max_Stories": null, "F2F_Min_Lot_Size": 0.25, "F2F_Max_Lot_Building_Coverage": null, "F2F_Max_Lot_Impervious_Coverage": null, "F2F_Min_Parking_Spaces_per_1BR": 2.0, "F2F_Min_Parking_Spaces_per_mult_BR": 2.0, "F2F_Elderly_Housing_Only": "No", "F2F_Affordable_Housing_Only": "No", "F3F_Allowance": "Public Hearing", "F3F_Front_Setback": null, "F3F_Side_Setback": 20.0, "F3F_Rear_Setback": 10.0, "F3F_Frontage": 60.0, "F3F_Max_Density": null, "F3F_Max_Height": 35.0, "F3F_Max_Stories": null, "F3F_Min_Lot_Size": 0.25, "F3F_Max_Lot_Building_Coverage": null, "F3F_Max_Lot_Impervious_Coverage": null, "F3F_Min_Parking_Spaces_per_1BR": 2.0, "F3F_Min_Parking_Spaces_per_mult_BR": 2.0, "F3F_Affordable_Housing_Only": "No", "F3F_Proximity_to_Public_Transit_Required": "No", "F3F_Connection_to_Sewage/Water_Required": "No", "F4F_Allowance": "Public Hearing", "F4F_Front_Setback": null, "F4F_Side_Setback": 20.0, "F4F_Rear_Setback": 10.0, "F4F_Frontage": 60.0, "F1F_Max_Density": null, "F4F_Max_Density": null, "F4F_Max_Height": 35.0, "F4F_Max_Stories": null, "F4F_Min_Lot_Size": 0.25, "F4F_Max_Lot_Building_Coverage": null, "F4F_Max_Lot_Impervious_Coverage": null, "F4F_Min_Parking_Spaces_per_1BR": 2.0, "F4F_Min_Parking_Spaces_per_mult_BR": 2.0, "F3F_Elderly_Housing_Only": "No", "F4F_Elderly_Housing_Only": "No", "F4F_Affordable_Housing_Only": "No", "F4F_Proximity_to_Public_Transit_Required": "No", "F4F_Connection_to_Sewage/Water_Required": "No", "ADU_Allowance": "Allowed/Conditional", "ADU_Elderly_Housing_Only": "No", "ADU_Max_Size_as_Percent_of_Primary_Strcture": null, "ADU_Max_Size_in_sq_ft": 1200.0, "ADU_Min_Lot_Size": null, "ADU_Max_Bedrooms": null, "ADU_Min_Parking_Spaces": 1.0, "ADU_Owner_Occupancy_Required": "No", "ADU_Renter_Occupancy_Prohibited": "No", "ADU_Employee_or_Family_Occupancy_Required": "No", "ADU_Restricted_to_Primary_Structure": "Yes", "Affordable_Housing_Allowance": "Not Mentioned", "Affordable_Housing_District": "No", "Affordable_Housing_Elderly_Only": null, "Affordable_Housing_Min_Lot_Size": null, "Affordable_Housing_Max_Density": null, "Affordable_Housing_Min_Parking_Spaces_per_mult_BR": null, "Affordable_Housing_Max_Units_per_Building": null, "Affordable_Housing_Min_Parking_Spaces_per_1BR": null, "PRD_Allowance": "Public Hearing", "PRD_Max_Density": null, "PRD_Max_Units": null, "PRD_Min_Lot_Size": null, "PRD_Mobile_or_Manufactured_Home_Park": "Yes", "PUD_Allowance": "Yes", "PUD_Required_with_Subdivision": "No", "PUD_Requires_Land_Conservation": "Yes", "PUD_Threshold_Number": null, "Notes": "  Accessory Use Maximum Height: 15 Feet", "FIPS6": null}, "geometry": {"type": "MultiPolygon", "coordinates": [[[[-72.42224166871561, 44.89323288894929], [-72.42264486576337, 44.89369986213925], [-72.42760698740605, 44.891388069950494], [-72.4284785620372, 44.892753379228594], [-72.42997650516239, 44.89432089633652], [-72.42984119928236, 44.8954574240029], [-72.43061551082123, 44.895441220428275], [-72.43217039658782, 44.8953735303944], [-72.43294850393072, 44.89535230181616], [-72.43306819033661, 44.89429885456734], [-72.43303823198006, 44.89394292840181], [-72.43291466708337, 44.89361522694623], [-72.43262777350608, 44.89318211683854], [-72.43146225672157, 44.892018079407585], [-72.4310107301772, 44.891465996276565], [-72.43165680655542, 44.89155337091567], [-72.43210927316201, 44.892246260177345], [-72.43241337823886, 44.89256448132219], [-72.43287431682576, 44.89285619431508], [-72.43360931897858, 44.89308710167896], [-72.43368773975438, 44.8930871472379], [-72.43447971219426, 44.89156965912228], [-72.43427232573357, 44.890336857048375], [-72.4339545220499, 44.88997365398932], [-72.43368258710495, 44.889785651370126], [-72.43330662166923, 44.88959607919317], [-72.43284832976433, 44.889467634103966], [-72.43172634567254, 44.889331057865924], [-72.43073857660825, 44.88910579936528], [-72.43026486168998, 44.889086493889174], [-72.43099163594778, 44.8847546915551], [-72.42796127642123, 44.884296850432435], [-72.42721371095307, 44.888799561367975], [-72.42709988208193, 44.88900969232316], [-72.42103329217494, 44.89183332207026], [-72.42143419833047, 44.8922976686101], [-72.42224166871561, 44.89323288894929]]]]}}, {"type": "Feature", "properties": {"OBJECT_ID": 803, "County": "Orleans", "RPC": "NVDA", "Municipal_Name": "Westfield ", "GEO_ID": "5001980200", "District_Name": "Recreational Residential", "Abbreviated_District_Name": "Recres", "District_Type": "Primarily Residential", "Bylaw_Date": null, "Elderly_Housing_District": "No", "District_Mapped": "Yes", "Overlay_District": "No", "Base_Density": null, "GIS_ID": null, "Last_Update": null, "Shape_Length": 30146.830839097307, "Shape_Area": 4739924.902597915, "F1F_Allowance": "Permitted", "F1F_Front_Setback": 50.0, "F1F_Side_Setback": 20.0, "F1F_Rear_Setback": 30.0, "F1F_Frontage": 150.0, "F1F_Max_Height": 35.0, "F1F_Max_Stories": null, "F1F_Min_Lot_Size": 1.0, "F1F_Max_Lot_Building_Coverage": null, "F1F_Max_Lot_Impervious_Coverage": null, "F1F_Min_Parking_Spaces": 2.0, "F1F_Elderly_Housing_Only": null, "F1F_Affordable_Housing_Only": null, "F2F_Allowance": "Permitted", "F2F_Front_Setback": 50.0, "F2F_Side_Setback": 20.0, "F2F_Rear_Setback": 30.0, "F2F_Frontage": 150.0, "F2F_Max_Density": null, "F2F_Max_Height": 35.0, "F2F_Max_Stories": null, "F2F_Min_Lot_Size": 1.0, "F2F_Max_Lot_Building_Coverage": null, "F2F_Max_Lot_Impervious_Coverage": null, "F2F_Min_Parking_Spaces_per_1BR": 2.0, "F2F_Min_Parking_Spaces_per_mult_BR": 2.0, "F2F_Elderly_Housing_Only": "No", "F2F_Affordable_Housing_Only": "No", "F3F_Allowance": "Public Hearing", "F3F_Front_Setback": 50.0, "F3F_Side_Setback": 20.0, "F3F_Rear_Setback": 30.0, "F3F_Frontage": 150.0, "F3F_Max_Density": null, "F3F_Max_Height": 35.0, "F3F_Max_Stories": null, "F3F_Min_Lot_Size": 1.0, "F3F_Max_Lot_Building_Coverage": null, "F3F_Max_Lot_Impervious_Coverage": null, "F3F_Min_Parking_Spaces_per_1BR": 2.0, "F3F_Min_Parking_Spaces_per_mult_BR": 2.0, "F3F_Affordable_Housing_Only": "No", "F3F_Proximity_to_Public_Transit_Required": "No", "F3F_Connection_to_Sewage/Water_Required": "No", "F4F_Allowance": "Public Hearing", "F4F_Front_Setback": 50.0, "F4F_Side_Setback": 20.0, "F4F_Rear_Setback": 30.0, "F4F_Frontage": 150.0, "F1F_Max_Density": null, "F4F_Max_Density": null, "F4F_Max_Height": 35.0, "F4F_Max_Stories": null, "F4F_Min_Lot_Size": 1.0, "F4F_Max_Lot_Building_Coverage": null, "F4F_Max_Lot_Impervious_Coverage": null, "F4F_Min_Parking_Spaces_per_1BR": 2.0, "F4F_Min_Parking_Spaces_per_mult_BR": 2.0, "F3F_Elderly_Housing_Only": "No", "F4F_Elderly_Housing_Only": "No", "F4F_Affordable_Housing_Only": "No", "F4F_Proximity_to_Public_Transit_Required": "No", "F4F_Connection_to_Sewage/Water_Required": "No", "ADU_Allowance": "Allowed/Conditional", "ADU_Elderly_Housing_Only": "No", "ADU_Max_Size_as_Percent_of_Primary_Strcture": null, "ADU_Max_Size_in_sq_ft": 1200.0, "ADU_Min_Lot_Size": null, "ADU_Max_Bedrooms": null, "ADU_Min_Parking_Spaces": 1.0, "ADU_Owner_Occupancy_Required": "No", "ADU_Renter_Occupancy_Prohibited": "No", "ADU_Employee_or_Family_Occupancy_Required": "No", "ADU_Restricted_to_Primary_Structure": "Yes", "Affordable_Housing_Allowance": "Not Mentioned", "Affordable_Housing_District": "No", "Affordable_Housing_Elderly_Only": null, "Affordable_Housing_Min_Lot_Size": null, "Affordable_Housing_Max_Density": null, "Affordable_Housing_Min_Parking_Spaces_per_mult_BR": null, "Affordable_Housing_Max_Units_per_Building": null, "Affordable_Housing_Min_Parking_Spaces_per_1BR": null, "PRD_Allowance": "Public Hearing", "PRD_Max_Density": null, "PRD_Max_Units": null, "PRD_Min_Lot_Size": null, "PRD_Mobile_or_Manufactured_Home_Park": "No", "PUD_Allowance": "Yes", "PUD_Required_with_Subdivision": "No", "PUD_Requires_Land_Conservation": "Yes", "PUD_Threshold_Number": null, "Notes": "  Accessory Use Maximum Height: 15 Feet", "FIPS6": null}, "geometry": {"type": "MultiPolygon", "coordinates": [[[[-72.43217039658782, 44.8953735303944], [-72.43061551082123, 44.895441220428275], [-72.43022592646662, 44.8984345298089], [-72.42999657363653, 44.900919200628216], [-72.43027624629784, 44.90343679884533], [-72.4307408289698, 44.90907523137913], [-72.43073738740877, 44.90978672872787], [-72.43060428076194, 44.91014472784997], [-72.42955233314458, 44.911254987229036], [-72.42941765069082, 44.91159006128799], [-72.42937695867249, 44.91197424842313], [-72.4304340719696, 44.917361972641515], [-72.43130177571402, 44.922427773019855], [-72.43166917957434, 44.92366783240162], [-72.43220921066518, 44.926308658209685], [-72.43376169163005, 44.926304057400635], [-72.43319337828542, 44.923489815189086], [-72.4328310721886, 44.92227507631652], [-72.43196402045764, 44.91721345064479], [-72.43092136709257, 44.91193778681248], [-72.43098110855195, 44.91168525662388], [-72.43201836055897, 44.910587997572144], [-72.43221310490041, 44.91016150313403], [-72.43228045493433, 44.90984078565717], [-72.43228277255072, 44.90901661731239], [-72.43181106336392, 44.90332097595247], [-72.43154091250517, 44.900926319840956], [-72.43176450635288, 44.8985231348052], [-72.43217039658782, 44.8953735303944]]], [[[-72.42143419833047, 44.8922976686101], [-72.41501033513865, 44.895305054082534], [-72.41349708016408, 44.89607747134072], [-72.41071831264996, 44.898183873333224], [-72.41022329215636, 44.8984333417497], [-72.41040101782946, 44.90053314266522], [-72.41077351087431, 44.89974221595268], [-72.41446007749435, 44.89693664382665], [-72.41890640674525, 44.894770001609835], [-72.42224166871561, 44.89323288894929], [-72.42143419833047, 44.8922976686101]]], [[[-72.53793482671155, 44.88593178480703], [-72.5373995186427, 44.88628746013505], [-72.5321937430541, 44.889005030976904], [-72.52931709425185, 44.890418209819366], [-72.52843125440556, 44.89099209612512], [-72.52845229212156, 44.89103933379978], [-72.52668270608706, 44.892721962684654], [-72.52534244280474, 44.89413055240268], [-72.52442496887609, 44.89496762243627], [-72.52364026713323, 44.895481789103044], [-72.52091774981876, 44.89691813857022], [-72.52092431361275, 44.89721284216802], [-72.52034852768874, 44.89723571231831], [-72.52039447036853, 44.897897303035904], [-72.5199402120854, 44.89805497943642], [-72.52001199154597, 44.901011321971545], [-72.53080599866374, 44.9006524810923], [-72.53859539304175, 44.90051698399901], [-72.53753859619417, 44.897428040586746], [-72.53229247046957, 44.89850489628634], [-72.53223546533277, 44.898150498751875], [-72.53210051054776, 44.89787041008955], [-72.53191591498305, 44.89775630111406], [-72.53174912779755, 44.89755762325811], [-72.53174309941878, 44.897413864420365], [-72.5315107432874, 44.897041845896275], [-72.53120299415787, 44.896859500177186], [-72.53098041705866, 44.894960958599306], [-72.53870338466022, 44.89485373458966], [-72.53871554851847, 44.89469902012541], [-72.53869809761264, 44.89448540134504], [-72.53864955591682, 44.89389120881668], [-72.53798397971332, 44.886504963302414], [-72.53793482671155, 44.88593178480703]]], [[[-72.53757259727753, 44.88170781178426], [-72.53608110694402, 44.88193886995007], [-72.53541759821346, 44.88213056569208], [-72.53479247246995, 44.88237905913298], [-72.53303567081593, 44.883387958781654], [-72.52497739331248, 44.88748841776758], [-72.5239011051388, 44.88829581407236], [-72.52305568172228, 44.8890480422376], [-72.52005428437782, 44.89206560441409], [-72.51765596350101, 44.893368514701585], [-72.51622257432344, 44.89389224255564], [-72.51549647197835, 44.89422768431995], [-72.51441008125792, 44.89489449128828], [-72.51385754231822, 44.89533420400281], [-72.5130706210155, 44.896128640132055], [-72.51266798367564, 44.89669095836096], [-72.51226254813054, 44.897503654752704], [-72.51193564055565, 44.89851232559166], [-72.51048103518364, 44.90064470359845], [-72.50964254750747, 44.90238786044943], [-72.50850129705194, 44.903813022218294], [-72.50804981202889, 44.90465693279334], [-72.50742989867342, 44.90608730693484], [-72.50548531279394, 44.90719309013241], [-72.50344486923217, 44.90813765023142], [-72.5021640536386, 44.90858741535959], [-72.50130701489749, 44.90896284817862], [-72.50068806798639, 44.909312030169616], [-72.50004212418644, 44.909772530157035], [-72.49910130172107, 44.91070169595453], [-72.49849391087216, 44.911554591286965], [-72.4959148582226, 44.91429788405873], [-72.4947858855817, 44.91573015564383], [-72.49277626765137, 44.91789546971836], [-72.49219495590452, 44.91860270399318], [-72.49137918188121, 44.919898526842765], [-72.49049539509848, 44.9221509282267], [-72.4903072143298, 44.92287454596078], [-72.49025472992905, 44.92326636508485], [-72.49028049027913, 44.92399838033711], [-72.49041294108778, 44.92459648301962], [-72.49065971261498, 44.925209662426184], [-72.49075955414366, 44.92619443800142], [-72.49912031207394, 44.9262094762141], [-72.49861508589156, 44.92512752967131], [-72.49676161525421, 44.92434824115173], [-72.49626420014421, 44.92403017077549], [-72.49601550441194, 44.92372977714182], [-72.4960155227196, 44.923464730964], [-72.49623941220338, 44.92274027989238], [-72.49691102261525, 44.921044005224424], [-72.49750794557653, 44.920284220837615], [-72.49827894327962, 44.91940074779433], [-72.50001981939917, 44.917598446707025], [-72.50024363825801, 44.9171567026292], [-72.50350122385635, 44.913622697390835], [-72.50399602856534, 44.91286606675934], [-72.5042944063452, 44.9125480000786], [-72.5048911800567, 44.91221225018268], [-72.50620906078059, 44.91177044187136], [-72.50874525190727, 44.910586401264936], [-72.5105851413415, 44.9095790683578], [-72.51225091526558, 44.908589393577714], [-72.51252435375059, 44.90823596866334], [-72.51277289250878, 44.90774118738624], [-72.51349356222225, 44.9060094660493], [-72.51374209570807, 44.90556769169394], [-72.51413977704065, 44.905002209891435], [-72.51498489095444, 44.90406560325357], [-72.51582971195386, 44.90215715097972], [-72.51712202333185, 44.90038998425313], [-72.51751960901576, 44.89973614168492], [-72.51786726064354, 44.898428521272315], [-72.51858302678745, 44.89774811944851], [-72.51885642709037, 44.89755370660372], [-72.52069585237345, 44.89689960455378], [-72.5239020630615, 44.89514966843453], [-72.52444880135157, 44.89476081555304], [-72.52683414423974, 44.892339513370864], [-72.52825040179913, 44.891013934355804], [-72.52909526002381, 44.89043061833916], [-72.53729543615088, 44.88625815169194], [-72.53792486944187, 44.88581568071147], [-72.53787735288836, 44.885261564701715], [-72.53757259727753, 44.88170781178426]]]]}}, {"type": "Feature", "properties": {"OBJECT_ID": 804, "County": "Orleans", "RPC": "NVDA", "Municipal_Name": "Westfield ", "GEO_ID": "5001980200", "District_Name": "Rural Residential", "Abbreviated_District_Name": "Rures", "District_Type": "Primarily Residential", "Bylaw_Date": null, "Elderly_Housing_District": "No", "District_Mapped": "Yes", "Overlay_District": "No", "Base_Density": null, "GIS_ID": null, "Last_Update": null, "Shape_Length": 70268.3281122236, "Shape_Area": 98352314.12271327, "F1F_Allowance": "Permitted", "F1F_Front_Setback": 50.0, "F1F_Side_Setback": 20.0, "F1F_Rear_Setback": 30.0, "F1F_Frontage": 150.0, "F1F_Max_Height": 35.0, "F1F_Max_Stories": null, "F1F_Min_Lot_Size": 2.0, "F1F_Max_Lot_Building_Coverage": null, "F1F_Max_Lot_Impervious_Coverage": null, "F1F_Min_Parking_Spaces": 2.0, "F1F_Elderly_Housing_Only": null, "F1F_Affordable_Housing_Only": null, "F2F_Allowance": "Permitted", "F2F_Front_Setback": 50.0, "F2F_Side_Setback": 20.0, "F2F_Rear_Setback": 30.0, "F2F_Frontage": 150.0, "F2F_Max_Density": null, "F2F_Max_Height": 35.0, "F2F_Max_Stories": null, "F2F_Min_Lot_Size": 2.0, "F2F_Max_Lot_Building_Coverage": null, "F2F_Max_Lot_Impervious_Coverage": null, "F2F_Min_Parking_Spaces_per_1BR": 2.0, "F2F_Min_Parking_Spaces_per_mult_BR": 2.0, "F2F_Elderly_Housing_Only": "No", "F2F_Affordable_Housing_Only": "No", "F3F_Allowance": "Public Hearing", "F3F_Front_Setback": 50.0, "F3F_Side_Setback": 20.0, "F3F_Rear_Setback": 30.0, "F3F_Frontage": 150.0, "F3F_Max_Density": null, "F3F_Max_Height": 35.0, "F3F_Max_Stories": null, "F3F_Min_Lot_Size": 2.0, "F3F_Max_Lot_Building_Coverage": null, "F3F_Max_Lot_Impervious_Coverage": null, "F3F_Min_Parking_Spaces_per_1BR": 2.0, "F3F_Min_Parking_Spaces_per_mult_BR": 2.0, "F3F_Affordable_Housing_Only": "No", "F3F_Proximity_to_Public_Transit_Required": "No", "F3F_Connection_to_Sewage/Water_Required": "No", "F4F_Allowance": "Public Hearing", "F4F_Front_Setback": 50.0, "F4F_Side_Setback": 20.0, "F4F_Rear_Setback": 30.0, "F4F_Frontage": 150.0, "F1F_Max_Density": null, "F4F_Max_Density": null, "F4F_Max_Height": 35.0, "F4F_Max_Stories": null, "F4F_Min_Lot_Size": 2.0, "F4F_Max_Lot_Building_Coverage": null, "F4F_Max_Lot_Impervious_Coverage": null, "F4F_Min_Parking_Spaces_per_1BR": 2.0, "F4F_Min_Parking_Spaces_per_mult_BR": 2.0, "F3F_Elderly_Housing_Only": "No", "F4F_Elderly_Housing_Only": "No", "F4F_Affordable_Housing_Only": "No", "F4F_Proximity_to_Public_Transit_Required": "No", "F4F_Connection_to_Sewage/Water_Required": "No", "ADU_Allowance": "Allowed/Conditional", "ADU_Elderly_Housing_Only": "No", "ADU_Max_Size_as_Percent_of_Primary_Strcture": null, "ADU_Max_Size_in_sq_ft": 1200.0, "ADU_Min_Lot_Size": null, "ADU_Max_Bedrooms": null, "ADU_Min_Parking_Spaces": 1.0, "ADU_Owner_Occupancy_Required": "No", "ADU_Renter_Occupancy_Prohibited": "No", "ADU_Employee_or_Family_Occupancy_Required": "No", "ADU_Restricted_to_Primary_Structure": "Yes", "Affordable_Housing_Allowance": "Not Mentioned", "Affordable_Housing_District": "No", "Affordable_Housing_Elderly_Only": null, "Affordable_Housing_Min_Lot_Size": null, "Affordable_Housing_Max_Density": null, "Affordable_Housing_Min_Parking_Spaces_per_mult_BR": null, "Affordable_Housing_Max_Units_per_Building": null, "Affordable_Housing_Min_Parking_Spaces_per_1BR": null, "PRD_Allowance": "Public Hearing", "PRD_Max_Density": null, "PRD_Max_Units": null, "PRD_Min_Lot_Size": null, "PRD_Mobile_or_Manufactured_Home_Park": "Yes", "PUD_Allowance": "Yes", "PUD_Required_with_Subdivision": "No", "PUD_Requires_Land_Conservation": "Yes", "PUD_Threshold_Number": null, "Notes": "  Accessory Use Maximum Height: 15 Feet", "FIPS6": null}, "geometry": {"type": "MultiPolygon", "coordinates": [[[[-72.42760698740605, 44.891388069950494], [-72.42264486576337, 44.89369986213925], [-72.42224166871561, 44.89323288894929], [-72.41890640674525, 44.894770001609835], [-72.41446007749435, 44.89693664382665], [-72.41077351087431, 44.89974221595268], [-72.41040101782946, 44.90053314266522], [-72.41055187602421, 44.902315587680135], [-72.41060477826089, 44.90294060409167], [-72.41069511648685, 44.90401496074783], [-72.41128434233724, 44.91107585336907], [-72.41143721772603, 44.91290784369988], [-72.41245883832808, 44.92503043185829], [-72.41256931565471, 44.92633546096465], [-72.42663809366556, 44.9263251694105], [-72.42687174967266, 44.92632447697337], [-72.43220921066518, 44.926308658209685], [-72.43166917957434, 44.92366783240162], [-72.43130177571402, 44.922427773019855], [-72.4304340719696, 44.917361972641515], [-72.42937695867249, 44.91197424842313], [-72.42941765069082, 44.91159006128799], [-72.42955233314458, 44.911254987229036], [-72.43060428076194, 44.91014472784997], [-72.43073738740877, 44.90978672872787], [-72.4307408289698, 44.90907523137913], [-72.43027624629784, 44.90343679884533], [-72.42999657363653, 44.900919200628216], [-72.43022592646662, 44.8984345298089], [-72.43061551082123, 44.895441220428275], [-72.42984119928236, 44.8954574240029], [-72.42997650516239, 44.89432089633652], [-72.4284785620372, 44.892753379228594], [-72.42760698740605, 44.891388069950494]]], [[[-72.53792486944187, 44.88581568071147], [-72.53729543615088, 44.88625815169194], [-72.52909526002381, 44.89043061833916], [-72.52825040179913, 44.891013934355804], [-72.52683414423974, 44.892339513370864], [-72.52444880135157, 44.89476081555304], [-72.5239020630615, 44.89514966843453], [-72.52069585237345, 44.89689960455378], [-72.51885642709037, 44.89755370660372], [-72.51858302678745, 44.89774811944851], [-72.51786726064354, 44.898428521272315], [-72.51751960901576, 44.89973614168492], [-72.51712202333185, 44.90038998425313], [-72.51582971195386, 44.90215715097972], [-72.51498489095444, 44.90406560325357], [-72.51413977704065, 44.905002209891435], [-72.51374209570807, 44.90556769169394], [-72.51349356222225, 44.9060094660493], [-72.51277289250878, 44.90774118738624], [-72.51252435375059, 44.90823596866334], [-72.51225091526558, 44.908589393577714], [-72.5105851413415, 44.9095790683578], [-72.50874525190727, 44.910586401264936], [-72.50620906078059, 44.91177044187136], [-72.5048911800567, 44.91221225018268], [-72.5042944063452, 44.9125480000786], [-72.50399602856534, 44.91286606675934], [-72.50350122385635, 44.913622697390835], [-72.50024363825801, 44.9171567026292], [-72.50001981939917, 44.917598446707025], [-72.49827894327962, 44.91940074779433], [-72.49750794557653, 44.920284220837615], [-72.49691102261525, 44.921044005224424], [-72.49623941220338, 44.92274027989238], [-72.4960155227196, 44.923464730964], [-72.49601550441194, 44.92372977714182], [-72.49626420014421, 44.92403017077549], [-72.49676161525421, 44.92434824115173], [-72.49861508589156, 44.92512752967131], [-72.49912031207394, 44.9262094762141], [-72.49912127730116, 44.926209478021256], [-72.51707537735402, 44.92617107778726], [-72.53502945176092, 44.926129855035285], [-72.53773798180121, 44.926112061806144], [-72.54138462174194, 44.92598662723123], [-72.539262248155, 44.90139003500828], [-72.539261488527, 44.90138083129131], [-72.53870338466022, 44.89485373458966], [-72.53098041705866, 44.894960958599306], [-72.53120299415787, 44.896859500177186], [-72.5315107432874, 44.897041845896275], [-72.53174309941878, 44.897413864420365], [-72.53174912779755, 44.89755762325811], [-72.53191591498305, 44.89775630111406], [-72.53210051054776, 44.89787041008955], [-72.53223546533277, 44.898150498751875], [-72.53229247046957, 44.89850489628634], [-72.53753859619417, 44.897428040586746], [-72.53859539304175, 44.90051698399901], [-72.53080599866374, 44.9006524810923], [-72.52001199154597, 44.901011321971545], [-72.5199402120854, 44.89805497943642], [-72.52039447036853, 44.897897303035904], [-72.52034852768874, 44.89723571231831], [-72.52092431361275, 44.89721284216802], [-72.52091774981876, 44.89691813857022], [-72.52364026713323, 44.895481789103044], [-72.52442496887609, 44.89496762243627], [-72.52534244280474, 44.89413055240268], [-72.52668270608706, 44.892721962684654], [-72.52845229212156, 44.89103933379978], [-72.52843125440556, 44.89099209612512], [-72.52931709425185, 44.890418209819366], [-72.5321937430541, 44.889005030976904], [-72.5373995186427, 44.88628746013505], [-72.53793482671155, 44.88593178480703], [-72.53792486944187, 44.88581568071147]]], [[[-72.53328173402815, 44.83408998227007], [-72.52282851098815, 44.83419196317534], [-72.52232635701866, 44.834196777888444], [-72.51201961599195, 44.834281928741305], [-72.50844619653064, 44.83431049389392], [-72.50681049032207, 44.83432345903616], [-72.50154906855366, 44.83436285188731], [-72.49175634517154, 44.834438532128495], [-72.48252024544486, 44.83452212337118], [-72.4611040365339, 44.83469118657277], [-72.43968770661719, 44.83485623369448], [-72.42175584132328, 44.83500148767472], [-72.40382389067595, 44.83514392604174], [-72.4039807871188, 44.83653030759159], [-72.4044626756132, 44.84078827972385], [-72.4053017660797, 44.846962807225495], [-72.40531405781839, 44.84705233118849], [-72.40547672027681, 44.848237063652384], [-72.40557268152985, 44.849011209446765], [-72.40568151849267, 44.84992937937441], [-72.4057641171773, 44.85062615212238], [-72.40609471755793, 44.85341486613076], [-72.40627403944096, 44.8549275793774], [-72.40653847577548, 44.857130436819986], [-72.40716380898759, 44.862262231013915], [-72.40815977928078, 44.87364388501584], [-72.4082999515098, 44.87534530632357], [-72.40862279452173, 44.879365689449784], [-72.40982680546908, 44.89374906138373], [-72.40986846138455, 44.89424118107467], [-72.40989203361225, 44.89451970944265], [-72.40997177789173, 44.89546192130924], [-72.4100352644418, 44.89621198379552], [-72.41022329215636, 44.8984333417497], [-72.41071831264996, 44.898183873333224], [-72.41349708016408, 44.89607747134072], [-72.41501033513865, 44.895305054082534], [-72.42143419833047, 44.8922976686101], [-72.42103329217494, 44.89183332207026], [-72.42709988208193, 44.88900969232316], [-72.42721371095307, 44.888799561367975], [-72.42796127642123, 44.884296850432435], [-72.43099163594778, 44.8847546915551], [-72.43026486168998, 44.889086493889174], [-72.43073857660825, 44.88910579936528], [-72.43172634567254, 44.889331057865924], [-72.43284832976433, 44.889467634103966], [-72.43330662166923, 44.88959607919317], [-72.43368258710495, 44.889785651370126], [-72.4339545220499, 44.88997365398932], [-72.43427232573357, 44.890336857048375], [-72.43447971219426, 44.89156965912228], [-72.43368773975438, 44.8930871472379], [-72.43360931897858, 44.89308710167896], [-72.43287431682576, 44.89285619431508], [-72.43241337823886, 44.89256448132219], [-72.43210927316201, 44.892246260177345], [-72.43165680655542, 44.89155337091567], [-72.4310107301772, 44.891465996276565], [-72.43146225672157, 44.892018079407585], [-72.43262777350608, 44.89318211683854], [-72.43291466708337, 44.89361522694623], [-72.43303823198006, 44.89394292840181], [-72.43306819033661, 44.89429885456734], [-72.43294850393072, 44.89535230181616], [-72.43217039658782, 44.8953735303944], [-72.43176450635288, 44.8985231348052], [-72.43154091250517, 44.900926319840956], [-72.43181106336392, 44.90332097595247], [-72.43228277255072, 44.90901661731239], [-72.43228045493433, 44.90984078565717], [-72.43221310490041, 44.91016150313403], [-72.43201836055897, 44.910587997572144], [-72.43098110855195, 44.91168525662388], [-72.43092136709257, 44.91193778681248], [-72.43196402045764, 44.91721345064479], [-72.4328310721886, 44.92227507631652], [-72.43319337828542, 44.923489815189086], [-72.43376169163005, 44.926304057400635], [-72.4515746247165, 44.926270869579476], [-72.4570957299144, 44.92626130484438], [-72.46592374243872, 44.926242807022454], [-72.46737916201077, 44.9262397566493], [-72.49075955414366, 44.92619443800142], [-72.49065971261498, 44.925209662426184], [-72.49041294108778, 44.92459648301962], [-72.49028049027913, 44.92399838033711], [-72.49025472992905, 44.92326636508485], [-72.4903072143298, 44.92287454596078], [-72.49049539509848, 44.9221509282267], [-72.49137918188121, 44.919898526842765], [-72.49219495590452, 44.91860270399318], [-72.49277626765137, 44.91789546971836], [-72.4947858855817, 44.91573015564383], [-72.4959148582226, 44.91429788405873], [-72.49849391087216, 44.911554591286965], [-72.49910130172107, 44.91070169595453], [-72.50004212418644, 44.909772530157035], [-72.50068806798639, 44.909312030169616], [-72.50130701489749, 44.90896284817862], [-72.5021640536386, 44.90858741535959], [-72.50344486923217, 44.90813765023142], [-72.50548531279394, 44.90719309013241], [-72.50742989867342, 44.90608730693484], [-72.50804981202889, 44.90465693279334], [-72.50850129705194, 44.903813022218294], [-72.50964254750747, 44.90238786044943], [-72.51048103518364, 44.90064470359845], [-72.51193564055565, 44.89851232559166], [-72.51226254813054, 44.897503654752704], [-72.51266798367564, 44.89669095836096], [-72.5130706210155, 44.896128640132055], [-72.51385754231822, 44.89533420400281], [-72.51441008125792, 44.89489449128828], [-72.51549647197835, 44.89422768431995], [-72.51622257432344, 44.89389224255564], [-72.51765596350101, 44.893368514701585], [-72.52005428437782, 44.89206560441409], [-72.52305568172228, 44.8890480422376], [-72.5239011051388, 44.88829581407236], [-72.52497739331248, 44.88748841776758], [-72.53303567081593, 44.883387958781654], [-72.53479247246995, 44.88237905913298], [-72.53541759821346, 44.88213056569208], [-72.53608110694402, 44.88193886995007], [-72.53757259727753, 44.88170781178426], [-72.53733929422212, 44.87898681767645], [-72.53733444943188, 44.87893033983566], [-72.53725623006858, 44.878024245023326], [-72.5371194070132, 44.87647623292187], [-72.5362146545112, 44.867985021782026], [-72.53562661596715, 44.86139075774108], [-72.53525333552754, 44.85720483592177], [-72.5351850666571, 44.85641658694443], [-72.53349778813977, 44.83643787959645], [-72.53328173402815, 44.83408998227007]]]]}}]}