{"type": "FeatureCollection", "crs": {"type": "name", "properties": {"name": "urn:ogc:def:crs:OGC:1.3:CRS84"}}, "features": [{"type": "Feature", "properties": {"ABB_DIST_NAME": "NT", "Jurisdiction_County": "Orleans", "Jurisdiction_District_Name": "Newport Town"}, "geometry": {"type": "Polygon", "coordinates": [[[-72.31880247597717, 45.004191641486415], [-72.32324039907716, 45.00454381207936], [-72.32666231927246, 45.004815237627774], [-72.32793849482869, 45.0048810667438], [-72.32919993891448, 45.00494612167991], [-72.33021215299605, 45.00111713389442], [-72.33085140770766, 44.99869870107779], [-72.3313705223592, 44.99673462997983], [-72.33182396279916, 44.99499419907196], [-72.33216991499528, 44.993650570297476], [-72.33277167200347, 44.99131328408302], [-72.33392391618514, 44.98683729915983], [-72.33405499077017, 44.98632479133683], [-72.33445048319568, 44.984766429049365], [-72.33498641357612, 44.98265456141701], [-72.33617237265875, 44.97798064895504], [-72.33629193341511, 44.977509412615404], [-72.33666804619837, 44.97602694697536], [-72.33681221039325, 44.97545869786218], [-72.33682284812913, 44.97541676657686], [-72.33683442281539, 44.97537167988903], [-72.33684895757214, 44.975315927683646], [-72.33688766166027, 44.97516747041381], [-72.33695295199293, 44.97491703834934], [-72.3370684045314, 44.97447418864336], [-72.33740033441097, 44.97320094023495], [-72.33756919342098, 44.972553196394195], [-72.33802368720958, 44.970809675415374], [-72.33851454621175, 44.968926528423125], [-72.33960361500368, 44.96474794302386], [-72.34056503679092, 44.96104421700991], [-72.34088050257438, 44.959827942040945], [-72.3414431786478, 44.95765841103773], [-72.3417226522805, 44.956580775786016], [-72.34189068393782, 44.95593282904416], [-72.34225902883674, 44.95451241169208], [-72.34261657247053, 44.95313357721177], [-72.3426276001041, 44.95309104824328], [-72.34263687559131, 44.95305527939992], [-72.34266109658707, 44.95296187092496], [-72.34268537385923, 44.952868244751734], [-72.34271918644265, 44.95273784402026], [-72.34272005993272, 44.952734475201034], [-72.34272213606914, 44.952726469195795], [-72.34272583606993, 44.95271225810685], [-72.34273369842002, 44.95268205481781], [-72.34274615214409, 44.95263421225188], [-72.3427978392229, 44.95243565186709], [-72.34327446718055, 44.95060457127487], [-72.34373721555585, 44.94882669660368], [-72.34422440239288, 44.94695480527856], [-72.34492178923983, 44.944275061721896], [-72.34559778100218, 44.94167728565361], [-72.3457184877317, 44.94121339625874], [-72.34574701457319, 44.941103760819956], [-72.34576035300783, 44.94105249770097], [-72.3457664416426, 44.94102909839462], [-72.34576733521611, 44.94102566658109], [-72.34576782937536, 44.94102376671402], [-72.34576792538748, 44.94102339879508], [-72.34576799450541, 44.941023137924915], [-72.34576811097297, 44.94102270164318], [-72.34576835927143, 44.941021769708776], [-72.34577067714474, 44.941013071954735], [-72.34577418914228, 44.940999896239184], [-72.34587126771834, 44.940635642997904], [-72.34615099686583, 44.939586030518605], [-72.34634231999912, 44.93886811531899], [-72.3464416194409, 44.938495500109475], [-72.34698187915099, 44.93646812518064], [-72.34702274439825, 44.93631476653835], [-72.34788943043735, 44.933062123703095], [-72.34855476835692, 44.930564873753795], [-72.3492272904906, 44.928040433154614], [-72.34960953889154, 44.926618038152995], [-72.34994674497656, 44.92536661471926], [-72.35045877040928, 44.92346629549412], [-72.35096899067238, 44.921572553585506], [-72.35150199208483, 44.91959411581061], [-72.35188326486482, 44.9181787927564], [-72.3522947462503, 44.916651250956605], [-72.35245594430913, 44.91605281447803], [-72.35274063533149, 44.91498201809287], [-72.35296915065324, 44.91411935788347], [-72.35331123176441, 44.91282793293205], [-72.35453267605358, 44.90821625433664], [-72.35520565114193, 44.905675047621585], [-72.35557085422569, 44.90429913286055], [-72.35594710370412, 44.90290347366079], [-72.35642650705864, 44.90112507403155], [-72.35666485132424, 44.90024086723784], [-72.3568097778264, 44.89970321100915], [-72.35736563484248, 44.89764095198664], [-72.35826747312989, 44.894294759867236], [-72.3583889801678, 44.89384388989522], [-72.35892696348878, 44.89184753064187], [-72.35925214870514, 44.89064075708144], [-72.35954340761307, 44.8895595804018], [-72.36012578587996, 44.887394751148676], [-72.36045264205133, 44.88617967475128], [-72.36088411724862, 44.884575608868495], [-72.3613055196651, 44.883008895430706], [-72.36152957546648, 44.882175856290004], [-72.36180767481684, 44.88114184617297], [-72.36230085964299, 44.87930802769446], [-72.36244935908104, 44.878755833509295], [-72.36277963491524, 44.87752767020655], [-72.36331296269178, 44.87554432819643], [-72.36355069701088, 44.87460195267108], [-72.36373968463812, 44.873794758447865], [-72.36437076832355, 44.87109913622069], [-72.36499891859134, 44.86841613745696], [-72.36523488753129, 44.867410282606], [-72.36577978241881, 44.86508745261269], [-72.36615707952518, 44.86347896242021], [-72.36634767281858, 44.86266638916099], [-72.36648900347443, 44.862063827454804], [-72.36657230840689, 44.861708650411444], [-72.36667312144414, 44.86127882741286], [-72.3668580560344, 44.86049031835845], [-72.36692378533775, 44.86021006216277], [-72.36706751892261, 44.859597199472454], [-72.36757640834881, 44.85739717384078], [-72.36769934489834, 44.85686440382668], [-72.36786488598054, 44.85614698548642], [-72.36805248664119, 44.85533393962987], [-72.36811002671307, 44.8550845643859], [-72.3682479452999, 44.85448681825865], [-72.36850820377543, 44.85335880618926], [-72.36885420647641, 44.851868007327845], [-72.36978631005057, 44.84788389528034], [-72.36986850413662, 44.84753254720763], [-72.37007555022754, 44.84664747562314], [-72.3702239704447, 44.84601299838914], [-72.37027270447729, 44.845804664590794], [-72.37048738425314, 44.84492820180478], [-72.37091209804214, 44.843233827890096], [-72.37132558962804, 44.84158412778468], [-72.36997963995617, 44.84162056888425], [-72.36779895221426, 44.84167957655043], [-72.36686396835428, 44.841704863517506], [-72.36584801896366, 44.8417161543536], [-72.36469856258125, 44.84172816985696], [-72.35895784216916, 44.841793313001396], [-72.35522983385142, 44.84185427361169], [-72.3495357131399, 44.84194163352839], [-72.34574431545502, 44.84198859823525], [-72.34176336300642, 44.842037776183545], [-72.33718548298113, 44.84211356377002], [-72.3337915178189, 44.84216726224878], [-72.33183415148618, 44.84219818505871], [-72.32883879198391, 44.84649219709791], [-72.32686582691761, 44.8493201560276], [-72.3261444443744, 44.850354076111664], [-72.32567639335181, 44.85102488646883], [-72.32553239804027, 44.85123125668128], [-72.32550091365803, 44.85127637938056], [-72.32546185542188, 44.851332356649074], [-72.32545830039788, 44.851337450883776], [-72.32545436928639, 44.85134308447663], [-72.32545065035691, 44.851348414231346], [-72.3254505944526, 44.85134849423597], [-72.32545049789805, 44.851348629971554], [-72.32545021076717, 44.8513490362823], [-72.32545012183554, 44.85134916123087], [-72.32544952725137, 44.851350000817924], [-72.32544822246555, 44.85135184449491], [-72.32544559384179, 44.85135555701655], [-72.32539822519534, 44.85142245790457], [-72.32532584944457, 44.85152467624336], [-72.32526981831138, 44.85160381130795], [-72.32085758609001, 44.85783456748285], [-72.31917641265777, 44.86021448195195], [-72.31846708200555, 44.861230746353854], [-72.31760386720526, 44.86246742892264], [-72.31495399149333, 44.86626339169579], [-72.31283584972645, 44.869265991619145], [-72.31033232483782, 44.87278852001419], [-72.30911106462983, 44.87458392257964], [-72.30897298262822, 44.87478691357154], [-72.30886165763064, 44.87495056841944], [-72.30880384433414, 44.87503555664474], [-72.30879197744902, 44.875053000839486], [-72.30878656097568, 44.87506096384934], [-72.30878505774382, 44.87506317324904], [-72.30878483391231, 44.87506350223209], [-72.3087847652406, 44.87506360200431], [-72.30878470420403, 44.87506368919092], [-72.30878405444182, 44.87506461048483], [-72.3087794336401, 44.875071158408], [-72.30875535051027, 44.875105289402924], [-72.30822085538314, 44.87586276547167], [-72.30695726114443, 44.87765373549501], [-72.3052368824535, 44.880092452057504], [-72.30472657892044, 44.88081578647295], [-72.30426870791615, 44.88146478351069], [-72.30398918691458, 44.881856755067275], [-72.30325992280027, 44.88286858548702], [-72.30266229544556, 44.88369774451962], [-72.29636349363312, 44.89247925658822], [-72.29305461618601, 44.89716679215404], [-72.29211936275927, 44.89849156511799], [-72.29092680891794, 44.900158778725434], [-72.28956906351658, 44.90204824076241], [-72.28874339535254, 44.903197183733425], [-72.28511989197098, 44.908238793497276], [-72.28366711242232, 44.91026347703448], [-72.28084495651399, 44.914197996101436], [-72.28074918992615, 44.91433149823734], [-72.28054533208802, 44.91461568245247], [-72.28023316971826, 44.91505084019549], [-72.27967362948293, 44.91583082676276], [-72.27925453730937, 44.91641849461929], [-72.27814809221614, 44.9179572684641], [-72.27703047660393, 44.91950287003168], [-72.27495186569335, 44.92238798169533], [-72.27203798428229, 44.9263653888087], [-72.27019667457876, 44.92889607259862], [-72.26964112935941, 44.929666681735775], [-72.26863421889496, 44.93106332797128], [-72.26836208341484, 44.93144078356187], [-72.26820290654005, 44.931661561871074], [-72.26701583147194, 44.93330796952429], [-72.26572636208341, 44.935096271652995], [-72.26492798241773, 44.93620450287381], [-72.26422938956644, 44.93717682377449], [-72.26180979073501, 44.940544198246236], [-72.26030109740208, 44.93973810004022], [-72.25818360414493, 44.938606647728115], [-72.25647300510172, 44.937692552159135], [-72.25494758093402, 44.93687736280158], [-72.25280237228682, 44.93573088474154], [-72.25052718365194, 44.934514847700484], [-72.24927473776194, 44.933845401773475], [-72.24854087686431, 44.933453132617664], [-72.24762694256329, 44.93296459360046], [-72.24673888635587, 44.932489873613356], [-72.24598794491288, 44.93208843794073], [-72.24524840616166, 44.931693087000234], [-72.24469991800194, 44.93139986423995], [-72.24406126895859, 44.93105843383954], [-72.24324987102817, 44.93062463800548], [-72.24209912672144, 44.93172100680338], [-72.24146474191969, 44.93232558923504], [-72.24091595441774, 44.932848582505756], [-72.23927495492677, 44.93441237696784], [-72.24094478745529, 44.9352859044458], [-72.24298428386768, 44.93635273933792], [-72.24366896504506, 44.93671087066442], [-72.24316884430641, 44.93719804797628], [-72.2415586724749, 44.938766479648116], [-72.24019692673473, 44.94009283936147], [-72.23959362672802, 44.94068043669938], [-72.23934841310596, 44.941268683927206], [-72.23914349785684, 44.94177748094746], [-72.23899508729932, 44.94224233447221], [-72.23882484449862, 44.94277556065715], [-72.23871657011601, 44.94304199963532], [-72.23838260573297, 44.94386379808299], [-72.24060920658481, 44.94428059166946], [-72.24193696273989, 44.944529107644605], [-72.24153192796344, 44.944955398617324], [-72.2412461272362, 44.945256193800134], [-72.24118102832982, 44.94531976633593], [-72.24098866884167, 44.9454987317306], [-72.24035387264774, 44.9460893152617], [-72.23975114828113, 44.9466500457029], [-72.24018129328265, 44.94687837988173], [-72.24113258711155, 44.947383343387166], [-72.24219421338401, 44.94794685261798], [-72.2420782000208, 44.94855984878549], [-72.24201980691352, 44.948868385039624], [-72.24196667758838, 44.949149106369], [-72.24192832473794, 44.949346963858716], [-72.24177927668883, 44.949982292651995], [-72.24148633443869, 44.95158470363753], [-72.24119754303175, 44.951776843669826], [-72.23948498839015, 44.951311512476], [-72.23884473077943, 44.95111816856218], [-72.23704803013244, 44.95069375950356], [-72.23634015511182, 44.95062525614243], [-72.23511691136129, 44.950532510304335], [-72.23393619199652, 44.95050210723363], [-72.23358545457315, 44.95064905229274], [-72.23340725915611, 44.951512975838725], [-72.2333890111753, 44.95153092349339], [-72.23277171499603, 44.95213805735805], [-72.23276727575698, 44.95214242305055], [-72.23244697395712, 44.95252262062585], [-72.23241266888056, 44.95268920382106], [-72.2324112373055, 44.9527046503758], [-72.23239501899852, 44.952879635750875], [-72.23226051201814, 44.952962653178545], [-72.23233540719197, 44.95315114051648], [-72.23235994019404, 44.95321288245846], [-72.23261637025658, 44.95352477412449], [-72.23328277222897, 44.95433528868033], [-72.2333602242944, 44.95442948907368], [-72.23359434121704, 44.95504103056246], [-72.23367496960459, 44.95525164018141], [-72.23382931861548, 44.95547819362868], [-72.2339814822691, 44.95570153912396], [-72.2340080294294, 44.955740504218724], [-72.23399984996816, 44.955869707671965], [-72.23397270023808, 44.95629853865538], [-72.2339622443787, 44.95646368306936], [-72.23394823794487, 44.95668491001286], [-72.23393568473269, 44.956883174705375], [-72.23391731497338, 44.95697238838417], [-72.23386707893422, 44.95721634353004], [-72.23401084780212, 44.95746201946744], [-72.23408333691141, 44.95758588912522], [-72.23383024477596, 44.95793053168432], [-72.23369532287245, 44.95851899858686], [-72.23364201327487, 44.958751509034705], [-72.23395893141944, 44.95910938418752], [-72.2339252018617, 44.95937310199732], [-72.23383715975288, 44.96006146664807], [-72.23385178025305, 44.960525778460166], [-72.23401963515875, 44.961168969928906], [-72.23418129888877, 44.96178843056961], [-72.23417888016584, 44.9623122253974], [-72.2339595242892, 44.962609328910396], [-72.23508171116907, 44.96288574297777], [-72.2354112781309, 44.962920351117816], [-72.23647279668184, 44.96303181580329], [-72.236496784412, 44.96304343269082], [-72.23675695835175, 44.96316943686667], [-72.2369914368631, 44.96328299455518], [-72.23720167405457, 44.96335288644768], [-72.23737686221263, 44.96341112142442], [-72.23746026158365, 44.963438844718], [-72.23755788908633, 44.96345180767282], [-72.23828141251839, 44.963547870738694], [-72.23962157104069, 44.96383664384026], [-72.24113081827558, 44.96381626510073], [-72.24138426720374, 44.96338827500084], [-72.24175348679793, 44.96331768324636], [-72.24242335678568, 44.96350966893365], [-72.24242213158689, 44.96378347161505], [-72.24250378933236, 44.96427174286599], [-72.24320683877936, 44.964547130338744], [-72.24389429196714, 44.96456057838921], [-72.24423135373536, 44.96418038794671], [-72.24438369642145, 44.96385930604021], [-72.24441823669798, 44.96363319635734], [-72.24471995892456, 44.9636576808559], [-72.24471716077899, 44.96428861617731], [-72.2441271984085, 44.96497776026742], [-72.24436037257426, 44.96533541941282], [-72.2447959885265, 44.96541972525775], [-72.2454999578233, 44.96549272337185], [-72.2451970135536, 44.9657420444659], [-72.24535358184687, 44.96603908271139], [-72.24547971504641, 44.96627837932009], [-72.2454228689247, 44.966353477271724], [-72.24507488719593, 44.96681318173593], [-72.24594005516242, 44.967594628399375], [-72.2459601289105, 44.967612759540636], [-72.24593122022854, 44.97036264609373], [-72.24569554072842, 44.97055540543714], [-72.24460839812306, 44.971444543225104], [-72.24342864396161, 44.972409381777894], [-72.24318764828136, 44.97260646940177], [-72.24291792921828, 44.97333874933658], [-72.24291601836407, 44.97334393997965], [-72.2426021122675, 44.97370156800794], [-72.24228226804992, 44.97406595506525], [-72.24185799538954, 44.97454930545147], [-72.24168542813716, 44.97474589927346], [-72.24124410762892, 44.97510071558971], [-72.24084380236863, 44.975422551278804], [-72.2411380505231, 44.975605100080394], [-72.24147935791714, 44.97581684110892], [-72.24146235554728, 44.976177140646534], [-72.24146082123208, 44.97620964852859], [-72.24095782669599, 44.976172795664944], [-72.24030152324013, 44.976659391214376], [-72.24043355005733, 44.97713587300611], [-72.24004802310917, 44.9772688137876], [-72.2396104245331, 44.97741970751275], [-72.23925729155314, 44.97762127864914], [-72.23922158618417, 44.977749248404606], [-72.23913162286334, 44.97807168536542], [-72.23904017510219, 44.97839944156635], [-72.23899986384721, 44.978543915093745], [-72.23895784210912, 44.978694522695164], [-72.23888508425513, 44.978955284869976], [-72.23888219600244, 44.97896563395014], [-72.23900743009564, 44.979228707826685], [-72.23930672584252, 44.97985741118208], [-72.23932737330415, 44.979900786059716], [-72.23934740792585, 44.979942868223944], [-72.2395585030499, 44.98147903387594], [-72.23958143008002, 44.98152653258877], [-72.23979686703771, 44.98197287483086], [-72.23982294113968, 44.982026893004104], [-72.23985762502154, 44.98209875086367], [-72.23983505523871, 44.982327928156394], [-72.23980186928917, 44.98266491599051], [-72.23975213680505, 44.98316991726278], [-72.23974126743487, 44.983338444886826], [-72.23971605659156, 44.983729348373174], [-72.23969809765593, 44.98399120666907], [-72.2396367731727, 44.984083689336565], [-72.23946783042231, 44.98433847136717], [-72.23946164224576, 44.98434780327305], [-72.23939866820518, 44.9845945867995], [-72.23933249212965, 44.98485391882076], [-72.23932502157874, 44.98488319425017], [-72.23933235924234, 44.985215921625844], [-72.23933756158868, 44.98545185259167], [-72.23933893648129, 44.98551416613466], [-72.2395039560022, 44.985758368861156], [-72.24007212037468, 44.9865991475964], [-72.24084290604456, 44.986791371405516], [-72.24173069490216, 44.98707909117872], [-72.24228266936503, 44.9874374736737], [-72.24290430615198, 44.987224593044935], [-72.24302173105299, 44.98722485732396], [-72.24305416509583, 44.98747492502647], [-72.24238086699651, 44.98798530199906], [-72.24227712155665, 44.988675530296504], [-72.24205102977034, 44.988813483255846], [-72.24181907752009, 44.98895501118423], [-72.24140238839067, 44.98920925532228], [-72.24153689748206, 44.989416571422815], [-72.24161897335087, 44.98954307231129], [-72.24193832432945, 44.98968524798472], [-72.24239110562105, 44.989886824342115], [-72.24264026849691, 44.9899977493169], [-72.24268386979799, 44.99003487886772], [-72.2430017830429, 44.990305596938875], [-72.24307479209979, 44.99036776740357], [-72.24311633219894, 44.990693287635686], [-72.24312341896005, 44.990748820831996], [-72.2430050812037, 44.990950931848516], [-72.24301338893495, 44.990963934714195], [-72.2432716404894, 44.991368188363026], [-72.24325225888224, 44.99195146598154], [-72.24378783271396, 44.99223837625014], [-72.2446997949813, 44.99264180108248], [-72.24484269284781, 44.9927050138684], [-72.2451405480082, 44.99295316729631], [-72.2451435639972, 44.9929556801535], [-72.2449895639602, 44.993633892931406], [-72.24518498673707, 44.993788943179645], [-72.24529049459312, 44.99387265459562], [-72.24516994342744, 44.99457475075043], [-72.24539687630167, 44.994811083797785], [-72.24655610173764, 44.996018279923675], [-72.24730233380768, 44.996159385654245], [-72.24751164196088, 44.996198963937026], [-72.24802971527917, 44.99666438290992], [-72.24864985443175, 44.99683992196431], [-72.24875027640657, 44.99686834651308], [-72.24901648767961, 44.99738082566849], [-72.24929514664682, 44.997452694448945], [-72.24943547150083, 44.99748888542955], [-72.25035443855855, 44.99837183087447], [-72.25038354290953, 44.99842391929482], [-72.25058752777717, 44.99878899660351], [-72.25061799975147, 44.99881974674628], [-72.25084744032536, 44.99905128158158], [-72.25110580326465, 44.999312000413305], [-72.25134483624706, 44.99955320978534], [-72.25135598935003, 44.999564464382665], [-72.25253999835591, 45.001257472603264], [-72.25256991074146, 45.00129943331373], [-72.25342398297023, 45.00249745160507], [-72.25503699584326, 45.00445242980069], [-72.25628708825454, 45.004421137101396], [-72.25780010090632, 45.0043979438561], [-72.25944488675377, 45.004373137377925], [-72.2631632521458, 45.00431642546253], [-72.27101082158926, 45.00421022089543], [-72.2732492020253, 45.00421486514193], [-72.27485014775395, 45.004218361829565], [-72.2778440994684, 45.0042261541928], [-72.2806061111645, 45.00423327336749], [-72.2808192316515, 45.00423382025384], [-72.28098629915304, 45.004234815655906], [-72.28131902675153, 45.00423833550085], [-72.28277707649664, 45.00425375030992], [-72.28714667794145, 45.00429968380093], [-72.28885177749474, 45.00431755541023], [-72.29111298060118, 45.00434121540991], [-72.29335171301254, 45.00436414118043], [-72.29501415950028, 45.00432327233666], [-72.30092356647549, 45.00417648545618], [-72.3045301947038, 45.00408674831095], [-72.30850371888465, 45.00393219729146], [-72.3119554203453, 45.003797829231594], [-72.3142554927509, 45.003856152830515], [-72.31880247597717, 45.004191641486415]]]}}]}