{"type": "FeatureCollection", "features": [{"type": "Feature", "id": 0, "geometry": {"type": "MultiPolygon", "coordinates": [[[[-72.53727466708837, 44.88175106513906], [-72.53724444795215, 44.88175315642965], [-72.53700786196971, 44.88177657182727], [-72.53677283578409, 44.88180690903723], [-72.53653977051552, 44.88184411484756], [-72.53630906348452, 44.88188812705185], [-72.53608110694402, 44.88193886995007], [-72.53585628934815, 44.88199625794756], [-72.5356349940851, 44.88206019285579], [-72.53541759821346, 44.88213056569208], [-72.53520447246251, 44.88220725667972], [-72.53499597870074, 44.882290134348395], [-72.53479247246995, 44.88237905913298], [-72.53459430171668, 44.88247387797427], [-72.53440180173332, 44.88257443061942], [-72.53421530275018, 44.88268054512013], [-72.5340351210771, 44.88279204053464], [-72.53359739439324, 44.88307439880434], [-72.53303567081593, 44.883387958781654], [-72.53243495381476, 44.88369411472173], [-72.53141820446314, 44.8841985693969], [-72.53127920214207, 44.884269731627896], [-72.53046890623406, 44.88469763819421], [-72.52972705281388, 44.88506166817681], [-72.52946437061631, 44.885198478893294], [-72.52892818958826, 44.885501676800835], [-72.52883094741964, 44.88555193376464], [-72.52858343425947, 44.88568126598375], [-72.52849134254537, 44.88572989257924], [-72.52731723876603, 44.886303211456706], [-72.52725160728455, 44.886336114259265], [-72.52590469514661, 44.88702132859522], [-72.52575822476041, 44.887098346701805], [-72.52522669663033, 44.88738714775397], [-72.52513954895888, 44.88741569505565], [-72.52505623523216, 44.88744953725946], [-72.52497739331248, 44.88748841776758], [-72.52490362180866, 44.8875320394973], [-72.52483548514168, 44.88758006937902], [-72.52477350215379, 44.88763214195775], [-72.52471814484291, 44.8876878593931], [-72.52466983583295, 44.887746797758496], [-72.52427084072599, 44.88801354639159], [-72.52423934183645, 44.888036703463186], [-72.5239011051388, 44.88829581407236], [-72.52379001188409, 44.88839592491316], [-72.52356564423339, 44.888598889557464], [-72.52305568172228, 44.8890480422376], [-72.52289520290987, 44.88919838189609], [-72.52238144749344, 44.88970331778776], [-72.5222758090104, 44.88981070251043], [-72.52180715410692, 44.89030362792699], [-72.5214302118103, 44.89068557152586], [-72.52046885111719, 44.89166633418141], [-72.52008930983428, 44.89203750214124], [-72.52005428437782, 44.89206560441409], [-72.51985759518249, 44.89219244116057], [-72.51933966775653, 44.89246521498796], [-72.5192525231942, 44.89251202267519], [-72.51829161816477, 44.89303833259103], [-72.51788098469451, 44.89324795671533], [-72.51770678530448, 44.89334045661624], [-72.51765596350101, 44.893368514701585], [-72.51731891169881, 44.89348834508643], [-72.51675008649488, 44.893690167239356], [-72.51655270833173, 44.8937636029761], [-72.51622257432369, 44.893892243455525], [-72.51603454883109, 44.89396879685487], [-72.51585068552846, 44.89405029871527], [-72.51567124261877, 44.89413663473622], [-72.51549647197835, 44.89422768431995], [-72.51532661662503, 44.894323319671905], [-72.5150681384639, 44.89447453418994], [-72.5148683297733, 44.89459695868104], [-72.51456162563987, 44.89479371232307], [-72.51441008125792, 44.89489449128828], [-72.51426371529458, 44.89499906600412], [-72.51412271761968, 44.89510730418417], [-72.5139872692432, 44.89521906364468], [-72.51385754231822, 44.89533420400281], [-72.51373370646803, 44.89545257497719], [-72.51354756033177, 44.895637345578486], [-72.51331622431819, 44.895865586321676], [-72.51318987195735, 44.89599543767553], [-72.5130706210155, 44.896128640132055], [-72.51295864619091, 44.896264996619365], [-72.5128541158563, 44.8964043055663], [-72.51275718066441, 44.89654636270319], [-72.51266798367564, 44.89669095836096], [-72.51253395832322, 44.8969200829212], [-72.51239912566362, 44.89717388394499], [-72.51226254813054, 44.897503654752704], [-72.51208262006256, 44.89801624621516], [-72.5120249245675, 44.89819805257597], [-72.5119356405558, 44.89851232649154], [-72.51172544215382, 44.89881659622641], [-72.51170371724966, 44.8988483858497], [-72.51130544122934, 44.89943757350038], [-72.51084230420156, 44.90008438434318], [-72.51071963248414, 44.90026664157117], [-72.51048103518364, 44.90064470359845], [-72.51028282134469, 44.90100272743054], [-72.5102305206208, 44.901117408411636], [-72.51009553124241, 44.90142887988594], [-72.5097589861019, 44.90214540297973], [-72.50964254750733, 44.902387859549556], [-72.50961919524212, 44.90241749188054], [-72.50926235615638, 44.90283232482988], [-72.50917853906678, 44.90293294811515], [-72.50875312702122, 44.903460667702234], [-72.50850129705194, 44.903813022218294], [-72.50839142338697, 44.903999071566695], [-72.50820305934484, 44.90434130965685], [-72.50804981202889, 44.90465693279334], [-72.50791314674038, 44.90498041321024], [-72.50766742315928, 44.90553019361997], [-72.50764333251338, 44.90558543796113], [-72.50742989867342, 44.90608730693484], [-72.50690224021012, 44.906392800644944], [-72.50687135936701, 44.90641080550199], [-72.50595554261135, 44.90694852427601], [-72.50548531279394, 44.90719309013241], [-72.50476440106428, 44.90752219316935], [-72.50377798956485, 44.907978436610854], [-72.50369509741219, 44.908017504893415], [-72.50344486923217, 44.90813765023142], [-72.50337236987998, 44.908166686108174], [-72.50323781454738, 44.90820852270205], [-72.50294852660309, 44.90830531707864], [-72.50255206924987, 44.90844760117355], [-72.50231049704219, 44.90853348541422], [-72.5021640536386, 44.90858741535959], [-72.50175642435799, 44.90875840754824], [-72.5016957064471, 44.90878631732614], [-72.50163240895714, 44.90881331463093], [-72.50146795126827, 44.90888614680324], [-72.50130701489749, 44.90896284817862], [-72.50114978090927, 44.9090433332814], [-72.50099642403974, 44.90912751303721], [-72.5008471177621, 44.90921529207294], [-72.50068806798639, 44.909312030169616], [-72.5004071185069, 44.90949461882701], [-72.50004212418644, 44.909772530157035], [-72.49989966058521, 44.9098915841425], [-72.49957786524695, 44.91018664209507], [-72.49939888880255, 44.91036712915494], [-72.49910130172107, 44.91070169595453], [-72.49895817048261, 44.910881309700294], [-72.4987701679733, 44.911137868741335], [-72.49859844181587, 44.91139379234729], [-72.49856236517275, 44.91144859092821], [-72.49849391087216, 44.911554591286965], [-72.4980896812127, 44.912006416242306], [-72.49775601511672, 44.91236715540618], [-72.49734901893613, 44.9128045849607], [-72.49710822954808, 44.913050431386594], [-72.4968449607729, 44.913313373470416], [-72.49669622991762, 44.91346936143044], [-72.49646138891576, 44.9137282314782], [-72.49612792331091, 44.91406590099585], [-72.4959148582226, 44.91429788405873], [-72.49563836969314, 44.914622280028674], [-72.49545978535978, 44.91484748114708], [-72.49521090437466, 44.91518575146873], [-72.49491995063734, 44.91557068615375], [-72.4947858855817, 44.91573015564383], [-72.49455569310078, 44.91596922726066], [-72.49418303087256, 44.91635837652157], [-72.49410576803288, 44.916441191948735], [-72.49378412684696, 44.91679515276337], [-72.49342888949468, 44.917177921218155], [-72.49339818941154, 44.91721135261704], [-72.4930954004359, 44.91754459284131], [-72.49277626765137, 44.91789546971836], [-72.4926196923447, 44.91807783346786], [-72.49219495590452, 44.91860270399318], [-72.49198200099877, 44.918891821779724], [-72.49181098146543, 44.91914827480695], [-72.491692483807, 44.919338218738076], [-72.49150904073738, 44.91965352238729], [-72.49137918188121, 44.919898526842765], [-72.49125936642653, 44.92018127457372], [-72.49115225242619, 44.92047138144776], [-72.49085017296619, 44.92121212597795], [-72.49081813796407, 44.92129382147647], [-72.49049539509848, 44.9221509282267], [-72.49045724472485, 44.92225797804252], [-72.4903591238788, 44.922621234933835], [-72.4903072143298, 44.92287454596078], [-72.49025472992905, 44.92326636508485], [-72.49025403560968, 44.9236422526658], [-72.49026685620485, 44.92384719624582], [-72.49028049027913, 44.92399838033711], [-72.49030195117673, 44.92414910435048], [-72.49033120732615, 44.924299164906664], [-72.49036822082131, 44.92444835862438], [-72.49041294108778, 44.92459648301962], [-72.49046530741549, 44.92474333740578], [-72.49054076874481, 44.92493969680212], [-72.49060668467153, 44.925098561991284], [-72.49065971261498, 44.925209662426184], [-72.490684427751, 44.92575267615562], [-72.49075958198515, 44.92619459998145], [-72.49479498003362, 44.92620186242856], [-72.49912031587384, 44.92620948881241], [-72.49861508589156, 44.92512752967131], [-72.4983782638519, 44.925037394901], [-72.49748288481501, 44.92464864450932], [-72.49676161525421, 44.92434824115173], [-72.49626420014421, 44.92403017077549], [-72.49601550441194, 44.92372977714182], [-72.4960155227196, 44.923464730964], [-72.49623941220338, 44.92274027989238], [-72.49656278048131, 44.92199816133421], [-72.49691102261525, 44.921044005224424], [-72.49750794557653, 44.920284220837615], [-72.49827894327962, 44.91940074779433], [-72.49877634752207, 44.91887066142146], [-72.50001981939917, 44.917598446707025], [-72.50024363825801, 44.9171567026292], [-72.5007658732044, 44.916573598204906], [-72.50113889156098, 44.916131851191196], [-72.50151190432804, 44.915743112054116], [-72.502108716956, 44.9151246612078], [-72.50270551385519, 44.9144708671488], [-72.50350122385635, 44.913622697390835], [-72.50372500734245, 44.913304634504414], [-72.50399602856534, 44.91286606675934], [-72.5042944063452, 44.9125480000786], [-72.5045927947737, 44.91238896008295], [-72.5048911800567, 44.91221225018268], [-72.50620906078059, 44.91177044187136], [-72.50750203176469, 44.91115192242141], [-72.50874525190727, 44.910586401264936], [-72.5105851413415, 44.9095790683578], [-72.51225091526577, 44.908589394477595], [-72.51252435375059, 44.90823596866334], [-72.51277289250878, 44.90774118738624], [-72.51302140432895, 44.90714038711104], [-72.51349356222225, 44.9060094660493], [-72.51374209570807, 44.90556769169394], [-72.51413977704065, 44.905002209891435], [-72.51461204451962, 44.90445438717219], [-72.51498489095444, 44.90406560325357], [-72.51528305149803, 44.90332343255834], [-72.51582971195386, 44.90215715097972], [-72.5162770577921, 44.90153864523884], [-72.51712202333185, 44.90038998425313], [-72.51751960901576, 44.89973614168492], [-72.51759406844107, 44.89932972425644], [-72.517767932256, 44.89879960359121], [-72.51786726064354, 44.898428521272315], [-72.51806110917792, 44.89822528864258], [-72.51858302678745, 44.89774811944851], [-72.51885642709037, 44.89755370660372], [-72.51940328160147, 44.89734157779231], [-72.52069585237378, 44.896899605453655], [-72.52183917688852, 44.89628094909424], [-72.52390206306112, 44.89514966753466], [-72.52444880135157, 44.89476081555304], [-72.52551727171813, 44.89370039250548], [-72.52683414423974, 44.892339513370864], [-72.52825040179913, 44.891013934355804], [-72.52909526002381, 44.89043061833916], [-72.53013900435353, 44.889935592344685], [-72.53135664995527, 44.88929915021705], [-72.53247487268403, 44.88871573273399], [-72.53441308517101, 44.8877256541733], [-72.53729543615088, 44.88625815169194], [-72.53773297644226, 44.885950574645825], [-72.53773481609718, 44.88594928180602], [-72.53792486564501, 44.8858156816126], [-72.53787734529412, 44.885261565604104], [-72.53780470423357, 44.88441452426267], [-72.53777085962535, 44.884019857465944], [-72.53773729736791, 44.88362848141193], [-72.53767360138411, 44.88288570088601], [-72.53762536526403, 44.882323194209086], [-72.53757259727753, 44.88170781178426], [-72.53727466708837, 44.88175106513906]]], [[[-72.41802387814252, 44.89387205458355], [-72.4179846994511, 44.89388988820792], [-72.41791267029255, 44.893925839827936], [-72.41501033513865, 44.895305054082534], [-72.414989345677, 44.89531540239637], [-72.41349708016408, 44.89607747134072], [-72.41345193630883, 44.896102376451964], [-72.4133824260995, 44.89614925886831], [-72.41071831264996, 44.898183873333224], [-72.4102232579453, 44.898433358820554], [-72.4102464854404, 44.89870778498174], [-72.41028249761852, 44.89913325987849], [-72.41033438960945, 44.899746332753466], [-72.41040099369178, 44.900533194839355], [-72.41077351087431, 44.89974221595268], [-72.41081965209443, 44.89971438808238], [-72.41086258495949, 44.89968407761781], [-72.41446007749435, 44.89693664382665], [-72.41587962880484, 44.896211702776775], [-72.41879507545019, 44.894823596842414], [-72.41883421153976, 44.89480572151814], [-72.41890640674525, 44.894770001609835], [-72.42224166871561, 44.89323288894929], [-72.42143419833047, 44.8922976686101], [-72.41802387814252, 44.89387205458355]]], [[[-72.52001199154597, 44.901011321971545], [-72.53080599866374, 44.9006524810923], [-72.53859539304175, 44.90051698399901], [-72.53753859619417, 44.897428040586746], [-72.53229247046957, 44.89850489628634], [-72.53224093661733, 44.898337204524026], [-72.53223546533277, 44.898150498751875], [-72.53210051054776, 44.89787041008955], [-72.53191591498305, 44.89775630111406], [-72.53174912779755, 44.89755762325811], [-72.53174309941828, 44.89741386352049], [-72.53158822915847, 44.89723209447158], [-72.5315107432874, 44.897041845896275], [-72.53131423531178, 44.89690660010777], [-72.53120299415787, 44.896859500177186], [-72.53098041705866, 44.894960958599306], [-72.53134049303928, 44.89495061249447], [-72.53159385936615, 44.89494333192721], [-72.53160525965957, 44.894943004815225], [-72.53172970448517, 44.89493937077935], [-72.53346549824231, 44.894922035807966], [-72.53350131740689, 44.894921677051286], [-72.53870338466022, 44.89485373458966], [-72.53872816160005, 44.89485341033126], [-72.53872116509693, 44.89476776017565], [-72.53866340810275, 44.8940607859356], [-72.53864955591864, 44.893891211516305], [-72.53859255095834, 44.89324034360912], [-72.538544522981, 44.89270887880093], [-72.53838678696223, 44.890963333538735], [-72.53837552848358, 44.89083873603447], [-72.53836438866041, 44.89071545591406], [-72.53835697786444, 44.89063343953746], [-72.53834476177232, 44.89049825073039], [-72.53832743182646, 44.890306465538984], [-72.53830971303334, 44.89011037183238], [-72.53828558358519, 44.88984333264081], [-72.53825987686635, 44.88955882904233], [-72.53818032258681, 44.88867838275638], [-72.53814158564222, 44.888249656544346], [-72.53807658202618, 44.88753021664199], [-72.53801557502473, 44.88685498382551], [-72.53797451590934, 44.88639461740949], [-72.53793482291469, 44.88593178570817], [-72.5373995186427, 44.88628746013505], [-72.53671279701824, 44.8866442084758], [-72.53657613075781, 44.886715298982224], [-72.53613932060244, 44.886942515388114], [-72.5360531979939, 44.886987260487274], [-72.53478924875498, 44.88764392803486], [-72.53462648369221, 44.88772609270078], [-72.5346019625928, 44.88773847082083], [-72.5345139234406, 44.88778290487414], [-72.53306645023757, 44.88851343674931], [-72.53250366767395, 44.888830417269986], [-72.53231088531136, 44.888938998710096], [-72.53229870248579, 44.888945861060975], [-72.53221867188728, 44.888990976780555], [-72.53220240151907, 44.88900014937272], [-72.53219936434894, 44.88900186090575], [-72.5321937430541, 44.889005030976904], [-72.53218430467976, 44.889009693228886], [-72.53215903443176, 44.8890221772189], [-72.5321416573337, 44.88903076249074], [-72.5297990216998, 44.890181601411385], [-72.52971979188438, 44.890220500573946], [-72.52931709425185, 44.890418209819366], [-72.52903976792196, 44.890597888180004], [-72.5289823758373, 44.89063507239634], [-72.52843125440556, 44.89099209612512], [-72.52846633670879, 44.89102466222019], [-72.52845229212156, 44.89103933379978], [-72.5282477566936, 44.891222215435896], [-72.52819719711749, 44.891267421812266], [-72.52772395188178, 44.89169020331204], [-72.52697221902085, 44.89243528857414], [-72.52690262458817, 44.8925042341483], [-72.52668270608706, 44.892721962684654], [-72.52636688532908, 44.893065602845965], [-72.52632765949997, 44.89310808541973], [-72.52631943603046, 44.89311708613383], [-72.52630868024345, 44.89312806717082], [-72.52626021752752, 44.89317838082062], [-72.52613200010863, 44.89331139656957], [-72.52594920951552, 44.893501029849816], [-72.5258005519218, 44.893655251076396], [-72.52578608712437, 44.89367025717226], [-72.52553629960023, 44.8939293892558], [-72.52534244280434, 44.8941305515028], [-72.52480006519582, 44.89463711317345], [-72.52442496887609, 44.89496762243627], [-72.52428498856968, 44.895059258432724], [-72.52407091149084, 44.8951995592939], [-72.52364026713323, 44.895481789103044], [-72.52102547241809, 44.896872855659616], [-72.52091774981876, 44.89691813857022], [-72.52092431361275, 44.89721284216802], [-72.52034852768874, 44.89723571231831], [-72.52039447036853, 44.897897303035904], [-72.51994021208509, 44.89805497853654], [-72.52001199154597, 44.901011321971545]]], [[[-72.43146506599352, 44.895392769032846], [-72.43129611085514, 44.8954269719042], [-72.4306155108223, 44.8954412195284], [-72.43038620158545, 44.89705738297183], [-72.43022592646662, 44.8984345298089], [-72.43009865803825, 44.89957426814362], [-72.43002780772011, 44.90031413281696], [-72.43002653444127, 44.90033150693343], [-72.42999657363653, 44.900919200628216], [-72.42999869646998, 44.900984304691356], [-72.43014766835279, 44.90226369390966], [-72.43026698273385, 44.90334150397375], [-72.43026843077884, 44.90336285721576], [-72.43027019880367, 44.90338451661232], [-72.43027624629784, 44.90343679884533], [-72.43032904045316, 44.90448529759537], [-72.43033043924251, 44.904503442729926], [-72.43035901024263, 44.90478776734773], [-72.43045210245896, 44.90590299214897], [-72.4305141146567, 44.90681236107751], [-72.4305151620789, 44.90682479895177], [-72.4307408289698, 44.90907523137913], [-72.43074106262657, 44.90958612718131], [-72.43073738740877, 44.90978672872787], [-72.43070970993192, 44.90991031124687], [-72.43066343822842, 44.91003627794787], [-72.43060428076194, 44.91014472784997], [-72.43040829489294, 44.910370820214226], [-72.4301271543272, 44.91064968396963], [-72.43010050378808, 44.91067474369204], [-72.43009239208075, 44.91068260457013], [-72.43004863701775, 44.910727290070376], [-72.42982378620789, 44.91093799379199], [-72.42979260100286, 44.910969956326475], [-72.42962064930687, 44.91116026489198], [-72.42958325014689, 44.911206446126], [-72.42955233314458, 44.911254987229036], [-72.42952818760557, 44.91130543034647], [-72.42943571513068, 44.91153457241785], [-72.42941765069082, 44.91159006128799], [-72.42940882314177, 44.91163732917125], [-72.42937787300366, 44.911885316659934], [-72.4293769586736, 44.91197424752325], [-72.4294072491491, 44.91226519707685], [-72.42941374727104, 44.91230638314689], [-72.42945031479876, 44.91247899799387], [-72.42948696038015, 44.912673919966416], [-72.42949002727714, 44.912688695169244], [-72.4295454650289, 44.912932620812576], [-72.42960688956106, 44.913183838225926], [-72.42967273489072, 44.913489721444314], [-72.42973352588605, 44.91385438876571], [-72.42977827037873, 44.914152679226554], [-72.42978340639431, 44.91418025826139], [-72.42987508713986, 44.91459202968985], [-72.4299492936987, 44.915003523934494], [-72.43001651734956, 44.915352964512884], [-72.43010384566556, 44.915772501654736], [-72.43020128994509, 44.916289914732864], [-72.4302049871796, 44.91630739892561], [-72.43032022154763, 44.916798327613186], [-72.4304340719696, 44.917361972641515], [-72.4304910267275, 44.917710850415894], [-72.43054860524146, 44.918067138114345], [-72.430602099942, 44.918441279556], [-72.43060403322698, 44.91845344347951], [-72.4306705749995, 44.91883413220228], [-72.43067419440749, 44.91885234162626], [-72.43076364832231, 44.91925361177833], [-72.43085806849568, 44.91981109549636], [-72.4309897508834, 44.920533377275156], [-72.43110322580414, 44.92127234325353], [-72.43116801700016, 44.9217381714345], [-72.431172164012, 44.92176244632446], [-72.43124702840434, 44.92213165347192], [-72.43130177571402, 44.922427773019855], [-72.43130589678704, 44.922447330730115], [-72.43138668101764, 44.92278852272724], [-72.43139897952472, 44.92283040589789], [-72.43149204317982, 44.923095218205646], [-72.43156314761694, 44.92334217720641], [-72.43156744517943, 44.92335617017009], [-72.43166917957434, 44.92366783240162], [-72.43172455400921, 44.92394443731033], [-72.43180619755564, 44.92433830102967], [-72.4318721158264, 44.924677010831175], [-72.4318798374974, 44.92481523022004], [-72.43188181112146, 44.92483654138026], [-72.43189174946176, 44.92491048658585], [-72.43191258542063, 44.924969093587585], [-72.43192571243148, 44.92500302946753], [-72.43198882080654, 44.92515865486134], [-72.43204788256992, 44.9253636225497], [-72.43207800495634, 44.92557914294515], [-72.43216544367922, 44.92609538126453], [-72.43216807461503, 44.92610937410884], [-72.43220925223461, 44.92630885530732], [-72.43241893310727, 44.92630823447464], [-72.43274661298113, 44.926307263459435], [-72.43315407777261, 44.92630605386779], [-72.4337616926775, 44.92630424817511], [-72.43376154642606, 44.926283810093096], [-72.43375441410747, 44.92623268306696], [-72.43369753306408, 44.92595716183055], [-72.43361313876684, 44.92545948099945], [-72.43358077898739, 44.92522731738239], [-72.43356884675559, 44.92517134890632], [-72.43349541997499, 44.924916551054515], [-72.43348017783379, 44.924872864857164], [-72.43342025658056, 44.92472702649849], [-72.43341385307696, 44.924607924964185], [-72.43340713649502, 44.92455371966489], [-72.43333500780223, 44.92418323156308], [-72.43325292453571, 44.923787264756484], [-72.43319337828542, 44.923489815189086], [-72.43318110670793, 44.92344312328933], [-72.4330740824503, 44.92311528220212], [-72.43300167117005, 44.92286380958186], [-72.4329943387303, 44.92284086111293], [-72.43290455598142, 44.92258540256872], [-72.4328310721886, 44.92227507631652], [-72.43277684561828, 44.92198197958806], [-72.43270308254395, 44.92161810045655], [-72.43263917949042, 44.92115889045891], [-72.43252308644615, 44.920403388295675], [-72.43239034856508, 44.919675080263005], [-72.43229504600917, 44.91911237618471], [-72.43229106755194, 44.919092085182875], [-72.43220137142919, 44.91868978031261], [-72.43213747673059, 44.918324292981914], [-72.43208378849609, 44.91794910377882], [-72.43202497870962, 44.917585056466336], [-72.43196670960317, 44.917228176051], [-72.43196402045764, 44.91721345064479], [-72.43184742432467, 44.916636289319094], [-72.43184473618474, 44.916623976482406], [-72.43173009404316, 44.91613562422347], [-72.43163283114089, 44.915619447177235], [-72.4315451885229, 44.915198385710994], [-72.43147999867388, 44.914859519914394], [-72.43140517378203, 44.91444457974796], [-72.4314019482005, 44.91442856807281], [-72.4313115379187, 44.91402255154574], [-72.43126787597916, 44.91373170702572], [-72.43120449914079, 44.913351426061155], [-72.43120098273427, 44.91333301062622], [-72.43113070088773, 44.913006931427574], [-72.43106822918968, 44.91275124899564], [-72.43101597253091, 44.91252122913215], [-72.43097896289368, 44.91232468674325], [-72.4309448782541, 44.91216356353512], [-72.43092136709257, 44.91193778681248], [-72.43094024139158, 44.911786530387495], [-72.43098110855195, 44.91168525662388], [-72.4310770398771, 44.91157908205067], [-72.43131043831859, 44.911356346045324], [-72.43133725825825, 44.91133135633596], [-72.43134524203921, 44.911323448499765], [-72.43138875488351, 44.91127858598565], [-72.43167757888452, 44.91099577508287], [-72.43170832332181, 44.91096300277902], [-72.43195585517968, 44.91067743892551], [-72.4319667903654, 44.91066442418985], [-72.43201836055897, 44.910587997572144], [-72.43211900001366, 44.91040349222957], [-72.43214615380757, 44.910343778889136], [-72.43221310490041, 44.91016150313403], [-72.43222853735342, 44.91010916902203], [-72.4322709290852, 44.90991985959196], [-72.43228045493433, 44.90984078565717], [-72.43228495255978, 44.90959308037206], [-72.43228472650658, 44.909055431165996], [-72.43228277255072, 44.90901661731239], [-72.43205572530782, 44.9067530209475], [-72.43199368725845, 44.905843942592284], [-72.4318995139496, 44.904716193861304], [-72.43187121103797, 44.904434343555465], [-72.43181221691621, 44.903342362294744], [-72.43181106336392, 44.90332097595247], [-72.4318088629441, 44.903299354116335], [-72.43180207848998, 44.903247007631656], [-72.43168643004316, 44.902175844263226], [-72.43154091250517, 44.900926319840956], [-72.4315687536682, 44.900379917297194], [-72.43163813726001, 44.899654904231035], [-72.43176450635288, 44.8985231348052], [-72.43192332971469, 44.89715764022614], [-72.43216710826003, 44.89543961573725], [-72.4321709787475, 44.89538017276534], [-72.43217039658782, 44.8953735303944], [-72.43146506599352, 44.895392769032846]]]]}, "properties": {"OBJECTID": 0, "ABB_DIST_NAME": "RecRes", "Shape_Length": 0, "Shape_Area": 0, "Jurisdiction_County": "Orleans", "Jurisdiction_District_Name": "Westfield"}}, {"type": "Feature", "id": 0, "geometry": {"type": "MultiPolygon", "coordinates": [[[[-72.49912031587384, 44.92620948881241], [-72.50259573989256, 44.92619192581835], [-72.50479810930274, 44.92617907892229], [-72.50573935682, 44.926173575024094], [-72.5059800578572, 44.926172238049716], [-72.50605162396529, 44.9261722513758], [-72.5062705961408, 44.926172289950394], [-72.50660503830314, 44.92617234937865], [-72.50890600181299, 44.92617273029276], [-72.50976987206296, 44.92617286210975], [-72.51381730303632, 44.92617338891666], [-72.51771655235642, 44.926172495049066], [-72.52442838375913, 44.92616393056643], [-72.52968594665461, 44.92615089195392], [-72.53245377497721, 44.926140052177175], [-72.53501046146029, 44.9261299796426], [-72.53773798180121, 44.926112061806144], [-72.53962276631282, 44.92605365042302], [-72.54138462174194, 44.92598662723123], [-72.54112431638441, 44.92273214818115], [-72.54099171282583, 44.92110176759281], [-72.5408044669667, 44.91894096580211], [-72.5405311687532, 44.91578682333599], [-72.54016712754611, 44.911693220723315], [-72.53998775110016, 44.90967594468794], [-72.53993898953004, 44.909127538431605], [-72.53987158395361, 44.90835792755519], [-72.53976464185642, 44.90713530032718], [-72.53965599023842, 44.90589305325012], [-72.53953602698779, 44.90452143576301], [-72.53944471576412, 44.90347737062907], [-72.53929702752195, 44.90178858731943], [-72.53870950983168, 44.89504838769224], [-72.53870400977794, 44.89487217025149], [-72.53870351293672, 44.894856231717554], [-72.53870346736083, 44.89485623263287], [-72.53870338466022, 44.89485373458966], [-72.53350131740689, 44.894921677051286], [-72.53346549824231, 44.894922035807966], [-72.53172970448517, 44.89493937077935], [-72.53160525965957, 44.894943004815225], [-72.53159385936615, 44.89494333192721], [-72.53134049303928, 44.89495061249447], [-72.53098041705866, 44.894960958599306], [-72.53120299415787, 44.896859500177186], [-72.53131423531178, 44.89690660010777], [-72.5315107432874, 44.897041845896275], [-72.53158822915847, 44.89723209447158], [-72.53174309941828, 44.89741386352049], [-72.53174912779755, 44.89755762325811], [-72.53191591498305, 44.89775630111406], [-72.53210051054776, 44.89787041008955], [-72.53223546533277, 44.898150498751875], [-72.53224093661733, 44.898337204524026], [-72.53229247046957, 44.89850489628634], [-72.53753859619417, 44.897428040586746], [-72.53859539304175, 44.90051698399901], [-72.53080599866374, 44.9006524810923], [-72.52001199154597, 44.901011321971545], [-72.51994021208509, 44.89805497853654], [-72.52039447036853, 44.897897303035904], [-72.52034852768874, 44.89723571231831], [-72.52092431361275, 44.89721284216802], [-72.52091774981876, 44.89691813857022], [-72.52102547241809, 44.896872855659616], [-72.52364026713323, 44.895481789103044], [-72.52407091149084, 44.8951995592939], [-72.52428498856968, 44.895059258432724], [-72.52442496887609, 44.89496762243627], [-72.52480006519582, 44.89463711317345], [-72.52534244280434, 44.8941305515028], [-72.52553629960023, 44.8939293892558], [-72.52578608712437, 44.89367025717226], [-72.5258005519218, 44.893655251076396], [-72.52594920951552, 44.893501029849816], [-72.52613200010863, 44.89331139656957], [-72.52626021752752, 44.89317838082062], [-72.52630868024345, 44.89312806717082], [-72.52631943603046, 44.89311708613383], [-72.52632765949997, 44.89310808541973], [-72.52636688532908, 44.893065602845965], [-72.52668270608706, 44.892721962684654], [-72.52690262458817, 44.8925042341483], [-72.52697221902085, 44.89243528857414], [-72.52772395188178, 44.89169020331204], [-72.52819719711749, 44.891267421812266], [-72.5282477566936, 44.891222215435896], [-72.52845229212156, 44.89103933379978], [-72.52846633670879, 44.89102466222019], [-72.52843125440556, 44.89099209612512], [-72.5289823758373, 44.89063507239634], [-72.52903976792196, 44.890597888180004], [-72.52931709425185, 44.890418209819366], [-72.52971979188438, 44.890220500573946], [-72.5297990216998, 44.890181601411385], [-72.5321416573337, 44.88903076249074], [-72.53215903443176, 44.8890221772189], [-72.53218430467976, 44.889009693228886], [-72.5321937430541, 44.889005030976904], [-72.53219936434894, 44.88900186090575], [-72.53220240151907, 44.88900014937272], [-72.53221867188728, 44.888990976780555], [-72.53229870248579, 44.888945861060975], [-72.53231088531136, 44.888938998710096], [-72.53250366767395, 44.888830417269986], [-72.53306645023757, 44.88851343674931], [-72.5345139234406, 44.88778290487414], [-72.5346019625928, 44.88773847082083], [-72.53462648369221, 44.88772609270078], [-72.53478924875498, 44.88764392803486], [-72.5360531979939, 44.886987260487274], [-72.53613932060244, 44.886942515388114], [-72.53657613075781, 44.886715298982224], [-72.53671279701824, 44.8866442084758], [-72.5373995186427, 44.88628746013505], [-72.53793482291469, 44.88593178570817], [-72.53792486564501, 44.8858156816126], [-72.53773481609718, 44.88594928180602], [-72.53773297644226, 44.885950574645825], [-72.53729543615088, 44.88625815169194], [-72.53441308517101, 44.8877256541733], [-72.53247487268403, 44.88871573273399], [-72.53135664995527, 44.88929915021705], [-72.53013900435353, 44.889935592344685], [-72.52909526002381, 44.89043061833916], [-72.52825040179913, 44.891013934355804], [-72.52683414423974, 44.892339513370864], [-72.52551727171813, 44.89370039250548], [-72.52444880135157, 44.89476081555304], [-72.52390206306112, 44.89514966753466], [-72.52183917688852, 44.89628094909424], [-72.52069585237378, 44.896899605453655], [-72.51940328160147, 44.89734157779231], [-72.51885642709037, 44.89755370660372], [-72.51858302678745, 44.89774811944851], [-72.51806110917792, 44.89822528864258], [-72.51786726064354, 44.898428521272315], [-72.517767932256, 44.89879960359121], [-72.51759406844107, 44.89932972425644], [-72.51751960901576, 44.89973614168492], [-72.51712202333185, 44.90038998425313], [-72.5162770577921, 44.90153864523884], [-72.51582971195386, 44.90215715097972], [-72.51528305149803, 44.90332343255834], [-72.51498489095444, 44.90406560325357], [-72.51461204451962, 44.90445438717219], [-72.51413977704065, 44.905002209891435], [-72.51374209570807, 44.90556769169394], [-72.51349356222225, 44.9060094660493], [-72.51302140432895, 44.90714038711104], [-72.51277289250878, 44.90774118738624], [-72.51252435375059, 44.90823596866334], [-72.51225091526577, 44.908589394477595], [-72.5105851413415, 44.9095790683578], [-72.50874525190727, 44.910586401264936], [-72.50750203176469, 44.91115192242141], [-72.50620906078059, 44.91177044187136], [-72.5048911800567, 44.91221225018268], [-72.5045927947737, 44.91238896008295], [-72.5042944063452, 44.9125480000786], [-72.50399602856534, 44.91286606675934], [-72.50372500734245, 44.913304634504414], [-72.50350122385635, 44.913622697390835], [-72.50270551385519, 44.9144708671488], [-72.502108716956, 44.9151246612078], [-72.50151190432804, 44.915743112054116], [-72.50113889156098, 44.916131851191196], [-72.5007658732044, 44.916573598204906], [-72.50024363825801, 44.9171567026292], [-72.50001981939917, 44.917598446707025], [-72.49877634752207, 44.91887066142146], [-72.49827894327962, 44.91940074779433], [-72.49750794557653, 44.920284220837615], [-72.49691102261525, 44.921044005224424], [-72.49656278048131, 44.92199816133421], [-72.49623941220338, 44.92274027989238], [-72.4960155227196, 44.923464730964], [-72.49601550441194, 44.92372977714182], [-72.49626420014421, 44.92403017077549], [-72.49676161525421, 44.92434824115173], [-72.49748288481501, 44.92464864450932], [-72.4983782638519, 44.925037394901], [-72.49861508589156, 44.92512752967131], [-72.49912031587384, 44.92620948881241]]], [[[-72.43375441410747, 44.92623268306696], [-72.43376154642606, 44.926283810093096], [-72.4337616926775, 44.92630424817511], [-72.4337978280803, 44.92630414044426], [-72.43417678048385, 44.92630301235913], [-72.43893344186975, 44.92628874692482], [-72.44203016192338, 44.92628416054405], [-72.44363429270588, 44.92628200738337], [-72.4454729931971, 44.926279512879105], [-72.44666630836707, 44.926277877057224], [-72.44795231211891, 44.926276100966625], [-72.44933407493191, 44.92627417653923], [-72.451474015257, 44.92627116253153], [-72.45280208476885, 44.926269272306115], [-72.45436304047757, 44.926267030689125], [-72.45893349135764, 44.926257658303534], [-72.46718939946639, 44.92624026561709], [-72.47816818343605, 44.92621080846222], [-72.48560163951086, 44.926189457139586], [-72.48627502254591, 44.926187499112935], [-72.48650205115423, 44.92618683775958], [-72.48660254365342, 44.92618696927355], [-72.48695580386986, 44.92618762297501], [-72.48836834193698, 44.926190228602366], [-72.49075958198515, 44.92619459998145], [-72.490684427751, 44.92575267615562], [-72.49065971261498, 44.925209662426184], [-72.49060668467153, 44.925098561991284], [-72.49054076874481, 44.92493969680212], [-72.49046530741549, 44.92474333740578], [-72.49041294108778, 44.92459648301962], [-72.49036822082131, 44.92444835862438], [-72.49033120732615, 44.924299164906664], [-72.49030195117673, 44.92414910435048], [-72.49028049027913, 44.92399838033711], [-72.49026685620485, 44.92384719624582], [-72.49025403560968, 44.9236422526658], [-72.49025472992905, 44.92326636508485], [-72.4903072143298, 44.92287454596078], [-72.4903591238788, 44.922621234933835], [-72.49045724472485, 44.92225797804252], [-72.49049539509848, 44.9221509282267], [-72.49081813796407, 44.92129382147647], [-72.49085017296619, 44.92121212597795], [-72.49115225242619, 44.92047138144776], [-72.49125936642653, 44.92018127457372], [-72.49137918188121, 44.919898526842765], [-72.49150904073738, 44.91965352238729], [-72.491692483807, 44.919338218738076], [-72.49181098146543, 44.91914827480695], [-72.49198200099877, 44.918891821779724], [-72.49219495590452, 44.91860270399318], [-72.4926196923447, 44.91807783346786], [-72.49277626765137, 44.91789546971836], [-72.4930954004359, 44.91754459284131], [-72.49339818941154, 44.91721135261704], [-72.49342888949468, 44.917177921218155], [-72.49378412684696, 44.91679515276337], [-72.49410576803288, 44.916441191948735], [-72.49418303087256, 44.91635837652157], [-72.49455569310078, 44.91596922726066], [-72.4947858855817, 44.91573015564383], [-72.49491995063734, 44.91557068615375], [-72.49521090437466, 44.91518575146873], [-72.49545978535978, 44.91484748114708], [-72.49563836969314, 44.914622280028674], [-72.4959148582226, 44.91429788405873], [-72.49612792331091, 44.91406590099585], [-72.49646138891576, 44.9137282314782], [-72.49669622991762, 44.91346936143044], [-72.4968449607729, 44.913313373470416], [-72.49710822954808, 44.913050431386594], [-72.49734901893613, 44.9128045849607], [-72.49775601511672, 44.91236715540618], [-72.4980896812127, 44.912006416242306], [-72.49849391087216, 44.911554591286965], [-72.49856236517275, 44.91144859092821], [-72.49859844181587, 44.91139379234729], [-72.4987701679733, 44.911137868741335], [-72.49895817048261, 44.910881309700294], [-72.49910130172107, 44.91070169595453], [-72.49939888880255, 44.91036712915494], [-72.49957786524695, 44.91018664209507], [-72.49989966058521, 44.9098915841425], [-72.50004212418644, 44.909772530157035], [-72.5004071185069, 44.90949461882701], [-72.50068806798639, 44.909312030169616], [-72.5008471177621, 44.90921529207294], [-72.50099642403974, 44.90912751303721], [-72.50114978090927, 44.9090433332814], [-72.50130701489749, 44.90896284817862], [-72.50146795126827, 44.90888614680324], [-72.50163240895714, 44.90881331463093], [-72.5016957064471, 44.90878631732614], [-72.50175642435799, 44.90875840754824], [-72.5021640536386, 44.90858741535959], [-72.50231049704219, 44.90853348541422], [-72.50255206924987, 44.90844760117355], [-72.50294852660309, 44.90830531707864], [-72.50323781454738, 44.90820852270205], [-72.50337236987998, 44.908166686108174], [-72.50344486923217, 44.90813765023142], [-72.50369509741219, 44.908017504893415], [-72.50377798956485, 44.907978436610854], [-72.50476440106428, 44.90752219316935], [-72.50548531279394, 44.90719309013241], [-72.50595554261135, 44.90694852427601], [-72.50687135936701, 44.90641080550199], [-72.50690224021012, 44.906392800644944], [-72.50742989867342, 44.90608730693484], [-72.50764333251338, 44.90558543796113], [-72.50766742315928, 44.90553019361997], [-72.50791314674038, 44.90498041321024], [-72.50804981202889, 44.90465693279334], [-72.50820305934484, 44.90434130965685], [-72.50839142338697, 44.903999071566695], [-72.50850129705194, 44.903813022218294], [-72.50875312702122, 44.903460667702234], [-72.50917853906678, 44.90293294811515], [-72.50926235615638, 44.90283232482988], [-72.50961919524212, 44.90241749188054], [-72.50964254750733, 44.902387859549556], [-72.5097589861019, 44.90214540297973], [-72.51009553124241, 44.90142887988594], [-72.5102305206208, 44.901117408411636], [-72.51028282134469, 44.90100272743054], [-72.51048103518364, 44.90064470359845], [-72.51071963248414, 44.90026664157117], [-72.51084230420156, 44.90008438434318], [-72.51130544122934, 44.89943757350038], [-72.51170371724966, 44.8988483858497], [-72.51172544215382, 44.89881659622641], [-72.5119356405558, 44.89851232649154], [-72.5120249245675, 44.89819805257597], [-72.51208262006256, 44.89801624621516], [-72.51226254813054, 44.897503654752704], [-72.51239912566362, 44.89717388394499], [-72.51253395832322, 44.8969200829212], [-72.51266798367564, 44.89669095836096], [-72.51275718066441, 44.89654636270319], [-72.5128541158563, 44.8964043055663], [-72.51295864619091, 44.896264996619365], [-72.5130706210155, 44.896128640132055], [-72.51318987195735, 44.89599543767553], [-72.51331622431819, 44.895865586321676], [-72.51354756033177, 44.895637345578486], [-72.51373370646803, 44.89545257497719], [-72.51385754231822, 44.89533420400281], [-72.5139872692432, 44.89521906364468], [-72.51412271761968, 44.89510730418417], [-72.51426371529458, 44.89499906600412], [-72.51441008125792, 44.89489449128828], [-72.51456162563987, 44.89479371232307], [-72.5148683297733, 44.89459695868104], [-72.5150681384639, 44.89447453418994], [-72.51532661662503, 44.894323319671905], [-72.51549647197835, 44.89422768431995], [-72.51567124261877, 44.89413663473622], [-72.51585068552846, 44.89405029871527], [-72.51603454883109, 44.89396879685487], [-72.51622257432369, 44.893892243455525], [-72.51655270833173, 44.8937636029761], [-72.51675008649488, 44.893690167239356], [-72.51731891169881, 44.89348834508643], [-72.51765596350101, 44.893368514701585], [-72.51770678530448, 44.89334045661624], [-72.51788098469451, 44.89324795671533], [-72.51829161816477, 44.89303833259103], [-72.5192525231942, 44.89251202267519], [-72.51933966775653, 44.89246521498796], [-72.51985759518249, 44.89219244116057], [-72.52005428437782, 44.89206560441409], [-72.52008930983428, 44.89203750214124], [-72.52046885111719, 44.89166633418141], [-72.5214302118103, 44.89068557152586], [-72.52180715410692, 44.89030362792699], [-72.5222758090104, 44.88981070251043], [-72.52238144749344, 44.88970331778776], [-72.52289520290987, 44.88919838189609], [-72.52305568172228, 44.8890480422376], [-72.52356564423339, 44.888598889557464], [-72.52379001188409, 44.88839592491316], [-72.5239011051388, 44.88829581407236], [-72.52423934183645, 44.888036703463186], [-72.52427084072599, 44.88801354639159], [-72.52466983583295, 44.887746797758496], [-72.52471814484291, 44.8876878593931], [-72.52477350215379, 44.88763214195775], [-72.52483548514168, 44.88758006937902], [-72.52490362180866, 44.8875320394973], [-72.52497739331248, 44.88748841776758], [-72.52505623523216, 44.88744953725946], [-72.52513954895888, 44.88741569505565], [-72.52522669663033, 44.88738714775397], [-72.52575822476041, 44.887098346701805], [-72.52590469514661, 44.88702132859522], [-72.52725160728455, 44.886336114259265], [-72.52731723876603, 44.886303211456706], [-72.52849134254537, 44.88572989257924], [-72.52858343425947, 44.88568126598375], [-72.52883094741964, 44.88555193376464], [-72.52892818958826, 44.885501676800835], [-72.52946437061631, 44.885198478893294], [-72.52972705281388, 44.88506166817681], [-72.53046890623406, 44.88469763819421], [-72.53127920214207, 44.884269731627896], [-72.53141820446314, 44.8841985693969], [-72.53243495381476, 44.88369411472173], [-72.53303567081593, 44.883387958781654], [-72.53359739439324, 44.88307439880434], [-72.5340351210771, 44.88279204053464], [-72.53421530275018, 44.88268054512013], [-72.53440180173332, 44.88257443061942], [-72.53459430171668, 44.88247387797427], [-72.53479247246995, 44.88237905913298], [-72.53499597870074, 44.882290134348395], [-72.53520447246251, 44.88220725667972], [-72.53541759821346, 44.88213056569208], [-72.5356349940851, 44.88206019285579], [-72.53585628934815, 44.88199625794756], [-72.53608110694402, 44.88193886995007], [-72.53630906348452, 44.88188812705185], [-72.53653977051552, 44.88184411484756], [-72.53677283578409, 44.88180690903723], [-72.53700786196971, 44.88177657182727], [-72.53724444795215, 44.88175315642965], [-72.53727466708837, 44.88175106513906], [-72.53757259727753, 44.88170781178426], [-72.53748043553472, 44.880633000239975], [-72.53739739701159, 44.87966455711672], [-72.53733444436979, 44.87893034073721], [-72.53725622880295, 44.87802424502374], [-72.53711940574757, 44.87647623292226], [-72.5369638351003, 44.87477344973056], [-72.53627775299056, 44.868558080512415], [-72.53562405282628, 44.8613625488872], [-72.53542768335218, 44.85916030291755], [-72.5353164278721, 44.85791252033026], [-72.53525333173197, 44.857204835922936], [-72.53519836966439, 44.85658019771565], [-72.53486680115041, 44.8525020855409], [-72.53451588129025, 44.84818531038567], [-72.5340208970568, 44.8423990989123], [-72.53349778687557, 44.83643788049671], [-72.53328173402815, 44.83408998227007], [-72.53040611061027, 44.83411813723879], [-72.52667775729662, 44.83415453381689], [-72.52374521047125, 44.83418307608796], [-72.52338824826286, 44.834186545046265], [-72.52298580305683, 44.83419045490081], [-72.52232635701901, 44.834196778788325], [-72.52134704351737, 44.83420491210053], [-72.51213202497657, 44.83428103405946], [-72.50702502419131, 44.8343218532286], [-72.49326665268542, 44.834424862786676], [-72.48249490600227, 44.834522351662606], [-72.48147726541907, 44.834529169830304], [-72.47736107174607, 44.83455665415092], [-72.47572365778653, 44.83456754581411], [-72.47401817089248, 44.834578865580134], [-72.47148681541968, 44.834595619709845], [-72.4694352750429, 44.83460915713804], [-72.46793494394844, 44.83461903424687], [-72.4642837161048, 44.8346429885101], [-72.46423081623371, 44.83464333461167], [-72.46404167528652, 44.83464457196441], [-72.46356788447576, 44.83464767132553], [-72.4560894954658, 44.834710643103904], [-72.4547855047361, 44.83472230445634], [-72.45063140258277, 44.83475935350344], [-72.44763284285177, 44.834786002824295], [-72.44323966623786, 44.8348249048691], [-72.43968770661719, 44.83485623369448], [-72.43905530910223, 44.83486074030476], [-72.43824226799752, 44.83486652990917], [-72.43669807654716, 44.83487750904712], [-72.43486896932511, 44.83489048741904], [-72.4331229490287, 44.83490284895553], [-72.43304067199617, 44.834903430671865], [-72.43269967177157, 44.83490584172641], [-72.43048164609473, 44.83492693307615], [-72.42706006868575, 44.83494556505168], [-72.42619107439796, 44.834951661463165], [-72.41439203719791, 44.83504713116065], [-72.41163617497104, 44.83507246629032], [-72.40807395832736, 44.835105116669745], [-72.40657789775, 44.835118795907874], [-72.40520935487326, 44.83513129170887], [-72.40456994933125, 44.83513712506088], [-72.40404580184406, 44.83514190346527], [-72.40382389067595, 44.83514392604174], [-72.40398077826268, 44.83653030938393], [-72.40409489604478, 44.83753870491318], [-72.40420360910174, 44.838499297034], [-72.4044626718187, 44.840788279720684], [-72.40467606454868, 44.84235491363427], [-72.40496618483564, 44.84451858833287], [-72.4052025059698, 44.84623989068192], [-72.40530176101836, 44.84696280812119], [-72.40535652848317, 44.84736169427073], [-72.40542912165073, 44.84789040591647], [-72.40553977944776, 44.848733624125344], [-72.40561314074039, 44.84935254821127], [-72.40566107499362, 44.8497569420179], [-72.4057641070555, 44.850626153013906], [-72.40600078287126, 44.852622718078145], [-72.40615135930786, 44.85389288554348], [-72.40627280616354, 44.85491729624639], [-72.40653917613241, 44.85713625606587], [-72.40675120039809, 44.85887631485462], [-72.4069225205087, 44.86028223490369], [-72.40695054748596, 44.86051222656769], [-72.40712687623494, 44.861959176724305], [-72.40717136460168, 44.86234537858867], [-72.40723433423055, 44.863038364071734], [-72.40735342931605, 44.864348976242525], [-72.40745155649098, 44.86542879068243], [-72.40754860049324, 44.866496644470665], [-72.4076837875942, 44.86798415458339], [-72.40791957995242, 44.87074583286043], [-72.40824439043983, 44.87466471039374], [-72.40841041039688, 44.876720962968264], [-72.40848723069587, 44.877677643014124], [-72.4087438478417, 44.88087318265092], [-72.40907477352688, 44.884885454604365], [-72.40918803888839, 44.88622056889871], [-72.40931789632371, 44.88775121075793], [-72.40940777534527, 44.88881056629521], [-72.40950394066112, 44.88994397696417], [-72.40963281038, 44.89146276343386], [-72.4097498752156, 44.892842369693966], [-72.40983233343614, 44.893814267579074], [-72.40991065857024, 44.89473980097944], [-72.41003525051393, 44.89621198468443], [-72.4102232579453, 44.898433358820554], [-72.41071831264996, 44.898183873333224], [-72.4133824260995, 44.89614925886831], [-72.41345193630883, 44.896102376451964], [-72.41349708016408, 44.89607747134072], [-72.414989345677, 44.89531540239637], [-72.41501033513865, 44.895305054082534], [-72.41791267029255, 44.893925839827936], [-72.4179846994511, 44.89388988820792], [-72.41802387814252, 44.89387205458355], [-72.42143419833047, 44.8922976686101], [-72.42103329217494, 44.89183332207026], [-72.42111625256348, 44.89179512361464], [-72.42126982021203, 44.89171943971242], [-72.42133927947553, 44.89168831115855], [-72.42439739535537, 44.89027608202334], [-72.42657448576506, 44.88924200507173], [-72.42671027752817, 44.88917647826135], [-72.42679743467092, 44.88913503517756], [-72.42683668339664, 44.88912116884133], [-72.42704385305893, 44.889047475907674], [-72.42709988208193, 44.88900969232316], [-72.42714232229164, 44.888932377203716], [-72.42719112722835, 44.88885607759304], [-72.42721371095307, 44.888799561367975], [-72.42745577615624, 44.887365694803755], [-72.42756013728263, 44.886593563504036], [-72.42756497893409, 44.88656242072862], [-72.42776871401485, 44.885403661574266], [-72.42796127642123, 44.884296850432435], [-72.43099163594778, 44.8847546915551], [-72.43083168964344, 44.88567436710844], [-72.43063050300202, 44.886818987061886], [-72.43052634601935, 44.88758991361858], [-72.43052192524142, 44.887618650483596], [-72.4302670387322, 44.88905110643994], [-72.43026486168998, 44.889086493889174], [-72.43051968872463, 44.88908955401852], [-72.43073857660825, 44.88910579936528], [-72.4308269604546, 44.88911883913411], [-72.43116184678928, 44.88917555408981], [-72.43133326540149, 44.889212168211195], [-72.43141720616883, 44.88923594584862], [-72.43172634567254, 44.889331057865924], [-72.431979618586, 44.889370209892896], [-72.43260449271375, 44.889429879891004], [-72.43284832976433, 44.889467634103966], [-72.43298640430656, 44.88949750131104], [-72.43309653626663, 44.88952459294652], [-72.43320347785004, 44.88955751474768], [-72.43330662166923, 44.88959607919317], [-72.43340537682543, 44.889640066377325], [-72.43352253384238, 44.88969673723181], [-72.43368258710495, 44.889785651370126], [-72.43379972435531, 44.88986004960975], [-72.4339545220499, 44.88997365398932], [-72.43411240141937, 44.89013507698138], [-72.43427232573357, 44.890336857048375], [-72.43447971219426, 44.89156965912228], [-72.43440711485367, 44.89175400058871], [-72.43368773975438, 44.8930871472379], [-72.43360931897858, 44.89308710167896], [-72.43354221210792, 44.89306956714724], [-72.43340227376908, 44.89303667954055], [-72.43329553855466, 44.893005736906375], [-72.43308204841115, 44.892937131008885], [-72.43297599481778, 44.8928994996529], [-72.43287431682576, 44.89285619431508], [-72.43277761422745, 44.892807470026504], [-72.43268645638767, 44.89275361419763], [-72.43256514059462, 44.89267615278837], [-72.43241337823886, 44.89256448132219], [-72.4323525904398, 44.89250942295266], [-72.43224801416996, 44.8924082142333], [-72.43210927316201, 44.892246260177345], [-72.43186663393072, 44.89189533178173], [-72.43182538621228, 44.891833659848636], [-72.43177693916239, 44.89175912338528], [-72.43175370011828, 44.89172171850179], [-72.43165680655542, 44.89155337091567], [-72.43150696771727, 44.891539062117694], [-72.43138449089777, 44.89152377339541], [-72.4310107301772, 44.891465996276565], [-72.43114521834424, 44.89164758995161], [-72.43139489299149, 44.891944526700684], [-72.43146225672264, 44.892018078507725], [-72.43222140343916, 44.8927824440385], [-72.43252709087432, 44.89307338587146], [-72.43262777350608, 44.89318211683854], [-72.43268487752154, 44.893259529547954], [-72.43285826764271, 44.893519247510085], [-72.43291466708337, 44.89361522694623], [-72.43295423068699, 44.8937043582695], [-72.43300837566647, 44.89384729126152], [-72.43303823198006, 44.89394292840181], [-72.43305944821611, 44.89407654987451], [-72.43306779574196, 44.89419263950361], [-72.43306819033556, 44.894298855467206], [-72.43304782083548, 44.89461488195645], [-72.43303964994763, 44.894688037540256], [-72.43298154410621, 44.895053005319994], [-72.43294850393072, 44.89535230181616], [-72.43217039658782, 44.8953735303944], [-72.4321709787475, 44.89538017276534], [-72.43216710826003, 44.89543961573725], [-72.43192332971469, 44.89715764022614], [-72.43176450635288, 44.8985231348052], [-72.43163813726001, 44.899654904231035], [-72.4315687536682, 44.900379917297194], [-72.43154091250517, 44.900926319840956], [-72.43168643004316, 44.902175844263226], [-72.43180207848998, 44.903247007631656], [-72.4318088629441, 44.903299354116335], [-72.43181106336392, 44.90332097595247], [-72.43181221691621, 44.903342362294744], [-72.43187121103797, 44.904434343555465], [-72.4318995139496, 44.904716193861304], [-72.43199368725845, 44.905843942592284], [-72.43205572530782, 44.9067530209475], [-72.43228277255072, 44.90901661731239], [-72.43228472650658, 44.909055431165996], [-72.43228495255978, 44.90959308037206], [-72.43228045493433, 44.90984078565717], [-72.4322709290852, 44.90991985959196], [-72.43222853735342, 44.91010916902203], [-72.43221310490041, 44.91016150313403], [-72.43214615380757, 44.910343778889136], [-72.43211900001366, 44.91040349222957], [-72.43201836055897, 44.910587997572144], [-72.4319667903654, 44.91066442418985], [-72.43195585517968, 44.91067743892551], [-72.43170832332181, 44.91096300277902], [-72.43167757888452, 44.91099577508287], [-72.43138875488351, 44.91127858598565], [-72.43134524203921, 44.911323448499765], [-72.43133725825825, 44.91133135633596], [-72.43131043831859, 44.911356346045324], [-72.4310770398771, 44.91157908205067], [-72.43098110855195, 44.91168525662388], [-72.43094024139158, 44.911786530387495], [-72.43092136709257, 44.91193778681248], [-72.4309448782541, 44.91216356353512], [-72.43097896289368, 44.91232468674325], [-72.43101597253091, 44.91252122913215], [-72.43106822918968, 44.91275124899564], [-72.43113070088773, 44.913006931427574], [-72.43120098273427, 44.91333301062622], [-72.43120449914079, 44.913351426061155], [-72.43126787597916, 44.91373170702572], [-72.4313115379187, 44.91402255154574], [-72.4314019482005, 44.91442856807281], [-72.43140517378203, 44.91444457974796], [-72.43147999867388, 44.914859519914394], [-72.4315451885229, 44.915198385710994], [-72.43163283114089, 44.915619447177235], [-72.43173009404316, 44.91613562422347], [-72.43184473618474, 44.916623976482406], [-72.43184742432467, 44.916636289319094], [-72.43196402045764, 44.91721345064479], [-72.43196670960317, 44.917228176051], [-72.43202497870962, 44.917585056466336], [-72.43208378849609, 44.91794910377882], [-72.43213747673059, 44.918324292981914], [-72.43220137142919, 44.91868978031261], [-72.43229106755194, 44.919092085182875], [-72.43229504600917, 44.91911237618471], [-72.43239034856508, 44.919675080263005], [-72.43252308644615, 44.920403388295675], [-72.43263917949042, 44.92115889045891], [-72.43270308254395, 44.92161810045655], [-72.43277684561828, 44.92198197958806], [-72.4328310721886, 44.92227507631652], [-72.43290455598142, 44.92258540256872], [-72.4329943387303, 44.92284086111293], [-72.43300167117005, 44.92286380958186], [-72.4330740824503, 44.92311528220212], [-72.43318110670793, 44.92344312328933], [-72.43319337828542, 44.923489815189086], [-72.43325292453571, 44.923787264756484], [-72.43333500780223, 44.92418323156308], [-72.43340713649502, 44.92455371966489], [-72.43341385307696, 44.924607924964185], [-72.43342025658056, 44.92472702649849], [-72.43348017783379, 44.924872864857164], [-72.43349541997499, 44.924916551054515], [-72.43356884675559, 44.92517134890632], [-72.43358077898739, 44.92522731738239], [-72.43361313876684, 44.92545948099945], [-72.43369753306408, 44.92595716183055], [-72.43375441410747, 44.92623268306696]]], [[[-72.43374836218598, 44.92634145123989], [-72.43375537037365, 44.926347390890946], [-72.43375907075055, 44.926340490083895], [-72.43374836218598, 44.92634145123989]]], [[[-72.41587962880484, 44.896211702776775], [-72.41446007749435, 44.89693664382665], [-72.41086258495949, 44.89968407761781], [-72.41081965209443, 44.89971438808238], [-72.41077351087431, 44.89974221595268], [-72.41040099369178, 44.900533194839355], [-72.41080310854126, 44.905309332663315], [-72.41082255851855, 44.90554244554007], [-72.41084086364582, 44.90576183434271], [-72.41085305842336, 44.90590799874405], [-72.41088006892086, 44.906231732680986], [-72.41090989695098, 44.90658922147916], [-72.41094500057058, 44.90700992280708], [-72.41109516291927, 44.90880954232951], [-72.41160814803261, 44.91495652353197], [-72.41211295957655, 44.92094461973887], [-72.41256931565471, 44.92633546096465], [-72.4136862313018, 44.92633486533016], [-72.4148122178263, 44.92633425294034], [-72.41578894835503, 44.9263337129684], [-72.41793743400537, 44.926332496295146], [-72.41975266950524, 44.92633143747964], [-72.42196270813946, 44.92633010822467], [-72.4237624732956, 44.92632899400152], [-72.42523313551602, 44.92632806298739], [-72.42669219224186, 44.92632505836731], [-72.42868029284547, 44.92631925042485], [-72.42916027183274, 44.926317842976616], [-72.43046081745437, 44.9263140195748], [-72.43216863394301, 44.92630897607096], [-72.43220925223461, 44.92630885530732], [-72.43216807461503, 44.92610937410884], [-72.43216544367922, 44.92609538126453], [-72.43207800495634, 44.92557914294515], [-72.43204788256992, 44.9253636225497], [-72.43198882080654, 44.92515865486134], [-72.43192571243148, 44.92500302946753], [-72.43191258542063, 44.924969093587585], [-72.43189174946176, 44.92491048658585], [-72.43188181112146, 44.92483654138026], [-72.4318798374974, 44.92481523022004], [-72.4318721158264, 44.924677010831175], [-72.43180619755564, 44.92433830102967], [-72.43172455400921, 44.92394443731033], [-72.43166917957434, 44.92366783240162], [-72.43156744517943, 44.92335617017009], [-72.43156314761694, 44.92334217720641], [-72.43149204317982, 44.923095218205646], [-72.43139897952472, 44.92283040589789], [-72.43138668101764, 44.92278852272724], [-72.43130589678704, 44.922447330730115], [-72.43130177571402, 44.922427773019855], [-72.43124702840434, 44.92213165347192], [-72.431172164012, 44.92176244632446], [-72.43116801700016, 44.9217381714345], [-72.43110322580414, 44.92127234325353], [-72.4309897508834, 44.920533377275156], [-72.43085806849568, 44.91981109549636], [-72.43076364832231, 44.91925361177833], [-72.43067419440749, 44.91885234162626], [-72.4306705749995, 44.91883413220228], [-72.43060403322698, 44.91845344347951], [-72.430602099942, 44.918441279556], [-72.43054860524146, 44.918067138114345], [-72.4304910267275, 44.917710850415894], [-72.4304340719696, 44.917361972641515], [-72.43032022154763, 44.916798327613186], [-72.4302049871796, 44.91630739892561], [-72.43020128994509, 44.916289914732864], [-72.43010384566556, 44.915772501654736], [-72.43001651734956, 44.915352964512884], [-72.4299492936987, 44.915003523934494], [-72.42987508713986, 44.91459202968985], [-72.42978340639431, 44.91418025826139], [-72.42977827037873, 44.914152679226554], [-72.42973352588605, 44.91385438876571], [-72.42967273489072, 44.913489721444314], [-72.42960688956106, 44.913183838225926], [-72.4295454650289, 44.912932620812576], [-72.42949002727714, 44.912688695169244], [-72.42948696038015, 44.912673919966416], [-72.42945031479876, 44.91247899799387], [-72.42941374727104, 44.91230638314689], [-72.4294072491491, 44.91226519707685], [-72.4293769586736, 44.91197424752325], [-72.42937787300366, 44.911885316659934], [-72.42940882314177, 44.91163732917125], [-72.42941765069082, 44.91159006128799], [-72.42943571513068, 44.91153457241785], [-72.42952818760557, 44.91130543034647], [-72.42955233314458, 44.911254987229036], [-72.42958325014689, 44.911206446126], [-72.42962064930687, 44.91116026489198], [-72.42979260100286, 44.910969956326475], [-72.42982378620789, 44.91093799379199], [-72.43004863701775, 44.910727290070376], [-72.43009239208075, 44.91068260457013], [-72.43010050378808, 44.91067474369204], [-72.4301271543272, 44.91064968396963], [-72.43040829489294, 44.910370820214226], [-72.43060428076194, 44.91014472784997], [-72.43066343822842, 44.91003627794787], [-72.43070970993192, 44.90991031124687], [-72.43073738740877, 44.90978672872787], [-72.43074106262657, 44.90958612718131], [-72.4307408289698, 44.90907523137913], [-72.4305151620789, 44.90682479895177], [-72.4305141146567, 44.90681236107751], [-72.43045210245896, 44.90590299214897], [-72.43035901024263, 44.90478776734773], [-72.43033043924251, 44.904503442729926], [-72.43032904045316, 44.90448529759537], [-72.43027624629784, 44.90343679884533], [-72.43027019880367, 44.90338451661232], [-72.43026843077884, 44.90336285721576], [-72.43026698273385, 44.90334150397375], [-72.43014766835279, 44.90226369390966], [-72.42999869646998, 44.900984304691356], [-72.42999657363653, 44.900919200628216], [-72.43002653444127, 44.90033150693343], [-72.43002780772011, 44.90031413281696], [-72.43009865803825, 44.89957426814362], [-72.43022592646662, 44.8984345298089], [-72.43038620158545, 44.89705738297183], [-72.4306155108223, 44.8954412195284], [-72.42984119928236, 44.8954574240029], [-72.42985188217533, 44.89538335592116], [-72.42985963997388, 44.89530349260405], [-72.42986321635617, 44.895274439426565], [-72.42987541734038, 44.89519291945383], [-72.42990512975193, 44.894869707443554], [-72.4299107060745, 44.89482736063946], [-72.4299663868185, 44.89447773950202], [-72.42997650516239, 44.89432089633652], [-72.42996181080377, 44.894298886119806], [-72.42973481771972, 44.8940828326851], [-72.4297088616114, 44.894057374358276], [-72.4289451762092, 44.893281878633296], [-72.42886988279072, 44.893206330780885], [-72.42880125180606, 44.893133317499114], [-72.4284785620372, 44.892753379228594], [-72.4284345561439, 44.89269792163697], [-72.42817546843733, 44.89234806487637], [-72.42811118144382, 44.89224975821829], [-72.42782866623888, 44.891755159665166], [-72.42760698740605, 44.891388069950494], [-72.42609753780914, 44.89210755327734], [-72.42310440321575, 44.893484151344225], [-72.42295082947858, 44.89355983318633], [-72.42288137135854, 44.893590964510636], [-72.42264486576337, 44.89369986213925], [-72.42224166871561, 44.89323288894929], [-72.41890640674525, 44.894770001609835], [-72.41883421153976, 44.89480572151814], [-72.41879507545019, 44.894823596842414], [-72.41587962880484, 44.896211702776775]]]]}, "properties": {"OBJECTID": 0, "ABB_DIST_NAME": "RuRes", "Shape_Length": 0, "Shape_Area": 0, "Jurisdiction_County": "Orleans", "Jurisdiction_District_Name": "Westfield"}}, {"type": "Feature", "id": 0, "geometry": {"type": "Polygon", "coordinates": [[[-72.42782866623888, 44.891755159665166], [-72.42811118144382, 44.89224975821829], [-72.42817546843733, 44.89234806487637], [-72.4284345561439, 44.89269792163697], [-72.4284785620372, 44.892753379228594], [-72.42880125180606, 44.893133317499114], [-72.42886988279072, 44.893206330780885], [-72.4289451762092, 44.893281878633296], [-72.4297088616114, 44.894057374358276], [-72.42973481771972, 44.8940828326851], [-72.42996181080377, 44.894298886119806], [-72.42997650516239, 44.89432089633652], [-72.4299663868185, 44.89447773950202], [-72.4299107060745, 44.89482736063946], [-72.42990512975193, 44.894869707443554], [-72.42987541734038, 44.89519291945383], [-72.42986321635617, 44.895274439426565], [-72.42985963997388, 44.89530349260405], [-72.42985188217533, 44.89538335592116], [-72.42984119928236, 44.8954574240029], [-72.4306155108223, 44.8954412195284], [-72.43129611085514, 44.8954269719042], [-72.43146506599352, 44.895392769032846], [-72.43217039658782, 44.8953735303944], [-72.43294850393072, 44.89535230181616], [-72.43298154410621, 44.895053005319994], [-72.43303964994763, 44.894688037540256], [-72.43304782083548, 44.89461488195645], [-72.43306819033556, 44.894298855467206], [-72.43306779574196, 44.89419263950361], [-72.43305944821611, 44.89407654987451], [-72.43303823198006, 44.89394292840181], [-72.43300837566647, 44.89384729126152], [-72.43295423068699, 44.8937043582695], [-72.43291466708337, 44.89361522694623], [-72.43285826764271, 44.893519247510085], [-72.43268487752154, 44.893259529547954], [-72.43262777350608, 44.89318211683854], [-72.43252709087432, 44.89307338587146], [-72.43222140343916, 44.8927824440385], [-72.43146225672264, 44.892018078507725], [-72.43139489299149, 44.891944526700684], [-72.43114521834424, 44.89164758995161], [-72.4310107301772, 44.891465996276565], [-72.43138449089777, 44.89152377339541], [-72.43150696771727, 44.891539062117694], [-72.43165680655542, 44.89155337091567], [-72.43175370011828, 44.89172171850179], [-72.43177693916239, 44.89175912338528], [-72.43182538621228, 44.891833659848636], [-72.43186663393072, 44.89189533178173], [-72.43210927316201, 44.892246260177345], [-72.43224801416996, 44.8924082142333], [-72.4323525904398, 44.89250942295266], [-72.43241337823886, 44.89256448132219], [-72.43256514059462, 44.89267615278837], [-72.43268645638767, 44.89275361419763], [-72.43277761422745, 44.892807470026504], [-72.43287431682576, 44.89285619431508], [-72.43297599481778, 44.8928994996529], [-72.43308204841115, 44.892937131008885], [-72.43329553855466, 44.893005736906375], [-72.43340227376908, 44.89303667954055], [-72.43354221210792, 44.89306956714724], [-72.43360931897858, 44.89308710167896], [-72.43368773975438, 44.8930871472379], [-72.43440711485367, 44.89175400058871], [-72.43447971219426, 44.89156965912228], [-72.43427232573357, 44.890336857048375], [-72.43411240141937, 44.89013507698138], [-72.4339545220499, 44.88997365398932], [-72.43379972435531, 44.88986004960975], [-72.43368258710495, 44.889785651370126], [-72.43352253384238, 44.88969673723181], [-72.43340537682543, 44.889640066377325], [-72.43330662166923, 44.88959607919317], [-72.43320347785004, 44.88955751474768], [-72.43309653626663, 44.88952459294652], [-72.43298640430656, 44.88949750131104], [-72.43284832976433, 44.889467634103966], [-72.43260449271375, 44.889429879891004], [-72.431979618586, 44.889370209892896], [-72.43172634567254, 44.889331057865924], [-72.43141720616883, 44.88923594584862], [-72.43133326540149, 44.889212168211195], [-72.43116184678928, 44.88917555408981], [-72.4308269604546, 44.88911883913411], [-72.43073857660825, 44.88910579936528], [-72.43051968872463, 44.88908955401852], [-72.43026486168998, 44.889086493889174], [-72.4302670387322, 44.88905110643994], [-72.43052192524142, 44.887618650483596], [-72.43052634601935, 44.88758991361858], [-72.43063050300202, 44.886818987061886], [-72.43083168964344, 44.88567436710844], [-72.43099163594778, 44.8847546915551], [-72.42796127642123, 44.884296850432435], [-72.42776871401485, 44.885403661574266], [-72.42756497893409, 44.88656242072862], [-72.42756013728263, 44.886593563504036], [-72.42745577615624, 44.887365694803755], [-72.42721371095307, 44.888799561367975], [-72.42719112722835, 44.88885607759304], [-72.42714232229164, 44.888932377203716], [-72.42709988208193, 44.88900969232316], [-72.42704385305893, 44.889047475907674], [-72.42683668339664, 44.88912116884133], [-72.42679743467092, 44.88913503517756], [-72.42671027752817, 44.88917647826135], [-72.42657448576506, 44.88924200507173], [-72.42439739535537, 44.89027608202334], [-72.42133927947553, 44.89168831115855], [-72.42126982021203, 44.89171943971242], [-72.42111625256348, 44.89179512361464], [-72.42103329217494, 44.89183332207026], [-72.42143419833047, 44.8922976686101], [-72.42224166871561, 44.89323288894929], [-72.42264486576337, 44.89369986213925], [-72.42288137135854, 44.893590964510636], [-72.42295082947858, 44.89355983318633], [-72.42310440321575, 44.893484151344225], [-72.42609753780914, 44.89210755327734], [-72.42760698740605, 44.891388069950494], [-72.42782866623888, 44.891755159665166]]]}, "properties": {"OBJECTID": 0, "ABB_DIST_NAME": "Vil", "Shape_Length": 0, "Shape_Area": 0, "Jurisdiction_County": "Orleans", "Jurisdiction_District_Name": "Westfield"}}]}