{
  "type": "FeatureCollection",
  "crs": {
    "type": "name",
    "properties": {
      "name": "urn:ogc:def:crs:OGC:1.3:CRS84"
    }
  },
  "features": [
    {
      "type": "Feature",
      "properties": {
        "ABB_DIST_NAME": "ARO",
        "Jurisdiction_County": "Washington",
        "Jurisdiction_District_Name": "Barre City"
      },
      "geometry": {
        "type": "MultiPolygon",
        "coordinates": [
          [
            [
              [
                -72.48866864550543,
                44.18662198269976
              ],
              [
                -72.48970219496904,
                44.18741519219585
              ],
              [
                -72.4901407318295,
                44.18708425763178
              ],
              [
                -72.48974544795168,
                44.186811543913365
              ],
              [
                -72.4898279573122,
                44.186724826938686
              ],
              [
                -72.48917128794119,
                44.18620287464384
              ],
              [
                -72.48866864550543,
                44.18662198269976
              ]
            ]
          ],
          [
            [
              [
                -72.49912543156961,
                44.18812657608299
              ],
              [
                -72.49927391679789,
                44.18843067129197
              ],
              [
                -72.4995994527821,
                44.18845121994117
              ],
              [
                -72.49980505559108,
                44.188299173551975
              ],
              [
                -72.50007347848619,
                44.188151235747846
              ],
              [
                -72.50034190138128,
                44.188019734807874
              ],
              [
                -72.50051894674736,
                44.18815534408064
              ],
              [
                -72.5006959894185,
                44.18794165499964
              ],
              [
                -72.50017056660546,
                44.18771153169196
              ],
              [
                -72.4999592567995,
                44.18774029731559
              ],
              [
                -72.4999592567995,
                44.187222514586594
              ],
              [
                -72.49923395524246,
                44.18721429328164
              ],
              [
                -72.49907975133911,
                44.187584136855364
              ],
              [
                -72.49916541288796,
                44.18786357573212
              ],
              [
                -72.49912543156961,
                44.18812657608299
              ]
            ]
          ],
          [
            [
              [
                -72.49160304448328,
                44.18915871237236
              ],
              [
                -72.49142392041564,
                44.18930071973179
              ],
              [
                -72.49138734461053,
                44.189461146850135
              ],
              [
                -72.49164677267468,
                44.1901081475547
              ],
              [
                -72.49189529339468,
                44.19037379551691
              ],
              [
                -72.49277627209212,
                44.18987152384842
              ],
              [
                -72.49257890863095,
                44.189724230894114
              ],
              [
                -72.49237789082318,
                44.18956904767581
              ],
              [
                -72.492129363815,
                44.18936389004311
              ],
              [
                -72.4919429795632,
                44.18914032695989
              ],
              [
                -72.49180775167193,
                44.189040377153695
              ],
              [
                -72.49160304448328,
                44.18915871237236
              ]
            ]
          ],
          [
            [
              [
                -72.5087612742451,
                44.19602447355036
              ],
              [
                -72.5093154575203,
                44.19685041446722
              ],
              [
                -72.50948537026304,
                44.196380616327275
              ],
              [
                -72.50951521858497,
                44.19586825646416
              ],
              [
                -72.50919531863083,
                44.19564226676366
              ],
              [
                -72.5087612742451,
                44.19602447355036
              ]
            ]
          ],
          [
            [
              [
                -72.51322384226854,
                44.20309627900367
              ],
              [
                -72.51372088011524,
                44.203285251442715
              ],
              [
                -72.51400069544479,
                44.20285373323981
              ],
              [
                -72.51366934646235,
                44.20276336724206
              ],
              [
                -72.51360081937922,
                44.20286610990097
              ],
              [
                -72.5134008615835,
                44.20278394631286
              ],
              [
                -72.51322384226854,
                44.20309627900367
              ]
            ]
          ],
          [
            [
              [
                -72.51544051967376,
                44.20385623501095
              ],
              [
                -72.51593756650361,
                44.20402876001096
              ],
              [
                -72.5161488475635,
                44.20370819973634
              ],
              [
                -72.5156403436205,
                44.20340828611944
              ],
              [
                -72.51544051967376,
                44.20385623501095
              ]
            ]
          ],
          [
            [
              [
                -72.51847465410603,
                44.20615703229745
              ],
              [
                -72.51922873049826,
                44.206087048372744
              ],
              [
                -72.51910289628988,
                44.205618601478015
              ],
              [
                -72.51798882184418,
                44.20537221976762
              ],
              [
                -72.51847465410603,
                44.20615703229745
              ]
            ]
          ],
          [
            [
              [
                -72.49913405898961,
                44.20840121195005
              ],
              [
                -72.49961610036095,
                44.20856815761138
              ],
              [
                -72.49934829550676,
                44.20880572942535
              ],
              [
                -72.49956253651551,
                44.20895983172444
              ],
              [
                -72.4999912547899,
                44.20865153335508
              ],
              [
                -72.50051504805904,
                44.20841859778534
              ],
              [
                -72.5007558747086,
                44.2082817537372
              ],
              [
                -72.50109792891429,
                44.20821500418124
              ],
              [
                -72.50171386956863,
                44.20821499645419
              ],
              [
                -72.50149961508515,
                44.207656382494264
              ],
              [
                -72.5008568947539,
                44.20721334737471
              ],
              [
                -72.50068729192992,
                44.20732250356001
              ],
              [
                -72.50041949426226,
                44.20712345749222
              ],
              [
                -72.50025881889559,
                44.207393135099295
              ],
              [
                -72.49976785905012,
                44.207258296450064
              ],
              [
                -72.49913405898961,
                44.20840121195005
              ]
            ]
          ]
        ]
      }
    },
    {
      "type": "Feature",
      "properties": {
        "ABB_DIST_NAME": "DRO",
        "Jurisdiction_County": "Washington",
        "Jurisdiction_District_Name": "Barre City"
      },
      "geometry": {
        "type": "Polygon",
        "coordinates": [
          [
            [
              -72.5080185588463,
              44.20270946467367
            ],
            [
              -72.508323698582,
              44.203117018952625
            ],
            [
              -72.50882488035711,
              44.20292886898007
            ],
            [
              -72.50858509665159,
              44.20241157903421
            ],
            [
              -72.50848833282413,
              44.20210200349336
            ],
            [
              -72.50899710716001,
              44.20214691074583
            ],
            [
              -72.50939879782247,
              44.20234592661847
            ],
            [
              -72.50946123702292,
              44.20208908507704
            ],
            [
              -72.50930053111355,
              44.201819421183096
            ],
            [
              -72.50889886021405,
              44.20172313981212
            ],
            [
              -72.50865784042666,
              44.201543372777934
            ],
            [
              -72.50842568521453,
              44.20092698401622
            ],
            [
              -72.50826495505063,
              44.20042616565297
            ],
            [
              -72.50824706959334,
              44.200182172754566
            ],
            [
              -72.50879145763867,
              44.19974551126355
            ],
            [
              -72.50880248895035,
              44.19890076099866
            ],
            [
              -72.50864901537732,
              44.19841920506835
            ],
            [
              -72.50832823687082,
              44.19820854279443
            ],
            [
              -72.50775646368407,
              44.19816845247408
            ],
            [
              -72.50725440874649,
              44.19804809376082
            ],
            [
              -72.50678023571872,
              44.19782740446027
            ],
            [
              -72.5064734197267,
              44.19768696526698
            ],
            [
              -72.50576553919797,
              44.19757543984368
            ],
            [
              -72.50537284156982,
              44.19763966781196
            ],
            [
              -72.50488195448787,
              44.19753695532502
            ],
            [
              -72.5041947073629,
              44.19729298846046
            ],
            [
              -72.50350746383121,
              44.19700407144903
            ],
            [
              -72.50332001687245,
              44.19660598104498
            ],
            [
              -72.50303440381606,
              44.196297785473256
            ],
            [
              -72.50270416964291,
              44.19598316963127
            ],
            [
              -72.50234716477594,
              44.19568139529059
            ],
            [
              -72.50199684427302,
              44.19499837775514
            ],
            [
              -72.50143903629566,
              44.19436632879718
            ],
            [
              -72.5015226802284,
              44.19342325684081
            ],
            [
              -72.50135531870107,
              44.19217920839847
            ],
            [
              -72.5010485296585,
              44.19117594498748
            ],
            [
              -72.5000724571017,
              44.191617387398075
            ],
            [
              -72.49979357871501,
              44.19116591686604
            ],
            [
              -72.49958801273696,
              44.191023693070846
            ],
            [
              -72.49981646958508,
              44.19086342801297
            ],
            [
              -72.49951805194264,
              44.19051900957581
            ],
            [
              -72.49922355993799,
              44.190525428829346
            ],
            [
              -72.49908970197752,
              44.19040343068695
            ],
            [
              -72.49909862763816,
              44.190268591154734
            ],
            [
              -72.49833116814487,
              44.19023647799315
            ],
            [
              -72.49785821502923,
              44.18978700654798
            ],
            [
              -72.49780465387873,
              44.19026857376353
            ],
            [
              -72.49782419582942,
              44.19061550506598
            ],
            [
              -72.49788494260387,
              44.191026242457646
            ],
            [
              -72.49819792732697,
              44.191387170875736
            ],
            [
              -72.4988487262076,
              44.19188023702622
            ],
            [
              -72.49914598412501,
              44.19223136286086
            ],
            [
              -72.49969080964988,
              44.19267155555707
            ],
            [
              -72.50000503135311,
              44.19305037760803
            ],
            [
              -72.50030672964296,
              44.193414096682616
            ],
            [
              -72.50057068880943,
              44.19373231441208
            ],
            [
              -72.50026197108392,
              44.19370711927505
            ],
            [
              -72.50039263194033,
              44.19468617861036
            ],
            [
              -72.50052344730693,
              44.19482383291942
            ],
            [
              -72.50023199160796,
              44.195482371075244
            ],
            [
              -72.50018736689789,
              44.195065012185644
            ],
            [
              -72.49974113327208,
              44.19494943577132
            ],
            [
              -72.49924135286884,
              44.19482743648163
            ],
            [
              -72.49909855577295,
              44.19504574624537
            ],
            [
              -72.49881296337782,
              44.195174161898066
            ],
            [
              -72.49851844891529,
              44.195122791290906
            ],
            [
              -72.49825963979036,
              44.194910897368175
            ],
            [
              -72.49817932501406,
              44.19466048086236
            ],
            [
              -72.49743859219708,
              44.19441647246102
            ],
            [
              -72.49729579330459,
              44.19453204541215
            ],
            [
              -72.49664431260267,
              44.194255929372055
            ],
            [
              -72.49642120971363,
              44.19407613697842
            ],
            [
              -72.49635814708238,
              44.19393767968973
            ],
            [
              -72.49593411262387,
              44.1939113658765
            ],
            [
              -72.49592315587235,
              44.193779864906396
            ],
            [
              -72.49521036694892,
              44.19343004677015
            ],
            [
              -72.49507878082777,
              44.193309061345026
            ],
            [
              -72.49465474367433,
              44.19336953251184
            ],
            [
              -72.49583175139388,
              44.19402708215923
            ],
            [
              -72.49477906152649,
              44.194461328248934
            ],
            [
              -72.49499587351357,
              44.19459643191882
            ],
            [
              -72.49517852706198,
              44.19445492488185
            ],
            [
              -72.4953150072048,
              44.19454268418462
            ],
            [
              -72.4956011987762,
              44.19440973867971
            ],
            [
              -72.49574463906583,
              44.19450563460946
            ],
            [
              -72.49601346350786,
              44.19468535484505
            ],
            [
              -72.49599254084656,
              44.19478978874573
            ],
            [
              -72.49639784363478,
              44.195056753974754
            ],
            [
              -72.49624086393719,
              44.195182324771
            ],
            [
              -72.49737177999782,
              44.19568781011747
            ],
            [
              -72.49680004454031,
              44.19617729734846
            ],
            [
              -72.49663627537582,
              44.1961587782301
            ],
            [
              -72.49646078948506,
              44.19643818418204
            ],
            [
              -72.4962465008656,
              44.19636582568694
            ],
            [
              -72.4958980443669,
              44.196784970322156
            ],
            [
              -72.4961895009642,
              44.196927462949695
            ],
            [
              -72.4958676579541,
              44.197376462599976
            ],
            [
              -72.49609970447008,
              44.19744067983648
            ],
            [
              -72.4959033345456,
              44.19771677193762
            ],
            [
              -72.49623355793898,
              44.1977938341001
            ],
            [
              -72.4961442986374,
              44.19791582853642
            ],
            [
              -72.49662975181022,
              44.19805502226841
            ],
            [
              -72.49738595451471,
              44.19825250564521
            ],
            [
              -72.49809887638881,
              44.19860933501327
            ],
            [
              -72.49848805621428,
              44.198070398554634
            ],
            [
              -72.49908101526871,
              44.19724924515609
            ],
            [
              -72.49939135624993,
              44.197167377078884
            ],
            [
              -72.49916991614248,
              44.197671896086426
            ],
            [
              -72.4996429447166,
              44.197761791374695
            ],
            [
              -72.4997132100398,
              44.19761173525249
            ],
            [
              -72.50010549354458,
              44.197743096288356
            ],
            [
              -72.49983929577645,
              44.198147045498
            ],
            [
              -72.50015118275826,
              44.198321040793004
            ],
            [
              -72.49996424783922,
              44.19871850585368
            ],
            [
              -72.49978574181247,
              44.198872607492774
            ],
            [
              -72.49955368721164,
              44.198615770774325
            ],
            [
              -72.49945550763931,
              44.19890471079635
            ],
            [
              -72.49944657838537,
              44.19928996453105
            ],
            [
              -72.5000713512756,
              44.19925144055899
            ],
            [
              -72.50008641332795,
              44.199763908179925
            ],
            [
              -72.500379276687,
              44.1996334835401
            ],
            [
              -72.50078185937652,
              44.19979560526904
            ],
            [
              -72.50079895251974,
              44.199953370453045
            ],
            [
              -72.5011359743632,
              44.199846523569185
            ],
            [
              -72.50127042790672,
              44.1999024593294
            ],
            [
              -72.5016386491383,
              44.19972323608447
            ],
            [
              -72.5020196120739,
              44.19990157123574
            ],
            [
              -72.50193661852143,
              44.200276024866874
            ],
            [
              -72.5018232879635,
              44.200325996703825
            ],
            [
              -72.50186351182698,
              44.200615296065905
            ],
            [
              -72.50220716413554,
              44.20056795008508
            ],
            [
              -72.50246341935014,
              44.20126757617048
            ],
            [
              -72.5031418099847,
              44.20208301354917
            ],
            [
              -72.50288296582548,
              44.20213438710423
            ],
            [
              -72.50271336928974,
              44.201967448324055
            ],
            [
              -72.50223141595328,
              44.20291775131275
            ],
            [
              -72.50175837120949,
              44.20381026393489
            ],
            [
              -72.50244567582664,
              44.20386803897259
            ],
            [
              -72.50331150892839,
              44.20404138177688
            ],
            [
              -72.5044719220697,
              44.204407332604724
            ],
            [
              -72.50492710111911,
              44.20379090812222
            ],
            [
              -72.50449862089825,
              44.20336714708205
            ],
            [
              -72.50440037844385,
              44.20260306391651
            ],
            [
              -72.50453419687845,
              44.20169771239015
            ],
            [
              -72.5045543236324,
              44.20158043016399
            ],
            [
              -72.50469691860734,
              44.20174085476672
            ],
            [
              -72.50481394034277,
              44.2021195695727
            ],
            [
              -72.50508769204414,
              44.20289197601312
            ],
            [
              -72.50533760066122,
              44.202725021348144
            ],
            [
              -72.50583748526907,
              44.203103829644185
            ],
            [
              -72.50573039171415,
              44.203277199168205
            ],
            [
              -72.50605174065085,
              44.2034312843763
            ],
            [
              -72.50596250380717,
              44.20365602001306
            ],
            [
              -72.50642669026394,
              44.203983460728374
            ],
            [
              -72.50680100386977,
              44.203683898833305
            ],
            [
              -72.5072835554842,
              44.203707310412085
            ],
            [
              -72.50687291131332,
              44.203289978225264
            ],
            [
              -72.50738094004751,
              44.20303255671092
            ],
            [
              -72.50746556853382,
              44.20310090984867
            ],
            [
              -72.50768189902392,
              44.2029477768662
            ],
            [
              -72.50764821938726,
              44.202892516956425
            ],
            [
              -72.50787560364692,
              44.20278012492759
            ],
            [
              -72.5080185588463,
              44.20270946467367
            ]
          ]
        ]
      }
    },
    {
      "type": "Feature",
      "properties": {
        "ABB_DIST_NAME": "HSO",
        "Jurisdiction_County": "Washington",
        "Jurisdiction_District_Name": "Barre City"
      },
      "geometry": {
        "type": "MultiPolygon",
        "coordinates": [
          [
            [
              [
                -72.4924326341566,
                44.19023707251448
              ],
              [
                -72.49306495828507,
                44.19052641303753
              ],
              [
                -72.49334277845638,
                44.19035547940397
              ],
              [
                -72.49290419218858,
                44.18998462198131
              ],
              [
                -72.4924326341566,
                44.19023707251448
              ]
            ]
          ],
          [
            [
              [
                -72.49787177689508,
                44.19074058098528
              ],
              [
                -72.49860868288896,
                44.19072375997296
              ],
              [
                -72.49842621798676,
                44.19046286136728
              ],
              [
                -72.49775715905133,
                44.19043928542897
              ],
              [
                -72.49787177689508,
                44.19074058098528
              ]
            ]
          ],
          [
            [
              [
                -72.49071847611798,
                44.19379971737293
              ],
              [
                -72.49164657594363,
                44.19413367616887
              ],
              [
                -72.49215536644921,
                44.19344025484968
              ],
              [
                -72.4910398502075,
                44.193189757380566
              ],
              [
                -72.49071847611798,
                44.19379971737293
              ]
            ]
          ],
          [
            [
              [
                -72.5053983887582,
                44.196541312708156
              ],
              [
                -72.50550809551227,
                44.196946327678724
              ],
              [
                -72.50514253419223,
                44.197004204766245
              ],
              [
                -72.50515350801174,
                44.197083104673084
              ],
              [
                -72.50496341820941,
                44.197140972609645
              ],
              [
                -72.50563241426275,
                44.19721984206338
              ],
              [
                -72.50591755750024,
                44.19721719762629
              ],
              [
                -72.50570185044096,
                44.19699102825831
              ],
              [
                -72.50559579174525,
                44.19652552318702
              ],
              [
                -72.5053983887582,
                44.196541312708156
              ]
            ]
          ],
          [
            [
              [
                -72.50638929519528,
                44.19864263248557
              ],
              [
                -72.50684630680786,
                44.19899502603865
              ],
              [
                -72.50713144016387,
                44.19883457850265
              ],
              [
                -72.50668182438103,
                44.19846401143931
              ],
              [
                -72.50657851632671,
                44.19857605104672
              ],
              [
                -72.50647336582777,
                44.19853216765278
              ],
              [
                -72.50638929519528,
                44.19864263248557
              ]
            ]
          ],
          [
            [
              [
                -72.5024783349771,
                44.19936159620231
              ],
              [
                -72.50266113135763,
                44.19948076402037
              ],
              [
                -72.50296386899828,
                44.199275287968455
              ],
              [
                -72.50308383181795,
                44.1994067850475
              ],
              [
                -72.50356364177412,
                44.199131442777755
              ],
              [
                -72.50394063415617,
                44.198954726945885
              ],
              [
                -72.50435763750093,
                44.19914785243692
              ],
              [
                -72.50476892037398,
                44.199217695836595
              ],
              [
                -72.50537305447055,
                44.1993475250353
              ],
              [
                -72.50481733777117,
                44.198939899598315
              ],
              [
                -72.50356357440047,
                44.19802602081056
              ],
              [
                -72.50290664990794,
                44.19730689846378
              ],
              [
                -72.50254075621123,
                44.19650326675618
              ],
              [
                -72.50195019835358,
                44.19650830644702
              ],
              [
                -72.50194402423263,
                44.19592543387733
              ],
              [
                -72.50045348741094,
                44.19596212575283
              ],
              [
                -72.50023913411277,
                44.19614398109354
              ],
              [
                -72.50010642779249,
                44.19610257678572
              ],
              [
                -72.49980274961574,
                44.19632105507543
              ],
              [
                -72.4995641462965,
                44.19624302748385
              ],
              [
                -72.49934723190147,
                44.19632105378735
              ],
              [
                -72.49834328911298,
                44.195580278591315
              ],
              [
                -72.49795899252939,
                44.19610255875218
              ],
              [
                -72.4970458379751,
                44.19586116668519
              ],
              [
                -72.49675130464794,
                44.19614367838821
              ],
              [
                -72.4958676579541,
                44.197376463244034
              ],
              [
                -72.4960997053684,
                44.19744068048053
              ],
              [
                -72.4959033345456,
                44.197716772581664
              ],
              [
                -72.49623355793898,
                44.1977938347441
              ],
              [
                -72.49614429953573,
                44.19791582853642
              ],
              [
                -72.49809887728712,
                44.19860933501327
              ],
              [
                -72.49916992422732,
                44.19712611968793
              ],
              [
                -72.49939135624993,
                44.197167377078884
              ],
              [
                -72.49924958772505,
                44.197468355505286
              ],
              [
                -72.50010549354458,
                44.197743096288356
              ],
              [
                -72.50016369090028,
                44.1977625841833
              ],
              [
                -72.5001620047625,
                44.19775934983336
              ],
              [
                -72.50101164393463,
                44.19800371664395
              ],
              [
                -72.50090197670642,
                44.19833246781811
              ],
              [
                -72.50119878007628,
                44.198408241761086
              ],
              [
                -72.5011016793806,
                44.19870411767229
              ],
              [
                -72.50135873050252,
                44.19888081815522
              ],
              [
                -72.50191279789503,
                44.19849863826793
              ],
              [
                -72.50204989338381,
                44.198634245326666
              ],
              [
                -72.50190138390103,
                44.19881095117132
              ],
              [
                -72.50220984830163,
                44.19902874255159
              ],
              [
                -72.5023812163151,
                44.199082160963066
              ],
              [
                -72.50260969921436,
                44.19899585940407
              ],
              [
                -72.50272966113573,
                44.19912324696274
              ],
              [
                -72.5024783349771,
                44.19936159620231
              ]
            ]
          ],
          [
            [
              [
                -72.5057866298442,
                44.19926994840103
              ],
              [
                -72.50605207033256,
                44.199488155407956
              ],
              [
                -72.5064039853451,
                44.199260681600315
              ],
              [
                -72.50603105334818,
                44.198879352356585
              ],
              [
                -72.5058446107059,
                44.19890566201936
              ],
              [
                -72.50568741092107,
                44.19889252006995
              ],
              [
                -72.5057866298442,
                44.19926994840103
              ]
            ]
          ],
          [
            [
              [
                -72.50435683171214,
                44.20061785856187
              ],
              [
                -72.5049234692304,
                44.20030486550322
              ],
              [
                -72.50477722440047,
                44.200191781379516
              ],
              [
                -72.50435683171214,
                44.20061785856187
              ]
            ]
          ],
          [
            [
              [
                -72.51249871049313,
                44.20157983768907
              ],
              [
                -72.51231593297719,
                44.20167716707153
              ],
              [
                -72.5121258979721,
                44.202042757783815
              ],
              [
                -72.51279498655191,
                44.20224256418068
              ],
              [
                -72.51300695033142,
                44.20186382054176
              ],
              [
                -72.51264133601077,
                44.20178233174773
              ],
              [
                -72.51275461626304,
                44.20152720914805
              ],
              [
                -72.51249871049313,
                44.20157983768907
              ]
            ]
          ],
          [
            [
              [
                -72.50804751334454,
                44.203724528268374
              ],
              [
                -72.5081762212635,
                44.203820461844614
              ],
              [
                -72.5084616654366,
                44.20365717079064
              ],
              [
                -72.50830488247007,
                44.20358480441739
              ],
              [
                -72.50820424959868,
                44.203458572134785
              ],
              [
                -72.50804751334454,
                44.203724528268374
              ]
            ]
          ],
          [
            [
              [
                -72.50631316746652,
                44.20466533540402
              ],
              [
                -72.50687989840961,
                44.204912522442704
              ],
              [
                -72.50726009867552,
                44.20458374938308
              ],
              [
                -72.50661294066673,
                44.20439705880889
              ],
              [
                -72.50631316746652,
                44.20466533540402
              ]
            ]
          ],
          [
            [
              [
                -72.5100329581074,
                44.20487570541721
              ],
              [
                -72.51097031956365,
                44.20549202453159
              ],
              [
                -72.51180051200652,
                44.205742357012
              ],
              [
                -72.51255932791018,
                44.20612110855732
              ],
              [
                -72.51273317976543,
                44.20596878578295
              ],
              [
                -72.51247036595096,
                44.20586197105867
              ],
              [
                -72.51228751926476,
                44.20568939733573
              ],
              [
                -72.5121275140413,
                44.205463398938726
              ],
              [
                -72.51198464597852,
                44.20522507052041
              ],
              [
                -72.5117903664337,
                44.20499907549367
              ],
              [
                -72.51149395922087,
                44.20484903136385
              ],
              [
                -72.5108065773486,
                44.20471496865862
              ],
              [
                -72.51038613076135,
                44.20477286773727
              ],
              [
                -72.51013019085542,
                44.20472029034564
              ],
              [
                -72.50995466633714,
                44.20454672608421
              ],
              [
                -72.50974622305523,
                44.204281114319976
              ],
              [
                -72.50965790698471,
                44.20394470799647
              ],
              [
                -72.50933657152275,
                44.203951155410145
              ],
              [
                -72.5095954875472,
                44.204329966769464
              ],
              [
                -72.5100329581074,
                44.20487570541721
              ]
            ]
          ],
          [
            [
              [
                -72.51195181255488,
                44.208972819464634
              ],
              [
                -72.51126812904666,
                44.20931478814401
              ],
              [
                -72.51127182651236,
                44.20953044799536
              ],
              [
                -72.51195926408016,
                44.20965924739878
              ],
              [
                -72.51188627775996,
                44.210369353784564
              ],
              [
                -72.51219138246138,
                44.21044394807955
              ],
              [
                -72.51258541229107,
                44.20956860980926
              ],
              [
                -72.51219676696317,
                44.20884951244328
              ],
              [
                -72.51195181255488,
                44.208972819464634
              ]
            ]
          ],
          [
            [
              [
                -72.5216076229825,
                44.21249312938016
              ],
              [
                -72.52168341923293,
                44.21247174628139
              ],
              [
                -72.52279019935851,
                44.212197023959966
              ],
              [
                -72.52255575883228,
                44.2116998382606
              ],
              [
                -72.52235565910274,
                44.211354689746436
              ],
              [
                -72.52205847125394,
                44.2111081858656
              ],
              [
                -72.52138436558326,
                44.21130145438083
              ],
              [
                -72.52096725983054,
                44.2112152351105
              ],
              [
                -72.52031592824896,
                44.211190697133596
              ],
              [
                -72.51948747853774,
                44.21114974768368
              ],
              [
                -72.51916755971898,
                44.21124020770223
              ],
              [
                -72.5216076229825,
                44.21249312938016
              ]
            ]
          ],
          [
            [
              [
                -72.53203006825002,
                44.21443852104602
              ],
              [
                -72.53305298076235,
                44.2147341039787
              ],
              [
                -72.53336120082119,
                44.21416692223508
              ],
              [
                -72.53250963206781,
                44.213739793755316
              ],
              [
                -72.53203006825002,
                44.21443852104602
              ]
            ]
          ]
        ]
      }
    }
  ]
}