{
  "type": "FeatureCollection",
  "crs": {
    "type": "name",
    "properties": {
      "name": "urn:ogc:def:crs:OGC:1.3:CRS84"
    }
  },
  "features": [
    {
      "type": "Feature",
      "properties": {
        "ABB_DIST_NAME": "FEHO",
        "Jurisdiction_County": "Washington",
        "Jurisdiction_District_Name": "Waitsfield"
      },
      "geometry": {
        "type": "MultiPolygon",
        "coordinates": [
          [
            [
              [
                -72.83272860326363,
                44.18014284879173
              ],
              [
                -72.83272920064331,
                44.18014406767254
              ],
              [
                -72.83272938569625,
                44.180144106970545
              ],
              [
                -72.83272852780517,
                44.18014237850474
              ],
              [
                -72.83272860326363,
                44.18014284879173
              ]
            ]
          ],
          [
            [
              [
                -72.78766046951411,
                44.213148760651244
              ],
              [
                -72.78765595458151,
                44.21322377122734
              ],
              [
                -72.78774242191916,
                44.2135307984994
              ],
              [
                -72.78781343014913,
                44.2136321116751
              ],
              [
                -72.78937911733254,
                44.21552074905065
              ],
              [
                -72.78905878978033,
                44.21591626635199
              ],
              [
                -72.78750106526358,
                44.21679991288012
              ],
              [
                -72.78749716118537,
                44.21680241801519
              ],
              [
                -72.78701676822254,
                44.21690045942807
              ],
              [
                -72.78647145581078,
                44.2169593779386
              ],
              [
                -72.78612998191679,
                44.21704917555067
              ],
              [
                -72.78588403936168,
                44.217337541009066
              ],
              [
                -72.78584908321902,
                44.217630610728655
              ],
              [
                -72.78594451394662,
                44.21780825364673
              ],
              [
                -72.78609811867366,
                44.21798051888464
              ],
              [
                -72.78683461413746,
                44.21833966751647
              ],
              [
                -72.787293104377,
                44.218546310610385
              ],
              [
                -72.78740405799269,
                44.21908665380665
              ],
              [
                -72.78747856246572,
                44.21927920083328
              ],
              [
                -72.78749246569137,
                44.21929405332016
              ],
              [
                -72.78749734444168,
                44.21930969639057
              ],
              [
                -72.78764181959052,
                44.21953169066981
              ],
              [
                -72.7875847029081,
                44.2197420339821
              ],
              [
                -72.78758612404289,
                44.22003400887447
              ],
              [
                -72.78758135039548,
                44.220069605451584
              ],
              [
                -72.78741575585431,
                44.2202664903411
              ],
              [
                -72.78724877970424,
                44.220881401400675
              ],
              [
                -72.78732219811411,
                44.221284197313
              ],
              [
                -72.78736716328565,
                44.22140714868538
              ],
              [
                -72.7867490945224,
                44.22304269154654
              ],
              [
                -72.78625436983755,
                44.22385284034286
              ],
              [
                -72.78592482287557,
                44.22412979487998
              ],
              [
                -72.78592050557232,
                44.224134876626024
              ],
              [
                -72.78589810608071,
                44.22415267560879
              ],
              [
                -72.78565716983667,
                44.22436295541853
              ],
              [
                -72.78565664072897,
                44.22436359143895
              ],
              [
                -72.78565442997505,
                44.224365350795075
              ],
              [
                -72.78518901462299,
                44.22477314598181
              ],
              [
                -72.78487128499857,
                44.22502507022995
              ],
              [
                -72.78484956014174,
                44.225049825819326
              ],
              [
                -72.78471337734129,
                44.225165373437854
              ],
              [
                -72.78470351653442,
                44.22517521874494
              ],
              [
                -72.7841514110625,
                44.225326252012366
              ],
              [
                -72.78204875501967,
                44.22582229076502
              ],
              [
                -72.78201012656413,
                44.22583263807111
              ],
              [
                -72.78156771706648,
                44.22594446919831
              ],
              [
                -72.78143458494475,
                44.22597796815554
              ],
              [
                -72.78143387527568,
                44.22597830031906
              ],
              [
                -72.78143236251275,
                44.22597868269334
              ],
              [
                -72.78143261493933,
                44.22597888997367
              ],
              [
                -72.78142076705905,
                44.22598444083755
              ],
              [
                -72.78108867247492,
                44.2262107402886
              ],
              [
                -72.78013785964559,
                44.22685864033434
              ],
              [
                -72.78012769251322,
                44.22686930802983
              ],
              [
                -72.7801115408044,
                44.22687712662803
              ],
              [
                -72.78003396319478,
                44.226938921583184
              ],
              [
                -72.77807359400475,
                44.22865858253132
              ],
              [
                -72.77804526563227,
                44.228692719136106
              ],
              [
                -72.77798381637527,
                44.228748378392666
              ],
              [
                -72.77708012916575,
                44.22978494100019
              ],
              [
                -72.77698553746464,
                44.22991731103643
              ],
              [
                -72.77689465221242,
                44.23025173387458
              ],
              [
                -72.77698867258499,
                44.230585708744165
              ],
              [
                -72.77701394309226,
                44.23061270456585
              ],
              [
                -72.77702263519093,
                44.2306390045606
              ],
              [
                -72.77746520638534,
                44.23127612138375
              ],
              [
                -72.7775735081743,
                44.23138382526469
              ],
              [
                -72.77765153853484,
                44.231472132027065
              ],
              [
                -72.77827802091903,
                44.23196949706915
              ],
              [
                -72.7785370501312,
                44.232338844735274
              ],
              [
                -72.77814021037129,
                44.232776258399596
              ],
              [
                -72.7771247889101,
                44.23343141859481
              ],
              [
                -72.7776208395083,
                44.23368450746922
              ],
              [
                -72.7785462884056,
                44.23417915954559
              ],
              [
                -72.77912431027346,
                44.234488104352494
              ],
              [
                -72.77988158017651,
                44.23399949479113
              ],
              [
                -72.77990041515307,
                44.23398029629379
              ],
              [
                -72.77993211130955,
                44.23396495641443
              ],
              [
                -72.78008765909259,
                44.23382665402365
              ],
              [
                -72.78095388565643,
                44.23287182089695
              ],
              [
                -72.78106029289847,
                44.232726157042165
              ],
              [
                -72.78115115838777,
                44.23239173088525
              ],
              [
                -72.78105711106573,
                44.23205775982745
              ],
              [
                -72.78103026850673,
                44.23202908921755
              ],
              [
                -72.78102106975822,
                44.23200149415265
              ],
              [
                -72.78037309068928,
                44.231077599767005
              ],
              [
                -72.7802634135796,
                44.23096897101101
              ],
              [
                -72.78018882466493,
                44.230884566733444
              ],
              [
                -72.77956391972238,
                44.230388467651856
              ],
              [
                -72.77950050495153,
                44.230297182884975
              ],
              [
                -72.78000107497392,
                44.229722985536455
              ],
              [
                -72.78144894092132,
                44.228452872248695
              ],
              [
                -72.78324756305453,
                44.22723180253753
              ],
              [
                -72.78377823202884,
                44.2271040560632
              ],
              [
                -72.7837789929019,
                44.22710405413207
              ],
              [
                -72.78487221655152,
                44.226846144477165
              ],
              [
                -72.7849163148488,
                44.226834331602504
              ],
              [
                -72.78492115047999,
                44.226833685952975
              ],
              [
                -72.78612389493243,
                44.22650465803987
              ],
              [
                -72.78652539515204,
                44.22610377752621
              ],
              [
                -72.78688017309541,
                44.225822471652975
              ],
              [
                -72.7873805724379,
                44.22538401495706
              ],
              [
                -72.78762150598699,
                44.22517373106982
              ],
              [
                -72.78812198078796,
                44.2247531146924
              ],
              [
                -72.78816529844927,
                44.22471726345045
              ],
              [
                -72.78882699209767,
                44.22363362920865
              ],
              [
                -72.78882974633234,
                44.22362411195801
              ],
              [
                -72.788837708999,
                44.223615476648256
              ],
              [
                -72.78888213158812,
                44.223521372032195
              ],
              [
                -72.78961593569933,
                44.22157937378029
              ],
              [
                -72.78962845911269,
                44.22127722454155
              ],
              [
                -72.78948162408962,
                44.22087576507613
              ],
              [
                -72.78970832023977,
                44.22068171552476
              ],
              [
                -72.78977940033495,
                44.22040620681043
              ],
              [
                -72.78981932955101,
                44.22010845315644
              ],
              [
                -72.78981750417435,
                44.21973639111056
              ],
              [
                -72.79002009942374,
                44.21939802899305
              ],
              [
                -72.78958897096943,
                44.218735615260954
              ],
              [
                -72.78939123470741,
                44.21777280828719
              ],
              [
                -72.7906080476755,
                44.217082532133695
              ],
              [
                -72.79070883685377,
                44.21701787082132
              ],
              [
                -72.79088131967653,
                44.216856255537515
              ],
              [
                -72.79163950406453,
                44.21592005984397
              ],
              [
                -72.79170772931373,
                44.21582059262729
              ],
              [
                -72.79179118819351,
                44.21551313304219
              ],
              [
                -72.79170469570302,
                44.21520610837903
              ],
              [
                -72.79163367938823,
                44.21510479919892
              ],
              [
                -72.78991656768893,
                44.21303360860717
              ],
              [
                -72.7900447761446,
                44.21201202774074
              ],
              [
                -72.79001704245684,
                44.21201025256231
              ],
              [
                -72.79032530383816,
                44.211803420409495
              ],
              [
                -72.79106303987535,
                44.21158353533628
              ],
              [
                -72.79156057179546,
                44.211598184365016
              ],
              [
                -72.79179581721218,
                44.211710855112344
              ],
              [
                -72.79255424953519,
                44.21239278456659
              ],
              [
                -72.79263942779043,
                44.21246099098547
              ],
              [
                -72.79300243250518,
                44.21263410117587
              ],
              [
                -72.7934299120028,
                44.21269411853917
              ],
              [
                -72.79366695045681,
                44.212675184807075
              ],
              [
                -72.79415057106642,
                44.21259826380189
              ],
              [
                -72.79431544336211,
                44.212491179726065
              ],
              [
                -72.79453360641537,
                44.21237261449473
              ],
              [
                -72.79454026832153,
                44.21236879244371
              ],
              [
                -72.79465927802869,
                44.21230375443811
              ],
              [
                -72.79478226278097,
                44.21223565600869
              ],
              [
                -72.7948652302823,
                44.21219151815529
              ],
              [
                -72.79525050243629,
                44.21199179121876
              ],
              [
                -72.79540513483605,
                44.21189131226746
              ],
              [
                -72.79584733772117,
                44.210875542680355
              ],
              [
                -72.7958724429384,
                44.21075600384793
              ],
              [
                -72.79589677201125,
                44.210678124151976
              ],
              [
                -72.79600307864197,
                44.2092351744223
              ],
              [
                -72.79600259624667,
                44.20923317507925
              ],
              [
                -72.79600339934055,
                44.20923057239162
              ],
              [
                -72.79602385757282,
                44.208919053936405
              ],
              [
                -72.79614756906217,
                44.20760688243546
              ],
              [
                -72.79617753775837,
                44.20731099134774
              ],
              [
                -72.79619885478006,
                44.20710052957771
              ],
              [
                -72.79648591502234,
                44.20705673366888
              ],
              [
                -72.79686109550245,
                44.20708434042731
              ],
              [
                -72.79688596715772,
                44.20708671461311
              ],
              [
                -72.79908519029695,
                44.20701298666652
              ],
              [
                -72.79942385515906,
                44.20688425037759
              ],
              [
                -72.7997876360182,
                44.2068118596354
              ],
              [
                -72.8002017369063,
                44.20687030271127
              ],
              [
                -72.80058303850674,
                44.206988361295465
              ],
              [
                -72.8013023527924,
                44.20684954605349
              ],
              [
                -72.80159186004553,
                44.20681901635406
              ],
              [
                -72.80230176627522,
                44.206459955868
              ],
              [
                -72.80271507484923,
                44.206363612535384
              ],
              [
                -72.80326134576342,
                44.206374069511725
              ],
              [
                -72.80384047615236,
                44.20633681165515
              ],
              [
                -72.80463496235932,
                44.20633469630402
              ],
              [
                -72.80573682690365,
                44.20622049942852
              ],
              [
                -72.80611797938377,
                44.206117501822106
              ],
              [
                -72.80654234262568,
                44.20593594321383
              ],
              [
                -72.806836169877,
                44.20581748906808
              ],
              [
                -72.8073797099127,
                44.20548656382074
              ],
              [
                -72.80762463198165,
                44.20528368968219
              ],
              [
                -72.80775975297342,
                44.20517176650698
              ],
              [
                -72.80799890067173,
                44.204934301100174
              ],
              [
                -72.80825880214805,
                44.20467622542343
              ],
              [
                -72.80848134628498,
                44.204471465546696
              ],
              [
                -72.80878638540936,
                44.204159375838415
              ],
              [
                -72.80904238370577,
                44.20387215458137
              ],
              [
                -72.80925555032944,
                44.20357274023403
              ],
              [
                -72.80927152417182,
                44.2034532934801
              ],
              [
                -72.80928176586437,
                44.203293487893255
              ],
              [
                -72.80910863805124,
                44.20267946411406
              ],
              [
                -72.8090958002275,
                44.20266575565771
              ],
              [
                -72.80909124846397,
                44.20265039023046
              ],
              [
                -72.80888626998411,
                44.202316774647876
              ],
              [
                -72.80885774937218,
                44.202261005396494
              ],
              [
                -72.80871013461142,
                44.201336941787524
              ],
              [
                -72.8087082822853,
                44.20133183939793
              ],
              [
                -72.80870707944113,
                44.201319502342294
              ],
              [
                -72.80859118149813,
                44.20071162690368
              ],
              [
                -72.80869207128768,
                44.20052776605716
              ],
              [
                -72.80910238128527,
                44.200328928229055
              ],
              [
                -72.80926477782403,
                44.20019755814588
              ],
              [
                -72.809910483257,
                44.19961374767378
              ],
              [
                -72.81006875832522,
                44.1994196402942
              ],
              [
                -72.81010310630842,
                44.199384777008106
              ],
              [
                -72.81069623873769,
                44.19917679280465
              ],
              [
                -72.81317830183404,
                44.19930808981357
              ],
              [
                -72.81321681620352,
                44.199303573949926
              ],
              [
                -72.81326437930285,
                44.19931024470213
              ],
              [
                -72.81369113475837,
                44.19924795834306
              ],
              [
                -72.81384994881576,
                44.19918895899946
              ],
              [
                -72.81603821340684,
                44.198208847421284
              ],
              [
                -72.81624052658525,
                44.1980928096054
              ],
              [
                -72.8164560144556,
                44.19787237615424
              ],
              [
                -72.8169132147144,
                44.1971814159204
              ],
              [
                -72.81699344055747,
                44.1971180511146
              ],
              [
                -72.81733333072164,
                44.19682538940345
              ],
              [
                -72.8175604391985,
                44.19671530050785
              ],
              [
                -72.81801378927801,
                44.19623950902318
              ],
              [
                -72.81837269228515,
                44.19566180430192
              ],
              [
                -72.81837978358601,
                44.19563765980667
              ],
              [
                -72.81840036039591,
                44.19561531544838
              ],
              [
                -72.81856359865607,
                44.19509466109847
              ],
              [
                -72.8185736328378,
                44.194963255514445
              ],
              [
                -72.81901157950512,
                44.19445913711495
              ],
              [
                -72.81956242104744,
                44.193921459870815
              ],
              [
                -72.82019699276077,
                44.192928000171094
              ],
              [
                -72.82020652298762,
                44.192896365084714
              ],
              [
                -72.82023430967597,
                44.19286619013278
              ],
              [
                -72.82036642220987,
                44.192538571049916
              ],
              [
                -72.820518232103,
                44.19192423358289
              ],
              [
                -72.82054442338341,
                44.19170572353343
              ],
              [
                -72.82055213003025,
                44.191679134979935
              ],
              [
                -72.82057415402606,
                44.19097214493587
              ],
              [
                -72.8205687838973,
                44.19095173564933
              ],
              [
                -72.8205746966085,
                44.19092990093834
              ],
              [
                -72.82040148974362,
                44.19031589259374
              ],
              [
                -72.82006473290316,
                44.18991450934484
              ],
              [
                -72.81996775976825,
                44.18982990450534
              ],
              [
                -72.81997823771772,
                44.18976601456333
              ],
              [
                -72.82020647627523,
                44.18938215428979
              ],
              [
                -72.82026254462369,
                44.18940882310726
              ],
              [
                -72.82028043187762,
                44.18942159357791
              ],
              [
                -72.8211225278963,
                44.18966368899798
              ],
              [
                -72.82226936479873,
                44.19007237827923
              ],
              [
                -72.82252354759996,
                44.19016530736835
              ],
              [
                -72.82272235195884,
                44.190128625410054
              ],
              [
                -72.82334822887854,
                44.189708002830166
              ],
              [
                -72.82352949542815,
                44.189609536119036
              ],
              [
                -72.8236690999115,
                44.189533700619926
              ],
              [
                -72.82382528280343,
                44.189570797121355
              ],
              [
                -72.82406614808058,
                44.18949959348643
              ],
              [
                -72.82421642365118,
                44.18940694869617
              ],
              [
                -72.82451740508546,
                44.188937752095185
              ],
              [
                -72.82483672742285,
                44.188824633273555
              ],
              [
                -72.82592414975238,
                44.18860528594952
              ],
              [
                -72.82615341508426,
                44.188585769260726
              ],
              [
                -72.82640493438065,
                44.188567232297444
              ],
              [
                -72.8265205816937,
                44.18856138997716
              ],
              [
                -72.82642013836684,
                44.188761015999034
              ],
              [
                -72.82644756572908,
                44.18877442301491
              ],
              [
                -72.82644978097458,
                44.18877387227999
              ],
              [
                -72.826697368345,
                44.188846400486305
              ],
              [
                -72.8267090176976,
                44.18884651707451
              ],
              [
                -72.82722025341735,
                44.18882556018223
              ],
              [
                -72.82722128558163,
                44.1888255176694
              ],
              [
                -72.82753556567535,
                44.18875216043602
              ],
              [
                -72.82799355555328,
                44.18865847097106
              ],
              [
                -72.82811227240965,
                44.188600900669485
              ],
              [
                -72.82827490879858,
                44.18844656539992
              ],
              [
                -72.82882507750276,
                44.18774885543539
              ],
              [
                -72.82892995940544,
                44.18769073414443
              ],
              [
                -72.8293684666215,
                44.1872143963459
              ],
              [
                -72.82944169728344,
                44.18705678708012
              ],
              [
                -72.8294702699977,
                44.18704694699478
              ],
              [
                -72.8296949647014,
                44.18693203572724
              ],
              [
                -72.830075927637,
                44.18645846877032
              ],
              [
                -72.82993339374748,
                44.18637443420545
              ],
              [
                -72.82992398569151,
                44.18635519441133
              ],
              [
                -72.8297985494368,
                44.18609868190382
              ],
              [
                -72.82997072503574,
                44.18582494970729
              ],
              [
                -72.83003873199432,
                44.185705575838554
              ],
              [
                -72.82999340570004,
                44.18554583549012
              ],
              [
                -72.83002132533906,
                44.185481806272755
              ],
              [
                -72.83033170135458,
                44.185361732138674
              ],
              [
                -72.83038322422767,
                44.18518427093155
              ],
              [
                -72.83046357493659,
                44.18510555607636
              ],
              [
                -72.83087498267547,
                44.18499390828372
              ],
              [
                -72.83094933084163,
                44.184881832546125
              ],
              [
                -72.83115489412474,
                44.184857554798995
              ],
              [
                -72.83128600863034,
                44.18476244388398
              ],
              [
                -72.83145869267574,
                44.18474418078249
              ],
              [
                -72.83159000570902,
                44.18468459359811
              ],
              [
                -72.83199148347073,
                44.18455756262338
              ],
              [
                -72.83230157202536,
                44.18438806882036
              ],
              [
                -72.83250669962554,
                44.18423050739749
              ],
              [
                -72.83310961021667,
                44.18423020205418
              ],
              [
                -72.83312925008373,
                44.184236136922046
              ],
              [
                -72.83319407161632,
                44.18425572397871
              ],
              [
                -72.83345607784534,
                44.18404725026376
              ],
              [
                -72.83364303342564,
                44.18383358751817
              ],
              [
                -72.83364827240038,
                44.183814222566305
              ],
              [
                -72.833661015901,
                44.18379960012636
              ],
              [
                -72.83373493018091,
                44.18364874315372
              ],
              [
                -72.83393184358611,
                44.18351849027596
              ],
              [
                -72.83395742940205,
                44.18349203653042
              ],
              [
                -72.83399945169272,
                44.183471653642385
              ],
              [
                -72.8343929039057,
                44.18304417052972
              ],
              [
                -72.83420734610397,
                44.1826845328934
              ],
              [
                -72.83418451631934,
                44.18264028528728
              ],
              [
                -72.83419271614126,
                44.182639840144056
              ],
              [
                -72.83400915080284,
                44.18246160865046
              ],
              [
                -72.83406115337633,
                44.18221567317076
              ],
              [
                -72.83425898755472,
                44.18202141442856
              ],
              [
                -72.8343808323449,
                44.18184000961848
              ],
              [
                -72.83431899681233,
                44.18163966956208
              ],
              [
                -72.83434735842248,
                44.181481694938654
              ],
              [
                -72.83451488434149,
                44.18136015544155
              ],
              [
                -72.8346693271967,
                44.181290151082194
              ],
              [
                -72.83465359500114,
                44.180358106489386
              ],
              [
                -72.83469845147654,
                44.179577015441
              ],
              [
                -72.83469849818894,
                44.17957660764023
              ],
              [
                -72.83469835895006,
                44.179576558034164
              ],
              [
                -72.83474659488758,
                44.17915274976727
              ],
              [
                -72.83473551237189,
                44.178922720997654
              ],
              [
                -72.8347739324183,
                44.178817128334664
              ],
              [
                -72.83481760132088,
                44.17872156379006
              ],
              [
                -72.8349073502043,
                44.17860745770682
              ],
              [
                -72.83503630066836,
                44.17843224842854
              ],
              [
                -72.83518328032022,
                44.178287622427824
              ],
              [
                -72.83516173602476,
                44.17819026665409
              ],
              [
                -72.83516074158973,
                44.17818839188626
              ],
              [
                -72.83498791740716,
                44.17747448047464
              ],
              [
                -72.83474460062764,
                44.17727182621978
              ],
              [
                -72.83429469558725,
                44.17673972357362
              ],
              [
                -72.83378976963404,
                44.17611364708125
              ],
              [
                -72.8336957869907,
                44.175943509854235
              ],
              [
                -72.83342637145722,
                44.17545577775317
              ],
              [
                -72.83342641816962,
                44.17545575262626
              ],
              [
                -72.83330537198171,
                44.1751174196217
              ],
              [
                -72.83319660756037,
                44.17484215715452
              ],
              [
                -72.83304090347048,
                44.17439066186872
              ],
              [
                -72.83295502183437,
                44.17409879768876
              ],
              [
                -72.83327135996844,
                44.17367612589633
              ],
              [
                -72.83331283249014,
                44.1736963646263
              ],
              [
                -72.83331189464899,
                44.17369543619113
              ],
              [
                -72.83329115704066,
                44.173685550707496
              ],
              [
                -72.83371854041853,
                44.173237192059766
              ],
              [
                -72.83380822013167,
                44.173117618095944
              ],
              [
                -72.83380969965694,
                44.17311214536457
              ],
              [
                -72.83381374566898,
                44.1731076680849
              ],
              [
                -72.83442407903932,
                44.17198145683066
              ],
              [
                -72.83442540315605,
                44.17197633256988
              ],
              [
                -72.83445862465189,
                44.17190323078234
              ],
              [
                -72.83499441761656,
                44.170351483891814
              ],
              [
                -72.83549115812092,
                44.16960090271659
              ],
              [
                -72.8354873959765,
                44.1695920075478
              ],
              [
                -72.83562102127333,
                44.16926949829779
              ],
              [
                -72.83581293735064,
                44.168786855511925
              ],
              [
                -72.83574465820251,
                44.16828315114989
              ],
              [
                -72.83594817692003,
                44.167994066160226
              ],
              [
                -72.8359657901878,
                44.167282284045925
              ],
              [
                -72.83596678641945,
                44.16725843722302
              ],
              [
                -72.8359055877924,
                44.167214745086234
              ],
              [
                -72.83597495120706,
                44.16706289652008
              ],
              [
                -72.83602023797549,
                44.16597839871978
              ],
              [
                -72.83672237916787,
                44.164596098687305
              ],
              [
                -72.83675310514384,
                44.16455590688748
              ],
              [
                -72.83674566260171,
                44.16455592879703
              ],
              [
                -72.83736633198771,
                44.16392685921815
              ],
              [
                -72.83734662923858,
                44.16366476907912
              ],
              [
                -72.83734514522173,
                44.16340432424743
              ],
              [
                -72.83785797724777,
                44.16269587704043
              ],
              [
                -72.8380896087421,
                44.162527759385775
              ],
              [
                -72.83844800599773,
                44.16193138707304
              ],
              [
                -72.8385244705947,
                44.1617451259005
              ],
              [
                -72.83884457626306,
                44.16123258097614
              ],
              [
                -72.83904897173629,
                44.16082269739841
              ],
              [
                -72.83920253154757,
                44.16056179277663
              ],
              [
                -72.83925765127509,
                44.16046814164694
              ],
              [
                -72.83935609135887,
                44.16030088764556
              ],
              [
                -72.8397406250977,
                44.15976024305404
              ],
              [
                -72.84007475167103,
                44.159442989712936
              ],
              [
                -72.84035515988863,
                44.15877242864049
              ],
              [
                -72.84056699880232,
                44.158665912471534
              ],
              [
                -72.84069013357325,
                44.15860399819644
              ],
              [
                -72.84075389239887,
                44.15840919378739
              ],
              [
                -72.8407641745156,
                44.15837778185214
              ],
              [
                -72.84084250491343,
                44.15813845678383
              ],
              [
                -72.84093242806999,
                44.157712577140764
              ],
              [
                -72.84040216962578,
                44.1574597875494
              ],
              [
                -72.84005286152417,
                44.157386409335345
              ],
              [
                -72.83987907434762,
                44.15736373790613
              ],
              [
                -72.83956133753668,
                44.15734365726921
              ],
              [
                -72.8391652757178,
                44.15737771726844
              ],
              [
                -72.83908446866474,
                44.1573915619317
              ],
              [
                -72.83906729197818,
                44.15737321881558
              ],
              [
                -72.83905406248898,
                44.15733360534754
              ],
              [
                -72.83904315604313,
                44.15731806311537
              ],
              [
                -72.83893497193347,
                44.15689979598128
              ],
              [
                -72.83922058049828,
                44.15590232299171
              ],
              [
                -72.8394759634487,
                44.15502652577172
              ],
              [
                -72.83929968075229,
                44.15461771343448
              ],
              [
                -72.839373571676,
                44.1544214566747
              ],
              [
                -72.83937422834448,
                44.15442150694644
              ],
              [
                -72.83960119398921,
                44.15347267139976
              ],
              [
                -72.83985648800642,
                44.15293241089904
              ],
              [
                -72.8398235836159,
                44.152358349411905
              ],
              [
                -72.8398794139108,
                44.15221956533496
              ],
              [
                -72.83997885831107,
                44.15178710928676
              ],
              [
                -72.84003176638635,
                44.15147594267093
              ],
              [
                -72.84007578383527,
                44.15135999720023
              ],
              [
                -72.84035075455049,
                44.151467997402165
              ],
              [
                -72.84067988199922,
                44.15158932586473
              ],
              [
                -72.84071217553536,
                44.15160854026385
              ],
              [
                -72.84085067688757,
                44.15169094148292
              ],
              [
                -72.84145280414778,
                44.15121163348508
              ],
              [
                -72.84148041835961,
                44.15112572720169
              ],
              [
                -72.84178946217355,
                44.15094939791451
              ],
              [
                -72.84186691940891,
                44.15089950603646
              ],
              [
                -72.84205449392846,
                44.150695552581574
              ],
              [
                -72.84205828212401,
                44.150681536186006
              ],
              [
                -72.84206774677385,
                44.15067075607628
              ],
              [
                -72.842777862311,
                44.14925315739899
              ],
              [
                -72.8428194453255,
                44.149079766904364
              ],
              [
                -72.84283883635922,
                44.1490792435151
              ],
              [
                -72.84354472622128,
                44.1486023095417
              ],
              [
                -72.8438565916435,
                44.14806986381001
              ],
              [
                -72.84405038250479,
                44.147559189284
              ],
              [
                -72.84333034148207,
                44.147353442648075
              ],
              [
                -72.84085961602295,
                44.146647406235765
              ],
              [
                -72.84085889198084,
                44.1466515432441
              ],
              [
                -72.84075643732605,
                44.14702210662724
              ],
              [
                -72.84071416081215,
                44.147248153145085
              ],
              [
                -72.84066291462013,
                44.14743029734347
              ],
              [
                -72.84058319273194,
                44.14755426530134
              ],
              [
                -72.84103287948169,
                44.14846242987918
              ],
              [
                -72.84107793987467,
                44.14895111999782
              ],
              [
                -72.8405136721121,
                44.15007750152847
              ],
              [
                -72.84038559391216,
                44.150150576865705
              ],
              [
                -72.83978396881018,
                44.15071295028453
              ],
              [
                -72.83975802366814,
                44.150801136295044
              ],
              [
                -72.8397519501585,
                44.15089518047324
              ],
              [
                -72.83972828044908,
                44.151261748756085
              ],
              [
                -72.83971977340333,
                44.151393480564685
              ],
              [
                -72.83971641909407,
                44.151445422958645
              ],
              [
                -72.8396554944532,
                44.15159617926538
              ],
              [
                -72.83957125314079,
                44.151804629130275
              ],
              [
                -72.83933585770542,
                44.152229335177466
              ],
              [
                -72.83859297162671,
                44.15303062820291
              ],
              [
                -72.83844985473058,
                44.15307784221403
              ],
              [
                -72.83833875738445,
                44.15311449243953
              ],
              [
                -72.83765313531183,
                44.15423573058561
              ],
              [
                -72.83765440552965,
                44.15423843624599
              ],
              [
                -72.83763252346765,
                44.154427286265054
              ],
              [
                -72.83774988566458,
                44.15484314307419
              ],
              [
                -72.83751580266784,
                44.15564581334604
              ],
              [
                -72.83751565264919,
                44.15564687934303
              ],
              [
                -72.83751515677913,
                44.155648049103945
              ],
              [
                -72.83719471064931,
                44.156767076868675
              ],
              [
                -72.83717678207286,
                44.156896233925394
              ],
              [
                -72.83719148569745,
                44.157008414414726
              ],
              [
                -72.83739499183854,
                44.15779528047282
              ],
              [
                -72.837417994998,
                44.15793111393657
              ],
              [
                -72.83745920880493,
                44.15806124803976
              ],
              [
                -72.83756275940436,
                44.158268322331175
              ],
              [
                -72.83768271144424,
                44.15842907363278
              ],
              [
                -72.83782629636264,
                44.15855890502835
              ],
              [
                -72.8380083588196,
                44.15862614713342
              ],
              [
                -72.83815060794312,
                44.158637338246734
              ],
              [
                -72.83833355344402,
                44.158669689026915
              ],
              [
                -72.83840575912822,
                44.15870013153436
              ],
              [
                -72.83854499709896,
                44.1587387206784
              ],
              [
                -72.83866466796617,
                44.15876097332323
              ],
              [
                -72.83880379005421,
                44.15877875145909
              ],
              [
                -72.8388039840903,
                44.1587788204165
              ],
              [
                -72.83880414758369,
                44.1587788204165
              ],
              [
                -72.83880443863785,
                44.15877892417493
              ],
              [
                -72.8388467942035,
                44.1587787985048
              ],
              [
                -72.8388492394177,
                44.15877581013371
              ],
              [
                -72.83909372221048,
                44.15870312442055
              ],
              [
                -72.83928643689008,
                44.1586458290554
              ],
              [
                -72.83938133222173,
                44.15862957052518
              ],
              [
                -72.83938128461102,
                44.15862124147455
              ],
              [
                -72.83942380816163,
                44.158621115159654
              ],
              [
                -72.8394270097573,
                44.158621106137154
              ],
              [
                -72.8394274095076,
                44.15862110420377
              ],
              [
                -72.83943080424106,
                44.158621093892364
              ],
              [
                -72.83956852855054,
                44.158597496198134
              ],
              [
                -72.83974231842201,
                44.15862016844221
              ],
              [
                -72.839742369626,
                44.15862017102007
              ],
              [
                -72.83987626801067,
                44.158637641789134
              ],
              [
                -72.83973504206824,
                44.158946902352895
              ],
              [
                -72.83926323610122,
                44.159276446863515
              ],
              [
                -72.83859307313632,
                44.159966603133135
              ],
              [
                -72.83858083269226,
                44.16030318767162
              ],
              [
                -72.83832506885615,
                44.160769032291206
              ],
              [
                -72.83796572118294,
                44.16119797672059
              ],
              [
                -72.83778440073442,
                44.16112409920602
              ],
              [
                -72.8375681331264,
                44.16122480070755
              ],
              [
                -72.83728179962115,
                44.16135812780561
              ],
              [
                -72.83643312074805,
                44.16208616680979
              ],
              [
                -72.83651329269222,
                44.162551017831525
              ],
              [
                -72.8357163801357,
                44.16329750196712
              ],
              [
                -72.83560614247729,
                44.16336608355974
              ],
              [
                -72.83559440598809,
                44.16340948082911
              ],
              [
                -72.83559517764094,
                44.16354552304511
              ],
              [
                -72.83558169213187,
                44.163559190981644
              ],
              [
                -72.83558176220048,
                44.163571539808096
              ],
              [
                -72.83558205684788,
                44.16362352883533
              ],
              [
                -72.83558232993573,
                44.16367170936138
              ],
              [
                -72.83536328204191,
                44.16377799997226
              ],
              [
                -72.83526963357185,
                44.16385812426424
              ],
              [
                -72.83520227160363,
                44.16392639589027
              ],
              [
                -72.83510431481348,
                44.164054523627144
              ],
              [
                -72.83510085629965,
                44.1640673092561
              ],
              [
                -72.83509208335259,
                44.16407724983742
              ],
              [
                -72.83430032532914,
                44.16563588984324
              ],
              [
                -72.83427452391754,
                44.165742013241015
              ],
              [
                -72.8342466384145,
                44.16583649369966
              ],
              [
                -72.83420338902515,
                44.16687146885116
              ],
              [
                -72.83412683908821,
                44.1672199612612
              ],
              [
                -72.83418332784822,
                44.16742012027185
              ],
              [
                -72.83417695250466,
                44.167677441535
              ],
              [
                -72.83415797020437,
                44.16770440304734
              ],
              [
                -72.83409851430899,
                44.16779800531705
              ],
              [
                -72.8339658780573,
                44.168288364653
              ],
              [
                -72.83397426652542,
                44.168407470939556
              ],
              [
                -72.83400967452066,
                44.168668732631495
              ],
              [
                -72.8339135817347,
                44.16891037073361
              ],
              [
                -72.83380601027606,
                44.169169979376775
              ],
              [
                -72.8333499050636,
                44.169859130074784
              ],
              [
                -72.83334935080308,
                44.16986090974491
              ],
              [
                -72.8330772852395,
                44.170077005246725
              ],
              [
                -72.83279709531249,
                44.170672051007166
              ],
              [
                -72.83278035880043,
                44.17145508345322
              ],
              [
                -72.8327460269869,
                44.17155450509172
              ],
              [
                -72.83219366819006,
                44.17257368642084
              ],
              [
                -72.83138354231401,
                44.173423540008486
              ],
              [
                -72.83129385721098,
                44.173543112063456
              ],
              [
                -72.83122752291546,
                44.17378829058752
              ],
              [
                -72.83126606513271,
                44.173972132415585
              ],
              [
                -72.83137998498547,
                44.174241484332164
              ],
              [
                -72.83172694578924,
                44.17512671341296
              ],
              [
                -72.83172627654436,
                44.17512671534584
              ],
              [
                -72.83173115080307,
                44.17514089151562
              ],
              [
                -72.83173314685965,
                44.17514393962039
              ],
              [
                -72.83180411017383,
                44.17525223647099
              ],
              [
                -72.83180468509562,
                44.17535478613574
              ],
              [
                -72.83180648711607,
                44.175676259613944
              ],
              [
                -72.83190938194535,
                44.17590990898888
              ],
              [
                -72.8319399408347,
                44.1762306417499
              ],
              [
                -72.83213657666049,
                44.1765866309669
              ],
              [
                -72.83214553286386,
                44.176596386466464
              ],
              [
                -72.83214892400406,
                44.176608400765886
              ],
              [
                -72.83225111275753,
                44.17675635336401
              ],
              [
                -72.83275602793096,
                44.17738243656189
              ],
              [
                -72.83276389986779,
                44.17738977144936
              ],
              [
                -72.83277488446709,
                44.17740526844967
              ],
              [
                -72.83322478052432,
                44.17793737668656
              ],
              [
                -72.8333137343987,
                44.178018505461246
              ],
              [
                -72.83339416236271,
                44.17835078263693
              ],
              [
                -72.83320105152607,
                44.17852065264266
              ],
              [
                -72.83306633567449,
                44.17868343095782
              ],
              [
                -72.83300000048065,
                44.17892861001438
              ],
              [
                -72.83300005168462,
                44.17892879104639
              ],
              [
                -72.83299515586633,
                44.17893904286898
              ],
              [
                -72.83298275192888,
                44.178992317142026
              ],
              [
                -72.83298461323814,
                44.179057380327386
              ],
              [
                -72.8329914628922,
                44.179085029195896
              ],
              [
                -72.8329718679409,
                44.1790850871775
              ],
              [
                -72.8329948666088,
                44.17909688128396
              ],
              [
                -72.8330360381949,
                44.179385435117325
              ],
              [
                -72.83312220190201,
                44.17963726490693
              ],
              [
                -72.83323661492985,
                44.17988901244773
              ],
              [
                -72.8333873145053,
                44.1800756453854
              ],
              [
                -72.8333865733952,
                44.18007648481643
              ],
              [
                -72.8334412340836,
                44.18011618415706
              ],
              [
                -72.83356039201277,
                44.18020272531566
              ],
              [
                -72.83354004427326,
                44.18109836566572
              ],
              [
                -72.83288124679335,
                44.18137444413882
              ],
              [
                -72.8325780150793,
                44.181649484137374
              ],
              [
                -72.8325010141881,
                44.18208709528733
              ],
              [
                -72.83255470379768,
                44.18244040404652
              ],
              [
                -72.83205910684869,
                44.18276822291777
              ],
              [
                -72.8319844110345,
                44.18281762982219
              ],
              [
                -72.83197191726553,
                44.18284312723445
              ],
              [
                -72.83193847388583,
                44.18284801477403
              ],
              [
                -72.83167898024465,
                44.183019656893705
              ],
              [
                -72.83132007544087,
                44.18356019653197
              ],
              [
                -72.83131580934159,
                44.18356706940989
              ],
              [
                -72.83096137096139,
                44.18413794257879
              ],
              [
                -72.83029003839,
                44.18428871262317
              ],
              [
                -72.8299553054539,
                44.184531524196565
              ],
              [
                -72.82931251146076,
                44.18516589587451
              ],
              [
                -72.82859173202287,
                44.185726073904334
              ],
              [
                -72.82810145040541,
                44.18589491325276
              ],
              [
                -72.8278470142793,
                44.18602186275755
              ],
              [
                -72.82777634201926,
                44.18605712366897
              ],
              [
                -72.82776350868711,
                44.186104538639746
              ],
              [
                -72.82776778466786,
                44.1861223413871
              ],
              [
                -72.82760643556473,
                44.186326960188936
              ],
              [
                -72.82748519623905,
                44.18665942179311
              ],
              [
                -72.82730463396862,
                44.186734353373474
              ],
              [
                -72.82728514681517,
                44.186734408770995
              ],
              [
                -72.82679302005813,
                44.18735849414724
              ],
              [
                -72.82644169883197,
                44.18730952842665
              ],
              [
                -72.82578546244893,
                44.18738973090097
              ],
              [
                -72.82568630461124,
                44.187414370261294
              ],
              [
                -72.82460774865358,
                44.18722422996176
              ],
              [
                -72.82436158421457,
                44.187203201636
              ],
              [
                -72.82397249422061,
                44.18726003961478
              ],
              [
                -72.82364324819426,
                44.18741969029021
              ],
              [
                -72.82342397123004,
                44.187657849178954
              ],
              [
                -72.82339479844119,
                44.18771934969221
              ],
              [
                -72.82344497563801,
                44.18785044291463
              ],
              [
                -72.8235204305286,
                44.18798242283061
              ],
              [
                -72.82352385131321,
                44.18798224955611
              ],
              [
                -72.82344189172164,
                44.188228309131105
              ],
              [
                -72.82354519618269,
                44.18830478980522
              ],
              [
                -72.8238370534286,
                44.18852086023331
              ],
              [
                -72.82381165985215,
                44.18891589409339
              ],
              [
                -72.82345535926437,
                44.189088313403346
              ],
              [
                -72.8232974677768,
                44.18913630178861
              ],
              [
                -72.8227173124101,
                44.18914495890174
              ],
              [
                -72.8225144234116,
                44.189093610092456
              ],
              [
                -72.82174487533526,
                44.18889884067241
              ],
              [
                -72.82156277964064,
                44.188694715832355
              ],
              [
                -72.82132038183764,
                44.18836678434218
              ],
              [
                -72.8210283179792,
                44.18826590501853
              ],
              [
                -72.82102758675057,
                44.18826578649673
              ],
              [
                -72.82102676389377,
                44.18826536973814
              ],
              [
                -72.82006291381472,
                44.18793389113699
              ],
              [
                -72.81933497839728,
                44.187901018545865
              ],
              [
                -72.8187543586016,
                44.18833585986957
              ],
              [
                -72.81875437656791,
                44.18833928346954
              ],
              [
                -72.81861741133484,
                44.18844144772306
              ],
              [
                -72.8180977251632,
                44.18884534797193
              ],
              [
                -72.81809640463973,
                44.18884862983287
              ],
              [
                -72.81786308880424,
                44.18924098385061
              ],
              [
                -72.81786137661533,
                44.18924705348112
              ],
              [
                -72.81785642959305,
                44.18925242487492
              ],
              [
                -72.81778082737874,
                44.18946269082237
              ],
              [
                -72.81766634787556,
                44.19016056471817
              ],
              [
                -72.81769290656695,
                44.19024962573783
              ],
              [
                -72.81787539213038,
                44.19052816889579
              ],
              [
                -72.81834299038859,
                44.19093614172844
              ],
              [
                -72.81833903690303,
                44.191062887143055
              ],
              [
                -72.81833317898906,
                44.191250733631364
              ],
              [
                -72.81832093944332,
                44.19164313220438
              ],
              [
                -72.81816910799061,
                44.19225746680475
              ],
              [
                -72.81750244486207,
                44.193301112048815
              ],
              [
                -72.8170397208626,
                44.19380468837848
              ],
              [
                -72.81657529635228,
                44.193992010865834
              ],
              [
                -72.8163954940566,
                44.1942157494123
              ],
              [
                -72.8163350805571,
                44.195006560618516
              ],
              [
                -72.81597616227859,
                44.19558425888238
              ],
              [
                -72.81567468407599,
                44.195601381859575
              ],
              [
                -72.81569252461753,
                44.19573386997092
              ],
              [
                -72.81528068838226,
                44.19608847199366
              ],
              [
                -72.81515842407883,
                44.196097608550225
              ],
              [
                -72.8145811864402,
                44.19696994674118
              ],
              [
                -72.81297914264059,
                44.197687486936985
              ],
              [
                -72.81055972535724,
                44.197559496674444
              ],
              [
                -72.81052121278438,
                44.19756401138366
              ],
              [
                -72.81047363710861,
                44.197557342365855
              ],
              [
                -72.80999361065844,
                44.1975623665096
              ],
              [
                -72.80945051349218,
                44.197639184139724
              ],
              [
                -72.80902973183332,
                44.19774758328995
              ],
              [
                -72.80869358135568,
                44.197925706093265
              ],
              [
                -72.8084337050322,
                44.198183828086684
              ],
              [
                -72.8084335936411,
                44.19818386737261
              ],
              [
                -72.8083055244243,
                44.1984038572104
              ],
              [
                -72.80816387986694,
                44.198613969431065
              ],
              [
                -72.80751816814576,
                44.199197769844936
              ],
              [
                -72.80693040854018,
                44.1993650532948
              ],
              [
                -72.80640769055447,
                44.20031759561636
              ],
              [
                -72.80632973295748,
                44.200615402970776
              ],
              [
                -72.80634007256641,
                44.20072148595972
              ],
              [
                -72.80649399799204,
                44.201528969830534
              ],
              [
                -72.8066281730578,
                44.202369098522254
              ],
              [
                -72.80658669694282,
                44.202508854879895
              ],
              [
                -72.80662225136345,
                44.202564256825966
              ],
              [
                -72.80668213395862,
                44.2026575648422
              ],
              [
                -72.8068158984943,
                44.20291914037729
              ],
              [
                -72.80704958982557,
                44.20329950906622
              ],
              [
                -72.8070177238875,
                44.203537717768164
              ],
              [
                -72.80669233253201,
                44.20383658041137
              ],
              [
                -72.8064513378975,
                44.203990859278726
              ],
              [
                -72.8060787203109,
                44.20419577795363
              ],
              [
                -72.80582798883701,
                44.20432295592836
              ],
              [
                -72.80580671134119,
                44.20434058187811
              ],
              [
                -72.80555773876861,
                44.20449216186601
              ],
              [
                -72.80545100094656,
                44.20453519207868
              ],
              [
                -72.80543666473294,
                44.20454303102983
              ],
              [
                -72.8054012342798,
                44.20455586519302
              ],
              [
                -72.80516341249488,
                44.20465761367004
              ],
              [
                -72.80447086710635,
                44.20472938885803
              ],
              [
                -72.80383222243154,
                44.204731089556525
              ],
              [
                -72.80364161789453,
                44.20473746218471
              ],
              [
                -72.8031913795792,
                44.2047664274971
              ],
              [
                -72.80277446786258,
                44.20475844690453
              ],
              [
                -72.8027419740021,
                44.204762817459134
              ],
              [
                -72.80270685167115,
                44.20475788859144
              ],
              [
                -72.80185323745387,
                44.204882378114355
              ],
              [
                -72.79977949189184,
                44.20520613567515
              ],
              [
                -72.79936247956391,
                44.205247420893826
              ],
              [
                -72.79547467252387,
                44.20533962478797
              ],
              [
                -72.79504785418628,
                44.205401842243575
              ],
              [
                -72.79468662274593,
                44.20557681552571
              ],
              [
                -72.79457516068378,
                44.20567111174102
              ],
              [
                -72.79389397269541,
                44.206346692307854
              ],
              [
                -72.79388132261958,
                44.20646357996866
              ],
              [
                -72.7938439949246,
                44.207081898628346
              ],
              [
                -72.79387158578022,
                44.20766157963741
              ],
              [
                -72.79377362270185,
                44.20915248398293
              ],
              [
                -72.79367548445201,
                44.21048386778474
              ],
              [
                -72.7934250107946,
                44.21060517723918
              ],
              [
                -72.79327118957355,
                44.21046687340475
              ],
              [
                -72.79318601311495,
                44.210398667252086
              ],
              [
                -72.79282302187494,
                44.21022555757381
              ],
              [
                -72.79260773882048,
                44.21017962301948
              ],
              [
                -72.79055757493298,
                44.209899637685055
              ],
              [
                -72.79004081547252,
                44.210005595136465
              ],
              [
                -72.78963723475471,
                44.21011707642558
              ],
              [
                -72.78870962540918,
                44.2105031183747
              ],
              [
                -72.78856766015323,
                44.21059731011947
              ],
              [
                -72.78853880806295,
                44.210622532804685
              ],
              [
                -72.78819005062863,
                44.210884170844196
              ],
              [
                -72.78796302569508,
                44.2111351680835
              ],
              [
                -72.78788407006981,
                44.211367613857554
              ],
              [
                -72.78766046951411,
                44.213148760651244
              ]
            ]
          ]
        ]
      }
    }
  ]
}