{"type": "FeatureCollection", "name": "Washington_Cabot", "features": [{"type": "Feature", "properties": {"OBJECT_ID": 1054, "County": "Washington", "RPC": "CVRPC", "Municipal_Name": "Cabot ", "GEO_ID": "5002311125", "District_Name": "Village District", "Abbreviated_District_Name": "V", "District_Type": "Mixed with Residential", "Bylaw_Date": "2024-05-24T00:00:00", "Elderly_Housing_District": "No", "District_Mapped": "Yes", "Overlay_District": "No", "Base_Density": null, "GIS_ID": null, "Last_Update": null, "Shape_Length": 6896.663078774741, "Shape_Area": 1196690.8303163988, "F1F_Allowance": "Permitted", "F1F_Front_Setback": 25.0, "F1F_Side_Setback": 10.0, "F1F_Rear_Setback": 10.0, "F1F_Frontage": 50.0, "F1F_Max_Height": 35.0, "F1F_Max_Stories": null, "F1F_Min_Lot_Size": 0.28, "F1F_Max_Lot_Building_Coverage": null, "F1F_Max_Lot_Impervious_Coverage": null, "F1F_Min_Parking_Spaces": 1.5, "F1F_Elderly_Housing_Only": null, "F1F_Affordable_Housing_Only": null, "F2F_Allowance": "Permitted", "F2F_Front_Setback": 25.0, "F2F_Side_Setback": 10.0, "F2F_Rear_Setback": 10.0, "F2F_Frontage": 50.0, "F2F_Max_Density": null, "F2F_Max_Height": 35.0, "F2F_Max_Stories": null, "F2F_Min_Lot_Size": 0.28, "F2F_Max_Lot_Building_Coverage": null, "F2F_Max_Lot_Impervious_Coverage": null, "F2F_Min_Parking_Spaces_per_1BR": 1.5, "F2F_Min_Parking_Spaces_per_mult_BR": 1.5, "F2F_Elderly_Housing_Only": "No", "F2F_Affordable_Housing_Only": "No", "F3F_Allowance": "Public Hearing", "F3F_Front_Setback": 25.0, "F3F_Side_Setback": 10.0, "F3F_Rear_Setback": 10.0, "F3F_Frontage": 50.0, "F3F_Max_Density": null, "F3F_Max_Height": 35.0, "F3F_Max_Stories": null, "F3F_Min_Lot_Size": 0.28, "F3F_Max_Lot_Building_Coverage": null, "F3F_Max_Lot_Impervious_Coverage": null, "F3F_Min_Parking_Spaces_per_1BR": 1.5, "F3F_Min_Parking_Spaces_per_mult_BR": 1.5, "F3F_Affordable_Housing_Only": "No", "F3F_Proximity_to_Public_Transit_Required": "No", "F3F_Connection_to_Sewage/Water_Required": "Yes", "F4F_Allowance": "Public Hearing", "F4F_Front_Setback": 25.0, "F4F_Side_Setback": 10.0, "F4F_Rear_Setback": 10.0, "F4F_Frontage": 50.0, "F1F_Max_Density": null, "F4F_Max_Density": null, "F4F_Max_Height": 35.0, "F4F_Max_Stories": null, "F4F_Min_Lot_Size": 0.28, "F4F_Max_Lot_Building_Coverage": null, "F4F_Max_Lot_Impervious_Coverage": null, "F4F_Min_Parking_Spaces_per_1BR": 1.5, "F4F_Min_Parking_Spaces_per_mult_BR": 1.5, "F3F_Elderly_Housing_Only": "No", "F4F_Elderly_Housing_Only": "No", "F4F_Affordable_Housing_Only": "No", "F4F_Proximity_to_Public_Transit_Required": "No", "F4F_Connection_to_Sewage/Water_Required": "Yes", "ADU_Allowance": "Allowed/Conditional", "ADU_Elderly_Housing_Only": "No", "ADU_Max_Size_as_Percent_of_Primary_Strcture": null, "ADU_Max_Size_in_sq_ft": null, "ADU_Min_Lot_Size": null, "ADU_Max_Bedrooms": null, "ADU_Min_Parking_Spaces": 1.5, "ADU_Owner_Occupancy_Required": "No", "ADU_Renter_Occupancy_Prohibited": "No", "ADU_Employee_or_Family_Occupancy_Required": "No", "ADU_Restricted_to_Primary_Structure": "No", "Affordable_Housing_Allowance": "Not Mentioned", "Affordable_Housing_District": "No", "Affordable_Housing_Elderly_Only": "No", "Affordable_Housing_Min_Lot_Size": null, "Affordable_Housing_Max_Density": null, "Affordable_Housing_Min_Parking_Spaces_per_mult_BR": null, "Affordable_Housing_Max_Units_per_Building": null, "Affordable_Housing_Min_Parking_Spaces_per_1BR": null, "PRD_Allowance": "Public Hearing", "PRD_Max_Density": null, "PRD_Max_Units": null, "PRD_Min_Lot_Size": null, "PRD_Mobile_or_Manufactured_Home_Park": "No", "PUD_Allowance": "Yes", "PUD_Required_with_Subdivision": "F", "PUD_Requires_Land_Conservation": "F", "PUD_Threshold_Number": null, "Notes": "None", "FIPS6": null}, "geometry": {"type": "MultiPolygon", "coordinates": [[[[-72.31920973060588, 44.4042000719667], [-72.31909439835901, 44.40483229329449], [-72.31967236333087, 44.405433591415225], [-72.32042373912978, 44.40551174683212], [-72.32132469111075, 44.40583644381965], [-72.32216160049956, 44.40603787732872], [-72.32269902946385, 44.40585397914588], [-72.32342898714364, 44.40591668774519], [-72.32417982086633, 44.40617955215579], [-72.32465397147908, 44.405610686253986], [-72.32551433196645, 44.40515017002612], [-72.32870545385435, 44.40073679022154], [-72.3287960143556, 44.39913590112353], [-72.32776642625484, 44.39876488555377], [-72.33045876336597, 44.395890146830496], [-72.33165964734022, 44.39641533541293], [-72.33312608653387, 44.39416989334334], [-72.33203258734459, 44.393644877931614], [-72.33449083460589, 44.38987681666696], [-72.3341431828535, 44.3867838651464], [-72.33457115698747, 44.38605540230204], [-72.3335850152921, 44.385843193359925], [-72.33350080916456, 44.38559077979055], [-72.33259182697569, 44.38540929681097], [-72.33204367382815, 44.385864516405206], [-72.33172953293838, 44.38631347708159], [-72.33112204299671, 44.38624740440897], [-72.33075031597518, 44.3865128712731], [-72.33083229801481, 44.3866706327436], [-72.33101065523496, 44.38675956909348], [-72.33126994823887, 44.38737080599465], [-72.33136451309495, 44.38793253706498], [-72.3312263592421, 44.3881174947361], [-72.33196824091607, 44.38821914840091], [-72.33200850202823, 44.38855419223388], [-72.33246157881969, 44.38867308742475], [-72.33221363509375, 44.389276877563354], [-72.33138714556692, 44.3892378270652], [-72.32943260787292, 44.390048345416375], [-72.32919548913898, 44.38994079579619], [-72.32893110931467, 44.390135873564205], [-72.32009801480456, 44.392672246845635], [-72.31863584658917, 44.39425460359895], [-72.32439994078557, 44.3963081900356], [-72.32322044237351, 44.398062303775404], [-72.32336210617034, 44.39975601716333], [-72.32317850482778, 44.4006692534295], [-72.32199397892504, 44.401544282067924], [-72.32122293827634, 44.402015995805485], [-72.32076920999567, 44.40208425225313], [-72.3205751525656, 44.402625832046176], [-72.31920973060588, 44.4042000719667]]]]}}, {"type": "Feature", "properties": {"OBJECT_ID": 1053, "County": "Washington", "RPC": "CVRPC", "Municipal_Name": "Cabot ", "GEO_ID": "5002311125", "District_Name": "Shoreland District", "Abbreviated_District_Name": "Sd", "District_Type": "Primarily Residential", "Bylaw_Date": "2024-05-24T00:00:00", "Elderly_Housing_District": "No", "District_Mapped": "Yes", "Overlay_District": "No", "Base_Density": null, "GIS_ID": null, "Last_Update": null, "Shape_Length": 30599.27219979706, "Shape_Area": 8302546.450117086, "F1F_Allowance": "Permitted", "F1F_Front_Setback": 50.0, "F1F_Side_Setback": 25.0, "F1F_Rear_Setback": 75.0, "F1F_Frontage": 250.0, "F1F_Max_Height": 25.0, "F1F_Max_Stories": 2.0, "F1F_Min_Lot_Size": 1.0, "F1F_Max_Lot_Building_Coverage": null, "F1F_Max_Lot_Impervious_Coverage": 15.0, "F1F_Min_Parking_Spaces": 1.5, "F1F_Elderly_Housing_Only": null, "F1F_Affordable_Housing_Only": null, "F2F_Allowance": "Prohibited", "F2F_Front_Setback": null, "F2F_Side_Setback": null, "F2F_Rear_Setback": null, "F2F_Frontage": null, "F2F_Max_Density": null, "F2F_Max_Height": null, "F2F_Max_Stories": null, "F2F_Min_Lot_Size": null, "F2F_Max_Lot_Building_Coverage": null, "F2F_Max_Lot_Impervious_Coverage": null, "F2F_Min_Parking_Spaces_per_1BR": null, "F2F_Min_Parking_Spaces_per_mult_BR": null, "F2F_Elderly_Housing_Only": "No", "F2F_Affordable_Housing_Only": "No", "F3F_Allowance": "Prohibited", "F3F_Front_Setback": null, "F3F_Side_Setback": null, "F3F_Rear_Setback": null, "F3F_Frontage": null, "F3F_Max_Density": null, "F3F_Max_Height": null, "F3F_Max_Stories": null, "F3F_Min_Lot_Size": null, "F3F_Max_Lot_Building_Coverage": null, "F3F_Max_Lot_Impervious_Coverage": null, "F3F_Min_Parking_Spaces_per_1BR": null, "F3F_Min_Parking_Spaces_per_mult_BR": null, "F3F_Affordable_Housing_Only": "No", "F3F_Proximity_to_Public_Transit_Required": "No", "F3F_Connection_to_Sewage/Water_Required": "No", "F4F_Allowance": "Prohibited", "F4F_Front_Setback": null, "F4F_Side_Setback": null, "F4F_Rear_Setback": null, "F4F_Frontage": null, "F1F_Max_Density": null, "F4F_Max_Density": null, "F4F_Max_Height": null, "F4F_Max_Stories": null, "F4F_Min_Lot_Size": null, "F4F_Max_Lot_Building_Coverage": null, "F4F_Max_Lot_Impervious_Coverage": null, "F4F_Min_Parking_Spaces_per_1BR": null, "F4F_Min_Parking_Spaces_per_mult_BR": null, "F3F_Elderly_Housing_Only": "No", "F4F_Elderly_Housing_Only": "No", "F4F_Affordable_Housing_Only": "No", "F4F_Proximity_to_Public_Transit_Required": "No", "F4F_Connection_to_Sewage/Water_Required": "No", "ADU_Allowance": "Not Mentioned", "ADU_Elderly_Housing_Only": "No", "ADU_Max_Size_as_Percent_of_Primary_Strcture": null, "ADU_Max_Size_in_sq_ft": null, "ADU_Min_Lot_Size": null, "ADU_Max_Bedrooms": null, "ADU_Min_Parking_Spaces": null, "ADU_Owner_Occupancy_Required": "No", "ADU_Renter_Occupancy_Prohibited": "No", "ADU_Employee_or_Family_Occupancy_Required": "No", "ADU_Restricted_to_Primary_Structure": "No", "Affordable_Housing_Allowance": "Not Mentioned", "Affordable_Housing_District": "No", "Affordable_Housing_Elderly_Only": "No", "Affordable_Housing_Min_Lot_Size": null, "Affordable_Housing_Max_Density": null, "Affordable_Housing_Min_Parking_Spaces_per_mult_BR": null, "Affordable_Housing_Max_Units_per_Building": null, "Affordable_Housing_Min_Parking_Spaces_per_1BR": null, "PRD_Allowance": "Allowed/Conditional", "PRD_Max_Density": null, "PRD_Max_Units": null, "PRD_Min_Lot_Size": null, "PRD_Mobile_or_Manufactured_Home_Park": "No", "PUD_Allowance": "Yes", "PUD_Required_with_Subdivision": "F", "PUD_Requires_Land_Conservation": "F", "PUD_Threshold_Number": null, "Notes": " Permitted Use For Planned Residential Developments That (Section 4.41):\r\nA) The Provisions Of Section 4.5 Planned Residential Development, Of These Regulations Are\r\nComplied With;\r\nB) The Shoreline Access Provided A Minimum Common Shoreline Frontage Of 150 Feet Per Dwelling Unit. ", "FIPS6": null}, "geometry": {"type": "MultiPolygon", "coordinates": [[[[-72.32594323181456, 44.44215131641094], [-72.32541160887547, 44.44218383212912], [-72.32489549413367, 44.442282038725594], [-72.32441097452032, 44.442442871599084], [-72.32397298937747, 44.44266154662101], [-72.3235949354722, 44.44293137856106], [-72.32328738743695, 44.44324447378117], [-72.32306062526926, 44.44359048311135], [-72.32292096394073, 44.44395981522054], [-72.3228734555632, 44.444341069557034], [-72.32291863948736, 44.44472180162378], [-72.32305570698851, 44.445091270923264], [-72.32338914151873, 44.445564400680766], [-72.32350719947345, 44.446641300717246], [-72.32307177681417, 44.44731262870355], [-72.32293205885424, 44.447681966796175], [-72.32287451698855, 44.44866309991983], [-72.32291970250972, 44.44904396309283], [-72.32305677623258, 44.44941344472018], [-72.32328148753588, 44.44976054498456], [-72.32462238297045, 44.4512953465716], [-72.32524276572562, 44.45180702357879], [-72.3256802768755, 44.452027199312205], [-72.3261631097926, 44.45218947286925], [-72.32683107611525, 44.45229934294575], [-72.32739114023468, 44.4525004325799], [-72.32847430342221, 44.45267335205293], [-72.32913138479744, 44.45269542905707], [-72.32921101740843, 44.45258920989013], [-72.33223887524268, 44.44856334943637], [-72.33365685034171, 44.446661618345786], [-72.33329485682941, 44.44625032080437], [-72.33291795252393, 44.44597920838014], [-72.33206882912039, 44.44555612568547], [-72.33126675598135, 44.44474512396206], [-72.33088986940999, 44.44447402820004], [-72.33045278184103, 44.44425387366062], [-72.32974793984438, 44.444048644854334], [-72.32943860056224, 44.44376736477099], [-72.32887546740972, 44.443428055608265], [-72.32791081410787, 44.442667846067806], [-72.32747373990257, 44.44244768008032], [-72.32699058373284, 44.442285512096035], [-72.32647544450572, 44.44218545504159], [-72.32594323181456, 44.44215131641094]]], [[[-72.34322254302737, 44.412078869995696], [-72.34269120193221, 44.41211148741492], [-72.3411538164268, 44.412434998751316], [-72.33950976595484, 44.412460564220254], [-72.33899393376831, 44.4125588282503], [-72.33851009977522, 44.41271985235037], [-72.33807202421887, 44.41293846367325], [-72.3376941905987, 44.41320833141833], [-72.33722515938892, 44.41369223899623], [-72.33699859414844, 44.41403826188796], [-72.33685903747869, 44.414407601417174], [-72.33681130007584, 44.41478888840922], [-72.33685692606952, 44.41516976066775], [-72.33699363120552, 44.4155392164428], [-72.33721828455909, 44.415886304767454], [-72.33829535481212, 44.41702667645267], [-72.33829519941071, 44.41738104242904], [-72.33844245165892, 44.41805272400545], [-72.33890304990685, 44.41907973033865], [-72.33901463553102, 44.42160356568847], [-72.33906032114812, 44.42198445109551], [-72.33919703344009, 44.422353859705275], [-72.33942173581322, 44.42270096315119], [-72.34013578303397, 44.42347649939538], [-72.34070907408474, 44.42393598361437], [-72.34114644337102, 44.42415610727602], [-72.34162908954869, 44.424318494169164], [-72.34214410428551, 44.42441847311409], [-72.34292747529474, 44.42448248695426], [-72.34366286924944, 44.42455597739781], [-72.34419394825673, 44.424523376778225], [-72.34470988048041, 44.42442521920678], [-72.34519419349998, 44.42426417163012], [-72.34614069474296, 44.423838955939615], [-72.34701946441884, 44.42334979969432], [-72.34739767821453, 44.42308003888563], [-72.34770457051931, 44.422766572563205], [-72.34793113086857, 44.422420826843315], [-72.34807063206816, 44.42205146792945], [-72.34817902896096, 44.421410816126226], [-72.3481337168103, 44.42102983132599], [-72.34799652736838, 44.42066022929825], [-72.34775376653464, 44.42029456412087], [-72.34782623249808, 44.41974978644107], [-72.34776254013963, 44.41859745902046], [-72.34787181145592, 44.41805228201861], [-72.3478265326737, 44.41767131311566], [-72.34768934878078, 44.41730187070124], [-72.3472735121861, 44.41666570994252], [-72.34749985245679, 44.4148673855765], [-72.34745457738322, 44.414486359620845], [-72.34731739728417, 44.41411678696476], [-72.34709270308079, 44.41376985693079], [-72.34678745862247, 44.413456016056806], [-72.34614937153628, 44.413043553736436], [-72.34475235122575, 44.41237499639966], [-72.34426941456422, 44.41221291355909], [-72.34375450325356, 44.412112942330594], [-72.34322254302737, 44.412078869995696]]], [[[-72.22425341543706, 44.40164070844741], [-72.22266063393282, 44.403775699776844], [-72.22222709237109, 44.40435378790967], [-72.21789559429048, 44.41019928041252], [-72.21716520155674, 44.41120210262284], [-72.2170795103801, 44.41131975338504], [-72.2178261666433, 44.411896673373434], [-72.21850828435521, 44.41211074644619], [-72.21869651579574, 44.412367698111744], [-72.21887491778317, 44.41289461164773], [-72.21916786950071, 44.413072623925366], [-72.21961324501683, 44.41314661463194], [-72.22006947536681, 44.413103635722265], [-72.2200865487703, 44.413472661051074], [-72.22030543257283, 44.413649588002556], [-72.2207664994298, 44.413804698794145], [-72.2212386025051, 44.414121646998126], [-72.22165996428053, 44.41420457067738], [-72.22200542865735, 44.41416770377166], [-72.22204270867722, 44.41424960062386], [-72.22189034513647, 44.41460651282127], [-72.22188853308576, 44.41475041158391], [-72.2220833675473, 44.41494365665398], [-72.22214222655545, 44.41518849912628], [-72.22196326255904, 44.41535554477887], [-72.22201224667133, 44.41561746244916], [-72.22265037565012, 44.41606521244582], [-72.22252640097562, 44.41626020113708], [-72.22192148207179, 44.416488129100316], [-72.22156843045444, 44.41653334684141], [-72.22135420761306, 44.41642951028048], [-72.22127081868508, 44.416247424603384], [-72.22093155887106, 44.41605949605353], [-72.22064375443364, 44.416088401118024], [-72.22037707428761, 44.41621644244655], [-72.22016356378435, 44.41649049555868], [-72.22020669172937, 44.41666240300401], [-72.22070143436186, 44.417503183646424], [-72.22090103349416, 44.417778159271215], [-72.22125809307266, 44.417948223054665], [-72.22135729397823, 44.418212152430655], [-72.22111884578338, 44.41842216037224], [-72.2208476004723, 44.418452006322674], [-72.22030538628078, 44.41834817393146], [-72.21980700558288, 44.418111163802315], [-72.2194626462985, 44.41814811674042], [-72.21931324967679, 44.418378138643064], [-72.21934719573541, 44.418658018595195], [-72.21955632865604, 44.41898701733675], [-72.21970049859823, 44.41937804237702], [-72.22050812859554, 44.420414971386535], [-72.22058356151426, 44.42065994407627], [-72.22013784122431, 44.42088294109697], [-72.22011650170475, 44.4211707848335], [-72.22062837387128, 44.42153382126061], [-72.22092714888763, 44.42208172409189], [-72.2211448888555, 44.42195176313247], [-72.221456064046, 44.42203180762822], [-72.22136388095839, 44.421848801695006], [-72.22110528987193, 44.42159087311328], [-72.22147271658861, 44.42167186576334], [-72.22171904085953, 44.422424830392195], [-72.2219329186625, 44.42284463989156], [-72.22226949090613, 44.423131734763345], [-72.22253464897105, 44.42306578334103], [-72.2222966470811, 44.422700721858774], [-72.22297473587753, 44.42270767908945], [-72.22294257469486, 44.42236480691465], [-72.22303500518525, 44.42215084241941], [-72.22377854450365, 44.42217784079344], [-72.22444031630967, 44.42188776433128], [-72.22472802112627, 44.42188575818257], [-72.22476488673817, 44.422057827745085], [-72.22498089410075, 44.422027750431155], [-72.2252198120055, 44.421690840965276], [-72.22522049436304, 44.42130386232186], [-72.22530571674255, 44.42104487899228], [-72.2252004254713, 44.420735940703985], [-72.22544510579861, 44.420507941078455], [-72.2257758310333, 44.42043484913667], [-72.22613363050655, 44.420452895843574], [-72.22630476972891, 44.42037581980035], [-72.2263557493599, 44.42021493973775], [-72.22630962918683, 44.42008784628165], [-72.22643175616962, 44.41999193259903], [-72.22699530240884, 44.41980779989142], [-72.22720439766418, 44.41939882013177], [-72.22736510941522, 44.41934889626989], [-72.22822073964976, 44.41932393574542], [-72.22850337245512, 44.41954689806013], [-72.22854473027618, 44.41986288109908], [-72.22901499697048, 44.42024359938239], [-72.22899682772587, 44.42145849735117], [-72.22892643882967, 44.42171751682163], [-72.22818964717602, 44.42221344165343], [-72.22780383792401, 44.42230251942172], [-72.22706083922358, 44.42226654808213], [-72.22668360524993, 44.42234745205552], [-72.22646566683353, 44.42246842442951], [-72.22628251416734, 44.42245448633662], [-72.22620495938834, 44.42233568624724], [-72.22493511164808, 44.42298060278736], [-72.22482267633235, 44.423364434082664], [-72.22459020319823, 44.423404364604906], [-72.22423837400765, 44.423440511131766], [-72.22402273787729, 44.423390491852004], [-72.22401839132367, 44.42324666928848], [-72.22413312560306, 44.42312275162445], [-72.22401703045539, 44.42294868967234], [-72.22376242730431, 44.42293376491902], [-72.22342836650382, 44.423204743242195], [-72.22322087100422, 44.42350572587859], [-72.22314295816591, 44.4238097230508], [-72.2234995753609, 44.42432257085245], [-72.22351709529576, 44.424575410839225], [-72.22380702121643, 44.42489743335019], [-72.22422524769718, 44.42506157703672], [-72.22513245192214, 44.42459998417874], [-72.22551123110865, 44.424330629335074], [-72.22581878972798, 44.42401750122476], [-72.22605442012409, 44.42365007643437], [-72.22688362126499, 44.4233931547192], [-72.22735656715719, 44.42363969627873], [-72.22783928365249, 44.42380255065479], [-72.22835411125166, 44.42390304761985], [-72.22888649627006, 44.42393763607229], [-72.2294175719738, 44.42390555201087], [-72.22990819873934, 44.42381266781685], [-72.2308027454176, 44.42376710980534], [-72.23131885701103, 44.42366947114413], [-72.23180349548574, 44.42350888983223], [-72.23224165105466, 44.42329070201739], [-72.23259245329729, 44.42304136305539], [-72.23304954009686, 44.42288985908622], [-72.23348770659746, 44.42267164759321], [-72.23386640736504, 44.422402279161616], [-72.23417394779086, 44.422089119399786], [-72.23440117605921, 44.42174360313793], [-72.23454134957778, 44.421374387158465], [-72.23465117028857, 44.42034293416263], [-72.2346066103124, 44.41996188176296], [-72.23447016674697, 44.41959215860173], [-72.23424608595576, 44.419245038988784], [-72.23394143590748, 44.418930858679204], [-72.23359648234451, 44.418681726013105], [-72.23300563152095, 44.417880386567354], [-72.2327009838401, 44.41756621188057], [-72.2323250933103, 44.41729491257265], [-72.23129013849386, 44.41682862311389], [-72.23128036855307, 44.41605729643822], [-72.23099860780928, 44.4154622259197], [-72.2312068262219, 44.414892800166726], [-72.23125525855714, 44.414511269225365], [-72.23121032679484, 44.4141302304382], [-72.23050311631266, 44.41262494109294], [-72.23022443045818, 44.41222139556864], [-72.23023742253196, 44.41161184256095], [-72.23019273496277, 44.411258240772945], [-72.23005634925191, 44.41088851191634], [-72.22953070383394, 44.4100120458016], [-72.22922612030999, 44.4096978957697], [-72.22877675028562, 44.409387754302955], [-72.22859197208139, 44.40870588143721], [-72.22836798761922, 44.40835871566813], [-72.2279643348543, 44.40783789139008], [-72.2274834568918, 44.40739644944881], [-72.22736717883811, 44.406742728285735], [-72.22723080868101, 44.40637300930201], [-72.22695498868758, 44.40595667559427], [-72.22691049190936, 44.40557098280058], [-72.2267741235726, 44.40520125870083], [-72.22645964626152, 44.404744198092814], [-72.22630224218445, 44.4038362790206], [-72.22616587665847, 44.40346654958997], [-72.2255047720763, 44.40256007814134], [-72.22520025496762, 44.40224590273018], [-72.22425341543706, 44.40164070844741]]], [[[-72.24130677022632, 44.38575742341415], [-72.24077560792792, 44.385789557411094], [-72.24025983324886, 44.38588736804979], [-72.23977556823598, 44.386047852193805], [-72.23866404168167, 44.38659244362819], [-72.23807482422052, 44.38697738461692], [-72.23776712793932, 44.38729026488726], [-72.23727608356808, 44.38808067794202], [-72.23633074363843, 44.38854885917494], [-72.23554324072921, 44.38914455632447], [-72.23507098448529, 44.3895952587557], [-72.23484389045316, 44.38994106391164], [-72.23470416383599, 44.390310277044804], [-72.23442243515665, 44.39224650859007], [-72.23277206927341, 44.39282186978302], [-72.23233372495787, 44.393040211574466], [-72.23195557797584, 44.39330974682354], [-72.23093514963784, 44.394214761790266], [-72.23045422335827, 44.39481547201109], [-72.22972884774173, 44.3962918024503], [-72.2296808140737, 44.39667303972086], [-72.22972532707338, 44.39705394158928], [-72.22986174605485, 44.397423552118596], [-72.23046718702075, 44.39823408419831], [-72.23075024378524, 44.39852204777088], [-72.23112598278983, 44.39879347877893], [-72.23156273338239, 44.3990140107174], [-72.23281319626004, 44.39938633556354], [-72.23332777958447, 44.39948681714731], [-72.23385995119233, 44.39952140094393], [-72.23439085846691, 44.399489310304276], [-72.23490675372967, 44.399391496995726], [-72.23537502365848, 44.39923621029493], [-72.23601185039888, 44.399285641821734], [-72.2365427556427, 44.39925354657334], [-72.23705864964039, 44.39915587383118], [-72.2384191822732, 44.3987661057795], [-72.23885717972958, 44.398547886756056], [-72.23923573618798, 44.39827849903341], [-72.23954311102237, 44.39796531859551], [-72.23982840415574, 44.39749546337263], [-72.24058834276579, 44.39568672473883], [-72.24178457549814, 44.39437873910195], [-72.24201165741032, 44.39403318137451], [-72.24215174000827, 44.39366394774348], [-72.24220558825031, 44.393276103430004], [-72.2428554432407, 44.39267150765722], [-72.24308248336126, 44.39232594400208], [-72.24322254753669, 44.39195671880422], [-72.24327050058005, 44.39157519544452], [-72.24325893932757, 44.389999384332775], [-72.2438536299596, 44.38962230644027], [-72.24416130730711, 44.38930914796856], [-72.24438833663308, 44.38896359858683], [-72.24452836953621, 44.388594347199216], [-72.24457630621855, 44.38821282662833], [-72.24453171274814, 44.387831778573464], [-72.24439522500626, 44.38746209478542], [-72.24417126514291, 44.38711494076678], [-72.24364779922813, 44.386546650872525], [-72.24327169998378, 44.38627526056511], [-72.24283537996695, 44.386054778380135], [-72.24235290329261, 44.3858923900544], [-72.24183840570034, 44.38579196529459], [-72.24130677022632, 44.38575742341415]]], [[[-72.27091661072546, 44.340705405222316], [-72.27040284089405, 44.34122056715302], [-72.27017615619398, 44.34156645175455], [-72.27003636621237, 44.341935717450525], [-72.26998823221302, 44.3423169787378], [-72.27003336683624, 44.34269787610578], [-72.27016949977194, 44.34306742615813], [-72.27084639410457, 44.34395088943133], [-72.2720104319379, 44.345038804746316], [-72.27244147782869, 44.345359304224814], [-72.27306705954817, 44.34564347809377], [-72.27322602218548, 44.34681006168593], [-72.27345002461392, 44.34715730257318], [-72.27375412411905, 44.34747119316323], [-72.27433353183069, 44.347845273425705], [-72.27464675506026, 44.34843706990893], [-72.274573314206, 44.348885772251634], [-72.27461848719052, 44.34926665934822], [-72.27475464274359, 44.349636184659694], [-72.27540557602775, 44.35047712264735], [-72.27564066177233, 44.350710174034376], [-72.27610232440189, 44.351030149837065], [-72.27688596650813, 44.35223566668931], [-72.27668145398725, 44.35293568182445], [-72.27663607580797, 44.3536358862968], [-72.27688418896138, 44.35518923531253], [-72.27615032391888, 44.35644016798835], [-72.27523860562569, 44.35745335361363], [-72.27501190384326, 44.35779926928852], [-72.27487210772057, 44.35816853713761], [-72.27471606234644, 44.35909575720145], [-72.27474073623526, 44.35972454109661], [-72.27506069993682, 44.36081833061383], [-72.27528478515944, 44.36116554291949], [-72.27558898418573, 44.36147942985664], [-72.27596469110114, 44.36175069706518], [-72.2764013501478, 44.36197095620204], [-72.27688370383235, 44.36213359082415], [-72.27771114958796, 44.36226655043968], [-72.27952637000836, 44.363278868713785], [-72.28143743471125, 44.36488954744241], [-72.28179363644747, 44.36514404384357], [-72.28223035973245, 44.36536439138892], [-72.28271273608804, 44.36552701034604], [-72.2834976781684, 44.36567559380068], [-72.2840305546505, 44.365715885131976], [-72.28467165407568, 44.36568020768821], [-72.28676448500983, 44.366310874782634], [-72.28702752796974, 44.36675066094438], [-72.28748165957886, 44.36717241316173], [-72.28823785369912, 44.36758746661004], [-72.28862678284202, 44.36771871157275], [-72.28923567051224, 44.367827539065196], [-72.28999428298343, 44.3682682315973], [-72.2904767548867, 44.36843082956304], [-72.29099118069254, 44.368531059707315], [-72.29152309075488, 44.36856534303318], [-72.29205366643394, 44.36853298266624], [-72.29256920407381, 44.368435084095175], [-72.29305318085845, 44.368274244583795], [-72.29374487684566, 44.367915932715185], [-72.2943197356337, 44.367886446059885], [-72.29483527147403, 44.36778851294701], [-72.29531924678004, 44.367627669211984], [-72.29723223160714, 44.3666864103283], [-72.2976103078487, 44.366416800637445], [-72.29788374039715, 44.36613774033064], [-72.29866557682388, 44.36600412358637], [-72.2991495156687, 44.365843274305085], [-72.29979522936765, 44.36550438122234], [-72.30066876402383, 44.365605177774114], [-72.30119927928625, 44.36557276040118], [-72.3017147720858, 44.36547482312024], [-72.30249129938045, 44.365167927647775], [-72.30313892817666, 44.3654138658582], [-72.30365336454555, 44.365514008448734], [-72.30418525226253, 44.3655482723872], [-72.30471577635704, 44.365515857595824], [-72.30601923015641, 44.36531628205197], [-72.30650314211532, 44.36515538534881], [-72.30694061277477, 44.36493690572597], [-72.30731863708328, 44.364667262825954], [-72.3076258695137, 44.36435392583688], [-72.30785241787468, 44.36400823804705], [-72.30819974934882, 44.36317017811931], [-72.30824725773435, 44.362788610365385], [-72.30820222231554, 44.36240759098813], [-72.30787825377568, 44.36173840440472], [-72.30652578693642, 44.35994954166783], [-72.30622104194087, 44.35963559210095], [-72.30584518347607, 44.359364421341446], [-72.30540886249015, 44.359144145634154], [-72.30450374276909, 44.358899620964664], [-72.30409906996582, 44.35870429556402], [-72.30349545830062, 44.35867780412948], [-72.30301688549196, 44.35842710780239], [-72.30253447233824, 44.35826483711451], [-72.30202011512473, 44.35816467600057], [-72.30148870550907, 44.358130452270565], [-72.30095779360225, 44.35816282444644], [-72.3004423782066, 44.35826092237137], [-72.3000311061508, 44.35839759559419], [-72.29794185933494, 44.35824458041348], [-72.29393436130698, 44.35860106792733], [-72.29341892170014, 44.35869912960817], [-72.29293500149106, 44.358859831554476], [-72.29184057890849, 44.35940456017562], [-72.29102635580703, 44.359074593945124], [-72.29007112489408, 44.35893981660168], [-72.29038735473509, 44.35821364756352], [-72.29084431043832, 44.35779349891192], [-72.29107095200514, 44.35744784238449], [-72.2912106409761, 44.35707855355795], [-72.2914547224224, 44.3555702953652], [-72.29140940439324, 44.35518939437346], [-72.2912727518222, 44.35481974886026], [-72.2910490032814, 44.354472704037065], [-72.29074436308478, 44.354158712179064], [-72.29021682529809, 44.35381096207329], [-72.28980737834364, 44.35333452458436], [-72.2894719140925, 44.35309229802569], [-72.28942784072846, 44.352702423904404], [-72.28929119633125, 44.3523327695762], [-72.28906705125685, 44.35198571458982], [-72.288762458343, 44.35167171289861], [-72.28819623602804, 44.351304356074856], [-72.28795734011004, 44.35091624017953], [-72.28765238246476, 44.35060221139409], [-72.28712900591273, 44.35020116566938], [-72.28685332403778, 44.34936793220758], [-72.28635377271398, 44.34857458632719], [-72.28632423716375, 44.34807067595625], [-72.28618764170464, 44.34770103030871], [-72.28596350106254, 44.34735399596074], [-72.28570074774701, 44.3470829297234], [-72.28543434670004, 44.346621198665154], [-72.28508848874537, 44.34624690509274], [-72.27694188110787, 44.343083770151175], [-72.27689288230006, 44.34306443042832], [-72.27091661072546, 44.340705405222316]]]]}}, {"type": "Feature", "properties": {"OBJECT_ID": 1052, "County": "Washington", "RPC": "CVRPC", "Municipal_Name": "Cabot ", "GEO_ID": "5002311125", "District_Name": "Lower Village District", "Abbreviated_District_Name": "Lv", "District_Type": "Mixed with Residential", "Bylaw_Date": "2024-05-24T00:00:00", "Elderly_Housing_District": "No", "District_Mapped": "Yes", "Overlay_District": "No", "Base_Density": null, "GIS_ID": null, "Last_Update": null, "Shape_Length": 7262.978354831907, "Shape_Area": 1679357.348186563, "F1F_Allowance": "Permitted", "F1F_Front_Setback": 45.0, "F1F_Side_Setback": 20.0, "F1F_Rear_Setback": 20.0, "F1F_Frontage": 100.0, "F1F_Max_Height": 35.0, "F1F_Max_Stories": null, "F1F_Min_Lot_Size": 0.57, "F1F_Max_Lot_Building_Coverage": null, "F1F_Max_Lot_Impervious_Coverage": null, "F1F_Min_Parking_Spaces": 1.5, "F1F_Elderly_Housing_Only": null, "F1F_Affordable_Housing_Only": null, "F2F_Allowance": "Permitted", "F2F_Front_Setback": 45.0, "F2F_Side_Setback": 20.0, "F2F_Rear_Setback": 20.0, "F2F_Frontage": 100.0, "F2F_Max_Density": null, "F2F_Max_Height": 35.0, "F2F_Max_Stories": null, "F2F_Min_Lot_Size": 0.57, "F2F_Max_Lot_Building_Coverage": null, "F2F_Max_Lot_Impervious_Coverage": null, "F2F_Min_Parking_Spaces_per_1BR": 1.5, "F2F_Min_Parking_Spaces_per_mult_BR": 1.5, "F2F_Elderly_Housing_Only": "No", "F2F_Affordable_Housing_Only": "No", "F3F_Allowance": "Public Hearing", "F3F_Front_Setback": 45.0, "F3F_Side_Setback": 20.0, "F3F_Rear_Setback": 20.0, "F3F_Frontage": 100.0, "F3F_Max_Density": null, "F3F_Max_Height": 35.0, "F3F_Max_Stories": null, "F3F_Min_Lot_Size": 0.57, "F3F_Max_Lot_Building_Coverage": null, "F3F_Max_Lot_Impervious_Coverage": null, "F3F_Min_Parking_Spaces_per_1BR": 1.5, "F3F_Min_Parking_Spaces_per_mult_BR": 1.5, "F3F_Affordable_Housing_Only": "No", "F3F_Proximity_to_Public_Transit_Required": "No", "F3F_Connection_to_Sewage/Water_Required": "Yes", "F4F_Allowance": "Public Hearing", "F4F_Front_Setback": 45.0, "F4F_Side_Setback": 20.0, "F4F_Rear_Setback": 20.0, "F4F_Frontage": 100.0, "F1F_Max_Density": null, "F4F_Max_Density": null, "F4F_Max_Height": 35.0, "F4F_Max_Stories": null, "F4F_Min_Lot_Size": 0.57, "F4F_Max_Lot_Building_Coverage": null, "F4F_Max_Lot_Impervious_Coverage": null, "F4F_Min_Parking_Spaces_per_1BR": 1.5, "F4F_Min_Parking_Spaces_per_mult_BR": 1.5, "F3F_Elderly_Housing_Only": "No", "F4F_Elderly_Housing_Only": "No", "F4F_Affordable_Housing_Only": "No", "F4F_Proximity_to_Public_Transit_Required": "No", "F4F_Connection_to_Sewage/Water_Required": "Yes", "ADU_Allowance": "Allowed/Conditional", "ADU_Elderly_Housing_Only": "No", "ADU_Max_Size_as_Percent_of_Primary_Strcture": null, "ADU_Max_Size_in_sq_ft": null, "ADU_Min_Lot_Size": null, "ADU_Max_Bedrooms": null, "ADU_Min_Parking_Spaces": 1.5, "ADU_Owner_Occupancy_Required": "No", "ADU_Renter_Occupancy_Prohibited": "No", "ADU_Employee_or_Family_Occupancy_Required": "No", "ADU_Restricted_to_Primary_Structure": "No", "Affordable_Housing_Allowance": "Not Mentioned", "Affordable_Housing_District": "No", "Affordable_Housing_Elderly_Only": "No", "Affordable_Housing_Min_Lot_Size": null, "Affordable_Housing_Max_Density": null, "Affordable_Housing_Min_Parking_Spaces_per_mult_BR": null, "Affordable_Housing_Max_Units_per_Building": null, "Affordable_Housing_Min_Parking_Spaces_per_1BR": null, "PRD_Allowance": "Public Hearing", "PRD_Max_Density": null, "PRD_Max_Units": null, "PRD_Min_Lot_Size": null, "PRD_Mobile_or_Manufactured_Home_Park": "No", "PUD_Allowance": "Yes", "PUD_Required_with_Subdivision": "F", "PUD_Requires_Land_Conservation": "F", "PUD_Threshold_Number": null, "Notes": "None", "FIPS6": null}, "geometry": {"type": "MultiPolygon", "coordinates": [[[[-72.31863584658917, 44.39425460359895], [-72.31675372236865, 44.39535807875427], [-72.31216819024081, 44.40142017041865], [-72.31159826526705, 44.40204473155406], [-72.31113614793743, 44.40183227184396], [-72.31008697048917, 44.4032886950215], [-72.30768920374791, 44.40239796326194], [-72.30389567238026, 44.40326776599531], [-72.30222009246663, 44.403449609851265], [-72.30015257331462, 44.40521637380526], [-72.2990960548997, 44.40646147098166], [-72.29851231969285, 44.407599632025516], [-72.30037922018161, 44.408789513233245], [-72.30091529032069, 44.4087805969782], [-72.30107825453933, 44.40936217477225], [-72.2997783957812, 44.411180635051196], [-72.30153565604708, 44.411807952226006], [-72.30095244853766, 44.41257621596144], [-72.3017430974907, 44.41289917471244], [-72.30119306733407, 44.413444594709134], [-72.30424321378396, 44.414556337160676], [-72.3048260416192, 44.414361068197955], [-72.30598105671352, 44.41358745161266], [-72.30728695929328, 44.412397912240465], [-72.30749662676729, 44.41184859763749], [-72.30919741120182, 44.41058910815842], [-72.30862000512057, 44.40983381437088], [-72.30892162424507, 44.40954182480414], [-72.30980269392742, 44.40937395644172], [-72.31042694136208, 44.40892855456144], [-72.3108594363113, 44.408005606407066], [-72.31047456656546, 44.40748155618066], [-72.31048816536621, 44.40723901200281], [-72.31101539433558, 44.40741013608883], [-72.31114026694922, 44.40687436865897], [-72.31159750796331, 44.406925569132525], [-72.31170364919159, 44.40674288244835], [-72.31146667926006, 44.40657854698566], [-72.31186193159635, 44.40620969182091], [-72.31156389074536, 44.40610831245253], [-72.31168885377744, 44.40576145931444], [-72.31500196245408, 44.404912563859234], [-72.31552521223432, 44.40459813107225], [-72.31738997118904, 44.40446747724482], [-72.31920973060588, 44.4042000719667], [-72.3205751525656, 44.402625832046176], [-72.32076920999567, 44.40208425225313], [-72.32122293827634, 44.402015995805485], [-72.32199397892504, 44.401544282067924], [-72.32317850482778, 44.4006692534295], [-72.32336210617034, 44.39975601716333], [-72.32322044237351, 44.398062303775404], [-72.32439994078557, 44.3963081900356], [-72.31863584658917, 44.39425460359895]]]]}}, {"type": "Feature", "properties": {"OBJECT_ID": 1051, "County": "Washington", "RPC": "CVRPC", "Municipal_Name": "Cabot ", "GEO_ID": "5002311125", "District_Name": "Low Density Residential And Agricultural District", "Abbreviated_District_Name": "Ldra", "District_Type": "Primarily Residential", "Bylaw_Date": "2024-05-24T00:00:00", "Elderly_Housing_District": "No", "District_Mapped": "Yes", "Overlay_District": "No", "Base_Density": null, "GIS_ID": null, "Last_Update": null, "Shape_Length": 68594.12972011395, "Shape_Area": 88304573.67488138, "F1F_Allowance": "Permitted", "F1F_Front_Setback": 50.0, "F1F_Side_Setback": 40.0, "F1F_Rear_Setback": 410.0, "F1F_Frontage": 200.0, "F1F_Max_Height": 35.0, "F1F_Max_Stories": 3.0, "F1F_Min_Lot_Size": 2.0, "F1F_Max_Lot_Building_Coverage": null, "F1F_Max_Lot_Impervious_Coverage": 10.0, "F1F_Min_Parking_Spaces": 1.5, "F1F_Elderly_Housing_Only": null, "F1F_Affordable_Housing_Only": null, "F2F_Allowance": "Permitted", "F2F_Front_Setback": 50.0, "F2F_Side_Setback": 40.0, "F2F_Rear_Setback": 410.0, "F2F_Frontage": 200.0, "F2F_Max_Density": null, "F2F_Max_Height": 35.0, "F2F_Max_Stories": 3.0, "F2F_Min_Lot_Size": 2.0, "F2F_Max_Lot_Building_Coverage": null, "F2F_Max_Lot_Impervious_Coverage": 10.0, "F2F_Min_Parking_Spaces_per_1BR": 1.5, "F2F_Min_Parking_Spaces_per_mult_BR": 1.5, "F2F_Elderly_Housing_Only": "No", "F2F_Affordable_Housing_Only": "No", "F3F_Allowance": "Public Hearing", "F3F_Front_Setback": 50.0, "F3F_Side_Setback": 40.0, "F3F_Rear_Setback": 410.0, "F3F_Frontage": 200.0, "F3F_Max_Density": null, "F3F_Max_Height": 35.0, "F3F_Max_Stories": 3.0, "F3F_Min_Lot_Size": 2.0, "F3F_Max_Lot_Building_Coverage": null, "F3F_Max_Lot_Impervious_Coverage": 10.0, "F3F_Min_Parking_Spaces_per_1BR": 1.5, "F3F_Min_Parking_Spaces_per_mult_BR": 1.5, "F3F_Affordable_Housing_Only": "No", "F3F_Proximity_to_Public_Transit_Required": "No", "F3F_Connection_to_Sewage/Water_Required": "Yes", "F4F_Allowance": "Public Hearing", "F4F_Front_Setback": 50.0, "F4F_Side_Setback": 40.0, "F4F_Rear_Setback": 410.0, "F4F_Frontage": 200.0, "F1F_Max_Density": null, "F4F_Max_Density": null, "F4F_Max_Height": 35.0, "F4F_Max_Stories": 3.0, "F4F_Min_Lot_Size": 2.0, "F4F_Max_Lot_Building_Coverage": null, "F4F_Max_Lot_Impervious_Coverage": 10.0, "F4F_Min_Parking_Spaces_per_1BR": 1.5, "F4F_Min_Parking_Spaces_per_mult_BR": 1.5, "F3F_Elderly_Housing_Only": "No", "F4F_Elderly_Housing_Only": "No", "F4F_Affordable_Housing_Only": "No", "F4F_Proximity_to_Public_Transit_Required": "No", "F4F_Connection_to_Sewage/Water_Required": "Yes", "ADU_Allowance": "Not Mentioned", "ADU_Elderly_Housing_Only": "No", "ADU_Max_Size_as_Percent_of_Primary_Strcture": null, "ADU_Max_Size_in_sq_ft": null, "ADU_Min_Lot_Size": null, "ADU_Max_Bedrooms": null, "ADU_Min_Parking_Spaces": null, "ADU_Owner_Occupancy_Required": "No", "ADU_Renter_Occupancy_Prohibited": "No", "ADU_Employee_or_Family_Occupancy_Required": "No", "ADU_Restricted_to_Primary_Structure": "No", "Affordable_Housing_Allowance": "Not Mentioned", "Affordable_Housing_District": "No", "Affordable_Housing_Elderly_Only": "No", "Affordable_Housing_Min_Lot_Size": null, "Affordable_Housing_Max_Density": null, "Affordable_Housing_Min_Parking_Spaces_per_mult_BR": null, "Affordable_Housing_Max_Units_per_Building": null, "Affordable_Housing_Min_Parking_Spaces_per_1BR": null, "PRD_Allowance": "Allowed/Conditional", "PRD_Max_Density": null, "PRD_Max_Units": null, "PRD_Min_Lot_Size": null, "PRD_Mobile_or_Manufactured_Home_Park": "No", "PUD_Allowance": "Yes", "PUD_Required_with_Subdivision": null, "PUD_Requires_Land_Conservation": null, "PUD_Threshold_Number": null, "Notes": "None", "FIPS6": null}, "geometry": {"type": "MultiPolygon", "coordinates": [[[[-72.2700973280813, 44.34038196898202], [-72.25708674789617, 44.35771479044069], [-72.24406847917456, 44.37504605920377], [-72.2319953406875, 44.39125925319161], [-72.23048079056264, 44.393290591087904], [-72.22778515403304, 44.39690601567514], [-72.22778511993361, 44.3969060605919], [-72.22425341543706, 44.40164070844741], [-72.22520025496762, 44.40224590273018], [-72.2255047720763, 44.40256007814134], [-72.22616587665847, 44.40346654958997], [-72.22630224218445, 44.4038362790206], [-72.22645964626152, 44.404744198092814], [-72.2267741235726, 44.40520125870083], [-72.22691049190936, 44.40557098280058], [-72.22695498868758, 44.40595667559427], [-72.22723080868101, 44.40637300930201], [-72.22736717883811, 44.406742728285735], [-72.2274834568918, 44.40739644944881], [-72.2279643348543, 44.40783789139008], [-72.22836798761922, 44.40835871566813], [-72.22859197208139, 44.40870588143721], [-72.22877675028562, 44.409387754302955], [-72.22922612030999, 44.4096978957697], [-72.22953070383394, 44.4100120458016], [-72.23005634925191, 44.41088851191634], [-72.23019273496277, 44.411258240772945], [-72.23023742253196, 44.41161184256095], [-72.23022443045818, 44.41222139556864], [-72.23050311631266, 44.41262494109294], [-72.23121032679484, 44.4141302304382], [-72.23125525855714, 44.414511269225365], [-72.2312068262219, 44.414892800166726], [-72.23099860780928, 44.4154622259197], [-72.23128036855307, 44.41605729643822], [-72.23129013849386, 44.41682862311389], [-72.2323250933103, 44.41729491257265], [-72.2327009838401, 44.41756621188057], [-72.23300563152095, 44.417880386567354], [-72.23359648234451, 44.418681726013105], [-72.23394143590748, 44.418930858679204], [-72.23424608595576, 44.419245038988784], [-72.23447016674697, 44.41959215860173], [-72.2346066103124, 44.41996188176296], [-72.23465117028857, 44.42034293416263], [-72.23454134957778, 44.421374387158465], [-72.23440117605921, 44.42174360313793], [-72.23417394779086, 44.422089119399786], [-72.23386640736504, 44.422402279161616], [-72.23348770659746, 44.42267164759321], [-72.23304954009686, 44.42288985908622], [-72.23259245329729, 44.42304136305539], [-72.23224165105466, 44.42329070201739], [-72.23180349548574, 44.42350888983223], [-72.23131885701103, 44.42366947114413], [-72.2308027454176, 44.42376710980534], [-72.22990819873934, 44.42381266781685], [-72.2294175719738, 44.42390555201087], [-72.22888649627006, 44.42393763607229], [-72.22835411125166, 44.42390304761985], [-72.22783928365249, 44.42380255065479], [-72.22735656715719, 44.42363969627873], [-72.22688362126499, 44.4233931547192], [-72.22605442012409, 44.42365007643437], [-72.22581878972798, 44.42401750122476], [-72.22551123110865, 44.424330629335074], [-72.22513245192214, 44.42459998417874], [-72.22422524769718, 44.42506157703672], [-72.2448832041225, 44.43310513757474], [-72.24953722290722, 44.434981852807134], [-72.26316084321657, 44.44031416216949], [-72.28262311529836, 44.44779653624603], [-72.30209036520532, 44.45527559326412], [-72.31743316965715, 44.461102103314474], [-72.32139526440274, 44.46317534100709], [-72.32474158847656, 44.458556763346], [-72.32913138479744, 44.45269542905707], [-72.32847430342221, 44.45267335205293], [-72.32739114023468, 44.4525004325799], [-72.32683107611525, 44.45229934294575], [-72.3261631097926, 44.45218947286925], [-72.3256802768755, 44.452027199312205], [-72.32524276572562, 44.45180702357879], [-72.32462238297045, 44.4512953465716], [-72.32328148753588, 44.44976054498456], [-72.32305677623258, 44.44941344472018], [-72.32291970250972, 44.44904396309283], [-72.32287451698855, 44.44866309991983], [-72.32293205885424, 44.447681966796175], [-72.32307177681417, 44.44731262870355], [-72.32350719947345, 44.446641300717246], [-72.32338914151873, 44.445564400680766], [-72.32305570698851, 44.445091270923264], [-72.32291863948736, 44.44472180162378], [-72.3228734555632, 44.444341069557034], [-72.32292096394073, 44.44395981522054], [-72.32306062526926, 44.44359048311135], [-72.32328738743695, 44.44324447378117], [-72.3235949354722, 44.44293137856106], [-72.32397298937747, 44.44266154662101], [-72.32441097452032, 44.442442871599084], [-72.32489549413367, 44.442282038725594], [-72.32541160887547, 44.44218383212912], [-72.32594323181456, 44.44215131641094], [-72.32647544450572, 44.44218545504159], [-72.32699058373284, 44.442285512096035], [-72.32747373990257, 44.44244768008032], [-72.32791081410787, 44.442667846067806], [-72.32887546740972, 44.443428055608265], [-72.32943860056224, 44.44376736477099], [-72.32974793984438, 44.444048644854334], [-72.33045278184103, 44.44425387366062], [-72.33088986940999, 44.44447402820004], [-72.33126675598135, 44.44474512396206], [-72.33206882912039, 44.44555612568547], [-72.33291795252393, 44.44597920838014], [-72.33329485682941, 44.44625032080437], [-72.33365685034171, 44.446661618345786], [-72.34378249593804, 44.43302381546387], [-72.35390342647452, 44.419385075955105], [-72.35613078717587, 44.41638683366053], [-72.35794331446589, 44.41395021132585], [-72.35961223380424, 44.411724160124294], [-72.36378869667242, 44.40607565382082], [-72.36540167788462, 44.40389464955673], [-72.37514529130499, 44.390778906979605], [-72.37990568425832, 44.38435548770561], [-72.37439997398877, 44.381394990433876], [-72.36833135662336, 44.37899255133667], [-72.36445434576652, 44.37749867096818], [-72.36430472557393, 44.37744101806557], [-72.36426170129299, 44.377424394121554], [-72.36389120717543, 44.37727566088866], [-72.36114382387558, 44.37617271308892], [-72.36024576881537, 44.375812170609585], [-72.35955670325403, 44.37551718585679], [-72.35851447480265, 44.37506882740268], [-72.33964322974253, 44.367698937898], [-72.3371333992415, 44.36672096426701], [-72.33673725257509, 44.36656660912278], [-72.33659453047377, 44.36651099059511], [-72.33419900554958, 44.36557112308167], [-72.32624644735755, 44.362450990734224], [-72.32365982723296, 44.36143570205225], [-72.32290803584083, 44.36113430497439], [-72.3221630656204, 44.360835644949674], [-72.31254915030912, 44.356981401093144], [-72.30369495732069, 44.35353229421743], [-72.30049337439473, 44.35228513369535], [-72.29958895550944, 44.35193189726606], [-72.28721862179171, 44.34707383277647], [-72.28508848874537, 44.34624690509274], [-72.28543434670004, 44.346621198665154], [-72.28570074774701, 44.3470829297234], [-72.28596350106254, 44.34735399596074], [-72.28618764170464, 44.34770103030871], [-72.28632423716375, 44.34807067595625], [-72.28635377271398, 44.34857458632719], [-72.28685332403778, 44.34936793220758], [-72.28712900591273, 44.35020116566938], [-72.28765238246476, 44.35060221139409], [-72.28795734011004, 44.35091624017953], [-72.28819623602804, 44.351304356074856], [-72.288762458343, 44.35167171289861], [-72.28906705125685, 44.35198571458982], [-72.28929119633125, 44.3523327695762], [-72.28942784072846, 44.352702423904404], [-72.2894719140925, 44.35309229802569], [-72.28980737834364, 44.35333452458436], [-72.29021682529809, 44.35381096207329], [-72.29074436308478, 44.354158712179064], [-72.2910490032814, 44.354472704037065], [-72.2912727518222, 44.35481974886026], [-72.29140940439324, 44.35518939437346], [-72.2914547224224, 44.3555702953652], [-72.2912106409761, 44.35707855355795], [-72.29107095200514, 44.35744784238449], [-72.29084431043832, 44.35779349891192], [-72.29038735473509, 44.35821364756352], [-72.29007112489408, 44.35893981660168], [-72.29102635580703, 44.359074593945124], [-72.29184057890849, 44.35940456017562], [-72.29293500149106, 44.358859831554476], [-72.29341892170014, 44.35869912960817], [-72.29393436130698, 44.35860106792733], [-72.29794185933494, 44.35824458041348], [-72.3000311061508, 44.35839759559419], [-72.3004423782066, 44.35826092237137], [-72.30095779360225, 44.35816282444644], [-72.30148870550907, 44.358130452270565], [-72.30202011512473, 44.35816467600057], [-72.30253447233824, 44.35826483711451], [-72.30301688549196, 44.35842710780239], [-72.30349545830062, 44.35867780412948], [-72.30409906996582, 44.35870429556402], [-72.30450374276909, 44.358899620964664], [-72.30540886249015, 44.359144145634154], [-72.30584518347607, 44.359364421341446], [-72.30622104194087, 44.35963559210095], [-72.30652578693642, 44.35994954166783], [-72.30787825377568, 44.36173840440472], [-72.30820222231554, 44.36240759098813], [-72.30824725773435, 44.362788610365385], [-72.30819974934882, 44.36317017811931], [-72.30785241787468, 44.36400823804705], [-72.3076258695137, 44.36435392583688], [-72.30731863708328, 44.364667262825954], [-72.30694061277477, 44.36493690572597], [-72.30650314211532, 44.36515538534881], [-72.30601923015641, 44.36531628205197], [-72.30471577635704, 44.365515857595824], [-72.30418525226253, 44.3655482723872], [-72.30365336454555, 44.365514008448734], [-72.30313892817666, 44.3654138658582], [-72.30249129938045, 44.365167927647775], [-72.3017147720858, 44.36547482312024], [-72.30119927928625, 44.36557276040118], [-72.30066876402383, 44.365605177774114], [-72.29979522936765, 44.36550438122234], [-72.2991495156687, 44.365843274305085], [-72.29866557682388, 44.36600412358637], [-72.29788374039715, 44.36613774033064], [-72.2976103078487, 44.366416800637445], [-72.29723223160714, 44.3666864103283], [-72.29531924678004, 44.367627669211984], [-72.29483527147403, 44.36778851294701], [-72.2943197356337, 44.367886446059885], [-72.29374487684566, 44.367915932715185], [-72.29305318085845, 44.368274244583795], [-72.29256920407381, 44.368435084095175], [-72.29205366643394, 44.36853298266624], [-72.29152309075488, 44.36856534303318], [-72.29099118069254, 44.368531059707315], [-72.2904767548867, 44.36843082956304], [-72.28999428298343, 44.3682682315973], [-72.28923567051224, 44.367827539065196], [-72.28862678284202, 44.36771871157275], [-72.28823785369912, 44.36758746661004], [-72.28748165957886, 44.36717241316173], [-72.28702752796974, 44.36675066094438], [-72.28676448500983, 44.366310874782634], [-72.28467165407568, 44.36568020768821], [-72.2840305546505, 44.365715885131976], [-72.2834976781684, 44.36567559380068], [-72.28271273608804, 44.36552701034604], [-72.28223035973245, 44.36536439138892], [-72.28179363644747, 44.36514404384357], [-72.28143743471125, 44.36488954744241], [-72.27952637000836, 44.363278868713785], [-72.27771114958796, 44.36226655043968], [-72.27688370383235, 44.36213359082415], [-72.2764013501478, 44.36197095620204], [-72.27596469110114, 44.36175069706518], [-72.27558898418573, 44.36147942985664], [-72.27528478515944, 44.36116554291949], [-72.27506069993682, 44.36081833061383], [-72.27474073623526, 44.35972454109661], [-72.27471606234644, 44.35909575720145], [-72.27487210772057, 44.35816853713761], [-72.27501190384326, 44.35779926928852], [-72.27523860562569, 44.35745335361363], [-72.27615032391888, 44.35644016798835], [-72.27688418896138, 44.35518923531253], [-72.27663607580797, 44.3536358862968], [-72.27668145398725, 44.35293568182445], [-72.27688596650813, 44.35223566668931], [-72.27610232440189, 44.351030149837065], [-72.27564066177233, 44.350710174034376], [-72.27540557602775, 44.35047712264735], [-72.27475464274359, 44.349636184659694], [-72.27461848719052, 44.34926665934822], [-72.274573314206, 44.348885772251634], [-72.27464675506026, 44.34843706990893], [-72.27433353183069, 44.347845273425705], [-72.27375412411905, 44.34747119316323], [-72.27345002461392, 44.34715730257318], [-72.27322602218548, 44.34681006168593], [-72.27306705954817, 44.34564347809377], [-72.27244147782869, 44.345359304224814], [-72.2720104319379, 44.345038804746316], [-72.27084639410457, 44.34395088943133], [-72.27016949977194, 44.34306742615813], [-72.27003336683624, 44.34269787610578], [-72.26998823221302, 44.3423169787378], [-72.27003636621237, 44.341935717450525], [-72.27017615619398, 44.34156645175455], [-72.27040284089405, 44.34122056715302], [-72.27091661072546, 44.340705405222316], [-72.2700973280813, 44.34038196898202]], [[-72.33259182697569, 44.38540929681097], [-72.33350080916456, 44.38559077979055], [-72.3335850152921, 44.385843193359925], [-72.33457115698747, 44.38605540230204], [-72.3341431828535, 44.3867838651464], [-72.33449083460589, 44.38987681666696], [-72.33203258734459, 44.393644877931614], [-72.33312608653387, 44.39416989334334], [-72.33165964734022, 44.39641533541293], [-72.33045876336597, 44.395890146830496], [-72.32776642625484, 44.39876488555377], [-72.3287960143556, 44.39913590112353], [-72.32870545385435, 44.40073679022154], [-72.32551433196645, 44.40515017002612], [-72.32465397147908, 44.405610686253986], [-72.32417982086633, 44.40617955215579], [-72.32342898714364, 44.40591668774519], [-72.32269902946385, 44.40585397914588], [-72.32216160049956, 44.40603787732872], [-72.32132469111075, 44.40583644381965], [-72.32042373912978, 44.40551174683212], [-72.31967236333087, 44.405433591415225], [-72.31909439835901, 44.40483229329449], [-72.31920973060588, 44.4042000719667], [-72.31738997118904, 44.40446747724482], [-72.31552521223432, 44.40459813107225], [-72.31500196245408, 44.404912563859234], [-72.31168885377744, 44.40576145931444], [-72.31156389074536, 44.40610831245253], [-72.31186193159635, 44.40620969182091], [-72.31146667926006, 44.40657854698566], [-72.31170364919159, 44.40674288244835], [-72.31159750796331, 44.406925569132525], [-72.31114026694922, 44.40687436865897], [-72.31101539433558, 44.40741013608883], [-72.31048816536621, 44.40723901200281], [-72.31047456656546, 44.40748155618066], [-72.3108594363113, 44.408005606407066], [-72.31042694136208, 44.40892855456144], [-72.30980269392742, 44.40937395644172], [-72.30892162424507, 44.40954182480414], [-72.30862000512057, 44.40983381437088], [-72.30919741120182, 44.41058910815842], [-72.30749662676729, 44.41184859763749], [-72.30728695929328, 44.412397912240465], [-72.30598105671352, 44.41358745161266], [-72.3048260416192, 44.414361068197955], [-72.30424321378396, 44.414556337160676], [-72.30119306733407, 44.413444594709134], [-72.3017430974907, 44.41289917471244], [-72.30095244853766, 44.41257621596144], [-72.30153565604708, 44.411807952226006], [-72.2997783957812, 44.411180635051196], [-72.30107825453933, 44.40936217477225], [-72.30091529032069, 44.4087805969782], [-72.30037922018161, 44.408789513233245], [-72.29851231969285, 44.407599632025516], [-72.2990960548997, 44.40646147098166], [-72.30015257331462, 44.40521637380526], [-72.30222009246663, 44.403449609851265], [-72.30389567238026, 44.40326776599531], [-72.30768920374791, 44.40239796326194], [-72.31008697048917, 44.4032886950215], [-72.31113614793743, 44.40183227184396], [-72.31159826526705, 44.40204473155406], [-72.31216819024081, 44.40142017041865], [-72.31675372236865, 44.39535807875427], [-72.31863584658917, 44.39425460359895], [-72.32009801480456, 44.392672246845635], [-72.32893110931467, 44.390135873564205], [-72.32919548913898, 44.38994079579619], [-72.32943260787292, 44.390048345416375], [-72.33138714556692, 44.3892378270652], [-72.33221363509375, 44.389276877563354], [-72.33246157881969, 44.38867308742475], [-72.33200850202823, 44.38855419223388], [-72.33196824091607, 44.38821914840091], [-72.3312263592421, 44.3881174947361], [-72.33136451309495, 44.38793253706498], [-72.33126994823887, 44.38737080599465], [-72.33101065523496, 44.38675956909348], [-72.33083229801481, 44.3866706327436], [-72.33075031597518, 44.3865128712731], [-72.33112204299671, 44.38624740440897], [-72.33172953293838, 44.38631347708159], [-72.33204367382815, 44.385864516405206], [-72.33259182697569, 44.38540929681097]], [[-72.24130677022632, 44.38575742341415], [-72.24183840570034, 44.38579196529459], [-72.24235290329261, 44.3858923900544], [-72.24283537996695, 44.386054778380135], [-72.24327169998378, 44.38627526056511], [-72.24364779922813, 44.386546650872525], [-72.24417126514291, 44.38711494076678], [-72.24439522500626, 44.38746209478542], [-72.24453171274814, 44.387831778573464], [-72.24457630621855, 44.38821282662833], [-72.24452836953621, 44.388594347199216], [-72.24438833663308, 44.38896359858683], [-72.24416130730711, 44.38930914796856], [-72.2438536299596, 44.38962230644027], [-72.24325893932757, 44.389999384332775], [-72.24327050058005, 44.39157519544452], [-72.24322254753669, 44.39195671880422], [-72.24308248336126, 44.39232594400208], [-72.2428554432407, 44.39267150765722], [-72.24220558825031, 44.393276103430004], [-72.24215174000827, 44.39366394774348], [-72.24201165741032, 44.39403318137451], [-72.24178457549814, 44.39437873910195], [-72.24058834276579, 44.39568672473883], [-72.23982840415574, 44.39749546337263], [-72.23954311102237, 44.39796531859551], [-72.23923573618798, 44.39827849903341], [-72.23885717972958, 44.398547886756056], [-72.2384191822732, 44.3987661057795], [-72.23705864964039, 44.39915587383118], [-72.2365427556427, 44.39925354657334], [-72.23601185039888, 44.399285641821734], [-72.23537502365848, 44.39923621029493], [-72.23490675372967, 44.399391496995726], [-72.23439085846691, 44.399489310304276], [-72.23385995119233, 44.39952140094393], [-72.23332777958447, 44.39948681714731], [-72.23281319626004, 44.39938633556354], [-72.23156273338239, 44.3990140107174], [-72.23112598278983, 44.39879347877893], [-72.23075024378524, 44.39852204777088], [-72.23046718702075, 44.39823408419831], [-72.22986174605485, 44.397423552118596], [-72.22972532707338, 44.39705394158928], [-72.2296808140737, 44.39667303972086], [-72.22972884774173, 44.3962918024503], [-72.23045422335827, 44.39481547201109], [-72.23093514963784, 44.394214761790266], [-72.23195557797584, 44.39330974682354], [-72.23233372495787, 44.393040211574466], [-72.23277206927341, 44.39282186978302], [-72.23442243515665, 44.39224650859007], [-72.23470416383599, 44.390310277044804], [-72.23484389045316, 44.38994106391164], [-72.23507098448529, 44.3895952587557], [-72.23554324072921, 44.38914455632447], [-72.23633074363843, 44.38854885917494], [-72.23727608356808, 44.38808067794202], [-72.23776712793932, 44.38729026488726], [-72.23807482422052, 44.38697738461692], [-72.23866404168167, 44.38659244362819], [-72.23977556823598, 44.386047852193805], [-72.24025983324886, 44.38588736804979], [-72.24077560792792, 44.385789557411094], [-72.24130677022632, 44.38575742341415]], [[-72.34322254302737, 44.412078869995696], [-72.34375450325356, 44.412112942330594], [-72.34426941456422, 44.41221291355909], [-72.34475235122575, 44.41237499639966], [-72.34614937153628, 44.413043553736436], [-72.34678745862247, 44.413456016056806], [-72.34709270308079, 44.41376985693079], [-72.34731739728417, 44.41411678696476], [-72.34745457738322, 44.414486359620845], [-72.34749985245679, 44.4148673855765], [-72.3472735121861, 44.41666570994252], [-72.34768934878078, 44.41730187070124], [-72.3478265326737, 44.41767131311566], [-72.34787181145592, 44.41805228201861], [-72.34776254013963, 44.41859745902046], [-72.34782623249808, 44.41974978644107], [-72.34775376653464, 44.42029456412087], [-72.34799652736838, 44.42066022929825], [-72.3481337168103, 44.42102983132599], [-72.34817902896096, 44.421410816126226], [-72.34807063206816, 44.42205146792945], [-72.34793113086857, 44.422420826843315], [-72.34770457051931, 44.422766572563205], [-72.34739767821453, 44.42308003888563], [-72.34701946441884, 44.42334979969432], [-72.34614069474296, 44.423838955939615], [-72.34519419349998, 44.42426417163012], [-72.34470988048041, 44.42442521920678], [-72.34419394825673, 44.424523376778225], [-72.34366286924944, 44.42455597739781], [-72.34292747529474, 44.42448248695426], [-72.34214410428551, 44.42441847311409], [-72.34162908954869, 44.424318494169164], [-72.34114644337102, 44.42415610727602], [-72.34070907408474, 44.42393598361437], [-72.34013578303397, 44.42347649939538], [-72.33942173581322, 44.42270096315119], [-72.33919703344009, 44.422353859705275], [-72.33906032114812, 44.42198445109551], [-72.33901463553102, 44.42160356568847], [-72.33890304990685, 44.41907973033865], [-72.33844245165892, 44.41805272400545], [-72.33829519941071, 44.41738104242904], [-72.33829535481212, 44.41702667645267], [-72.33721828455909, 44.415886304767454], [-72.33699363120552, 44.4155392164428], [-72.33685692606952, 44.41516976066775], [-72.33681130007584, 44.41478888840922], [-72.33685903747869, 44.414407601417174], [-72.33699859414844, 44.41403826188796], [-72.33722515938892, 44.41369223899623], [-72.3376941905987, 44.41320833141833], [-72.33807202421887, 44.41293846367325], [-72.33851009977522, 44.41271985235037], [-72.33899393376831, 44.4125588282503], [-72.33950976595484, 44.412460564220254], [-72.3411538164268, 44.412434998751316], [-72.34269120193221, 44.41211148741492], [-72.34322254302737, 44.412078869995696]]]]}}]}