{"type":"FeatureCollection","name":"Washington_EastMontpelier","features":[{"type":"Feature","properties":{"OBJECT_ID":1209,"County":"Washington","RPC":"CVRPC","Municipal_Name":"East Montpelier ","GEO_ID":"5002321925","District_Name":"Industrial District","Abbreviated_District_Name":"B","District_Type":"Mixed with Residential","Bylaw_Date":"2024-05-29","Elderly_Housing_District":"No","District_Mapped":"Yes","Overlay_District":"No","Base_Density":null,"GIS_ID":null,"Last_Update":null,"Shape_Length":9402.319694098529,"Shape_Area":1872404.4239765685,"F1F_Allowance":"Public Hearing","F1F_Front_Setback":40.0,"F1F_Side_Setback":15.0,"F1F_Rear_Setback":15.0,"F1F_Frontage":150.0,"F1F_Max_Height":35.0,"F1F_Max_Stories":null,"F1F_Min_Lot_Size":1.0,"F1F_Max_Lot_Building_Coverage":null,"F1F_Max_Lot_Impervious_Coverage":null,"F1F_Min_Parking_Spaces":2.0,"F1F_Elderly_Housing_Only":null,"F1F_Affordable_Housing_Only":null,"F2F_Allowance":"Prohibited","F2F_Front_Setback":null,"F2F_Side_Setback":null,"F2F_Rear_Setback":null,"F2F_Frontage":null,"F2F_Max_Density":null,"F2F_Max_Height":null,"F2F_Max_Stories":null,"F2F_Min_Lot_Size":null,"F2F_Max_Lot_Building_Coverage":null,"F2F_Max_Lot_Impervious_Coverage":null,"F2F_Min_Parking_Spaces_per_1BR":null,"F2F_Min_Parking_Spaces_per_mult_BR":null,"F2F_Elderly_Housing_Only":"No","F2F_Affordable_Housing_Only":"No","F3F_Allowance":"Prohibited","F3F_Front_Setback":null,"F3F_Side_Setback":null,"F3F_Rear_Setback":null,"F3F_Frontage":null,"F3F_Max_Density":null,"F3F_Max_Height":null,"F3F_Max_Stories":null,"F3F_Min_Lot_Size":null,"F3F_Max_Lot_Building_Coverage":null,"F3F_Max_Lot_Impervious_Coverage":null,"F3F_Min_Parking_Spaces_per_1BR":null,"F3F_Min_Parking_Spaces_per_mult_BR":null,"F3F_Affordable_Housing_Only":"No","F3F_Proximity_to_Public_Transit_Required":"No","F3F_Connection_to_Sewage/Water_Required":"No","F4F_Allowance":"Prohibited","F4F_Front_Setback":null,"F4F_Side_Setback":null,"F4F_Rear_Setback":null,"F4F_Frontage":null,"F1F_Max_Density":null,"F4F_Max_Density":null,"F4F_Max_Height":null,"F4F_Max_Stories":null,"F4F_Min_Lot_Size":null,"F4F_Max_Lot_Building_Coverage":null,"F4F_Max_Lot_Impervious_Coverage":null,"F4F_Min_Parking_Spaces_per_1BR":null,"F4F_Min_Parking_Spaces_per_mult_BR":null,"F3F_Elderly_Housing_Only":"No","F4F_Elderly_Housing_Only":"No","F4F_Affordable_Housing_Only":"No","F4F_Proximity_to_Public_Transit_Required":"No","F4F_Connection_to_Sewage/Water_Required":"No","ADU_Allowance":"Allowed/Conditional","ADU_Elderly_Housing_Only":"No","ADU_Max_Size_as_Percent_of_Primary_Strcture":30.0,"ADU_Max_Size_in_sq_ft":1200.0,"ADU_Min_Lot_Size":null,"ADU_Max_Bedrooms":null,"ADU_Min_Parking_Spaces":1.0,"ADU_Owner_Occupancy_Required":"No","ADU_Renter_Occupancy_Prohibited":"No","ADU_Employee_or_Family_Occupancy_Required":"No","ADU_Restricted_to_Primary_Structure":"No","Affordable_Housing_Allowance":"Not Mentioned","Affordable_Housing_District":"No","Affordable_Housing_Elderly_Only":"No","Affordable_Housing_Min_Lot_Size":null,"Affordable_Housing_Max_Density":null,"Affordable_Housing_Min_Parking_Spaces_per_mult_BR":null,"Affordable_Housing_Max_Units_per_Building":null,"Affordable_Housing_Min_Parking_Spaces_per_1BR":null,"PRD_Allowance":"Public Hearing","PRD_Max_Density":null,"PRD_Max_Units":null,"PRD_Min_Lot_Size":null,"PRD_Mobile_or_Manufactured_Home_Park":"No","PUD_Allowance":"Yes","PUD_Required_with_Subdivision":"No","PUD_Requires_Land_Conservation":"Yes","PUD_Threshold_Number":null,"Notes":"Site Plan Approval Has Public Hearings.  ","FIPS6":null},"geometry":{"type":"MultiPolygon","coordinates":[[[[-72.49995377717106,44.23771320989419],[-72.49815541244338,44.240639506308824],[-72.49959822687266,44.241069545014845],[-72.49918351961614,44.24191257581552],[-72.50198435890516,44.24304794804278],[-72.50108649345874,44.24415606619077],[-72.50102350509891,44.24421920608821],[-72.49893069756152,44.24336534174653],[-72.4958759199231,44.246971679842424],[-72.49549111534428,44.24756096855853],[-72.49489226098493,44.24816094466121],[-72.4937181905109,44.2476632040471],[-72.49170943179857,44.246907468281655],[-72.49173605440541,44.24697487001823],[-72.490892780737,44.24847310192494],[-72.49010361796586,44.24828094644968],[-72.48877049488657,44.25068420084439],[-72.48739874776999,44.25020776941397],[-72.48673827076776,44.250170007852574],[-72.48652679909598,44.24997802471222],[-72.48640161938148,44.251455297680536],[-72.48672707734268,44.25228437087304],[-72.48678997737973,44.25298566306018],[-72.4859844825116,44.252944427965524],[-72.48521164354409,44.25277471882707],[-72.48427116249586,44.254335527413375],[-72.48587082350474,44.25487000676006],[-72.4891791090653,44.25603187038145],[-72.48803352170538,44.25758652366237],[-72.48902034509744,44.25797127431363],[-72.49831226256926,44.25535790244932],[-72.49989787861301,44.25566742429223],[-72.50014440966903,44.25568359602961],[-72.50089104402439,44.25550936137271],[-72.50174334052771,44.255706925629376],[-72.50206931067278,44.25572154490031],[-72.50214595311542,44.25417919792686],[-72.50206651263298,44.25406262370192],[-72.50212361112614,44.2531596867773],[-72.50205589259694,44.2524765441026],[-72.50094886059792,44.24940241230604],[-72.50091637885251,44.24899559202672],[-72.50099619105646,44.248531115118034],[-72.50112413040054,44.24822244736307],[-72.50166249758627,44.247515953390206],[-72.50481228484368,44.2439844103501],[-72.50566864345551,44.243269726563845],[-72.5066815037837,44.242805336379625],[-72.50792715689838,44.24254243325069],[-72.51161762164188,44.24240697933944],[-72.51398769226802,44.2423742296108],[-72.5146887624236,44.24231114266241],[-72.51560262575578,44.24211752473843],[-72.5179634562265,44.24133334677981],[-72.51831313240616,44.241319627678145],[-72.517460878611,44.241153695914264],[-72.5168159845224,44.24102686689506],[-72.51561694978814,44.240790394167824],[-72.5135252393401,44.24037824735362],[-72.49995377717106,44.23771320989419]]]]}},{"type":"Feature","properties":{"OBJECT_ID":9,"County":"Washington","RPC":"CVRPC","Municipal_Name":"East Montpelier ","GEO_ID":"5002321925","District_Name":"Village Residential Medium Density District","Abbreviated_District_Name":"Vrmd","District_Type":"Primarily Residential","Bylaw_Date":"2024-05-29","Elderly_Housing_District":"No","District_Mapped":"Yes","Overlay_District":"No","Base_Density":null,"GIS_ID":null,"Last_Update":null,"Shape_Length":6700.208476283125,"Shape_Area":661107.1012950615,"F1F_Allowance":"Permitted","F1F_Front_Setback":40.0,"F1F_Side_Setback":10.0,"F1F_Rear_Setback":10.0,"F1F_Frontage":75.0,"F1F_Max_Height":35.0,"F1F_Max_Stories":null,"F1F_Min_Lot_Size":0.5,"F1F_Max_Lot_Building_Coverage":null,"F1F_Max_Lot_Impervious_Coverage":null,"F1F_Min_Parking_Spaces":2.0,"F1F_Elderly_Housing_Only":null,"F1F_Affordable_Housing_Only":null,"F2F_Allowance":"Permitted","F2F_Front_Setback":40.0,"F2F_Side_Setback":10.0,"F2F_Rear_Setback":10.0,"F2F_Frontage":75.0,"F2F_Max_Density":null,"F2F_Max_Height":35.0,"F2F_Max_Stories":null,"F2F_Min_Lot_Size":0.5,"F2F_Max_Lot_Building_Coverage":null,"F2F_Max_Lot_Impervious_Coverage":null,"F2F_Min_Parking_Spaces_per_1BR":2.0,"F2F_Min_Parking_Spaces_per_mult_BR":2.0,"F2F_Elderly_Housing_Only":"No","F2F_Affordable_Housing_Only":"No","F3F_Allowance":"Public Hearing","F3F_Front_Setback":40.0,"F3F_Side_Setback":10.0,"F3F_Rear_Setback":10.0,"F3F_Frontage":75.0,"F3F_Max_Density":null,"F3F_Max_Height":35.0,"F3F_Max_Stories":null,"F3F_Min_Lot_Size":0.5,"F3F_Max_Lot_Building_Coverage":null,"F3F_Max_Lot_Impervious_Coverage":null,"F3F_Min_Parking_Spaces_per_1BR":1.3,"F3F_Min_Parking_Spaces_per_mult_BR":1.3,"F3F_Affordable_Housing_Only":"No","F3F_Proximity_to_Public_Transit_Required":"No","F3F_Connection_to_Sewage/Water_Required":"Yes","F4F_Allowance":"Public Hearing","F4F_Front_Setback":40.0,"F4F_Side_Setback":10.0,"F4F_Rear_Setback":10.0,"F4F_Frontage":75.0,"F1F_Max_Density":null,"F4F_Max_Density":null,"F4F_Max_Height":35.0,"F4F_Max_Stories":null,"F4F_Min_Lot_Size":0.5,"F4F_Max_Lot_Building_Coverage":null,"F4F_Max_Lot_Impervious_Coverage":null,"F4F_Min_Parking_Spaces_per_1BR":1.3,"F4F_Min_Parking_Spaces_per_mult_BR":1.3,"F3F_Elderly_Housing_Only":"No","F4F_Elderly_Housing_Only":"No","F4F_Affordable_Housing_Only":"No","F4F_Proximity_to_Public_Transit_Required":"No","F4F_Connection_to_Sewage/Water_Required":"Yes","ADU_Allowance":"Allowed/Conditional","ADU_Elderly_Housing_Only":"No","ADU_Max_Size_as_Percent_of_Primary_Strcture":30.0,"ADU_Max_Size_in_sq_ft":1200.0,"ADU_Min_Lot_Size":null,"ADU_Max_Bedrooms":null,"ADU_Min_Parking_Spaces":1.0,"ADU_Owner_Occupancy_Required":"No","ADU_Renter_Occupancy_Prohibited":"No","ADU_Employee_or_Family_Occupancy_Required":"No","ADU_Restricted_to_Primary_Structure":"No","Affordable_Housing_Allowance":"Not Mentioned","Affordable_Housing_District":"No","Affordable_Housing_Elderly_Only":"No","Affordable_Housing_Min_Lot_Size":null,"Affordable_Housing_Max_Density":null,"Affordable_Housing_Min_Parking_Spaces_per_mult_BR":null,"Affordable_Housing_Max_Units_per_Building":null,"Affordable_Housing_Min_Parking_Spaces_per_1BR":null,"PRD_Allowance":"Public Hearing","PRD_Max_Density":null,"PRD_Max_Units":null,"PRD_Min_Lot_Size":null,"PRD_Mobile_or_Manufactured_Home_Park":"No","PUD_Allowance":"Yes","PUD_Required_with_Subdivision":"No","PUD_Requires_Land_Conservation":"Yes","PUD_Threshold_Number":null,"Notes":"Site Plan Approval Has Public Hearings. Lot Coverage (Buildings And Impervious Surfaces): 80% For Lots <0.25 Acres; 70% Or 0.2 Acres For Lots >=0.25 & <0.5 Acres; 60% Or 0.35 Acres For Lots >=0.5 & <1 Acre; 45% Or 0.6 Acres For Lots >1 Acre.","FIPS6":null},"geometry":{"type":"MultiPolygon","coordinates":[[[[-72.48929874603533,44.26181085359443],[-72.48825535163913,44.2659399828077],[-72.49042289843523,44.26646891939893],[-72.49159472845086,44.26553746729487],[-72.49181899435683,44.265451235676665],[-72.49203701458596,44.26548877399116],[-72.49215974800882,44.26575014419806],[-72.49275332681201,44.2658645097794],[-72.49346566174766,44.26558314663361],[-72.49366460635228,44.264840071260764],[-72.49416182814313,44.264154171586924],[-72.4938230220568,44.26367800781757],[-72.4938739852571,44.26313841496352],[-72.49377220046964,44.262854893675566],[-72.48929874603533,44.26181085359443]]],[[[-72.48427116249586,44.254335527413375],[-72.48351056231128,44.2556783646241],[-72.48309429475627,44.25568852579306],[-72.48222118859472,44.25695547697227],[-72.48155641937755,44.256893447398205],[-72.48091980240696,44.25796510312892],[-72.48192652801171,44.258207581656976],[-72.4810245156521,44.25945758718883],[-72.48305891543102,44.25994709940721],[-72.48163555419562,44.2609485665996],[-72.47889020854132,44.261994562359156],[-72.47918834082402,44.26240903071546],[-72.4804011367149,44.26303801103516],[-72.47961814401968,44.264325094085926],[-72.48003154488454,44.264603874199956],[-72.48021389052376,44.26492981433996],[-72.48012513064852,44.26533812040775],[-72.47986482185192,44.26560454484838],[-72.4800017168575,44.26808235320863],[-72.48134112366,44.26827306882471],[-72.48210771689052,44.26735202331607],[-72.48248786487626,44.26726822469888],[-72.48248759762237,44.26816850245041],[-72.48222901148944,44.26833994304762],[-72.48187075750803,44.269254453376774],[-72.48306394721642,44.26949756822364],[-72.4837996166656,44.27014072984772],[-72.4841891716147,44.270173952297505],[-72.48432923550014,44.26975497129871],[-72.4841740533309,44.26904044456392],[-72.48556726888836,44.26664256906211],[-72.48509296941332,44.26624167912658],[-72.48557799684451,44.265410113844226],[-72.48534863397933,44.26535764006026],[-72.48554159206704,44.265054233280246],[-72.48454077468858,44.26471320915314],[-72.48492146707848,44.26415884183636],[-72.48499453495228,44.26381795920518],[-72.48455665380082,44.26379542472249],[-72.48443527780283,44.263222025561014],[-72.4846959431435,44.26314596823601],[-72.48465531290707,44.26277720974551],[-72.48441881750347,44.26277717773919],[-72.48445178934435,44.262385015243495],[-72.48478447998743,44.261776972103185],[-72.48577502364941,44.259410636843285],[-72.48411837034845,44.258489429909396],[-72.48426659496522,44.25817139037743],[-72.48352864754837,44.25765912802059],[-72.48453420677825,44.256753845703194],[-72.48587082350474,44.25487000676006],[-72.48427116249586,44.254335527413375]]]]}},{"type":"Feature","properties":{"OBJECT_ID":7,"County":"Washington","RPC":"CVRPC","Municipal_Name":"East Montpelier ","GEO_ID":"5002321925","District_Name":"Village Mixed Use District","Abbreviated_District_Name":"Vmu","District_Type":"Mixed with Residential","Bylaw_Date":"2024-05-29","Elderly_Housing_District":"No","District_Mapped":"Yes","Overlay_District":"No","Base_Density":null,"GIS_ID":null,"Last_Update":null,"Shape_Length":10337.545871656295,"Shape_Area":1338208.4115011047,"F1F_Allowance":"Permitted","F1F_Front_Setback":40.0,"F1F_Side_Setback":10.0,"F1F_Rear_Setback":10.0,"F1F_Frontage":50.0,"F1F_Max_Height":35.0,"F1F_Max_Stories":null,"F1F_Min_Lot_Size":0.5,"F1F_Max_Lot_Building_Coverage":null,"F1F_Max_Lot_Impervious_Coverage":null,"F1F_Min_Parking_Spaces":2.0,"F1F_Elderly_Housing_Only":null,"F1F_Affordable_Housing_Only":null,"F2F_Allowance":"Permitted","F2F_Front_Setback":40.0,"F2F_Side_Setback":10.0,"F2F_Rear_Setback":10.0,"F2F_Frontage":50.0,"F2F_Max_Density":null,"F2F_Max_Height":35.0,"F2F_Max_Stories":null,"F2F_Min_Lot_Size":0.5,"F2F_Max_Lot_Building_Coverage":null,"F2F_Max_Lot_Impervious_Coverage":null,"F2F_Min_Parking_Spaces_per_1BR":2.0,"F2F_Min_Parking_Spaces_per_mult_BR":2.0,"F2F_Elderly_Housing_Only":"No","F2F_Affordable_Housing_Only":"No","F3F_Allowance":"Public Hearing","F3F_Front_Setback":40.0,"F3F_Side_Setback":10.0,"F3F_Rear_Setback":10.0,"F3F_Frontage":50.0,"F3F_Max_Density":null,"F3F_Max_Height":35.0,"F3F_Max_Stories":null,"F3F_Min_Lot_Size":0.5,"F3F_Max_Lot_Building_Coverage":null,"F3F_Max_Lot_Impervious_Coverage":null,"F3F_Min_Parking_Spaces_per_1BR":1.3,"F3F_Min_Parking_Spaces_per_mult_BR":1.3,"F3F_Affordable_Housing_Only":"No","F3F_Proximity_to_Public_Transit_Required":"No","F3F_Connection_to_Sewage/Water_Required":"Yes","F4F_Allowance":"Public Hearing","F4F_Front_Setback":40.0,"F4F_Side_Setback":10.0,"F4F_Rear_Setback":10.0,"F4F_Frontage":50.0,"F1F_Max_Density":null,"F4F_Max_Density":null,"F4F_Max_Height":35.0,"F4F_Max_Stories":null,"F4F_Min_Lot_Size":0.5,"F4F_Max_Lot_Building_Coverage":null,"F4F_Max_Lot_Impervious_Coverage":null,"F4F_Min_Parking_Spaces_per_1BR":1.3,"F4F_Min_Parking_Spaces_per_mult_BR":1.3,"F3F_Elderly_Housing_Only":"No","F4F_Elderly_Housing_Only":"No","F4F_Affordable_Housing_Only":"No","F4F_Proximity_to_Public_Transit_Required":"No","F4F_Connection_to_Sewage/Water_Required":"Yes","ADU_Allowance":"Allowed/Conditional","ADU_Elderly_Housing_Only":"No","ADU_Max_Size_as_Percent_of_Primary_Strcture":30.0,"ADU_Max_Size_in_sq_ft":1200.0,"ADU_Min_Lot_Size":null,"ADU_Max_Bedrooms":null,"ADU_Min_Parking_Spaces":1.0,"ADU_Owner_Occupancy_Required":"No","ADU_Renter_Occupancy_Prohibited":"No","ADU_Employee_or_Family_Occupancy_Required":"No","ADU_Restricted_to_Primary_Structure":"No","Affordable_Housing_Allowance":"Not Mentioned","Affordable_Housing_District":"No","Affordable_Housing_Elderly_Only":"No","Affordable_Housing_Min_Lot_Size":null,"Affordable_Housing_Max_Density":null,"Affordable_Housing_Min_Parking_Spaces_per_mult_BR":null,"Affordable_Housing_Max_Units_per_Building":null,"Affordable_Housing_Min_Parking_Spaces_per_1BR":null,"PRD_Allowance":"Public Hearing","PRD_Max_Density":null,"PRD_Max_Units":null,"PRD_Min_Lot_Size":null,"PRD_Mobile_or_Manufactured_Home_Park":"No","PUD_Allowance":"Yes","PUD_Required_with_Subdivision":"No","PUD_Requires_Land_Conservation":"Yes","PUD_Threshold_Number":null,"Notes":"Site Plan Approval Has Public Hearings. Lot Coverage (Buildings And Impervious Surfaces): 80% For Lots <0.25 Acres; 70% Or 0.2 Acres For Lots >=0.25 & <0.5 Acres; 60% Or 0.35 Acres For Lots >=0.5 & <1 Acre; 45% Or 0.6 Acres For Lots >1 Acre.","FIPS6":null},"geometry":{"type":"MultiPolygon","coordinates":[[[[-72.479521917366,44.27679188006888],[-72.48178514659978,44.27766446024357],[-72.48202103011505,44.27734038627881],[-72.48367572988151,44.27798997599361],[-72.48451257162642,44.27632473658757],[-72.48574792675173,44.273070460987284],[-72.48745830245996,44.273413623180325],[-72.48799544284742,44.27274204743808],[-72.48898977723967,44.27331375094945],[-72.48865157886495,44.273756709556785],[-72.48992440560964,44.27422840300032],[-72.49055998900084,44.273467788923476],[-72.49129684832106,44.27368549225331],[-72.49135639673976,44.27450003158304],[-72.49268892367496,44.275014568292775],[-72.49301266077167,44.274342663702356],[-72.49508201748347,44.27527477603842],[-72.49587768876248,44.274381114185374],[-72.49467479827644,44.27392120000485],[-72.49428015217832,44.27437846426337],[-72.49088550569861,44.27294862682891],[-72.4908668927307,44.27275130023053],[-72.48909984972164,44.2717715737121],[-72.49027111533005,44.27037239281718],[-72.49112387667726,44.27061939525054],[-72.492116824454,44.26962259035181],[-72.4914229851196,44.26892381077879],[-72.49081205532002,44.26883011220731],[-72.49462450130522,44.26712596707016],[-72.49510812966987,44.26739121405532],[-72.49734829539817,44.26534265668314],[-72.49701130210026,44.264856098728],[-72.49636783336169,44.26461024391261],[-72.49562656780964,44.264896078107704],[-72.49416182814313,44.264154171586924],[-72.49366460635228,44.264840071260764],[-72.49346566174766,44.26558314663361],[-72.49275332681201,44.2658645097794],[-72.49215974800882,44.26575014419806],[-72.49203701458596,44.26548877399116],[-72.49181899435683,44.265451235676665],[-72.49159472845086,44.26553746729487],[-72.49042289843523,44.26646891939893],[-72.48825535163913,44.2659399828077],[-72.48929874603533,44.26181085359443],[-72.4885418647384,44.26108937279907],[-72.48897473024876,44.26017484655837],[-72.4895728592347,44.26017490270522],[-72.48978927599175,44.2597542211508],[-72.4882056729388,44.25950242827695],[-72.48902034509744,44.25797127431363],[-72.48803352170538,44.25758652366237],[-72.4891791090653,44.25603187038145],[-72.48587082350474,44.25487000676006],[-72.48453420677825,44.256753845703194],[-72.48352864754837,44.25765912802059],[-72.48426659496522,44.25817139037743],[-72.48411837034845,44.258489429909396],[-72.48577502364941,44.259410636843285],[-72.48478447998743,44.261776972103185],[-72.48445178934435,44.262385015243495],[-72.48441881750347,44.26277717773919],[-72.48465531290707,44.26277720974551],[-72.4846959431435,44.26314596823601],[-72.48443527780283,44.263222025561014],[-72.48455665380082,44.26379542472249],[-72.48499453495228,44.26381795920518],[-72.48492146707848,44.26415884183636],[-72.48454077468858,44.26471320915314],[-72.48554159206704,44.265054233280246],[-72.48534863397933,44.26535764006026],[-72.48557799684451,44.265410113844226],[-72.48509296941332,44.26624167912658],[-72.48556726888836,44.26664256906211],[-72.4841740533309,44.26904044456392],[-72.48432923550014,44.26975497129871],[-72.4841891716147,44.270173952297505],[-72.48395603534021,44.270871332574714],[-72.48336538965758,44.27163041113937],[-72.48202468125943,44.27164953514747],[-72.47990707358142,44.27155501832972],[-72.478245517924,44.27130225068323],[-72.47520057254604,44.27518476198161],[-72.479521917366,44.27679188006888]]]]}},{"type":"Feature","properties":{"OBJECT_ID":3,"County":"Washington","RPC":"CVRPC","Municipal_Name":"East Montpelier ","GEO_ID":"5002321925","District_Name":"Residential-Commercial District","Abbreviated_District_Name":"C","District_Type":"Mixed with Residential","Bylaw_Date":"2024-05-29","Elderly_Housing_District":"No","District_Mapped":"Yes","Overlay_District":"No","Base_Density":null,"GIS_ID":null,"Last_Update":null,"Shape_Length":21515.658908626003,"Shape_Area":7292551.910095973,"F1F_Allowance":"Permitted","F1F_Front_Setback":40.0,"F1F_Side_Setback":15.0,"F1F_Rear_Setback":15.0,"F1F_Frontage":150.0,"F1F_Max_Height":35.0,"F1F_Max_Stories":null,"F1F_Min_Lot_Size":1.0,"F1F_Max_Lot_Building_Coverage":null,"F1F_Max_Lot_Impervious_Coverage":null,"F1F_Min_Parking_Spaces":2.0,"F1F_Elderly_Housing_Only":null,"F1F_Affordable_Housing_Only":null,"F2F_Allowance":"Permitted","F2F_Front_Setback":40.0,"F2F_Side_Setback":15.0,"F2F_Rear_Setback":15.0,"F2F_Frontage":150.0,"F2F_Max_Density":null,"F2F_Max_Height":35.0,"F2F_Max_Stories":null,"F2F_Min_Lot_Size":1.0,"F2F_Max_Lot_Building_Coverage":null,"F2F_Max_Lot_Impervious_Coverage":null,"F2F_Min_Parking_Spaces_per_1BR":2.0,"F2F_Min_Parking_Spaces_per_mult_BR":2.0,"F2F_Elderly_Housing_Only":"No","F2F_Affordable_Housing_Only":"No","F3F_Allowance":"Public Hearing","F3F_Front_Setback":40.0,"F3F_Side_Setback":15.0,"F3F_Rear_Setback":15.0,"F3F_Frontage":150.0,"F3F_Max_Density":null,"F3F_Max_Height":35.0,"F3F_Max_Stories":null,"F3F_Min_Lot_Size":1.0,"F3F_Max_Lot_Building_Coverage":null,"F3F_Max_Lot_Impervious_Coverage":null,"F3F_Min_Parking_Spaces_per_1BR":1.3,"F3F_Min_Parking_Spaces_per_mult_BR":1.3,"F3F_Affordable_Housing_Only":"No","F3F_Proximity_to_Public_Transit_Required":"No","F3F_Connection_to_Sewage/Water_Required":"Yes","F4F_Allowance":"Public Hearing","F4F_Front_Setback":40.0,"F4F_Side_Setback":15.0,"F4F_Rear_Setback":15.0,"F4F_Frontage":150.0,"F1F_Max_Density":null,"F4F_Max_Density":null,"F4F_Max_Height":35.0,"F4F_Max_Stories":null,"F4F_Min_Lot_Size":1.0,"F4F_Max_Lot_Building_Coverage":null,"F4F_Max_Lot_Impervious_Coverage":null,"F4F_Min_Parking_Spaces_per_1BR":1.3,"F4F_Min_Parking_Spaces_per_mult_BR":1.3,"F3F_Elderly_Housing_Only":"No","F4F_Elderly_Housing_Only":"No","F4F_Affordable_Housing_Only":"No","F4F_Proximity_to_Public_Transit_Required":"No","F4F_Connection_to_Sewage/Water_Required":"Yes","ADU_Allowance":"Allowed/Conditional","ADU_Elderly_Housing_Only":"No","ADU_Max_Size_as_Percent_of_Primary_Strcture":30.0,"ADU_Max_Size_in_sq_ft":1200.0,"ADU_Min_Lot_Size":null,"ADU_Max_Bedrooms":null,"ADU_Min_Parking_Spaces":1.0,"ADU_Owner_Occupancy_Required":"No","ADU_Renter_Occupancy_Prohibited":"No","ADU_Employee_or_Family_Occupancy_Required":"No","ADU_Restricted_to_Primary_Structure":"No","Affordable_Housing_Allowance":"Not Mentioned","Affordable_Housing_District":"No","Affordable_Housing_Elderly_Only":"No","Affordable_Housing_Min_Lot_Size":null,"Affordable_Housing_Max_Density":null,"Affordable_Housing_Min_Parking_Spaces_per_mult_BR":null,"Affordable_Housing_Max_Units_per_Building":null,"Affordable_Housing_Min_Parking_Spaces_per_1BR":null,"PRD_Allowance":"Public Hearing","PRD_Max_Density":null,"PRD_Max_Units":null,"PRD_Min_Lot_Size":null,"PRD_Mobile_or_Manufactured_Home_Park":"Yes","PUD_Allowance":"Yes","PUD_Required_with_Subdivision":"No","PUD_Requires_Land_Conservation":"Yes","PUD_Threshold_Number":null,"Notes":"Site Plan Approval Has Public Hearings.","FIPS6":null},"geometry":{"type":"MultiPolygon","coordinates":[[[[-72.44045966526201,44.28612081576101],[-72.44032474983614,44.286295668661275],[-72.43771392042825,44.28967296812128],[-72.43735534471367,44.29013354781691],[-72.42926807254317,44.300598091170635],[-72.43066982726874,44.30111450238775],[-72.43696231521224,44.303451182817106],[-72.4396716996725,44.30450086111449],[-72.4419636045605,44.305315649190234],[-72.44337545635959,44.3058175519042],[-72.44342305748076,44.30583447341516],[-72.44345100719684,44.305844748766305],[-72.44367824461453,44.305929796143445],[-72.44386300877113,44.30599894664917],[-72.44462476180496,44.30628366995122],[-72.44496967140017,44.3064099158748],[-72.44576577202837,44.30670130880067],[-72.44584093002398,44.3067288179826],[-72.44663772148931,44.30703081944316],[-72.44734943239824,44.30730438825263],[-72.44746914693914,44.30735207721657],[-72.44812405020502,44.307613864081205],[-72.44888618713013,44.30791851419342],[-72.44961901009958,44.308211441213444],[-72.45025164005625,44.30621514744008],[-72.45134698079396,44.306358207579386],[-72.45217282894451,44.306546707720166],[-72.45346680585625,44.30711619527724],[-72.45416670531836,44.30610639709027],[-72.45426764327445,44.305237539783995],[-72.45425828578324,44.304174581034545],[-72.45628570217134,44.304884246417444],[-72.45759768355923,44.30325235539068],[-72.45913641067314,44.30383417139505],[-72.45986920898105,44.30163752137394],[-72.46304002126992,44.297361991881914],[-72.45921431482147,44.295836069173674],[-72.45937784780178,44.2947373786133],[-72.4580532762147,44.29451762335136],[-72.4570107992814,44.29422051443882],[-72.45761771213098,44.29329300025776],[-72.4549247977693,44.29175580704403],[-72.45403296915414,44.29140836833944],[-72.45352756040008,44.29102431823537],[-72.45225707514338,44.29151517821608],[-72.45207480082252,44.29127998289118],[-72.45173423256365,44.29117620084968],[-72.45160018142195,44.291400891806624],[-72.4513461376415,44.29258576464499],[-72.45117062958174,44.29271838594819],[-72.45066867548258,44.29282954872611],[-72.44744217206639,44.29143333192633],[-72.44470852078703,44.29038961514431],[-72.4444960953084,44.289776402630494],[-72.44406820207617,44.289294283967685],[-72.44213121403651,44.288126863788115],[-72.44125878480837,44.28743174829578],[-72.44070468470419,44.28673749461105],[-72.44045966526201,44.28612081576101]]],[[[-72.48248786487626,44.26726822469888],[-72.48210771689052,44.26735202331607],[-72.48134112366,44.26827306882471],[-72.48055302544046,44.26890697017456],[-72.48028689210409,44.26896450622445],[-72.47700810705273,44.26776763010045],[-72.47689684476154,44.26786912278763],[-72.47659542576663,44.26797241792858],[-72.47652414976783,44.268075620297154],[-72.47637344245555,44.26812157284608],[-72.4758588423973,44.268850308318406],[-72.47592398189248,44.26940099767858],[-72.47601234022375,44.26964780802067],[-72.47625958546806,44.26996341531662],[-72.47641169020973,44.27035325083821],[-72.47663510672592,44.27055944894994],[-72.4773598390317,44.27101169367638],[-72.47785373494207,44.27121738017287],[-72.478245517924,44.27130225068323],[-72.47990707358142,44.27155501832972],[-72.48202468125943,44.27164953514747],[-72.48336538965758,44.27163041113937],[-72.48395603534021,44.270871332574714],[-72.4841891716147,44.270173952297505],[-72.4837996166656,44.27014072984772],[-72.48306394721642,44.26949756822364],[-72.48187075750803,44.269254453376774],[-72.48222901148944,44.26833994304762],[-72.48248759762237,44.26816850245041],[-72.48248786487626,44.26726822469888]]],[[[-72.52458226347777,44.23787888688998],[-72.52342904981009,44.23835779193209],[-72.52305575729025,44.23918552684315],[-72.52298908938026,44.23932504790201],[-72.52239244449024,44.2402714090831],[-72.51979325899661,44.24101509584677],[-72.51855423125656,44.24136656798288],[-72.51831313240616,44.241319627678145],[-72.5179634562265,44.24133334677981],[-72.51560262575578,44.24211752473843],[-72.5146887624236,44.24231114266241],[-72.51398769226802,44.2423742296108],[-72.51161762164188,44.24240697933944],[-72.50792715689838,44.24254243325069],[-72.5066815037837,44.242805336379625],[-72.50566864345551,44.243269726563845],[-72.50481228484368,44.2439844103501],[-72.50166249758627,44.247515953390206],[-72.50112413040054,44.24822244736307],[-72.50099619105646,44.248531115118034],[-72.50091637885251,44.24899559202672],[-72.50094886059792,44.24940241230604],[-72.50205589259694,44.2524765441026],[-72.50212361112614,44.2531596867773],[-72.50206651263298,44.25406262370192],[-72.50214595311542,44.25417919792686],[-72.50206931067278,44.25572154490031],[-72.50174334052771,44.255706925629376],[-72.50089104402439,44.25550936137271],[-72.50014440966903,44.25568359602961],[-72.49989787861301,44.25566742429223],[-72.49831226256926,44.25535790244932],[-72.48902034509744,44.25797127431363],[-72.4882056729388,44.25950242827695],[-72.48978927599175,44.2597542211508],[-72.4895728592347,44.26017490270522],[-72.48897473024876,44.26017484655837],[-72.4885418647384,44.26108937279907],[-72.48929874603533,44.26181085359443],[-72.49377220046964,44.262854893675566],[-72.4938739852571,44.26313841496352],[-72.4938230220568,44.26367800781757],[-72.49416182814313,44.264154171586924],[-72.49562656780964,44.264896078107704],[-72.49636783336169,44.26461024391261],[-72.49701130210026,44.264856098728],[-72.49734829539817,44.26534265668314],[-72.50031763402723,44.26666844635909],[-72.50155340992215,44.26520736282053],[-72.50398984734132,44.26210218407095],[-72.50422857509822,44.26192189924264],[-72.50492814213014,44.26184344858001],[-72.50690915345055,44.25881340809612],[-72.50720034421727,44.25892657996715],[-72.51252748709959,44.25178208373438],[-72.51426611815681,44.25154517337749],[-72.51553774686641,44.25128148242972],[-72.51664476428626,44.25061056340035],[-72.5182544764274,44.250026868038276],[-72.52062957348718,44.24895534277702],[-72.52145538894513,44.2485028065813],[-72.52254285921859,44.247809892130626],[-72.52423472481826,44.246921796059155],[-72.52773694635378,44.24560380494105],[-72.52785470700363,44.24544320288441],[-72.52964395113668,44.242987821588216],[-72.53004876748432,44.24246183492306],[-72.53146048494973,44.240627470022325],[-72.53179813195571,44.24018871928204],[-72.53139427418789,44.23994918024226],[-72.530600954643,44.23947412682728],[-72.53028767773527,44.239284648224604],[-72.52993650362336,44.23907271776113],[-72.52952605599667,44.23894538937061],[-72.52900315201877,44.238783490874155],[-72.5287651770453,44.238709813448686],[-72.52860752277005,44.23866100093474],[-72.52845474936522,44.2386399506366],[-72.52736639689782,44.23849024390382],[-72.52458226347777,44.23787888688998]]]]}},{"type":"Feature","properties":{"OBJECT_ID":8,"County":"Washington","RPC":"CVRPC","Municipal_Name":"East Montpelier ","GEO_ID":"5002321925","District_Name":"Village Residential District","Abbreviated_District_Name":"Vr","District_Type":"Primarily Residential","Bylaw_Date":"2024-05-29","Elderly_Housing_District":"No","District_Mapped":"Yes","Overlay_District":"No","Base_Density":null,"GIS_ID":null,"Last_Update":null,"Shape_Length":10262.544815484687,"Shape_Area":3161403.1474432163,"F1F_Allowance":"Permitted","F1F_Front_Setback":40.0,"F1F_Side_Setback":15.0,"F1F_Rear_Setback":15.0,"F1F_Frontage":100.0,"F1F_Max_Height":35.0,"F1F_Max_Stories":null,"F1F_Min_Lot_Size":1.0,"F1F_Max_Lot_Building_Coverage":null,"F1F_Max_Lot_Impervious_Coverage":null,"F1F_Min_Parking_Spaces":2.0,"F1F_Elderly_Housing_Only":null,"F1F_Affordable_Housing_Only":null,"F2F_Allowance":"Permitted","F2F_Front_Setback":40.0,"F2F_Side_Setback":15.0,"F2F_Rear_Setback":15.0,"F2F_Frontage":100.0,"F2F_Max_Density":null,"F2F_Max_Height":35.0,"F2F_Max_Stories":null,"F2F_Min_Lot_Size":1.0,"F2F_Max_Lot_Building_Coverage":null,"F2F_Max_Lot_Impervious_Coverage":null,"F2F_Min_Parking_Spaces_per_1BR":2.0,"F2F_Min_Parking_Spaces_per_mult_BR":2.0,"F2F_Elderly_Housing_Only":"No","F2F_Affordable_Housing_Only":"No","F3F_Allowance":"Public Hearing","F3F_Front_Setback":40.0,"F3F_Side_Setback":15.0,"F3F_Rear_Setback":15.0,"F3F_Frontage":100.0,"F3F_Max_Density":null,"F3F_Max_Height":35.0,"F3F_Max_Stories":null,"F3F_Min_Lot_Size":1.0,"F3F_Max_Lot_Building_Coverage":null,"F3F_Max_Lot_Impervious_Coverage":null,"F3F_Min_Parking_Spaces_per_1BR":1.3,"F3F_Min_Parking_Spaces_per_mult_BR":1.3,"F3F_Affordable_Housing_Only":"No","F3F_Proximity_to_Public_Transit_Required":"No","F3F_Connection_to_Sewage/Water_Required":"Yes","F4F_Allowance":"Public Hearing","F4F_Front_Setback":40.0,"F4F_Side_Setback":15.0,"F4F_Rear_Setback":15.0,"F4F_Frontage":100.0,"F1F_Max_Density":null,"F4F_Max_Density":null,"F4F_Max_Height":35.0,"F4F_Max_Stories":null,"F4F_Min_Lot_Size":1.0,"F4F_Max_Lot_Building_Coverage":null,"F4F_Max_Lot_Impervious_Coverage":null,"F4F_Min_Parking_Spaces_per_1BR":1.3,"F4F_Min_Parking_Spaces_per_mult_BR":1.3,"F3F_Elderly_Housing_Only":"No","F4F_Elderly_Housing_Only":"No","F4F_Affordable_Housing_Only":"No","F4F_Proximity_to_Public_Transit_Required":"Yes","F4F_Connection_to_Sewage/Water_Required":"Yes","ADU_Allowance":"Allowed/Conditional","ADU_Elderly_Housing_Only":"No","ADU_Max_Size_as_Percent_of_Primary_Strcture":30.0,"ADU_Max_Size_in_sq_ft":1200.0,"ADU_Min_Lot_Size":null,"ADU_Max_Bedrooms":null,"ADU_Min_Parking_Spaces":1.0,"ADU_Owner_Occupancy_Required":"No","ADU_Renter_Occupancy_Prohibited":"No","ADU_Employee_or_Family_Occupancy_Required":"No","ADU_Restricted_to_Primary_Structure":"No","Affordable_Housing_Allowance":"Not Mentioned","Affordable_Housing_District":"No","Affordable_Housing_Elderly_Only":"No","Affordable_Housing_Min_Lot_Size":null,"Affordable_Housing_Max_Density":null,"Affordable_Housing_Min_Parking_Spaces_per_mult_BR":null,"Affordable_Housing_Max_Units_per_Building":null,"Affordable_Housing_Min_Parking_Spaces_per_1BR":null,"PRD_Allowance":"Public Hearing","PRD_Max_Density":null,"PRD_Max_Units":null,"PRD_Min_Lot_Size":null,"PRD_Mobile_or_Manufactured_Home_Park":"Yes","PUD_Allowance":"Yes","PUD_Required_with_Subdivision":"No","PUD_Requires_Land_Conservation":"Yes","PUD_Threshold_Number":null,"Notes":"Site Plan Approval Has Public Hearings.","FIPS6":null},"geometry":{"type":"MultiPolygon","coordinates":[[[[-72.479945186831,44.28011084497972],[-72.47991793984171,44.28050043021956],[-72.48039531439701,44.28055767258374],[-72.48063381491208,44.28115789736881],[-72.48133016150895,44.28155779819397],[-72.48089213311685,44.282001056121054],[-72.48117046141601,44.28250125458261],[-72.48156824139053,44.28270138015616],[-72.48198586798729,44.2830586985931],[-72.48210513883862,44.28333022910505],[-72.48244706311095,44.28351030391032],[-72.49662789717067,44.28895410694398],[-72.5016125896768,44.28245406972995],[-72.50320875837562,44.28310511369179],[-72.50701532527216,44.277510596678255],[-72.50576214201483,44.276948392132276],[-72.50657672190067,44.27584172441507],[-72.50309114835208,44.27442886618647],[-72.50363403644414,44.27372371962355],[-72.50231426938112,44.27323208330485],[-72.50238758129373,44.27307989788637],[-72.50214318134093,44.27295698527609],[-72.50265586875973,44.272220200442945],[-72.50296136108072,44.27229335770497],[-72.50408139096142,44.27083916215713],[-72.5038013566468,44.270711133426474],[-72.50423408371141,44.2701623776651],[-72.50322852857798,44.26979658378552],[-72.50418763266516,44.26847335708684],[-72.50031763402723,44.26666844635909],[-72.49734829539817,44.26534265668314],[-72.49510812966987,44.26739121405532],[-72.49462450130522,44.26712596707016],[-72.49081205532002,44.26883011220731],[-72.4914229851196,44.26892381077879],[-72.492116824454,44.26962259035181],[-72.49112387667726,44.27061939525054],[-72.49027111533005,44.27037239281718],[-72.48909984972164,44.2717715737121],[-72.4908668927307,44.27275130023053],[-72.49088550569861,44.27294862682891],[-72.49428015217832,44.27437846426337],[-72.49467479827644,44.27392120000485],[-72.49587768876248,44.274381114185374],[-72.49508201748347,44.27527477603842],[-72.49301266077167,44.274342663702356],[-72.49268892367496,44.275014568292775],[-72.49135639673976,44.27450003158304],[-72.49129684832106,44.27368549225331],[-72.49055998900084,44.273467788923476],[-72.48992440560964,44.27422840300032],[-72.48865157886495,44.273756709556785],[-72.48898977723967,44.27331375094945],[-72.48799544284742,44.27274204743808],[-72.48745830245996,44.273413623180325],[-72.48574792675173,44.273070460987284],[-72.48451257162642,44.27632473658757],[-72.48367572988151,44.27798997599361],[-72.48202103011505,44.27734038627881],[-72.48178514659978,44.27766446024357],[-72.479521917366,44.27679188006888],[-72.4787622375093,44.2772117878304],[-72.47888477265869,44.27765779256573],[-72.47863471832483,44.27782452302548],[-72.47830745816547,44.278528104650576],[-72.47912290414574,44.27874260818543],[-72.47964012995179,44.27855693144928],[-72.48003786844777,44.27878564221765],[-72.479945186831,44.28011084497972]]]]}},{"type":"Feature","properties":{"OBJECT_ID":5,"County":"Washington","RPC":"CVRPC","Municipal_Name":"East Montpelier ","GEO_ID":"5002321925","District_Name":"Rural Residential-Agricultural District","Abbreviated_District_Name":"D","District_Type":"Mixed with Residential","Bylaw_Date":"2024-05-29","Elderly_Housing_District":"No","District_Mapped":"Yes","Overlay_District":"No","Base_Density":null,"GIS_ID":null,"Last_Update":null,"Shape_Length":52021.73667759842,"Shape_Area":31107185.8543339,"F1F_Allowance":"Permitted","F1F_Front_Setback":40.0,"F1F_Side_Setback":25.0,"F1F_Rear_Setback":25.0,"F1F_Frontage":250.0,"F1F_Max_Height":35.0,"F1F_Max_Stories":null,"F1F_Min_Lot_Size":3.0,"F1F_Max_Lot_Building_Coverage":null,"F1F_Max_Lot_Impervious_Coverage":null,"F1F_Min_Parking_Spaces":2.0,"F1F_Elderly_Housing_Only":null,"F1F_Affordable_Housing_Only":null,"F2F_Allowance":"Permitted","F2F_Front_Setback":40.0,"F2F_Side_Setback":25.0,"F2F_Rear_Setback":25.0,"F2F_Frontage":250.0,"F2F_Max_Density":null,"F2F_Max_Height":35.0,"F2F_Max_Stories":null,"F2F_Min_Lot_Size":2.0,"F2F_Max_Lot_Building_Coverage":null,"F2F_Max_Lot_Impervious_Coverage":null,"F2F_Min_Parking_Spaces_per_1BR":2.0,"F2F_Min_Parking_Spaces_per_mult_BR":2.0,"F2F_Elderly_Housing_Only":"No","F2F_Affordable_Housing_Only":"No","F3F_Allowance":"Public Hearing","F3F_Front_Setback":40.0,"F3F_Side_Setback":25.0,"F3F_Rear_Setback":25.0,"F3F_Frontage":250.0,"F3F_Max_Density":null,"F3F_Max_Height":35.0,"F3F_Max_Stories":null,"F3F_Min_Lot_Size":3.0,"F3F_Max_Lot_Building_Coverage":null,"F3F_Max_Lot_Impervious_Coverage":null,"F3F_Min_Parking_Spaces_per_1BR":1.3,"F3F_Min_Parking_Spaces_per_mult_BR":1.3,"F3F_Affordable_Housing_Only":"No","F3F_Proximity_to_Public_Transit_Required":"No","F3F_Connection_to_Sewage/Water_Required":"Yes","F4F_Allowance":"Public Hearing","F4F_Front_Setback":40.0,"F4F_Side_Setback":25.0,"F4F_Rear_Setback":25.0,"F4F_Frontage":250.0,"F1F_Max_Density":null,"F4F_Max_Density":null,"F4F_Max_Height":35.0,"F4F_Max_Stories":null,"F4F_Min_Lot_Size":3.0,"F4F_Max_Lot_Building_Coverage":null,"F4F_Max_Lot_Impervious_Coverage":null,"F4F_Min_Parking_Spaces_per_1BR":1.3,"F4F_Min_Parking_Spaces_per_mult_BR":1.3,"F3F_Elderly_Housing_Only":"No","F4F_Elderly_Housing_Only":"No","F4F_Affordable_Housing_Only":"No","F4F_Proximity_to_Public_Transit_Required":"No","F4F_Connection_to_Sewage/Water_Required":"Yes","ADU_Allowance":"Allowed/Conditional","ADU_Elderly_Housing_Only":"No","ADU_Max_Size_as_Percent_of_Primary_Strcture":30.0,"ADU_Max_Size_in_sq_ft":1200.0,"ADU_Min_Lot_Size":null,"ADU_Max_Bedrooms":null,"ADU_Min_Parking_Spaces":1.0,"ADU_Owner_Occupancy_Required":"No","ADU_Renter_Occupancy_Prohibited":"No","ADU_Employee_or_Family_Occupancy_Required":"No","ADU_Restricted_to_Primary_Structure":"No","Affordable_Housing_Allowance":"Not Mentioned","Affordable_Housing_District":"No","Affordable_Housing_Elderly_Only":"No","Affordable_Housing_Min_Lot_Size":null,"Affordable_Housing_Max_Density":null,"Affordable_Housing_Min_Parking_Spaces_per_mult_BR":null,"Affordable_Housing_Max_Units_per_Building":null,"Affordable_Housing_Min_Parking_Spaces_per_1BR":null,"PRD_Allowance":"Public Hearing","PRD_Max_Density":null,"PRD_Max_Units":null,"PRD_Min_Lot_Size":null,"PRD_Mobile_or_Manufactured_Home_Park":"Yes","PUD_Allowance":"Yes","PUD_Required_with_Subdivision":"No","PUD_Requires_Land_Conservation":"Yes","PUD_Threshold_Number":null,"Notes":"Site Plan Approval Has Public Hearings. Multi-Family Developments With More Than 6 Dwelling Units Require Conditional Use Approval.","FIPS6":null},"geometry":{"type":"MultiPolygon","coordinates":[[[[-72.4602141352408,44.27202989344576],[-72.45647430769921,44.27697743367897],[-72.453939660302,44.275398241293495],[-72.45388480343712,44.275467124298736],[-72.45387689392072,44.2755700562676],[-72.45408365432749,44.275976677405005],[-72.45412357843716,44.27648602511197],[-72.4540438802351,44.27678340836547],[-72.45386048506269,44.27702914129984],[-72.45386031935486,44.277240917162516],[-72.45414692763428,44.2776706322548],[-72.45457667896402,44.278787341444634],[-72.45430578984373,44.27927898644162],[-72.45424201568099,44.27973654440104],[-72.45436923016238,44.280263223308424],[-72.45441726874542,44.28091671166117],[-72.45433802500176,44.28112775291644],[-72.45434646972109,44.28134473574506],[-72.45373055569735,44.28346970340358],[-72.45359461349267,44.28358383210914],[-72.45335619762301,44.28357164200528],[-72.45311787598848,44.28343950143528],[-72.4527142725613,44.28290581532648],[-72.45232579224249,44.28256155342003],[-72.45178476259883,44.28253713943732],[-72.45102739911917,44.28278698158257],[-72.45084464518332,44.28269493789858],[-72.45083775569884,44.28250607985886],[-72.45102982192196,44.28222604405179],[-72.45103911223339,44.28188250913189],[-72.450967506649,44.28183649581646],[-72.4508242062854,44.28185330881897],[-72.45072129722341,44.28178998428173],[-72.45071549273553,44.28124043234],[-72.45079688361093,44.280817055351946],[-72.45070190180347,44.280639268604006],[-72.45040800266511,44.28051258188641],[-72.45015357267422,44.28047169131583],[-72.44973146639488,44.28057359724871],[-72.4494361552551,44.28072744788546],[-72.449284037752,44.28098457727144],[-72.44937121196274,44.28113367490754],[-72.44983186506106,44.28128378127635],[-72.45004586905476,44.281450371102245],[-72.4502197379945,44.28185726521878],[-72.45038593960457,44.28207530242265],[-72.45035328095541,44.282270048082594],[-72.45020907072286,44.28243563715827],[-72.4500179480333,44.282520911254856],[-72.44985859987894,44.282531950759704],[-72.44925467799474,44.282347048111816],[-72.4486103267434,44.28228812017489],[-72.4483959028688,44.28215583917521],[-72.44830136720444,44.28192081833958],[-72.44826337268354,44.28149710742459],[-72.44795433863679,44.281221348595444],[-72.44789153233458,44.28096932593597],[-72.44868159758485,44.28046766464208],[-72.44871377384675,44.28038189941421],[-72.44857835595481,44.28034148079112],[-72.44822008536912,44.28041486343059],[-72.44764788549035,44.28024740368311],[-72.44735495173703,44.27992594872298],[-72.44733211582265,44.27963400844746],[-72.44748465487311,44.279348052767965],[-72.44773225496918,44.279136952956456],[-72.44796429550492,44.27881123858502],[-72.44816366590075,44.27868589464412],[-72.44872903461014,44.27858996541927],[-72.44943622930354,44.278815133186875],[-72.44946840356309,44.2787293686206],[-72.44923049746889,44.278602843981645],[-72.44902436156215,44.2784075692226],[-72.44892450219234,44.27754284173535],[-72.44857602853664,44.27717552176388],[-72.4483129167706,44.2772319334227],[-72.44870815543841,44.277840018737606],[-72.44869154451499,44.27803463177463],[-72.44857165591985,44.27814876272076],[-72.44830107737909,44.27823385781564],[-72.44800630656144,44.278227254987456],[-72.4467712736788,44.2779368551273],[-72.44637747300503,44.27844935397362],[-72.44609142941215,44.27882037701542],[-72.44045966526201,44.28612081576101],[-72.44070468470419,44.28673749461105],[-72.44125878480837,44.28743174829578],[-72.44213121403651,44.288126863788115],[-72.44406820207617,44.289294283967685],[-72.4444960953084,44.289776402630494],[-72.44470852078703,44.29038961514431],[-72.44744217206639,44.29143333192633],[-72.45066867548258,44.29282954872611],[-72.45117062958174,44.29271838594819],[-72.4513461376415,44.29258576464499],[-72.45160018142195,44.291400891806624],[-72.45173423256365,44.29117620084968],[-72.45207480082252,44.29127998289118],[-72.45225707514338,44.29151517821608],[-72.45352756040008,44.29102431823537],[-72.45403296915414,44.29140836833944],[-72.4549247977693,44.29175580704403],[-72.45761771213098,44.29329300025776],[-72.4570107992814,44.29422051443882],[-72.4580532762147,44.29451762335136],[-72.45937784780178,44.2947373786133],[-72.46313850523156,44.29517480145247],[-72.4650720784389,44.295268359451285],[-72.46572440700852,44.29534913192032],[-72.46675842819327,44.295612962266034],[-72.46765732636648,44.29593960211272],[-72.47064537160979,44.29231153404401],[-72.479945186831,44.28011084497972],[-72.48003786844777,44.27878564221765],[-72.47964012995179,44.27855693144928],[-72.47912290414574,44.27874260818543],[-72.47830745816547,44.278528104650576],[-72.47863471832483,44.27782452302548],[-72.47888477265869,44.27765779256573],[-72.4787622375093,44.2772117878304],[-72.479521917366,44.27679188006888],[-72.47520057254604,44.27518476198161],[-72.47365661343208,44.27712977870911],[-72.46635113793252,44.27442300002453],[-72.4602141352408,44.27202989344576]]],[[[-72.47986482185192,44.26560454484838],[-72.47960293125242,44.2657590413515],[-72.47914169738208,44.266271384797086],[-72.47889583678277,44.26646160193235],[-72.47879281689308,44.26669740577192],[-72.47852305677449,44.26694527222984],[-72.4778810094541,44.267375592590184],[-72.47734904023322,44.26753622043873],[-72.47726209019541,44.26769116816343],[-72.47700810705273,44.26776763010045],[-72.48028689210409,44.26896450622445],[-72.48055302544046,44.26890697017456],[-72.48134112366,44.26827306882471],[-72.4800017168575,44.26808235320863],[-72.47986482185192,44.26560454484838]]],[[[-72.52773694635378,44.24560380494105],[-72.52423472481826,44.246921796059155],[-72.52254285921859,44.247809892130626],[-72.52145538894513,44.2485028065813],[-72.52062957348718,44.24895534277702],[-72.5182544764274,44.250026868038276],[-72.51664476428626,44.25061056340035],[-72.51553774686641,44.25128148242972],[-72.51426611815681,44.25154517337749],[-72.51252748709959,44.25178208373438],[-72.50720034421727,44.25892657996715],[-72.50690915345055,44.25881340809612],[-72.50492814213014,44.26184344858001],[-72.50422857509822,44.26192189924264],[-72.50398984734132,44.26210218407095],[-72.50155340992215,44.26520736282053],[-72.50031763402723,44.26666844635909],[-72.50418763266516,44.26847335708684],[-72.50322852857798,44.26979658378552],[-72.50423408371141,44.2701623776651],[-72.5038013566468,44.270711133426474],[-72.50408139096142,44.27083916215713],[-72.50296136108072,44.27229335770497],[-72.50265586875973,44.272220200442945],[-72.50214318134093,44.27295698527609],[-72.50238758129373,44.27307989788637],[-72.50231426938112,44.27323208330485],[-72.50363403644414,44.27372371962355],[-72.50309114835208,44.27442886618647],[-72.50657672190067,44.27584172441507],[-72.50576214201483,44.276948392132276],[-72.50701532527216,44.277510596678255],[-72.50320875837562,44.28310511369179],[-72.50329606427061,44.283136610446554],[-72.50200184993182,44.28575923442832],[-72.50207741428973,44.285776387556815],[-72.50193451866052,44.28606227435605],[-72.50210600620008,44.286102207837956],[-72.50227591175141,44.28572477633409],[-72.50290389283956,44.28542706556606],[-72.50444742146819,44.28595642879404],[-72.50675840652428,44.284365260407874],[-72.50555979953015,44.28392442574277],[-72.50733141804244,44.28118867293215],[-72.51265334829024,44.28317926842823],[-72.51304120677568,44.282641347309465],[-72.5150959317296,44.28319978369172],[-72.51623533552831,44.28368477241635],[-72.52084782916494,44.28528106274807],[-72.5208438892231,44.285451872092956],[-72.52179900693608,44.28581708125032],[-72.5218621395318,44.28569794900295],[-72.52254543337581,44.28597877758212],[-72.52330395919748,44.28640054216682],[-72.5280704415141,44.28869554362511],[-72.53110463045437,44.28949596975129],[-72.52914283774528,44.292340977342626],[-72.52634003320954,44.295844535398544],[-72.52124691488274,44.30301756007814],[-72.51898985855094,44.306028191247854],[-72.52647438215054,44.308889696041774],[-72.52752570793123,44.30747714109971],[-72.52968327133885,44.308038522325965],[-72.52960622112784,44.30825242843996],[-72.53676101455524,44.30981124177477],[-72.53686342317165,44.3094738588547],[-72.53696635920092,44.309353594434064],[-72.53716526531585,44.30925045494059],[-72.53802011035877,44.30775720075752],[-72.53998038082543,44.308315358853974],[-72.54066939875669,44.307285347735856],[-72.54095654564489,44.30737074271548],[-72.54129782246477,44.30701020882719],[-72.54385607100943,44.30790467676935],[-72.54434284394387,44.30679826445122],[-72.54372601520811,44.30659615915047],[-72.54429437689069,44.30578781777321],[-72.54479497669915,44.30579575202242],[-72.54491644819593,44.30605277670755],[-72.54510755350013,44.30611611721777],[-72.54531635010991,44.30610047670904],[-72.54608784873233,44.30411494764143],[-72.54650916093783,44.304212704053214],[-72.54697215399436,44.303104994430264],[-72.5536550878229,44.30431872886633],[-72.55698903143977,44.305366855695866],[-72.55732564471455,44.30482919526295],[-72.5576658877127,44.30450037745033],[-72.55789573715907,44.30438108919444],[-72.55863325893242,44.30447613194406],[-72.55963370219709,44.30476198425289],[-72.5608764812075,44.30307238057867],[-72.55959727913411,44.30261959544591],[-72.55761682738448,44.3017607292459],[-72.5587395411588,44.30025669521103],[-72.56180801734914,44.29583770322066],[-72.56630761565638,44.289549378071555],[-72.56468217004192,44.28887292498089],[-72.56119616596008,44.287574743611934],[-72.56567108376957,44.280953253039115],[-72.56278724200489,44.2798777349942],[-72.55708487647117,44.2777631889022],[-72.55867057001441,44.27549794733966],[-72.55547484693471,44.27429414010142],[-72.55692890079236,44.27253904079235],[-72.55548296540503,44.27189545742886],[-72.55731648562151,44.26933058107267],[-72.55733129521266,44.26930986328862],[-72.55264136745924,44.26756629787995],[-72.55158141471695,44.26717749562166],[-72.54691450696166,44.26546884539854],[-72.54685592501713,44.26544730859538],[-72.54455654701654,44.26458454817796],[-72.54400273515004,44.264376653883765],[-72.53612218575526,44.26141814190203],[-72.53771075657455,44.259321800011726],[-72.53970036159949,44.25651635515919],[-72.53998891160326,44.25610850209137],[-72.54014954754132,44.255891096333215],[-72.5404876584141,44.255442026020496],[-72.53732760540183,44.25417295661074],[-72.53718240630609,44.25411496136752],[-72.53695279388569,44.2540230738207],[-72.53376991694014,44.25273854314541],[-72.53295559310006,44.252409238645654],[-72.53189698150469,44.25198103373817],[-72.5300098895808,44.25121771844858],[-72.52762006316725,44.25025189115757],[-72.52698641187325,44.24999625918762],[-72.5259130851701,44.249557835005184],[-72.52508823347213,44.249215764355704],[-72.52528043756267,44.248953667410724],[-72.52758446763738,44.24581173913394],[-72.52773694635378,44.24560380494105]]],[[[-72.48022139566555,44.233867233844194],[-72.47921008549616,44.23520948608687],[-72.4786268134713,44.23598238263558],[-72.47653395683135,44.23872982779153],[-72.47597565652967,44.23946523286482],[-72.4704604522772,44.2467587857057],[-72.46993875045357,44.24744496306712],[-72.46841172927397,44.24945033785855],[-72.46698309449799,44.251345958032644],[-72.46690198632278,44.2514535725756],[-72.46533764146857,44.25350540066339],[-72.46356473553045,44.25584995683225],[-72.45850984853209,44.262597087319556],[-72.4581429705281,44.26308678555553],[-72.46497419323352,44.26559673095422],[-72.46813943590124,44.26683625642602],[-72.46837712295385,44.26662960943998],[-72.4686628815737,44.266549391877795],[-72.46952901202715,44.26658379844976],[-72.47037156611181,44.26680760773444],[-72.4710869818517,44.266910866746485],[-72.47134921003656,44.26692232386812],[-72.47207961588077,44.266784695125175],[-72.47280352596438,44.2671461265861],[-72.47381321097019,44.26740440499483],[-72.47479834659282,44.267427406867405],[-72.4755768740833,44.26733546830853],[-72.47595814080978,44.26722122370735],[-72.47667222998923,44.26675745858396],[-72.47695769112138,44.266407932403],[-72.47679745317679,44.26581784899579],[-72.47598598355896,44.26516491328575],[-72.47594575359673,44.2649643782076],[-72.47600917825827,44.26491278301958],[-72.47772543199639,44.264776867959256],[-72.47855953499469,44.264576922097035],[-72.47922448544067,44.26457816992488],[-72.47961814401968,44.264325094085926],[-72.4804011367149,44.26303801103516],[-72.47918834082402,44.26240903071546],[-72.47889020854132,44.261994562359156],[-72.48163555419562,44.2609485665996],[-72.48305891543102,44.25994709940721],[-72.4810245156521,44.25945758718883],[-72.48192652801171,44.258207581656976],[-72.48091980240696,44.25796510312892],[-72.48155641937755,44.256893447398205],[-72.48222118859472,44.25695547697227],[-72.48309429475627,44.25568852579306],[-72.48351056231128,44.2556783646241],[-72.48427116249586,44.254335527413375],[-72.48521164354409,44.25277471882707],[-72.4859844825116,44.252944427965524],[-72.48678997737973,44.25298566306018],[-72.48672707734268,44.25228437087304],[-72.48640161938148,44.251455297680536],[-72.48652679909598,44.24997802471222],[-72.48673827076776,44.250170007852574],[-72.48739874776999,44.25020776941397],[-72.48877049488657,44.25068420084439],[-72.49010361796586,44.24828094644968],[-72.490892780737,44.24847310192494],[-72.49173605440541,44.24697487001823],[-72.49170943179857,44.246907468281655],[-72.4937181905109,44.2476632040471],[-72.49489226098493,44.24816094466121],[-72.49549111534428,44.24756096855853],[-72.4958759199231,44.246971679842424],[-72.49893069756152,44.24336534174653],[-72.50102350509891,44.24421920608821],[-72.50108649345874,44.24415606619077],[-72.50198435890516,44.24304794804278],[-72.49918351961614,44.24191257581552],[-72.49959822687266,44.241069545014845],[-72.49815541244338,44.240639506308824],[-72.49995377717106,44.23771320989419],[-72.49115985647002,44.236006624827326],[-72.48824275948796,44.23543719466077],[-72.48804227290366,44.23539805506838],[-72.4859260778869,44.234981288813934],[-72.48194218374474,44.23420965389695],[-72.48174000431047,44.23417065956569],[-72.48172200124743,44.23416718814066],[-72.48166979703262,44.23415704233381],[-72.48022139566555,44.233867233844194]]]]}},{"type":"Feature","properties":{"OBJECT_ID":1208,"County":"Washington","RPC":"CVRPC","Municipal_Name":"East Montpelier ","GEO_ID":"5002321925","District_Name":"Commercial District","Abbreviated_District_Name":"A","District_Type":"Mixed with Residential","Bylaw_Date":"2024-05-29","Elderly_Housing_District":"No","District_Mapped":"Yes","Overlay_District":"No","Base_Density":null,"GIS_ID":null,"Last_Update":null,"Shape_Length":11061.252498508928,"Shape_Area":2427978.7079388984,"F1F_Allowance":"Public Hearing","F1F_Front_Setback":40.0,"F1F_Side_Setback":15.0,"F1F_Rear_Setback":15.0,"F1F_Frontage":150.0,"F1F_Max_Height":35.0,"F1F_Max_Stories":null,"F1F_Min_Lot_Size":1.0,"F1F_Max_Lot_Building_Coverage":null,"F1F_Max_Lot_Impervious_Coverage":null,"F1F_Min_Parking_Spaces":2.0,"F1F_Elderly_Housing_Only":null,"F1F_Affordable_Housing_Only":null,"F2F_Allowance":"Public Hearing","F2F_Front_Setback":40.0,"F2F_Side_Setback":15.0,"F2F_Rear_Setback":15.0,"F2F_Frontage":150.0,"F2F_Max_Density":null,"F2F_Max_Height":35.0,"F2F_Max_Stories":null,"F2F_Min_Lot_Size":1.0,"F2F_Max_Lot_Building_Coverage":null,"F2F_Max_Lot_Impervious_Coverage":null,"F2F_Min_Parking_Spaces_per_1BR":2.0,"F2F_Min_Parking_Spaces_per_mult_BR":2.0,"F2F_Elderly_Housing_Only":"No","F2F_Affordable_Housing_Only":"No","F3F_Allowance":"Public Hearing","F3F_Front_Setback":40.0,"F3F_Side_Setback":15.0,"F3F_Rear_Setback":15.0,"F3F_Frontage":150.0,"F3F_Max_Density":null,"F3F_Max_Height":35.0,"F3F_Max_Stories":null,"F3F_Min_Lot_Size":1.0,"F3F_Max_Lot_Building_Coverage":null,"F3F_Max_Lot_Impervious_Coverage":null,"F3F_Min_Parking_Spaces_per_1BR":1.3,"F3F_Min_Parking_Spaces_per_mult_BR":1.3,"F3F_Affordable_Housing_Only":"No","F3F_Proximity_to_Public_Transit_Required":"No","F3F_Connection_to_Sewage/Water_Required":"Yes","F4F_Allowance":"Public Hearing","F4F_Front_Setback":40.0,"F4F_Side_Setback":15.0,"F4F_Rear_Setback":15.0,"F4F_Frontage":150.0,"F1F_Max_Density":null,"F4F_Max_Density":null,"F4F_Max_Height":35.0,"F4F_Max_Stories":null,"F4F_Min_Lot_Size":1.0,"F4F_Max_Lot_Building_Coverage":null,"F4F_Max_Lot_Impervious_Coverage":null,"F4F_Min_Parking_Spaces_per_1BR":1.3,"F4F_Min_Parking_Spaces_per_mult_BR":1.3,"F3F_Elderly_Housing_Only":"No","F4F_Elderly_Housing_Only":"No","F4F_Affordable_Housing_Only":"No","F4F_Proximity_to_Public_Transit_Required":"No","F4F_Connection_to_Sewage/Water_Required":"Yes","ADU_Allowance":"Allowed/Conditional","ADU_Elderly_Housing_Only":"No","ADU_Max_Size_as_Percent_of_Primary_Strcture":30.0,"ADU_Max_Size_in_sq_ft":1200.0,"ADU_Min_Lot_Size":null,"ADU_Max_Bedrooms":null,"ADU_Min_Parking_Spaces":1.0,"ADU_Owner_Occupancy_Required":"No","ADU_Renter_Occupancy_Prohibited":"No","ADU_Employee_or_Family_Occupancy_Required":"No","ADU_Restricted_to_Primary_Structure":"No","Affordable_Housing_Allowance":"Not Mentioned","Affordable_Housing_District":"Yes","Affordable_Housing_Elderly_Only":"No","Affordable_Housing_Min_Lot_Size":null,"Affordable_Housing_Max_Density":null,"Affordable_Housing_Min_Parking_Spaces_per_mult_BR":null,"Affordable_Housing_Max_Units_per_Building":null,"Affordable_Housing_Min_Parking_Spaces_per_1BR":null,"PRD_Allowance":"Public Hearing","PRD_Max_Density":null,"PRD_Max_Units":null,"PRD_Min_Lot_Size":null,"PRD_Mobile_or_Manufactured_Home_Park":"No","PUD_Allowance":"Yes","PUD_Required_with_Subdivision":"No","PUD_Requires_Land_Conservation":"Yes","PUD_Threshold_Number":null,"Notes":"Site Plan Approval Has Public Hearings.  ","FIPS6":null},"geometry":{"type":"MultiPolygon","coordinates":[[[[-72.4467712736788,44.2779368551273],[-72.44800630656144,44.278227254987456],[-72.44830107737909,44.27823385781564],[-72.44857165591985,44.27814876272076],[-72.44869154451499,44.27803463177463],[-72.44870815543841,44.277840018737606],[-72.4483129167706,44.2772319334227],[-72.44857602853664,44.27717552176388],[-72.44892450219234,44.27754284173535],[-72.44902436156215,44.2784075692226],[-72.44923049746889,44.278602843981645],[-72.44946840356309,44.2787293686206],[-72.44943622930354,44.278815133186875],[-72.44872903461014,44.27858996541927],[-72.44816366590075,44.27868589464412],[-72.44796429550492,44.27881123858502],[-72.44773225496918,44.279136952956456],[-72.44748465487311,44.279348052767965],[-72.44733211582265,44.27963400844746],[-72.44735495173703,44.27992594872298],[-72.44764788549035,44.28024740368311],[-72.44822008536912,44.28041486343059],[-72.44857835595481,44.28034148079112],[-72.44871377384675,44.28038189941421],[-72.44868159758485,44.28046766464208],[-72.44789153233458,44.28096932593597],[-72.44795433863679,44.281221348595444],[-72.44826337268354,44.28149710742459],[-72.44830136720444,44.28192081833958],[-72.4483959028688,44.28215583917521],[-72.4486103267434,44.28228812017489],[-72.44925467799474,44.282347048111816],[-72.44985859987894,44.282531950759704],[-72.4500179480333,44.282520911254856],[-72.45020907072286,44.28243563715827],[-72.45035328095541,44.282270048082594],[-72.45038593960457,44.28207530242265],[-72.4502197379945,44.28185726521878],[-72.45004586905476,44.281450371102245],[-72.44983186506106,44.28128378127635],[-72.44937121196274,44.28113367490754],[-72.449284037752,44.28098457727144],[-72.4494361552551,44.28072744788546],[-72.44973146639488,44.28057359724871],[-72.45015357267422,44.28047169131583],[-72.45040800266511,44.28051258188641],[-72.45070190180347,44.280639268604006],[-72.45079688361093,44.280817055351946],[-72.45071549273553,44.28124043234],[-72.45072129722341,44.28178998428173],[-72.4508242062854,44.28185330881897],[-72.450967506649,44.28183649581646],[-72.45103911223339,44.28188250913189],[-72.45102982192196,44.28222604405179],[-72.45083775569884,44.28250607985886],[-72.45084464518332,44.28269493789858],[-72.45102739911917,44.28278698158257],[-72.45178476259883,44.28253713943732],[-72.45232579224249,44.28256155342003],[-72.4527142725613,44.28290581532648],[-72.45311787598848,44.28343950143528],[-72.45335619762301,44.28357164200528],[-72.45359461349267,44.28358383210914],[-72.45373055569735,44.28346970340358],[-72.45434646972109,44.28134473574506],[-72.45433802500176,44.28112775291644],[-72.45441726874542,44.28091671166117],[-72.45436923016238,44.280263223308424],[-72.45424201568099,44.27973654440104],[-72.45430578984373,44.27927898644162],[-72.45457667896402,44.278787341444634],[-72.45414692763428,44.2776706322548],[-72.45386031935486,44.277240917162516],[-72.45386048506269,44.27702914129984],[-72.4540438802351,44.27678340836547],[-72.45412357843716,44.27648602511197],[-72.45408365432749,44.275976677405005],[-72.45387689392072,44.2755700562676],[-72.45388480343712,44.275467124298736],[-72.453939660302,44.275398241293495],[-72.45647430769921,44.27697743367897],[-72.4602141352408,44.27202989344576],[-72.46635113793252,44.27442300002453],[-72.47365661343208,44.27712977870911],[-72.47520057254604,44.27518476198161],[-72.478245517924,44.27130225068323],[-72.47785373494207,44.27121738017287],[-72.4773598390317,44.27101169367638],[-72.47663510672592,44.27055944894994],[-72.47641169020973,44.27035325083821],[-72.47625958546806,44.26996341531662],[-72.47601234022375,44.26964780802067],[-72.47592398189248,44.26940099767858],[-72.4758588423973,44.268850308318406],[-72.47637344245555,44.26812157284608],[-72.47652414976783,44.268075620297154],[-72.47659542576663,44.26797241792858],[-72.47689684476154,44.26786912278763],[-72.47700810705273,44.26776763010045],[-72.47726209019541,44.26769116816343],[-72.47734904023322,44.26753622043873],[-72.4778810094541,44.267375592590184],[-72.47852305677449,44.26694527222984],[-72.47879281689308,44.26669740577192],[-72.47889583678277,44.26646160193235],[-72.47914169738208,44.266271384797086],[-72.47960293125242,44.2657590413515],[-72.47986482185192,44.26560454484838],[-72.48012513064852,44.26533812040775],[-72.48021389052376,44.26492981433996],[-72.48003154488454,44.264603874199956],[-72.47961814401968,44.264325094085926],[-72.47922448544067,44.26457816992488],[-72.47855953499469,44.264576922097035],[-72.47772543199639,44.264776867959256],[-72.47600917825827,44.26491278301958],[-72.47594575359673,44.2649643782076],[-72.47598598355896,44.26516491328575],[-72.47679745317679,44.26581784899579],[-72.47695769112138,44.266407932403],[-72.47667222998923,44.26675745858396],[-72.47595814080978,44.26722122370735],[-72.4755768740833,44.26733546830853],[-72.47479834659282,44.267427406867405],[-72.47381321097019,44.26740440499483],[-72.47280352596438,44.2671461265861],[-72.47207961588077,44.266784695125175],[-72.47134921003656,44.26692232386812],[-72.4710869818517,44.266910866746485],[-72.47037156611181,44.26680760773444],[-72.46952901202715,44.26658379844976],[-72.4686628815737,44.266549391877795],[-72.46837712295385,44.26662960943998],[-72.46813943590124,44.26683625642602],[-72.46497419323352,44.26559673095422],[-72.4581429705281,44.26308678555553],[-72.45785083558211,44.26347085864833],[-72.45784927739597,44.26347291543105],[-72.45485732641855,44.267406275748584],[-72.45485529663935,44.267408928090006],[-72.45449872081734,44.267873351317235],[-72.453054657256,44.269741712686546],[-72.45201742485683,44.271105148887315],[-72.4520154901121,44.271107683319066],[-72.45061891417788,44.27293012389018],[-72.45023938827073,44.27342525056061],[-72.44929619053495,44.27465070730305],[-72.44690060053807,44.2777685409066],[-72.4467712736788,44.2779368551273]]]]}},{"type":"Feature","properties":{"OBJECT_ID":1207,"County":"Washington","RPC":"CVRPC","Municipal_Name":"East Montpelier ","GEO_ID":"5002321925","District_Name":"Agricultural-Forest Conservation District","Abbreviated_District_Name":"E","District_Type":"Primarily Residential","Bylaw_Date":"2024-05-29","Elderly_Housing_District":"No","District_Mapped":"Yes","Overlay_District":"No","Base_Density":0.14,"GIS_ID":null,"Last_Update":null,"Shape_Length":35478.40020908286,"Shape_Area":35028942.03502444,"F1F_Allowance":"Permitted","F1F_Front_Setback":40.0,"F1F_Side_Setback":25.0,"F1F_Rear_Setback":24.99,"F1F_Frontage":350.0,"F1F_Max_Height":35.0,"F1F_Max_Stories":null,"F1F_Min_Lot_Size":7.0,"F1F_Max_Lot_Building_Coverage":null,"F1F_Max_Lot_Impervious_Coverage":null,"F1F_Min_Parking_Spaces":2.0,"F1F_Elderly_Housing_Only":null,"F1F_Affordable_Housing_Only":null,"F2F_Allowance":"Permitted","F2F_Front_Setback":40.0,"F2F_Side_Setback":25.0,"F2F_Rear_Setback":25.0,"F2F_Frontage":350.0,"F2F_Max_Density":0.14,"F2F_Max_Height":35.0,"F2F_Max_Stories":null,"F2F_Min_Lot_Size":7.0,"F2F_Max_Lot_Building_Coverage":null,"F2F_Max_Lot_Impervious_Coverage":null,"F2F_Min_Parking_Spaces_per_1BR":2.0,"F2F_Min_Parking_Spaces_per_mult_BR":2.0,"F2F_Elderly_Housing_Only":"No","F2F_Affordable_Housing_Only":"No","F3F_Allowance":"Public Hearing","F3F_Front_Setback":40.0,"F3F_Side_Setback":25.0,"F3F_Rear_Setback":25.0,"F3F_Frontage":350.0,"F3F_Max_Density":0.14,"F3F_Max_Height":35.0,"F3F_Max_Stories":null,"F3F_Min_Lot_Size":7.0,"F3F_Max_Lot_Building_Coverage":null,"F3F_Max_Lot_Impervious_Coverage":null,"F3F_Min_Parking_Spaces_per_1BR":1.3,"F3F_Min_Parking_Spaces_per_mult_BR":1.3,"F3F_Affordable_Housing_Only":"No","F3F_Proximity_to_Public_Transit_Required":"No","F3F_Connection_to_Sewage/Water_Required":"Yes","F4F_Allowance":"Public Hearing","F4F_Front_Setback":40.0,"F4F_Side_Setback":25.0,"F4F_Rear_Setback":25.0,"F4F_Frontage":350.0,"F1F_Max_Density":null,"F4F_Max_Density":0.14,"F4F_Max_Height":35.0,"F4F_Max_Stories":null,"F4F_Min_Lot_Size":7.0,"F4F_Max_Lot_Building_Coverage":null,"F4F_Max_Lot_Impervious_Coverage":null,"F4F_Min_Parking_Spaces_per_1BR":1.3,"F4F_Min_Parking_Spaces_per_mult_BR":1.3,"F3F_Elderly_Housing_Only":"No","F4F_Elderly_Housing_Only":"No","F4F_Affordable_Housing_Only":"No","F4F_Proximity_to_Public_Transit_Required":"No","F4F_Connection_to_Sewage/Water_Required":"Yes","ADU_Allowance":"Allowed/Conditional","ADU_Elderly_Housing_Only":"No","ADU_Max_Size_as_Percent_of_Primary_Strcture":30.0,"ADU_Max_Size_in_sq_ft":1200.0,"ADU_Min_Lot_Size":null,"ADU_Max_Bedrooms":null,"ADU_Min_Parking_Spaces":1.0,"ADU_Owner_Occupancy_Required":"No","ADU_Renter_Occupancy_Prohibited":"No","ADU_Employee_or_Family_Occupancy_Required":"No","ADU_Restricted_to_Primary_Structure":"No","Affordable_Housing_Allowance":"Not Mentioned","Affordable_Housing_District":"No","Affordable_Housing_Elderly_Only":"No","Affordable_Housing_Min_Lot_Size":null,"Affordable_Housing_Max_Density":null,"Affordable_Housing_Min_Parking_Spaces_per_mult_BR":null,"Affordable_Housing_Max_Units_per_Building":null,"Affordable_Housing_Min_Parking_Spaces_per_1BR":null,"PRD_Allowance":"Public Hearing","PRD_Max_Density":null,"PRD_Max_Units":null,"PRD_Min_Lot_Size":null,"PRD_Mobile_or_Manufactured_Home_Park":"Yes","PUD_Allowance":"Yes","PUD_Required_with_Subdivision":"No","PUD_Requires_Land_Conservation":"Yes","PUD_Threshold_Number":null,"Notes":"Site Plan Approval Has Public Hearings.  ","FIPS6":null},"geometry":{"type":"MultiPolygon","coordinates":[[[[-72.54615602795397,44.343615027433465],[-72.55078406941351,44.345432794702624],[-72.5526727996156,44.34292282661668],[-72.55649273351764,44.33765414771524],[-72.55922759814642,44.333898786702186],[-72.56127597977893,44.331108262814894],[-72.5612760023159,44.3311082322038],[-72.56775304984357,44.32224384463485],[-72.5707539063003,44.31815055865284],[-72.57282375195862,44.31531612379817],[-72.57339847856346,44.314302078177555],[-72.5739528994877,44.31332384718197],[-72.57240508632543,44.3127754841004],[-72.57151641518227,44.31245990029781],[-72.57052298818334,44.312105031035365],[-72.56963653403706,44.311786951773435],[-72.56905299279676,44.311576834553584],[-72.56886646583567,44.3115096381184],[-72.56881610696946,44.31149080321659],[-72.56550597110893,44.310252632157265],[-72.56431256190729,44.30980620858972],[-72.57192022358578,44.29967508565028],[-72.57092255649289,44.29929655056478],[-72.5660901668574,44.29746284895775],[-72.56240481211798,44.29606420606728],[-72.56180801734914,44.29583770322066],[-72.5587395411588,44.30025669521103],[-72.55761682738448,44.3017607292459],[-72.55959727913411,44.30261959544591],[-72.5608764812075,44.30307238057867],[-72.55963370219709,44.30476198425289],[-72.55863325893242,44.30447613194406],[-72.55789573715907,44.30438108919444],[-72.5576658877127,44.30450037745033],[-72.55732564471455,44.30482919526295],[-72.55698903143977,44.305366855695866],[-72.5536550878229,44.30431872886633],[-72.54697215399436,44.303104994430264],[-72.54650916093783,44.304212704053214],[-72.54608784873233,44.30411494764143],[-72.54531635010991,44.30610047670904],[-72.54510755350013,44.30611611721777],[-72.54491644819593,44.30605277670755],[-72.54479497669915,44.30579575202242],[-72.54429437689069,44.30578781777321],[-72.54372601520811,44.30659615915047],[-72.54434284394387,44.30679826445122],[-72.54385607100943,44.30790467676935],[-72.54129782246477,44.30701020882719],[-72.54095654564489,44.30737074271548],[-72.54066939875669,44.307285347735856],[-72.53998038082543,44.308315358853974],[-72.53802011035877,44.30775720075752],[-72.53716526531585,44.30925045494059],[-72.53696635920092,44.309353594434064],[-72.53686342317165,44.3094738588547],[-72.53676101455524,44.30981124177477],[-72.52960622112784,44.30825242843996],[-72.52968327133885,44.308038522325965],[-72.52752570793123,44.30747714109971],[-72.52647438215054,44.308889696041774],[-72.51898985855094,44.306028191247854],[-72.52124691488274,44.30301756007814],[-72.52634003320954,44.295844535398544],[-72.52914283774528,44.292340977342626],[-72.53110463045437,44.28949596975129],[-72.5280704415141,44.28869554362511],[-72.52330395919748,44.28640054216682],[-72.52254543337581,44.28597877758212],[-72.5218621395318,44.28569794900295],[-72.52179900693608,44.28581708125032],[-72.5208438892231,44.285451872092956],[-72.52084782916494,44.28528106274807],[-72.51623533552831,44.28368477241635],[-72.5150959317296,44.28319978369172],[-72.51304120677568,44.282641347309465],[-72.51265334829024,44.28317926842823],[-72.50733141804244,44.28118867293215],[-72.50555979953015,44.28392442574277],[-72.50675840652428,44.284365260407874],[-72.50444742146819,44.28595642879404],[-72.50290389283956,44.28542706556606],[-72.50227591175141,44.28572477633409],[-72.50210600620008,44.286102207837956],[-72.50193451866052,44.28606227435605],[-72.50207741428973,44.285776387556815],[-72.50200184993182,44.28575923442832],[-72.50329606427061,44.283136610446554],[-72.50320875837562,44.28310511369179],[-72.5016125896768,44.28245406972995],[-72.49662789717067,44.28895410694398],[-72.48244706311095,44.28351030391032],[-72.48210513883862,44.28333022910505],[-72.48198586798729,44.2830586985931],[-72.48156824139053,44.28270138015616],[-72.48117046141601,44.28250125458261],[-72.48089213311685,44.282001056121054],[-72.48133016150895,44.28155779819397],[-72.48063381491208,44.28115789736881],[-72.48039531439701,44.28055767258374],[-72.47991793984171,44.28050043021956],[-72.479945186831,44.28011084497972],[-72.47064537160979,44.29231153404401],[-72.46765732636648,44.29593960211272],[-72.46675842819327,44.295612962266034],[-72.46572440700852,44.29534913192032],[-72.4650720784389,44.295268359451285],[-72.46313850523156,44.29517480145247],[-72.45937784780178,44.2947373786133],[-72.45921431482147,44.295836069173674],[-72.46304002126992,44.297361991881914],[-72.45986920898105,44.30163752137394],[-72.45913641067314,44.30383417139505],[-72.45759768355923,44.30325235539068],[-72.45628570217134,44.304884246417444],[-72.45425828578324,44.304174581034545],[-72.45426764327445,44.305237539783995],[-72.45416670531836,44.30610639709027],[-72.45346680585625,44.30711619527724],[-72.45217282894451,44.306546707720166],[-72.45134698079396,44.306358207579386],[-72.45025164005625,44.30621514744008],[-72.44961901009958,44.308211441213444],[-72.4503741045562,44.308486755296755],[-72.45905807718718,44.311673631877824],[-72.46855763893508,44.31524422121521],[-72.47362644647836,44.31714579529869],[-72.47729851527973,44.31852231582322],[-72.48158483648164,44.32013491562595],[-72.48190171672285,44.32025348814118],[-72.48656169007275,44.32199537979102],[-72.48765286822811,44.32240119688058],[-72.48776593905308,44.32244320264391],[-72.48821968175832,44.32261220659497],[-72.4915553866338,44.323855745656196],[-72.49596423746608,44.325509211169354],[-72.49792636047839,44.32624011522706],[-72.49825412728711,44.32636222163628],[-72.49845023538086,44.326435560439286],[-72.50036839242844,44.32715287635775],[-72.50229592543786,44.32787042527898],[-72.50254928980237,44.32796418970637],[-72.50274024548074,44.32803490682215],[-72.50289300265585,44.32809301239554],[-72.50439843484192,44.32866435332751],[-72.50793627656586,44.32998444586104],[-72.50882972249843,44.33031688532766],[-72.51273859621361,44.33176369081552],[-72.5128970216065,44.3318223286223],[-72.51294483572978,44.331840222729014],[-72.51303942081557,44.33187577700898],[-72.51906170280637,44.33413941294934],[-72.51962499757097,44.33434949570533],[-72.52026206372163,44.33458653201963],[-72.52440412150774,44.33612768585866],[-72.52476927357014,44.33625758721577],[-72.5307915415805,44.33833985939784],[-72.53082514553316,44.33835147704127],[-72.53258124375743,44.33895429230935],[-72.53459193938893,44.33964390474023],[-72.53519531079426,44.339850842969135],[-72.53527612845491,44.33987867298981],[-72.53540556685616,44.33992331641939],[-72.54086685152838,44.341806792603776],[-72.54120709062369,44.34192414062471],[-72.5424755365249,44.34235831690382],[-72.54615602795397,44.343615027433465]]]]}}]}