{"type":"FeatureCollection","name":"Washington_Woodbury","features":[{"type":"Feature","properties":{"OBJECT_ID":1305,"County":"Washington","RPC":"CVRPC","Municipal_Name":"Woodbury","GEO_ID":"5002385525","District_Name":"Village District","Abbreviated_District_Name":"V","District_Type":"Mixed with Residential","Bylaw_Date":"2024-06-05","Elderly_Housing_District":"No","District_Mapped":"Yes","Overlay_District":"No","Base_Density":null,"FIPS6":null,"GIS_ID":null,"Last_Update":null,"Shape_Length":3830.476826177156,"Shape_Area":322262.46644429775,"F1F_Allowance":"Permitted","F1F_Front_Setback":null,"F1F_Side_Setback":25.0,"F1F_Rear_Setback":25.0,"F1F_Frontage":150.0,"F1F_Max_Height":35.0,"F1F_Max_Stories":null,"F1F_Min_Lot_Size":1.0,"F1F_Max_Lot_Building_Coverage":null,"F1F_Max_Lot_Impervious_Coverage":15.0,"F1F_Min_Parking_Spaces":null,"F1F_Elderly_Housing_Only":null,"F1F_Affordable_Housing_Only":null,"F2F_Allowance":"Public Hearing","F2F_Front_Setback":null,"F2F_Side_Setback":25.0,"F2F_Rear_Setback":25.0,"F2F_Frontage":150.0,"F2F_Max_Density":null,"F2F_Max_Height":35.0,"F2F_Max_Stories":null,"F2F_Min_Lot_Size":2.0,"F2F_Max_Lot_Building_Coverage":null,"F2F_Max_Lot_Impervious_Coverage":15.0,"F2F_Min_Parking_Spaces_per_1BR":null,"F2F_Min_Parking_Spaces_per_mult_BR":null,"F2F_Elderly_Housing_Only":"No","F2F_Affordable_Housing_Only":"No","F3F_Allowance":"Public Hearing","F3F_Front_Setback":null,"F3F_Side_Setback":25.0,"F3F_Rear_Setback":25.0,"F3F_Frontage":150.0,"F3F_Max_Density":null,"F3F_Max_Height":35.0,"F3F_Max_Stories":null,"F3F_Min_Lot_Size":3.0,"F3F_Max_Lot_Building_Coverage":null,"F3F_Max_Lot_Impervious_Coverage":null,"F3F_Min_Parking_Spaces_per_1BR":null,"F3F_Min_Parking_Spaces_per_mult_BR":null,"F3F_Affordable_Housing_Only":"No","F3F_Proximity_to_Public_Transit_Required":"No","F3F_Connection_to_Sewage/Water_Required":"No","F4F_Allowance":"Public Hearing","F4F_Front_Setback":null,"F4F_Side_Setback":25.0,"F4F_Rear_Setback":25.0,"F4F_Frontage":150.0,"F1F_Max_Density":null,"F4F_Max_Density":null,"F4F_Max_Height":35.0,"F4F_Max_Stories":null,"F4F_Min_Lot_Size":null,"F4F_Max_Lot_Building_Coverage":null,"F4F_Max_Lot_Impervious_Coverage":15.0,"F4F_Min_Parking_Spaces_per_1BR":null,"F4F_Min_Parking_Spaces_per_mult_BR":null,"F3F_Elderly_Housing_Only":"No","F4F_Elderly_Housing_Only":"No","F4F_Affordable_Housing_Only":"No","F4F_Proximity_to_Public_Transit_Required":"No","F4F_Connection_to_Sewage/Water_Required":"No","ADU_Allowance":"Allowed/Conditional","ADU_Elderly_Housing_Only":"No","ADU_Max_Size_as_Percent_of_Primary_Strcture":null,"ADU_Max_Size_in_sq_ft":null,"ADU_Min_Lot_Size":null,"ADU_Max_Bedrooms":null,"ADU_Min_Parking_Spaces":null,"ADU_Owner_Occupancy_Required":"No","ADU_Renter_Occupancy_Prohibited":"No","ADU_Employee_or_Family_Occupancy_Required":"No","ADU_Restricted_to_Primary_Structure":"No","Affordable_Housing_Allowance":"Not Mentioned","Affordable_Housing_District":"No","Affordable_Housing_Elderly_Only":"No","Affordable_Housing_Min_Lot_Size":null,"Affordable_Housing_Max_Density":null,"Affordable_Housing_Min_Parking_Spaces_per_mult_BR":null,"Affordable_Housing_Max_Units_per_Building":null,"Affordable_Housing_Min_Parking_Spaces_per_1BR":null,"PRD_Allowance":"Public Hearing","PRD_Max_Density":null,"PRD_Max_Units":null,"PRD_Min_Lot_Size":5.0,"PRD_Mobile_or_Manufactured_Home_Park":"No","PUD_Allowance":"Yes","PUD_Required_with_Subdivision":"No","PUD_Requires_Land_Conservation":"No","PUD_Threshold_Number":null,"Notes":"Multi-Family: 2 Or More Accessory Structures Are Permitted But not Much Else Is Said About Them And \"Accessory Dwelling Unit\" Is Never Mentioned. Within That Said, I've Listed Adus As Permitted Since I'd Bet They Are And That The Terminology Of Adus Was Just not Included In This Zoning Code From The 70s And Have Left The Other Fields Blank.  "},"geometry":{"type":"MultiPolygon","coordinates":[[[[-72.41443408713579,44.437065060611296],[-72.41228451961058,44.43764544295654],[-72.41389334327327,44.440703726834116],[-72.41439129153727,44.44216959586448],[-72.41456231485726,44.44361373010522],[-72.4168516013896,44.443474651560756],[-72.41666541070317,44.44190368283974],[-72.41609232135443,44.44021712058834],[-72.41443408713579,44.437065060611296]]],[[[-72.4182369914415,44.412490339347684],[-72.4177348528161,44.41326436281614],[-72.41661628712679,44.41460686633871],[-72.41495335614017,44.41598271378111],[-72.4135062952554,44.41674110744616],[-72.41463627987062,44.41816220677702],[-72.42147234300279,44.41605755469894],[-72.42189761908978,44.415831171319596],[-72.42215386751107,44.4155056795663],[-72.42221014046673,44.41539238536619],[-72.42145709824531,44.41514576679224],[-72.42040472683505,44.41457764572266],[-72.41961582161845,44.41388624262274],[-72.41952073591506,44.413692832362884],[-72.41978868713046,44.412549248297864],[-72.4182369914415,44.412490339347684]]]]}},{"type":"Feature","properties":{"OBJECT_ID":1303,"County":"Washington","RPC":"CVRPC","Municipal_Name":"Woodbury","GEO_ID":"5002385525","District_Name":"Agricultural-Rural Residential District","Abbreviated_District_Name":"Ar","District_Type":"Mixed with Residential","Bylaw_Date":"2024-06-05","Elderly_Housing_District":"No","District_Mapped":"Yes","Overlay_District":"No","Base_Density":null,"FIPS6":null,"GIS_ID":null,"Last_Update":null,"Shape_Length":78469.18416329943,"Shape_Area":89853133.93155526,"F1F_Allowance":"Permitted","F1F_Front_Setback":null,"F1F_Side_Setback":25.0,"F1F_Rear_Setback":25.0,"F1F_Frontage":150.0,"F1F_Max_Height":35.0,"F1F_Max_Stories":null,"F1F_Min_Lot_Size":3.0,"F1F_Max_Lot_Building_Coverage":null,"F1F_Max_Lot_Impervious_Coverage":null,"F1F_Min_Parking_Spaces":null,"F1F_Elderly_Housing_Only":null,"F1F_Affordable_Housing_Only":null,"F2F_Allowance":"Public Hearing","F2F_Front_Setback":null,"F2F_Side_Setback":25.0,"F2F_Rear_Setback":25.0,"F2F_Frontage":150.0,"F2F_Max_Density":null,"F2F_Max_Height":35.0,"F2F_Max_Stories":null,"F2F_Min_Lot_Size":6.0,"F2F_Max_Lot_Building_Coverage":null,"F2F_Max_Lot_Impervious_Coverage":null,"F2F_Min_Parking_Spaces_per_1BR":null,"F2F_Min_Parking_Spaces_per_mult_BR":null,"F2F_Elderly_Housing_Only":"No","F2F_Affordable_Housing_Only":"No","F3F_Allowance":"Public Hearing","F3F_Front_Setback":null,"F3F_Side_Setback":25.0,"F3F_Rear_Setback":25.0,"F3F_Frontage":150.0,"F3F_Max_Density":null,"F3F_Max_Height":35.0,"F3F_Max_Stories":null,"F3F_Min_Lot_Size":9.0,"F3F_Max_Lot_Building_Coverage":null,"F3F_Max_Lot_Impervious_Coverage":null,"F3F_Min_Parking_Spaces_per_1BR":null,"F3F_Min_Parking_Spaces_per_mult_BR":null,"F3F_Affordable_Housing_Only":"No","F3F_Proximity_to_Public_Transit_Required":"No","F3F_Connection_to_Sewage/Water_Required":"No","F4F_Allowance":"Public Hearing","F4F_Front_Setback":null,"F4F_Side_Setback":25.0,"F4F_Rear_Setback":25.0,"F4F_Frontage":150.0,"F1F_Max_Density":null,"F4F_Max_Density":null,"F4F_Max_Height":35.0,"F4F_Max_Stories":null,"F4F_Min_Lot_Size":null,"F4F_Max_Lot_Building_Coverage":null,"F4F_Max_Lot_Impervious_Coverage":null,"F4F_Min_Parking_Spaces_per_1BR":null,"F4F_Min_Parking_Spaces_per_mult_BR":null,"F3F_Elderly_Housing_Only":"No","F4F_Elderly_Housing_Only":"No","F4F_Affordable_Housing_Only":"No","F4F_Proximity_to_Public_Transit_Required":"No","F4F_Connection_to_Sewage/Water_Required":"No","ADU_Allowance":"Allowed/Conditional","ADU_Elderly_Housing_Only":"No","ADU_Max_Size_as_Percent_of_Primary_Strcture":null,"ADU_Max_Size_in_sq_ft":null,"ADU_Min_Lot_Size":null,"ADU_Max_Bedrooms":null,"ADU_Min_Parking_Spaces":null,"ADU_Owner_Occupancy_Required":"No","ADU_Renter_Occupancy_Prohibited":"No","ADU_Employee_or_Family_Occupancy_Required":"No","ADU_Restricted_to_Primary_Structure":"No","Affordable_Housing_Allowance":"Not Mentioned","Affordable_Housing_District":"No","Affordable_Housing_Elderly_Only":"No","Affordable_Housing_Min_Lot_Size":null,"Affordable_Housing_Max_Density":null,"Affordable_Housing_Min_Parking_Spaces_per_mult_BR":null,"Affordable_Housing_Max_Units_per_Building":null,"Affordable_Housing_Min_Parking_Spaces_per_1BR":null,"PRD_Allowance":"Public Hearing","PRD_Max_Density":null,"PRD_Max_Units":null,"PRD_Min_Lot_Size":10.0,"PRD_Mobile_or_Manufactured_Home_Park":"Yes","PUD_Allowance":"Yes","PUD_Required_with_Subdivision":"No","PUD_Requires_Land_Conservation":"No","PUD_Threshold_Number":null,"Notes":"Multi-Family: 2 Or More Accessory Structures Are Permitted But not Much Else Is Said About Them And \"Accessory Dwelling Unit\" Is Never Mentioned. Within That Said, I've Listed Adus As Permitted Since I'd Bet They Are And That The Terminology Of Adus Was Just not Included In This Zoning Code From The 70s And Have Left The Other Fields Blank. 2 Or More Accessory Structures Are Permitted"},"geometry":{"type":"MultiPolygon","coordinates":[[[[-72.37990568425832,44.38435548770561],[-72.37514529130499,44.390778906979605],[-72.36540167788462,44.40389464955673],[-72.36378869667242,44.40607565382082],[-72.35961223380424,44.411724160124294],[-72.35794331446589,44.41395021132585],[-72.35613078717587,44.41638683366053],[-72.35390342647452,44.419385075955105],[-72.34378249593804,44.43302381546387],[-72.33365685034171,44.446661618345786],[-72.33223887524268,44.44856334943637],[-72.32921101740843,44.45258920989013],[-72.32913138479744,44.45269542905707],[-72.32474158847656,44.458556763346],[-72.32139526440274,44.46317534100709],[-72.32602288772345,44.46455326602131],[-72.33362133946616,44.46744941958684],[-72.33763496230756,44.468984144026905],[-72.3406408538618,44.47013115932618],[-72.35451546780133,44.4754467316679],[-72.36839260374678,44.48076061666887],[-72.37587935010406,44.48363451835125],[-72.37953637149673,44.48503449018089],[-72.38128501749482,44.48570745958667],[-72.3818517920897,44.48592402265753],[-72.38391393720154,44.4867070707877],[-72.38821084532387,44.48834542406875],[-72.40313290145687,44.494102345117234],[-72.40543729886805,44.49498998211521],[-72.41097148308148,44.49711262767746],[-72.42608137827814,44.502920613647014],[-72.42625498690907,44.502988110940564],[-72.43468432989302,44.505247853204025],[-72.43736907752384,44.50150930865486],[-72.43736953215006,44.501508674443755],[-72.4375681572794,44.5012294568173],[-72.4426959820088,44.494133976049724],[-72.44274617555162,44.49406422758608],[-72.44279014584649,44.49400291206708],[-72.44511868840118,44.49075565003317],[-72.44535749409468,44.4904226163864],[-72.44556359175972,44.49013535317023],[-72.447343339911,44.48765525290608],[-72.44792999453212,44.4869860339784],[-72.44835371545464,44.486502660088775],[-72.44869999759554,44.48603457591808],[-72.4498125376155,44.48453070900332],[-72.44987175932813,44.48445065686917],[-72.45052944839524,44.483552967914335],[-72.45122562274678,44.482369792343924],[-72.45293462647093,44.48029964127042],[-72.4563907453968,44.47559437472768],[-72.4584842524053,44.4727690602842],[-72.46126923375589,44.46926520028485],[-72.46140874073733,44.46908861092683],[-72.46232240854974,44.46791687183114],[-72.46315487549415,44.4668489693702],[-72.46368302438711,44.46617121836459],[-72.46434900409606,44.46530623834042],[-72.46699826030006,44.461540100033226],[-72.46835739041715,44.45995387320383],[-72.46994531345875,44.457780921440126],[-72.47232660353927,44.454878899622955],[-72.4733563304828,44.45362349190591],[-72.47447865178309,44.45225470415154],[-72.47593437169189,44.45001944898796],[-72.48179117571686,44.442974811642934],[-72.48274899099226,44.441732241061295],[-72.48283720140408,44.44161780008964],[-72.48332068246185,44.440990471033295],[-72.4847430738684,44.439144316181896],[-72.48509149867098,44.43677838256988],[-72.49324310211338,44.42583759355451],[-72.49324172325073,44.42583708319805],[-72.48661477461847,44.4233837958969],[-72.48443067994631,44.42257771271139],[-72.48372679518336,44.42231801771547],[-72.48278222225964,44.42196913176885],[-72.48113736861463,44.421361367225394],[-72.47984644643458,44.42088561245063],[-72.4756418026654,44.41934990636453],[-72.47500351939897,44.419116769659276],[-72.47500307494904,44.419116606669846],[-72.47482102049158,44.41904910772213],[-72.47440524599477,44.418893504576374],[-72.46991222028909,44.41721203859609],[-72.46669419584218,44.41600772825183],[-72.4603553065355,44.41362462896774],[-72.45742263631618,44.4125269227418],[-72.45622773944443,44.41207882124713],[-72.45454746973401,44.41144614881334],[-72.45430367309933,44.41135531507409],[-72.45333279443942,44.41100285625285],[-72.4524758842166,44.41069169071269],[-72.44996930878501,44.409773271337585],[-72.44973345515483,44.41034596873586],[-72.44950754994723,44.41069193542964],[-72.4487044816441,44.41149196527326],[-72.44812379661617,44.4123836549855],[-72.44781708435949,44.412697366594024],[-72.44743939389687,44.41296745256785],[-72.44700209478479,44.41318647663386],[-72.44609663521966,44.413463788909176],[-72.44498601598822,44.4141124843924],[-72.44405273076698,44.41436373844181],[-72.4422118672201,44.41458233063497],[-72.44167944147198,44.41454872291218],[-72.44116436583856,44.41444919795336],[-72.44068111176504,44.414287232842234],[-72.44024345468051,44.41406750506479],[-72.4389730780286,44.413175868096296],[-72.43839532405576,44.4126066073329],[-72.43822491117845,44.41236451392483],[-72.4376227830144,44.41220318693287],[-72.4364509549235,44.41208343158186],[-72.43593589351437,44.41198386591209],[-72.4354526566051,44.411821885820316],[-72.43426483032171,44.41127349307538],[-72.43388809016082,44.411002726647204],[-72.43358280226192,44.41068924801894],[-72.43335759227605,44.41034236385726],[-72.43321990317308,44.40997302427399],[-72.43317403738186,44.409592196290724],[-72.43318096192523,44.40901833107701],[-72.43332054781098,44.408406583071134],[-72.43318285845228,44.408037237917746],[-72.43313701431839,44.40765655739596],[-72.43327758286074,44.40652467059182],[-72.43341648145041,44.40615520963497],[-72.43364246054469,44.40580897934765],[-72.43394881044834,44.40549557430024],[-72.43552093708466,44.40431556513526],[-72.43551405075623,44.404260046365856],[-72.43191918207586,44.40288869120452],[-72.43173645550057,44.40281898199157],[-72.42789085382788,44.40136162933732],[-72.42493838792096,44.40024542783163],[-72.42380194389975,44.39981419400285],[-72.42175391990322,44.39903680730633],[-72.42175363635529,44.39903669911689],[-72.42151808468813,44.3989469887996],[-72.42091087452977,44.3987154953542],[-72.42086820929318,44.39877598541923],[-72.42125468828154,44.39931198969088],[-72.42163253386967,44.40014162018322],[-72.42231218767715,44.4002516275557],[-72.42272744251822,44.400386060828936],[-72.42360329609532,44.40077827195587],[-72.42398031486218,44.40104908017471],[-72.42473629717568,44.401936444191705],[-72.42494575466529,44.40226381089143],[-72.4250833435123,44.402633186080315],[-72.42512073856233,44.40317991343327],[-72.42490291593863,44.40507937912077],[-72.42476396004204,44.40544883875517],[-72.42445269848356,44.405881734067606],[-72.42441144536338,44.40621708995889],[-72.42427248492889,44.40658654711841],[-72.42386682005498,44.407202734814994],[-72.42356000153107,44.407516412099014],[-72.4231822178603,44.407786412645635],[-72.42274486446146,44.40800534760493],[-72.42166231757595,44.4083745850817],[-72.42114667736536,44.408473069133564],[-72.42061578082306,44.40850604127445],[-72.42008344151505,44.40847234821172],[-72.41926095365068,44.40829345743237],[-72.41870685156486,44.40809885967669],[-72.41800074661585,44.40804169808163],[-72.41710158605957,44.40826111413702],[-72.41666369089403,44.40828961667474],[-72.41624147605151,44.408605008807314],[-72.41518691779572,44.40913112484219],[-72.41470290381488,44.409292467162096],[-72.41418725393335,44.40939093237245],[-72.41365635151428,44.409423865856795],[-72.41312397529933,44.409390130437075],[-72.41178913252001,44.40919323867175],[-72.4108749778679,44.408943206384876],[-72.41043744959086,44.40872349029521],[-72.41008827899788,44.40847250464962],[-72.40947146637563,44.4082759777054],[-72.40903394223801,44.40805613742295],[-72.40841090493815,44.40754209887609],[-72.40772598338022,44.40675520961261],[-72.40750092756261,44.40640826266068],[-72.40736342797807,44.4060388954123],[-72.40731773802293,44.40565805783123],[-72.40747138043238,44.404993334978045],[-72.4072347216341,44.40431436957004],[-72.40724967286549,44.40353916043519],[-72.40738872059707,44.40316973106107],[-72.4079903848254,44.40224620645196],[-72.4082972709663,44.401932875841915],[-72.40867469514345,44.40166276826884],[-72.40911205510405,44.40144375285077],[-72.4095959730301,44.401282556315934],[-72.41075738719542,44.40112599556053],[-72.41058882818223,44.400265270947216],[-72.41063105748327,44.399595819355866],[-72.41098008656294,44.3983528754382],[-72.41133336563718,44.39768380393994],[-72.41141171362175,44.396974586240916],[-72.41155072584962,44.39660514234534],[-72.41177682079494,44.39625898092719],[-72.41208361148327,44.3959456298394],[-72.41266997034616,44.39557131537146],[-72.40610192658295,44.39304750015567],[-72.40591765268559,44.39297668629525],[-72.40566097493219,44.39287779117755],[-72.40139393700669,44.391237940217316],[-72.40139139453055,44.39123697056417],[-72.40116310233066,44.39115005839474],[-72.40078821861722,44.39100653697188],[-72.40054032587335,44.39091156627462],[-72.39923396296008,44.390410995001055],[-72.3986667195501,44.39019363670534],[-72.39809115872572,44.38997290590852],[-72.39799872114587,44.38993726502636],[-72.3979329651093,44.38991191107355],[-72.39687723276344,44.389504822843925],[-72.39601524761176,44.389171530821],[-72.39539298618767,44.3889309222132],[-72.39458565246535,44.38862508223601],[-72.39414050957734,44.38845708421209],[-72.39253560727003,44.38785137111392],[-72.39146170742184,44.38744366211654],[-72.39145507049197,44.387441133217024],[-72.38879960957873,44.38642790738048],[-72.38855137478839,44.38633318834494],[-72.37990568425832,44.38435548770561]],[[-72.38755476058618,44.389859366782986],[-72.38808656203108,44.38989321732178],[-72.38860171589042,44.38999300732298],[-72.38908462282042,44.39015490062633],[-72.38952149707825,44.390374811978],[-72.3898979440782,44.39064573442628],[-72.39020329460087,44.39095947135884],[-72.39042816323499,44.39130619035966],[-72.39093164511007,44.39243160741426],[-72.39094763886489,44.393115175446034],[-72.39076231207379,44.39405194040577],[-72.39035168556755,44.39529053904123],[-72.39012547368971,44.39563637360432],[-72.38971245286925,44.39606024664831],[-72.38950542262664,44.396852413099936],[-72.3890280602853,44.39746295677282],[-72.38835024837599,44.39807383090978],[-72.38797238387181,44.398343743266786],[-72.38753496233744,44.39856252840436],[-72.38705098860869,44.39872377638953],[-72.38569003867228,44.39900914441362],[-72.38515921068465,44.399041936582904],[-72.38462697916273,44.39900806033176],[-72.38411210824894,44.39890826544558],[-72.3836291713283,44.39874605794857],[-72.38319181889248,44.39852611669334],[-72.38281539384631,44.398255177040305],[-72.38251043635327,44.397941552558706],[-72.38199606116818,44.397030667564536],[-72.3818540309148,44.39665112627349],[-72.38180812452319,44.396270277643595],[-72.38199003307463,44.393781242156564],[-72.38203292236032,44.39351425277964],[-72.38228548918651,44.392951749787734],[-72.3831076998197,44.39171937212791],[-72.38354440916412,44.39123849015578],[-72.38463022492343,44.390375762355724],[-72.38506795795729,44.39015684614434],[-72.3855515059317,44.3899957723819],[-72.38606704606117,44.3898972731018],[-72.38755476058618,44.389859366782986]],[[-72.4182369914415,44.412490339347684],[-72.41978868713046,44.412549248297864],[-72.41952073591506,44.413692832362884],[-72.41961582161845,44.41388624262274],[-72.42040472683505,44.41457764572266],[-72.42145709824531,44.41514576679224],[-72.42221014046673,44.41539238536619],[-72.42215386751107,44.4155056795663],[-72.42189761908978,44.415831171319596],[-72.42147234300279,44.41605755469894],[-72.41463627987062,44.41816220677702],[-72.4135062952554,44.41674110744616],[-72.41495335614017,44.41598271378111],[-72.41661628712679,44.41460686633871],[-72.4177348528161,44.41326436281614],[-72.4182369914415,44.412490339347684]],[[-72.45873569031048,44.41679523729004],[-72.45926774195055,44.416828762662576],[-72.45978328233505,44.4169282214083],[-72.46026655966793,44.417089794250955],[-72.46070392882987,44.41730944869351],[-72.4618273229943,44.418003949415066],[-72.46217365694497,44.418255754698684],[-72.46247951736153,44.41856929437943],[-72.46270493492521,44.418916004598024],[-72.46284283426512,44.419285444024254],[-72.46288929184533,44.41966639643499],[-72.4628189842636,44.42036594591438],[-72.46268023203493,44.42073545525293],[-72.46239311386135,44.42115425396716],[-72.46026846884254,44.42356808696999],[-72.45908337837957,44.42461571244937],[-72.45870566047302,44.42488582970057],[-72.45826830697276,44.425104901819395],[-72.45778432092877,44.42526643795147],[-72.45662284819049,44.42552993195477],[-72.45609184974936,44.42556305894497],[-72.4555593175903,44.42552952674184],[-72.45504411318768,44.425430042913106],[-72.45431670698227,44.425155977846835],[-72.45333366086336,44.42464555204826],[-72.4529567254832,44.424374847267096],[-72.4526512498041,44.42406143105911],[-72.45242588835197,44.42371457894319],[-72.45228805292831,44.42334524515022],[-72.45224208059399,44.42296445716979],[-72.45228867902927,44.42258311297684],[-72.45242749982302,44.4222136164112],[-72.45274732390752,44.4217232639272],[-72.45207631939464,44.42119484043063],[-72.45177049453558,44.42088140444667],[-72.45154512788746,44.420534552197154],[-72.45140734939483,44.42016524055822],[-72.45136131999725,44.4197843997888],[-72.45140794671514,44.419403071053345],[-72.45154679939033,44.41903360776348],[-72.45177270112559,44.418687336957156],[-72.4520794082876,44.41837389224212],[-72.45245673188116,44.418103637137165],[-72.45289405244542,44.41788445559321],[-72.4533780285683,44.417723098360284],[-72.45389370377505,44.417624297988375],[-72.4544250208517,44.417591182196574],[-72.45495709231174,44.41762470965242],[-72.45573000001393,44.41776971770562],[-72.45632865003674,44.417435127212066],[-72.45768867795866,44.416927174078744],[-72.45820435900414,44.41682837043301],[-72.45873569031048,44.41679523729004]],[[-72.3597324491647,44.43417220015426],[-72.36077092703276,44.43421240362095],[-72.36160860360768,44.43434955320859],[-72.36246214119816,44.43459019610048],[-72.36289928735137,44.43481023399592],[-72.36327624011294,44.43508121388309],[-72.36358166005832,44.43539500432145],[-72.36400457031985,44.43617498141784],[-72.36447133974059,44.43649120499292],[-72.364776776185,44.436804880583864],[-72.36500169317408,44.43715175940093],[-72.36513897546017,44.43752131575203],[-72.36533534158062,44.438527519389034],[-72.36598991767904,44.439953912946564],[-72.36603580236064,44.4403348819755],[-72.36598821863676,44.44071645680046],[-72.36575067598281,44.441247027032425],[-72.36571579500276,44.441733226274685],[-72.36557639544256,44.44210260828483],[-72.36529632242258,44.44251273255874],[-72.36255673440606,44.445647653962645],[-72.36200012148383,44.44612043438084],[-72.36096053523923,44.4467849926928],[-72.36012111776508,44.44778839291519],[-72.3597262749079,44.448068000835406],[-72.35880165378109,44.448573960340056],[-72.35769847342723,44.44888489357553],[-72.35683243609468,44.44997807378705],[-72.35671123176004,44.451069134084264],[-72.35657172171442,44.45143850525598],[-72.35634511220833,44.451784281586],[-72.35603771046414,44.45209774817909],[-72.35565936388691,44.45236752164651],[-72.35522141978147,44.45258620097248],[-72.3543880357891,44.45281869521113],[-72.35378153263258,44.45325469294579],[-72.3533435962726,44.45347335964714],[-72.35285906771927,44.453634457760934],[-72.35234289056574,44.45373264680793],[-72.3518115588656,44.453765272207285],[-72.3512788251498,44.45373125371524],[-72.3507635511412,44.453631309818746],[-72.34968072385917,44.45330027734165],[-72.34894565257767,44.45286619608894],[-72.34910684798889,44.453545600663254],[-72.34911717321442,44.455479532898295],[-72.35030282104674,44.455690041765706],[-72.35078615620003,44.45585209930096],[-72.351223421819,44.45607217942289],[-72.35160008880335,44.456343213563024],[-72.35190554154394,44.45665705209481],[-72.35246544019702,44.45745113457165],[-72.35274233549029,44.458054179853676],[-72.35278811646783,44.4584351645548],[-72.35274040920436,44.458816604689794],[-72.3526008769205,44.45918597317748],[-72.35213819163492,44.45984668840968],[-72.35211895930591,44.46046665366734],[-72.35175949185908,44.461461748575225],[-72.35153281379658,44.46180751555614],[-72.35122574450567,44.46212097627416],[-72.35084727070854,44.46239075025526],[-72.35040926010257,44.46260939265429],[-72.34956905990725,44.46284551058236],[-72.34845958857929,44.46302487723209],[-72.34800479650264,44.463052822051765],[-72.34767290681798,44.46367701076694],[-72.34736538107292,44.463990457693406],[-72.34698689256707,44.46426019717414],[-72.34654922428294,44.4644788368551],[-72.3460645872922,44.46463989938317],[-72.34554832065108,44.464738062807506],[-72.34454628428955,44.464823173298115],[-72.344013477007,44.46478910558089],[-72.34325825881582,44.464644248079715],[-72.34277486282393,44.46448186996888],[-72.34233720193569,44.464261750081484],[-72.34202011916923,44.464033652599696],[-72.34095892454305,44.46363228277885],[-72.34005555360952,44.46311157484885],[-72.33789488468938,44.46255575262192],[-72.3371958252189,44.46229924008316],[-72.33624406554712,44.461818118904205],[-72.3358674446571,44.46154704075226],[-72.33556202200359,44.46123329193927],[-72.33487074002925,44.460171332568784],[-72.33470902638459,44.45959457519142],[-72.33442556459532,44.45943738698399],[-72.33358431472689,44.459343625218544],[-72.3322088490283,44.45903717141346],[-72.33172556390632,44.458874760946514],[-72.3312879449886,44.458654609370214],[-72.33091139587218,44.45838365342673],[-72.33060640074386,44.45806989002366],[-72.33038161808751,44.45772279556638],[-72.33024447629329,44.45735334656211],[-72.33019922686123,44.45697248674422],[-72.33024666678756,44.45659118870462],[-72.33038638020942,44.45622183593442],[-72.33061313686167,44.45587584881816],[-72.33092068716458,44.45556274177209],[-72.33186033388738,44.45486933512768],[-72.33243151022369,44.45409776080568],[-72.3327386444287,44.45378464815514],[-72.33311675790327,44.45351478565371],[-72.33428353932628,44.45299943895469],[-72.33475593701613,44.45284346700233],[-72.3352721686532,44.45274520900632],[-72.33772666880128,44.4526788340178],[-72.3382589915962,44.45271293224134],[-72.33877424609459,44.45281293343603],[-72.33972414594331,44.45319828494885],[-72.34012672136957,44.45286023791427],[-72.34179640846413,44.45175873078134],[-72.34234570021835,44.45147022780391],[-72.34282987606382,44.45130935193321],[-72.34334600034268,44.45121105457062],[-72.34479455283274,44.45113920541505],[-72.34408477625637,44.450827608722186],[-72.3437081882516,44.45055655864737],[-72.34340318267759,44.450242843366915],[-72.34317833773908,44.44989576362863],[-72.34304113091319,44.44952632038862],[-72.34294475543541,44.44872241555756],[-72.34303537356524,44.44801228258621],[-72.34331855580248,44.44723280514876],[-72.34428255867049,44.44568789441952],[-72.34458961564886,44.44537473312839],[-72.34520073771789,44.44497282786872],[-72.34567907821744,44.44431425975231],[-72.34598611510518,44.444001246695464],[-72.34636406175159,44.4437313414437],[-72.34680238240867,44.44351257474817],[-72.34728643389623,44.44335164359182],[-72.34780253463326,44.44325333941741],[-72.3482846797575,44.44322572321667],[-72.34891077224803,44.44309084829279],[-72.34944239317696,44.443058226802684],[-72.34997463688576,44.443092250574914],[-72.35051649553345,44.443200967948165],[-72.351791059449,44.44262440634553],[-72.35242158115425,44.441965864882654],[-72.35284595220301,44.44165310718538],[-72.3534508287275,44.44042447212305],[-72.35367739179114,44.44007842629837],[-72.35398436038027,44.439765245624656],[-72.35606485608052,44.438491488331536],[-72.35665586499003,44.43822646170602],[-72.35619652957807,44.43776800674637],[-72.3558751004156,44.437114318798315],[-72.3558293341621,44.43673347341862],[-72.35593303325548,44.43606242842583],[-72.35607250795472,44.435693065089644],[-72.35629905356657,44.43534700025387],[-72.35660596828284,44.43503380410474],[-72.3569838257496,44.4347638856686],[-72.35742202348843,44.43454505521671],[-72.35790598940294,44.4343840903892],[-72.35842196327715,44.434285764011804],[-72.3597324491647,44.43417220015426]],[[-72.41443408713579,44.437065060611296],[-72.41609232135443,44.44021712058834],[-72.41666541070317,44.44190368283974],[-72.4168516013896,44.443474651560756],[-72.41456231485726,44.44361373010522],[-72.41439129153727,44.44216959586448],[-72.41389334327327,44.440703726834116],[-72.41228451961058,44.43764544295654],[-72.41443408713579,44.437065060611296]],[[-72.43870145857507,44.44105452293721],[-72.43923370368326,44.44108814789397],[-72.43974945718477,44.44118766975644],[-72.44023292680872,44.44134935917566],[-72.44135589894974,44.44186474960558],[-72.44173326744911,44.44213548216023],[-72.44208114189654,44.44248060033063],[-72.44259282598576,44.44230564405553],[-72.44310873803221,44.44220691992355],[-72.44364029396247,44.44217385366489],[-72.44422714349457,44.442209287581925],[-72.44491487764051,44.44182784675425],[-72.44584711663478,44.44151400993454],[-72.44636301752054,44.44141525218534],[-72.44689457197993,44.441382179776106],[-72.44742683737249,44.44141575216302],[-72.44794217554755,44.441515263834134],[-72.44886400056505,44.44185147708955],[-72.44930151158738,44.44207118420262],[-72.44967851361496,44.442341914634405],[-72.44998448801228,44.44265547299836],[-72.45020991160258,44.44300219831126],[-72.45034776487113,44.44337164133849],[-72.4503937858732,44.4437525934279],[-72.45030831285105,44.44500518804066],[-72.45016941469275,44.44537452842327],[-72.44996146134092,44.445697998396206],[-72.44886806895997,44.447090179922036],[-72.44856117391208,44.447403911328195],[-72.44818325183435,44.44767400880457],[-72.44774572414845,44.447893038772165],[-72.44726148830503,44.4480545214514],[-72.44674551931689,44.44815312741883],[-72.44514195876395,44.44832968704261],[-72.44545664048385,44.448971063555085],[-72.44550261018166,44.44935202171496],[-72.44545593460761,44.44973363309229],[-72.44531698571261,44.45010311303426],[-72.44509092115082,44.45044905679576],[-72.44394754045842,44.45175722841962],[-72.44356955899306,44.45202730679401],[-72.44313197150984,44.452246323389964],[-72.44264771211627,44.45240778997261],[-72.44213168573701,44.45250638219232],[-72.44161338973122,44.45253944544689],[-72.44061452158967,44.4525358382738],[-72.43914106193827,44.45283978091153],[-72.43879528434114,44.4538095557052],[-72.43856917197063,44.454155512405244],[-72.43826219483903,44.45446920670417],[-72.43788419483509,44.45473924632565],[-72.43744654952437,44.45495824640318],[-72.43696223573015,44.45511969597311],[-72.43644619227616,44.455218248950274],[-72.43591491228828,44.4552512944048],[-72.43538211076991,44.45521764924934],[-72.43486668858128,44.45511809459887],[-72.43438350629799,44.454956098635066],[-72.43382431419971,44.4546493705575],[-72.43350757056474,44.45456185624815],[-72.43325857108168,44.45495881359477],[-72.43295154372598,44.455272499846025],[-72.43195032951466,44.455922971955594],[-72.43085910261685,44.45694459700224],[-72.43139683092247,44.458134549030724],[-72.4314427238739,44.458515504987915],[-72.43139596444897,44.45889711175233],[-72.43086675462013,44.46010765530362],[-72.43064055604438,44.46045357877208],[-72.43009651462928,44.46093654920886],[-72.43016991295025,44.46193048463774],[-72.43012316027225,44.46231192506506],[-72.42998407847966,44.462681405252226],[-72.42975787479686,44.463027321412895],[-72.42945078136118,44.46334098336768],[-72.4290726935226,44.46361100774975],[-72.42700152732867,44.46460178135094],[-72.42685210241159,44.465057268144434],[-72.42662584717728,44.46540317342438],[-72.42603991413937,44.46601801178544],[-72.4256617769547,44.46628802831663],[-72.42522399593878,44.46650695762716],[-72.42476703540798,44.466661214862654],[-72.42129450177346,44.467589886788865],[-72.42077830710969,44.46768835695555],[-72.4202468977593,44.467721312267656],[-72.41971402076332,44.46768764624044],[-72.41919852193195,44.46758799225031],[-72.41828421871696,44.46731231104411],[-72.41784623095654,44.46709261174498],[-72.41746920947541,44.46682179810804],[-72.41716371402181,44.46650829831423],[-72.41693837717534,44.46616136438827],[-72.41671265434591,44.46555922744703],[-72.41666683774349,44.46517838759445],[-72.4167137216526,44.46479707085891],[-72.41685288207827,44.4644276304265],[-72.41746156747993,44.46359843163464],[-72.41776832264078,44.46328507977137],[-72.41821999223902,44.46297153662881],[-72.41808379206127,44.46234878616881],[-72.41813107538145,44.461967461748316],[-72.41827019245518,44.46159803557292],[-72.41849647389006,44.46125185144921],[-72.41914211481681,44.460640067888825],[-72.41887134231668,44.460235594821086],[-72.41873401225818,44.45986622956978],[-72.41868782246273,44.459485422279194],[-72.41873506685575,44.459104088389346],[-72.41887421351763,44.45873465321351],[-72.41910047778487,44.45838847040618],[-72.41940718054857,44.45807510211699],[-72.420188517029,44.45753794278223],[-72.41962334108501,44.45735925183418],[-72.41918542158875,44.45713941514384],[-72.41808947916128,44.45631265958014],[-72.41778404390128,44.45599915731128],[-72.41755876004855,44.45565221860792],[-72.41742106572349,44.45528286381741],[-72.41740262419222,44.45467951333053],[-72.41756127624487,44.45415126656938],[-72.41778753428162,44.453805096878654],[-72.4180946007237,44.453491742022265],[-72.41847230831502,44.453221612835144],[-72.41891001666654,44.45300255044609],[-72.4193943422678,44.452841331261745],[-72.41991039231468,44.452742695996655],[-72.42044207182603,44.45270973604794],[-72.4209744486213,44.45274344071483],[-72.42203195038458,44.452950854806495],[-72.42353929926686,44.452598808381744],[-72.424070976733,44.452565814439524],[-72.42456561832984,44.45259706540872],[-72.42834682392714,44.45117814421106],[-72.42926662940647,44.4509572618669],[-72.43044109627587,44.45084774261652],[-72.43097348456902,44.450881410595365],[-72.4315767594317,44.45101026958047],[-72.43160687424846,44.450765479125415],[-72.43180569086243,44.450304081980846],[-72.43149235051824,44.44966437602643],[-72.43144646771445,44.44928355629544],[-72.43149324260702,44.44890222875964],[-72.4319781849829,44.44783116327133],[-72.43202915442247,44.44719798624524],[-72.43196028264354,44.446684835562756],[-72.43200744406039,44.446303507872315],[-72.4321464288509,44.44593404929737],[-72.43237259413236,44.4455878393573],[-72.43312748031536,44.44493018618397],[-72.43382003351964,44.444539674344746],[-72.43415149703429,44.44442919780836],[-72.43417724891358,44.443873078672645],[-72.43431625696954,44.44350361101282],[-72.43454237618465,44.44315739120178],[-72.43532253346527,44.44230920503644],[-72.43601864483884,44.4418717212404],[-72.43717018329846,44.44134771018428],[-72.43765399688343,44.44118641115813],[-72.43816990738132,44.44108769941405],[-72.43870145857507,44.44105452293721]],[[-72.39858131540159,44.457907672301545],[-72.39934089358626,44.45792743215948],[-72.39985627856008,44.458027157838295],[-72.40033979931242,44.45818900668386],[-72.4013591177152,44.45867825598811],[-72.40173598836869,44.458949148254455],[-72.40204177376188,44.459262827665455],[-72.40235188718437,44.45980516843865],[-72.40312899738464,44.46194631402528],[-72.40322740276557,44.46250054705204],[-72.40318045253348,44.46288216882938],[-72.40276436257425,44.46419081665107],[-72.40242957195592,44.464798832320895],[-72.39999522194178,44.46727426331844],[-72.39967975482908,44.46780690507637],[-72.39937246400605,44.4681205154173],[-72.39899416156034,44.46839043441271],[-72.39807239286036,44.46887448469595],[-72.39732134159951,44.469159113825356],[-72.39680511681958,44.46925750529135],[-72.39627367241951,44.46929034092564],[-72.39574078513779,44.46925653155549],[-72.39522530086731,44.46915680180807],[-72.39474170935254,44.4689946417718],[-72.3943038253758,44.46877472726651],[-72.39392688952584,44.46850382888264],[-72.39281268337034,44.46744239672588],[-72.39238563861929,44.46687573543967],[-72.391976286857,44.46544963844229],[-72.39192561361288,44.46504950715107],[-72.39197301783449,44.464668218159254],[-72.39211231005658,44.4642988070916],[-72.39255077378309,44.463561967182756],[-72.39235365466415,44.462686577651304],[-72.39240070233741,44.4623052690885],[-72.39295713144098,44.46102827765618],[-72.39321547661265,44.46061722602191],[-72.39352235955047,44.46030392393531],[-72.3939002141968,44.46003387557046],[-72.39433808147848,44.45981492755872],[-72.39533127158816,44.459521797597894],[-72.39594191362421,44.45884655841842],[-72.39631974271116,44.45857649295668],[-72.39675756496695,44.45835751757297],[-72.39776062941098,44.458025023193485],[-72.39858131540159,44.457907672301545]]]]}},{"type":"Feature","properties":{"OBJECT_ID":1304,"County":"Washington","RPC":"CVRPC","Municipal_Name":"Woodbury","GEO_ID":"5002385525","District_Name":"Shoreland District","Abbreviated_District_Name":"S","District_Type":"Mixed with Residential","Bylaw_Date":"2024-06-05","Elderly_Housing_District":"No","District_Mapped":"Yes","Overlay_District":"No","Base_Density":null,"FIPS6":null,"GIS_ID":null,"Last_Update":null,"Shape_Length":38505.02104010777,"Shape_Area":11556817.854767974,"F1F_Allowance":"Permitted","F1F_Front_Setback":null,"F1F_Side_Setback":25.0,"F1F_Rear_Setback":25.0,"F1F_Frontage":150.0,"F1F_Max_Height":35.0,"F1F_Max_Stories":null,"F1F_Min_Lot_Size":1.0,"F1F_Max_Lot_Building_Coverage":null,"F1F_Max_Lot_Impervious_Coverage":15.0,"F1F_Min_Parking_Spaces":null,"F1F_Elderly_Housing_Only":null,"F1F_Affordable_Housing_Only":null,"F2F_Allowance":"Prohibited","F2F_Front_Setback":null,"F2F_Side_Setback":null,"F2F_Rear_Setback":null,"F2F_Frontage":null,"F2F_Max_Density":null,"F2F_Max_Height":null,"F2F_Max_Stories":null,"F2F_Min_Lot_Size":null,"F2F_Max_Lot_Building_Coverage":null,"F2F_Max_Lot_Impervious_Coverage":null,"F2F_Min_Parking_Spaces_per_1BR":null,"F2F_Min_Parking_Spaces_per_mult_BR":null,"F2F_Elderly_Housing_Only":"No","F2F_Affordable_Housing_Only":"No","F3F_Allowance":"Prohibited","F3F_Front_Setback":null,"F3F_Side_Setback":null,"F3F_Rear_Setback":null,"F3F_Frontage":null,"F3F_Max_Density":null,"F3F_Max_Height":null,"F3F_Max_Stories":null,"F3F_Min_Lot_Size":null,"F3F_Max_Lot_Building_Coverage":null,"F3F_Max_Lot_Impervious_Coverage":null,"F3F_Min_Parking_Spaces_per_1BR":null,"F3F_Min_Parking_Spaces_per_mult_BR":null,"F3F_Affordable_Housing_Only":"No","F3F_Proximity_to_Public_Transit_Required":"No","F3F_Connection_to_Sewage/Water_Required":"No","F4F_Allowance":"Prohibited","F4F_Front_Setback":null,"F4F_Side_Setback":null,"F4F_Rear_Setback":null,"F4F_Frontage":null,"F1F_Max_Density":null,"F4F_Max_Density":null,"F4F_Max_Height":null,"F4F_Max_Stories":null,"F4F_Min_Lot_Size":null,"F4F_Max_Lot_Building_Coverage":null,"F4F_Max_Lot_Impervious_Coverage":null,"F4F_Min_Parking_Spaces_per_1BR":null,"F4F_Min_Parking_Spaces_per_mult_BR":null,"F3F_Elderly_Housing_Only":"No","F4F_Elderly_Housing_Only":"No","F4F_Affordable_Housing_Only":"No","F4F_Proximity_to_Public_Transit_Required":"No","F4F_Connection_to_Sewage/Water_Required":"No","ADU_Allowance":"Allowed/Conditional","ADU_Elderly_Housing_Only":"No","ADU_Max_Size_as_Percent_of_Primary_Strcture":null,"ADU_Max_Size_in_sq_ft":null,"ADU_Min_Lot_Size":null,"ADU_Max_Bedrooms":null,"ADU_Min_Parking_Spaces":null,"ADU_Owner_Occupancy_Required":"No","ADU_Renter_Occupancy_Prohibited":"No","ADU_Employee_or_Family_Occupancy_Required":"No","ADU_Restricted_to_Primary_Structure":"No","Affordable_Housing_Allowance":"Not Mentioned","Affordable_Housing_District":"No","Affordable_Housing_Elderly_Only":"No","Affordable_Housing_Min_Lot_Size":null,"Affordable_Housing_Max_Density":null,"Affordable_Housing_Min_Parking_Spaces_per_mult_BR":null,"Affordable_Housing_Max_Units_per_Building":null,"Affordable_Housing_Min_Parking_Spaces_per_1BR":null,"PRD_Allowance":"Public Hearing","PRD_Max_Density":null,"PRD_Max_Units":null,"PRD_Min_Lot_Size":25.0,"PRD_Mobile_or_Manufactured_Home_Park":"No","PUD_Allowance":"Yes","PUD_Required_with_Subdivision":"No","PUD_Requires_Land_Conservation":"No","PUD_Threshold_Number":null,"Notes":"None"},"geometry":{"type":"MultiPolygon","coordinates":[[[[-72.39858131540159,44.457907672301545],[-72.39776062941098,44.458025023193485],[-72.39675756496695,44.45835751757297],[-72.39631974271116,44.45857649295668],[-72.39594191362421,44.45884655841842],[-72.39533127158816,44.459521797597894],[-72.39433808147848,44.45981492755872],[-72.3939002141968,44.46003387557046],[-72.39352235955047,44.46030392393531],[-72.39321547661265,44.46061722602191],[-72.39295713144098,44.46102827765618],[-72.39240070233741,44.4623052690885],[-72.39235365466415,44.462686577651304],[-72.39255077378309,44.463561967182756],[-72.39211231005658,44.4642988070916],[-72.39197301783449,44.464668218159254],[-72.39192561361288,44.46504950715107],[-72.391976286857,44.46544963844229],[-72.39238563861929,44.46687573543967],[-72.39281268337034,44.46744239672588],[-72.39392688952584,44.46850382888264],[-72.3943038253758,44.46877472726651],[-72.39474170935254,44.4689946417718],[-72.39522530086731,44.46915680180807],[-72.39574078513779,44.46925653155549],[-72.39627367241951,44.46929034092564],[-72.39680511681958,44.46925750529135],[-72.39732134159951,44.469159113825356],[-72.39807239286036,44.46887448469595],[-72.39899416156034,44.46839043441271],[-72.39937246400605,44.4681205154173],[-72.39967975482908,44.46780690507637],[-72.39999522194178,44.46727426331844],[-72.40242957195592,44.464798832320895],[-72.40276436257425,44.46419081665107],[-72.40318045253348,44.46288216882938],[-72.40322740276557,44.46250054705204],[-72.40312899738464,44.46194631402528],[-72.40235188718437,44.45980516843865],[-72.40204177376188,44.459262827665455],[-72.40173598836869,44.458949148254455],[-72.4013591177152,44.45867825598811],[-72.40033979931242,44.45818900668386],[-72.39985627856008,44.458027157838295],[-72.39934089358626,44.45792743215948],[-72.39858131540159,44.457907672301545]]],[[[-72.43870145857507,44.44105452293721],[-72.43816990738132,44.44108769941405],[-72.43765399688343,44.44118641115813],[-72.43717018329846,44.44134771018428],[-72.43601864483884,44.4418717212404],[-72.43532253346527,44.44230920503644],[-72.43454237618465,44.44315739120178],[-72.43431625696954,44.44350361101282],[-72.43417724891358,44.443873078672645],[-72.43415149703429,44.44442919780836],[-72.43382003351964,44.444539674344746],[-72.43312748031536,44.44493018618397],[-72.43237259413236,44.4455878393573],[-72.4321464288509,44.44593404929737],[-72.43200744406039,44.446303507872315],[-72.43196028264354,44.446684835562756],[-72.43202915442247,44.44719798624524],[-72.4319781849829,44.44783116327133],[-72.43149324260702,44.44890222875964],[-72.43144646771445,44.44928355629544],[-72.43149235051824,44.44966437602643],[-72.43180569086243,44.450304081980846],[-72.43160687424846,44.450765479125415],[-72.4315767594317,44.45101026958047],[-72.43097348456902,44.450881410595365],[-72.43044109627587,44.45084774261652],[-72.42926662940647,44.4509572618669],[-72.42834682392714,44.45117814421106],[-72.42456561832984,44.45259706540872],[-72.424070976733,44.452565814439524],[-72.42353929926686,44.452598808381744],[-72.42203195038458,44.452950854806495],[-72.4209744486213,44.45274344071483],[-72.42044207182603,44.45270973604794],[-72.41991039231468,44.452742695996655],[-72.4193943422678,44.452841331261745],[-72.41891001666654,44.45300255044609],[-72.41847230831502,44.453221612835144],[-72.4180946007237,44.453491742022265],[-72.41778753428162,44.453805096878654],[-72.41756127624487,44.45415126656938],[-72.41740262419222,44.45467951333053],[-72.41742106572349,44.45528286381741],[-72.41755876004855,44.45565221860792],[-72.41778404390128,44.45599915731128],[-72.41808947916128,44.45631265958014],[-72.41918542158875,44.45713941514384],[-72.41962334108501,44.45735925183418],[-72.420188517029,44.45753794278223],[-72.41940718054857,44.45807510211699],[-72.41910047778487,44.45838847040618],[-72.41887421351763,44.45873465321351],[-72.41873506685575,44.459104088389346],[-72.41868782246273,44.459485422279194],[-72.41873401225818,44.45986622956978],[-72.41887134231668,44.460235594821086],[-72.41914211481681,44.460640067888825],[-72.41849647389006,44.46125185144921],[-72.41827019245518,44.46159803557292],[-72.41813107538145,44.461967461748316],[-72.41808379206127,44.46234878616881],[-72.41821999223902,44.46297153662881],[-72.41776832264078,44.46328507977137],[-72.41746156747993,44.46359843163464],[-72.41685288207827,44.4644276304265],[-72.4167137216526,44.46479707085891],[-72.41666683774349,44.46517838759445],[-72.41671265434591,44.46555922744703],[-72.41693837717534,44.46616136438827],[-72.41716371402181,44.46650829831423],[-72.41746920947541,44.46682179810804],[-72.41784623095654,44.46709261174498],[-72.41828421871696,44.46731231104411],[-72.41919852193195,44.46758799225031],[-72.41971402076332,44.46768764624044],[-72.4202468977593,44.467721312267656],[-72.42077830710969,44.46768835695555],[-72.42129450177346,44.467589886788865],[-72.42476703540798,44.466661214862654],[-72.42522399593878,44.46650695762716],[-72.4256617769547,44.46628802831663],[-72.42603991413937,44.46601801178544],[-72.42662584717728,44.46540317342438],[-72.42685210241159,44.465057268144434],[-72.42700152732867,44.46460178135094],[-72.4290726935226,44.46361100774975],[-72.42945078136118,44.46334098336768],[-72.42975787479686,44.463027321412895],[-72.42998407847966,44.462681405252226],[-72.43012316027225,44.46231192506506],[-72.43016991295025,44.46193048463774],[-72.43009651462928,44.46093654920886],[-72.43064055604438,44.46045357877208],[-72.43086675462013,44.46010765530362],[-72.43139596444897,44.45889711175233],[-72.4314427238739,44.458515504987915],[-72.43139683092247,44.458134549030724],[-72.43085910261685,44.45694459700224],[-72.43195032951466,44.455922971955594],[-72.43295154372598,44.455272499846025],[-72.43325857108168,44.45495881359477],[-72.43350757056474,44.45456185624815],[-72.43382431419971,44.4546493705575],[-72.43438350629799,44.454956098635066],[-72.43486668858128,44.45511809459887],[-72.43538211076991,44.45521764924934],[-72.43591491228828,44.4552512944048],[-72.43644619227616,44.455218248950274],[-72.43696223573015,44.45511969597311],[-72.43744654952437,44.45495824640318],[-72.43788419483509,44.45473924632565],[-72.43826219483903,44.45446920670417],[-72.43856917197063,44.454155512405244],[-72.43879528434114,44.4538095557052],[-72.43914106193827,44.45283978091153],[-72.44061452158967,44.4525358382738],[-72.44161338973122,44.45253944544689],[-72.44213168573701,44.45250638219232],[-72.44264771211627,44.45240778997261],[-72.44313197150984,44.452246323389964],[-72.44356955899306,44.45202730679401],[-72.44394754045842,44.45175722841962],[-72.44509092115082,44.45044905679576],[-72.44531698571261,44.45010311303426],[-72.44545593460761,44.44973363309229],[-72.44550261018166,44.44935202171496],[-72.44545664048385,44.448971063555085],[-72.44514195876395,44.44832968704261],[-72.44674551931689,44.44815312741883],[-72.44726148830503,44.4480545214514],[-72.44774572414845,44.447893038772165],[-72.44818325183435,44.44767400880457],[-72.44856117391208,44.447403911328195],[-72.44886806895997,44.447090179922036],[-72.44996146134092,44.445697998396206],[-72.45016941469275,44.44537452842327],[-72.45030831285105,44.44500518804066],[-72.4503937858732,44.4437525934279],[-72.45034776487113,44.44337164133849],[-72.45020991160258,44.44300219831126],[-72.44998448801228,44.44265547299836],[-72.44967851361496,44.442341914634405],[-72.44930151158738,44.44207118420262],[-72.44886400056505,44.44185147708955],[-72.44794217554755,44.441515263834134],[-72.44742683737249,44.44141575216302],[-72.44689457197993,44.441382179776106],[-72.44636301752054,44.44141525218534],[-72.44584711663478,44.44151400993454],[-72.44491487764051,44.44182784675425],[-72.44422714349457,44.442209287581925],[-72.44364029396247,44.44217385366489],[-72.44310873803221,44.44220691992355],[-72.44259282598576,44.44230564405553],[-72.44208114189654,44.44248060033063],[-72.44173326744911,44.44213548216023],[-72.44135589894974,44.44186474960558],[-72.44023292680872,44.44134935917566],[-72.43974945718477,44.44118766975644],[-72.43923370368326,44.44108814789397],[-72.43870145857507,44.44105452293721]]],[[[-72.3597324491647,44.43417220015426],[-72.35842196327715,44.434285764011804],[-72.35790598940294,44.4343840903892],[-72.35742202348843,44.43454505521671],[-72.3569838257496,44.4347638856686],[-72.35660596828284,44.43503380410474],[-72.35629905356657,44.43534700025387],[-72.35607250795472,44.435693065089644],[-72.35593303325548,44.43606242842583],[-72.3558293341621,44.43673347341862],[-72.3558751004156,44.437114318798315],[-72.35619652957807,44.43776800674637],[-72.35665586499003,44.43822646170602],[-72.35606485608052,44.438491488331536],[-72.35398436038027,44.439765245624656],[-72.35367739179114,44.44007842629837],[-72.3534508287275,44.44042447212305],[-72.35284595220301,44.44165310718538],[-72.35242158115425,44.441965864882654],[-72.351791059449,44.44262440634553],[-72.35051649553345,44.443200967948165],[-72.34997463688576,44.443092250574914],[-72.34944239317696,44.443058226802684],[-72.34891077224803,44.44309084829279],[-72.3482846797575,44.44322572321667],[-72.34780253463326,44.44325333941741],[-72.34728643389623,44.44335164359182],[-72.34680238240867,44.44351257474817],[-72.34636406175159,44.4437313414437],[-72.34598611510518,44.444001246695464],[-72.34567907821744,44.44431425975231],[-72.34520073771789,44.44497282786872],[-72.34458961564886,44.44537473312839],[-72.34428255867049,44.44568789441952],[-72.34331855580248,44.44723280514876],[-72.34303537356524,44.44801228258621],[-72.34294475543541,44.44872241555756],[-72.34304113091319,44.44952632038862],[-72.34317833773908,44.44989576362863],[-72.34340318267759,44.450242843366915],[-72.3437081882516,44.45055655864737],[-72.34408477625637,44.450827608722186],[-72.34479455283274,44.45113920541505],[-72.34334600034268,44.45121105457062],[-72.34282987606382,44.45130935193321],[-72.34234570021835,44.45147022780391],[-72.34179640846413,44.45175873078134],[-72.34012672136957,44.45286023791427],[-72.33972414594331,44.45319828494885],[-72.33877424609459,44.45281293343603],[-72.3382589915962,44.45271293224134],[-72.33772666880128,44.4526788340178],[-72.3352721686532,44.45274520900632],[-72.33475593701613,44.45284346700233],[-72.33428353932628,44.45299943895469],[-72.33311675790327,44.45351478565371],[-72.3327386444287,44.45378464815514],[-72.33243151022369,44.45409776080568],[-72.33186033388738,44.45486933512768],[-72.33092068716458,44.45556274177209],[-72.33061313686167,44.45587584881816],[-72.33038638020942,44.45622183593442],[-72.33024666678756,44.45659118870462],[-72.33019922686123,44.45697248674422],[-72.33024447629329,44.45735334656211],[-72.33038161808751,44.45772279556638],[-72.33060640074386,44.45806989002366],[-72.33091139587218,44.45838365342673],[-72.3312879449886,44.458654609370214],[-72.33172556390632,44.458874760946514],[-72.3322088490283,44.45903717141346],[-72.33358431472689,44.459343625218544],[-72.33442556459532,44.45943738698399],[-72.33470902638459,44.45959457519142],[-72.33487074002925,44.460171332568784],[-72.33556202200359,44.46123329193927],[-72.3358674446571,44.46154704075226],[-72.33624406554712,44.461818118904205],[-72.3371958252189,44.46229924008316],[-72.33789488468938,44.46255575262192],[-72.34005555360952,44.46311157484885],[-72.34095892454305,44.46363228277885],[-72.34202011916923,44.464033652599696],[-72.34233720193569,44.464261750081484],[-72.34277486282393,44.46448186996888],[-72.34325825881582,44.464644248079715],[-72.344013477007,44.46478910558089],[-72.34454628428955,44.464823173298115],[-72.34554832065108,44.464738062807506],[-72.3460645872922,44.46463989938317],[-72.34654922428294,44.4644788368551],[-72.34698689256707,44.46426019717414],[-72.34736538107292,44.463990457693406],[-72.34767290681798,44.46367701076694],[-72.34800479650264,44.463052822051765],[-72.34845958857929,44.46302487723209],[-72.34956905990725,44.46284551058236],[-72.35040926010257,44.46260939265429],[-72.35084727070854,44.46239075025526],[-72.35122574450567,44.46212097627416],[-72.35153281379658,44.46180751555614],[-72.35175949185908,44.461461748575225],[-72.35211895930591,44.46046665366734],[-72.35213819163492,44.45984668840968],[-72.3526008769205,44.45918597317748],[-72.35274040920436,44.458816604689794],[-72.35278811646783,44.4584351645548],[-72.35274233549029,44.458054179853676],[-72.35246544019702,44.45745113457165],[-72.35190554154394,44.45665705209481],[-72.35160008880335,44.456343213563024],[-72.351223421819,44.45607217942289],[-72.35078615620003,44.45585209930096],[-72.35030282104674,44.455690041765706],[-72.34911717321442,44.455479532898295],[-72.34910684798889,44.453545600663254],[-72.34894565257767,44.45286619608894],[-72.34968072385917,44.45330027734165],[-72.3507635511412,44.453631309818746],[-72.3512788251498,44.45373125371524],[-72.3518115588656,44.453765272207285],[-72.35234289056574,44.45373264680793],[-72.35285906771927,44.453634457760934],[-72.3533435962726,44.45347335964714],[-72.35378153263258,44.45325469294579],[-72.3543880357891,44.45281869521113],[-72.35522141978147,44.45258620097248],[-72.35565936388691,44.45236752164651],[-72.35603771046414,44.45209774817909],[-72.35634511220833,44.451784281586],[-72.35657172171442,44.45143850525598],[-72.35671123176004,44.451069134084264],[-72.35683243609468,44.44997807378705],[-72.35769847342723,44.44888489357553],[-72.35880165378109,44.448573960340056],[-72.3597262749079,44.448068000835406],[-72.36012111776508,44.44778839291519],[-72.36096053523923,44.4467849926928],[-72.36200012148383,44.44612043438084],[-72.36255673440606,44.445647653962645],[-72.36529632242258,44.44251273255874],[-72.36557639544256,44.44210260828483],[-72.36571579500276,44.441733226274685],[-72.36575067598281,44.441247027032425],[-72.36598821863676,44.44071645680046],[-72.36603580236064,44.4403348819755],[-72.36598991767904,44.439953912946564],[-72.36533534158062,44.438527519389034],[-72.36513897546017,44.43752131575203],[-72.36500169317408,44.43715175940093],[-72.364776776185,44.436804880583864],[-72.36447133974059,44.43649120499292],[-72.36400457031985,44.43617498141784],[-72.36358166005832,44.43539500432145],[-72.36327624011294,44.43508121388309],[-72.36289928735137,44.43481023399592],[-72.36246214119816,44.43459019610048],[-72.36160860360768,44.43434955320859],[-72.36077092703276,44.43421240362095],[-72.3597324491647,44.43417220015426]]],[[[-72.45873569031048,44.41679523729004],[-72.45820435900414,44.41682837043301],[-72.45768867795866,44.416927174078744],[-72.45632865003674,44.417435127212066],[-72.45573000001393,44.41776971770562],[-72.45495709231174,44.41762470965242],[-72.4544250208517,44.417591182196574],[-72.45389370377505,44.417624297988375],[-72.4533780285683,44.417723098360284],[-72.45289405244542,44.41788445559321],[-72.45245673188116,44.418103637137165],[-72.4520794082876,44.41837389224212],[-72.45177270112559,44.418687336957156],[-72.45154679939033,44.41903360776348],[-72.45140794671514,44.419403071053345],[-72.45136131999725,44.4197843997888],[-72.45140734939483,44.42016524055822],[-72.45154512788746,44.420534552197154],[-72.45177049453558,44.42088140444667],[-72.45207631939464,44.42119484043063],[-72.45274732390752,44.4217232639272],[-72.45242749982302,44.4222136164112],[-72.45228867902927,44.42258311297684],[-72.45224208059399,44.42296445716979],[-72.45228805292831,44.42334524515022],[-72.45242588835197,44.42371457894319],[-72.4526512498041,44.42406143105911],[-72.4529567254832,44.424374847267096],[-72.45333366086336,44.42464555204826],[-72.45431670698227,44.425155977846835],[-72.45504411318768,44.425430042913106],[-72.4555593175903,44.42552952674184],[-72.45609184974936,44.42556305894497],[-72.45662284819049,44.42552993195477],[-72.45778432092877,44.42526643795147],[-72.45826830697276,44.425104901819395],[-72.45870566047302,44.42488582970057],[-72.45908337837957,44.42461571244937],[-72.46026846884254,44.42356808696999],[-72.46239311386135,44.42115425396716],[-72.46268023203493,44.42073545525293],[-72.4628189842636,44.42036594591438],[-72.46288929184533,44.41966639643499],[-72.46284283426512,44.419285444024254],[-72.46270493492521,44.418916004598024],[-72.46247951736153,44.41856929437943],[-72.46217365694497,44.418255754698684],[-72.4618273229943,44.418003949415066],[-72.46070392882987,44.41730944869351],[-72.46026655966793,44.417089794250955],[-72.45978328233505,44.4169282214083],[-72.45926774195055,44.416828762662576],[-72.45873569031048,44.41679523729004]]],[[[-72.43551405075623,44.404260046365856],[-72.43552093708466,44.40431556513526],[-72.43394881044834,44.40549557430024],[-72.43364246054469,44.40580897934765],[-72.43341648145041,44.40615520963497],[-72.43327758286074,44.40652467059182],[-72.43313701431839,44.40765655739596],[-72.43318285845228,44.408037237917746],[-72.43332054781098,44.408406583071134],[-72.43318096192523,44.40901833107701],[-72.43317403738186,44.409592196290724],[-72.43321990317308,44.40997302427399],[-72.43335759227605,44.41034236385726],[-72.43358280226192,44.41068924801894],[-72.43388809016082,44.411002726647204],[-72.43426483032171,44.41127349307538],[-72.4354526566051,44.411821885820316],[-72.43593589351437,44.41198386591209],[-72.4364509549235,44.41208343158186],[-72.4376227830144,44.41220318693287],[-72.43822491117845,44.41236451392483],[-72.43839532405576,44.4126066073329],[-72.4389730780286,44.413175868096296],[-72.44024345468051,44.41406750506479],[-72.44068111176504,44.414287232842234],[-72.44116436583856,44.41444919795336],[-72.44167944147198,44.41454872291218],[-72.4422118672201,44.41458233063497],[-72.44405273076698,44.41436373844181],[-72.44498601598822,44.4141124843924],[-72.44609663521966,44.413463788909176],[-72.44700209478479,44.41318647663386],[-72.44743939389687,44.41296745256785],[-72.44781708435949,44.412697366594024],[-72.44812379661617,44.4123836549855],[-72.4487044816441,44.41149196527326],[-72.44950754994723,44.41069193542964],[-72.44973345515483,44.41034596873586],[-72.44996930878501,44.409773271337585],[-72.44980856167076,44.40971436964437],[-72.44973277440552,44.409686595103516],[-72.44940315341368,44.40956579486183],[-72.44887481813986,44.40937208116983],[-72.44591797734708,44.40825722700445],[-72.43759250460528,44.405052950652944],[-72.43719701438575,44.404901993452015],[-72.43551405075623,44.404260046365856]]],[[[-72.41266997034616,44.39557131537146],[-72.41208361148327,44.3959456298394],[-72.41177682079494,44.39625898092719],[-72.41155072584962,44.39660514234534],[-72.41141171362175,44.396974586240916],[-72.41133336563718,44.39768380393994],[-72.41098008656294,44.3983528754382],[-72.41063105748327,44.399595819355866],[-72.41058882818223,44.400265270947216],[-72.41075738719542,44.40112599556053],[-72.4095959730301,44.401282556315934],[-72.40911205510405,44.40144375285077],[-72.40867469514345,44.40166276826884],[-72.4082972709663,44.401932875841915],[-72.4079903848254,44.40224620645196],[-72.40738872059707,44.40316973106107],[-72.40724967286549,44.40353916043519],[-72.4072347216341,44.40431436957004],[-72.40747138043238,44.404993334978045],[-72.40731773802293,44.40565805783123],[-72.40736342797807,44.4060388954123],[-72.40750092756261,44.40640826266068],[-72.40772598338022,44.40675520961261],[-72.40841090493815,44.40754209887609],[-72.40903394223801,44.40805613742295],[-72.40947146637563,44.4082759777054],[-72.41008827899788,44.40847250464962],[-72.41043744959086,44.40872349029521],[-72.4108749778679,44.408943206384876],[-72.41178913252001,44.40919323867175],[-72.41312397529933,44.409390130437075],[-72.41365635151428,44.409423865856795],[-72.41418725393335,44.40939093237245],[-72.41470290381488,44.409292467162096],[-72.41518691779572,44.40913112484219],[-72.41624147605151,44.408605008807314],[-72.41666369089403,44.40828961667474],[-72.41710158605957,44.40826111413702],[-72.41800074661585,44.40804169808163],[-72.41870685156486,44.40809885967669],[-72.41926095365068,44.40829345743237],[-72.42008344151505,44.40847234821172],[-72.42061578082306,44.40850604127445],[-72.42114667736536,44.408473069133564],[-72.42166231757595,44.4083745850817],[-72.42274486446146,44.40800534760493],[-72.4231822178603,44.407786412645635],[-72.42356000153107,44.407516412099014],[-72.42386682005498,44.407202734814994],[-72.42427248492889,44.40658654711841],[-72.42441144536338,44.40621708995889],[-72.42445269848356,44.405881734067606],[-72.42476396004204,44.40544883875517],[-72.42490291593863,44.40507937912077],[-72.42512073856233,44.40317991343327],[-72.4250833435123,44.402633186080315],[-72.42494575466529,44.40226381089143],[-72.42473629717568,44.401936444191705],[-72.42398031486218,44.40104908017471],[-72.42360329609532,44.40077827195587],[-72.42272744251822,44.400386060828936],[-72.42231218767715,44.4002516275557],[-72.42163253386967,44.40014162018322],[-72.42125468828154,44.39931198969088],[-72.42086820929318,44.39877598541923],[-72.42091087452977,44.3987154953542],[-72.42089015065673,44.39870759555351],[-72.4205216686413,44.398567123284295],[-72.42004646244395,44.398385957272104],[-72.41850704294542,44.39779906102312],[-72.4165864731317,44.39706891027865],[-72.41642121547055,44.397006289037414],[-72.41629376786334,44.39695799473961],[-72.41514492957712,44.396521043398856],[-72.41513932685861,44.396518899130854],[-72.41428073848846,44.39619016667955],[-72.41406114930915,44.396105795083265],[-72.41266997034616,44.39557131537146]]],[[[-72.38755476058618,44.389859366782986],[-72.38606704606117,44.3898972731018],[-72.3855515059317,44.3899957723819],[-72.38506795795729,44.39015684614434],[-72.38463022492343,44.390375762355724],[-72.38354440916412,44.39123849015578],[-72.3831076998197,44.39171937212791],[-72.38228548918651,44.392951749787734],[-72.38203292236032,44.39351425277964],[-72.38199003307463,44.393781242156564],[-72.38180812452319,44.396270277643595],[-72.3818540309148,44.39665112627349],[-72.38199606116818,44.397030667564536],[-72.38251043635327,44.397941552558706],[-72.38281539384631,44.398255177040305],[-72.38319181889248,44.39852611669334],[-72.3836291713283,44.39874605794857],[-72.38411210824894,44.39890826544558],[-72.38462697916273,44.39900806033176],[-72.38515921068465,44.399041936582904],[-72.38569003867228,44.39900914441362],[-72.38705098860869,44.39872377638953],[-72.38753496233744,44.39856252840436],[-72.38797238387181,44.398343743266786],[-72.38835024837599,44.39807383090978],[-72.3890280602853,44.39746295677282],[-72.38950542262664,44.396852413099936],[-72.38971245286925,44.39606024664831],[-72.39012547368971,44.39563637360432],[-72.39035168556755,44.39529053904123],[-72.39076231207379,44.39405194040577],[-72.39094763886489,44.393115175446034],[-72.39093164511007,44.39243160741426],[-72.39042816323499,44.39130619035966],[-72.39020329460087,44.39095947135884],[-72.3898979440782,44.39064573442628],[-72.38952149707825,44.390374811978],[-72.38908462282042,44.39015490062633],[-72.38860171589042,44.38999300732298],[-72.38808656203108,44.38989321732178],[-72.38755476058618,44.389859366782986]]]]}}]}