{"type": "FeatureCollection", "crs": {"type": "name", "properties": {"name": "urn:ogc:def:crs:OGC:1.3:CRS84"}}, "features": [{"type": "Feature", "properties": {"ABB_DIST_NAME": "RD", "Jurisdiction_County": "Windsor", "Jurisdiction_District_Name": "Pomfret"}, "geometry": {"type": "Polygon", "coordinates": [[[-72.42770361211124, 43.72239363806031], [-72.42896292616712, 43.72269928029207], [-72.43024430734947, 43.723036603557716], [-72.43090757656368, 43.72332574784769], [-72.43139321683132, 43.723646555059695], [-72.43187901922474, 43.72404791536217], [-72.43232037875691, 43.72446517844716], [-72.4327397937363, 43.72497819397521], [-72.43313760192173, 43.725507755605925], [-72.43342405181778, 43.725973015957315], [-72.43379914106764, 43.726582580559146], [-72.43413023112586, 43.7271119802192], [-72.43465972209577, 43.727785803663544], [-72.43496873197003, 43.72828317730982], [-72.43510078789677, 43.72874831559024], [-72.43529967752649, 43.72927757802375], [-72.43560832248218, 43.72931663515474], [-72.43565995734839, 43.7293332317435], [-72.43833291696133, 43.73019093676547], [-72.44060450494462, 43.73091977982058], [-72.44271010959783, 43.73159531149755], [-72.44412625190616, 43.73204957170659], [-72.44435892998028, 43.73212421422629], [-72.44446447414914, 43.73215800180737], [-72.44454998418664, 43.73218537380811], [-72.45265235929249, 43.734763444969545], [-72.45483774994736, 43.735458625945505], [-72.4583202722935, 43.73673893828233], [-72.46046796093265, 43.73733596977864], [-72.46257079311789, 43.73792047938574], [-72.46491715971112, 43.73857403589421], [-72.46737621429993, 43.739258913920445], [-72.4703276154754, 43.74008255422353], [-72.47046065556424, 43.740119755032595], [-72.47286328891062, 43.74077740560315], [-72.48046992140259, 43.74288426096614], [-72.48408643065636, 43.74388802992944], [-72.4866712092102, 43.7446055680781], [-72.49527206653477, 43.74699263197798], [-72.49887576817106, 43.7479925466103], [-72.5007868176452, 43.74852274406778], [-72.501189934806, 43.748634578788064], [-72.50131600902097, 43.74866955384685], [-72.50135816416098, 43.748681248769834], [-72.50136807966044, 43.74868401004427], [-72.50295230768566, 43.749122338574836], [-72.50365334077387, 43.74931618552733], [-72.50450901040549, 43.749552771554484], [-72.50583273379405, 43.74994509757885], [-72.5079709083796, 43.75057880782439], [-72.5116588271084, 43.75167162685733], [-72.51741052950948, 43.75334967616806], [-72.51958765832194, 43.753984831492005], [-72.51977693329904, 43.75404009240535], [-72.5283456022028, 43.75653929830411], [-72.53080698059411, 43.75723748893888], [-72.53389218854677, 43.75815914444672], [-72.53410278167031, 43.75778795857893], [-72.5344877468707, 43.75710941810739], [-72.53536560103389, 43.75556204732918], [-72.53592076620713, 43.75456325734357], [-72.53701050417352, 43.75260261848461], [-72.53786177162928, 43.75107093751063], [-72.53859961145315, 43.749688797570805], [-72.53859962757343, 43.749688765163114], [-72.5407602922931, 43.74520563880356], [-72.5417075697381, 43.7432399227079], [-72.54231843823253, 43.7419722255601], [-72.54257759001003, 43.74143440498779], [-72.54265657773236, 43.74127047837443], [-72.54266101434067, 43.74126127086342], [-72.54266139118565, 43.741260488567086], [-72.54266150895133, 43.74126024640589], [-72.54266156349455, 43.741260132977466], [-72.54836554842419, 43.731397620765556], [-72.55393461062346, 43.721702080621355], [-72.55929995888442, 43.71245392581123], [-72.56634800089172, 43.70212363033343], [-72.56823012235054, 43.69935766256195], [-72.57046503550839, 43.69603969921757], [-72.5765807663639, 43.686958156061955], [-72.57388186240783, 43.68629216757466], [-72.57570351296896, 43.68316304656394], [-72.57819107025804, 43.67888949425725], [-72.57872779107434, 43.67796733671549], [-72.57887134568723, 43.67772068496991], [-72.57888376004996, 43.67769935544882], [-72.57896007351108, 43.677569113343786], [-72.5790215556631, 43.677464205023924], [-72.57960661156615, 43.67646588232137], [-72.58072630458615, 43.674555168847455], [-72.5816883001079, 43.673072545757755], [-72.58300739547502, 43.67103943053715], [-72.5846329168912, 43.66850662102902], [-72.58816123769083, 43.662492714849876], [-72.5768288309492, 43.65915782912709], [-72.56827949809754, 43.65710117783493], [-72.56823612343503, 43.65711470489534], [-72.56809765980759, 43.657235397827655], [-72.56534713091455, 43.66126394780293], [-72.56435765146934, 43.660951272584974], [-72.56195453545774, 43.66018761155371], [-72.55952841474974, 43.65941656905255], [-72.55577596040288, 43.65841847241812], [-72.55532229469816, 43.658297069056566], [-72.55497709824019, 43.65820468966776], [-72.5540867818235, 43.6579647451887], [-72.5537499105818, 43.65787415110285], [-72.55344189445998, 43.657791314702905], [-72.5532462507808, 43.6577383104473], [-72.5524042128287, 43.657510995332025], [-72.5498908985908, 43.65683347331355], [-72.54591912366908, 43.65576133190621], [-72.54536350728722, 43.65561123990063], [-72.54517632700042, 43.65556092318688], [-72.54392060704352, 43.655222315529116], [-72.54366757585639, 43.65515408307676], [-72.54244967374392, 43.65482565166412], [-72.54095321381759, 43.65442118781889], [-72.53983619635856, 43.654120052896], [-72.53506786467322, 43.6528336361082], [-72.53482313150984, 43.6527671303553], [-72.53313605471064, 43.652312184263565], [-72.5316289684982, 43.65190281823943], [-72.52998468420923, 43.65145615654529], [-72.52743814727332, 43.65077991210771], [-72.52686285773444, 43.65062705343452], [-72.5266272827288, 43.65056499594564], [-72.52625302883892, 43.6504651783143], [-72.52177622025276, 43.64928614296594], [-72.51969162219781, 43.64872599623523], [-72.51776593982466, 43.648208507283236], [-72.51645470621212, 43.64785588258799], [-72.51600566171838, 43.64773532048771], [-72.51364927264808, 43.64710649443873], [-72.51241469801006, 43.64677718470523], [-72.51019487282146, 43.64618623866476], [-72.50776757820138, 43.645539999785825], [-72.50758390396945, 43.645490749888616], [-72.50731788166263, 43.64541941885539], [-72.50709600012478, 43.645359125741464], [-72.50546951249149, 43.644921773953854], [-72.5051088415023, 43.64482458658644], [-72.50448178591412, 43.644661699448875], [-72.50446720835612, 43.64465774687139], [-72.5044517891912, 43.644653564804614], [-72.50265353071464, 43.64415111452121], [-72.50101516308794, 43.64369330643892], [-72.50058369618073, 43.64357269341416], [-72.49946198375129, 43.64325945968948], [-72.49855136144534, 43.64300511091382], [-72.49735739191549, 43.64267160467834], [-72.49446219792547, 43.64186242221004], [-72.49200913613089, 43.64117669081419], [-72.49000174559706, 43.64061549240087], [-72.48922248798911, 43.64039760855336], [-72.48880965282328, 43.6402823523548], [-72.48740421599312, 43.63988978477178], [-72.4873998351012, 43.63988861148474], [-72.48738062114272, 43.63988346810839], [-72.48643016774294, 43.63983205379627], [-72.48473002787915, 43.63923508175005], [-72.48308658344092, 43.638657904424925], [-72.48133291012483, 43.63870623589492], [-72.4792370321201, 43.63917571637816], [-72.47858983742326, 43.639200079196684], [-72.4771168329129, 43.64162027550855], [-72.47533866788592, 43.64440078448426], [-72.47388103869535, 43.6466798600191], [-72.47313335117568, 43.64784888207339], [-72.47126870439226, 43.65076298397601], [-72.47021699799924, 43.65240711816331], [-72.46915008196402, 43.65405847922162], [-72.46782143564184, 43.656116687832885], [-72.4662929401176, 43.658482539887736], [-72.46043813639355, 43.66754542068472], [-72.45899442399497, 43.669778856213696], [-72.45657245554992, 43.67355258406166], [-72.45452289777651, 43.676745637559335], [-72.4504986646122, 43.68343791397299], [-72.44884955549708, 43.686179746320434], [-72.44757366173191, 43.68830234232065], [-72.44643864135989, 43.690096594468145], [-72.44527841953268, 43.69193056088787], [-72.44328217540472, 43.69508698410142], [-72.44005180176352, 43.70019422110602], [-72.4382573761163, 43.70302932990938], [-72.43418131829351, 43.70947086431698], [-72.43297179925702, 43.71138096817807], [-72.43140552904217, 43.71385522756956], [-72.4297678549457, 43.71643835939351], [-72.42813853447834, 43.71900807522023], [-72.42638700347673, 43.72206409327883], [-72.42642229802487, 43.722024333038405], [-72.42770361211124, 43.72239363806031]], [[-72.5373342389555, 43.66157429036256], [-72.54022000023654, 43.662289907369214], [-72.5458864450695, 43.66470875254466], [-72.54986452977626, 43.669018416193815], [-72.5470326907052, 43.670014539108145], [-72.54419941804655, 43.66918656805826], [-72.54415309829027, 43.668324319920444], [-72.54022347688412, 43.66749666830873], [-72.53803108319472, 43.66835968495159], [-72.53656880142799, 43.66786270113573], [-72.53766363890263, 43.66524238320011], [-72.53720534048257, 43.66288788250083], [-72.53574343449333, 43.66278885634273], [-72.53501147140283, 43.6609982211765], [-72.5373342389555, 43.66157429036256]]]}}, {"type": "Feature", "properties": {"ABB_DIST_NAME": "VD", "Jurisdiction_County": "Windsor", "Jurisdiction_District_Name": "Pomfret"}, "geometry": {"type": "Polygon", "coordinates": [[[-72.53501147140283, 43.6609982211765], [-72.53574343449333, 43.66278885634273], [-72.53720534048257, 43.66288788250083], [-72.53766363890263, 43.66524238320011], [-72.53656880142799, 43.66786270113573], [-72.53803108319472, 43.66835968495159], [-72.54022347688412, 43.66749666830873], [-72.54415309829027, 43.668324319920444], [-72.54419941804655, 43.66918656805826], [-72.5470326907052, 43.670014539108145], [-72.54986452977626, 43.669018416193815], [-72.5458864450695, 43.66470875254466], [-72.54022000023654, 43.662289907369214], [-72.5373342389555, 43.66157429036256], [-72.53501147140283, 43.6609982211765]]]}}]}