{"type":"FeatureCollection","name":"Windham_Marlboro","features":[{"type":"Feature","properties":{"OBJECT_ID":394,"County":"Windham","RPC":"WRC","Municipal_Name":"Marlboro","GEO_ID":"5002543375","District_Name":"Commercial West","Abbreviated_District_Name":"Com-W","District_Type":"Mixed with Residential","Bylaw_Date":null,"Elderly_Housing_District":"No","District_Mapped":"Yes","Overlay_District":"No","Base_Density":null,"FIPS6":null,"GIS_ID":null,"Last_Update":null,"Shape_Length":2905.425495748953,"Shape_Area":247842.38730864486,"F1F_Allowance":"Permitted","F1F_Front_Setback":30.0,"F1F_Side_Setback":50.0,"F1F_Rear_Setback":50.0,"F1F_Frontage":100.0,"F1F_Max_Height":35.0,"F1F_Max_Stories":3.0,"F1F_Min_Lot_Size":2.0,"F1F_Max_Lot_Building_Coverage":20.0,"F1F_Max_Lot_Impervious_Coverage":null,"F1F_Min_Parking_Spaces":1.0,"F1F_Elderly_Housing_Only":null,"F1F_Affordable_Housing_Only":null,"F2F_Allowance":"Permitted","F2F_Front_Setback":30.0,"F2F_Side_Setback":50.0,"F2F_Rear_Setback":50.0,"F2F_Frontage":100.0,"F2F_Max_Density":0.5,"F2F_Max_Height":35.0,"F2F_Max_Stories":3.0,"F2F_Min_Lot_Size":2.0,"F2F_Max_Lot_Building_Coverage":20.0,"F2F_Max_Lot_Impervious_Coverage":null,"F2F_Min_Parking_Spaces_per_1BR":1.0,"F2F_Min_Parking_Spaces_per_mult_BR":1.0,"F2F_Elderly_Housing_Only":"No","F2F_Affordable_Housing_Only":"No","F3F_Allowance":"Prohibited","F3F_Front_Setback":null,"F3F_Side_Setback":null,"F3F_Rear_Setback":null,"F3F_Frontage":null,"F3F_Max_Density":null,"F3F_Max_Height":null,"F3F_Max_Stories":null,"F3F_Min_Lot_Size":null,"F3F_Max_Lot_Building_Coverage":null,"F3F_Max_Lot_Impervious_Coverage":null,"F3F_Min_Parking_Spaces_per_1BR":null,"F3F_Min_Parking_Spaces_per_mult_BR":null,"F3F_Affordable_Housing_Only":null,"F3F_Proximity_to_Public_Transit_Required":null,"F3F_Connection_to_Sewage/Water_Required":null,"F4F_Allowance":"Prohibited","F4F_Front_Setback":null,"F4F_Side_Setback":null,"F4F_Rear_Setback":null,"F4F_Frontage":null,"F1F_Max_Density":null,"F4F_Max_Density":null,"F4F_Max_Height":null,"F4F_Max_Stories":null,"F4F_Min_Lot_Size":null,"F4F_Max_Lot_Building_Coverage":null,"F4F_Max_Lot_Impervious_Coverage":null,"F4F_Min_Parking_Spaces_per_1BR":null,"F4F_Min_Parking_Spaces_per_mult_BR":null,"F3F_Elderly_Housing_Only":null,"F4F_Elderly_Housing_Only":null,"F4F_Affordable_Housing_Only":null,"F4F_Proximity_to_Public_Transit_Required":null,"F4F_Connection_to_Sewage/Water_Required":null,"ADU_Allowance":"Allowed/Conditional","ADU_Elderly_Housing_Only":"No","ADU_Max_Size_as_Percent_of_Primary_Strcture":30.0,"ADU_Max_Size_in_sq_ft":null,"ADU_Min_Lot_Size":null,"ADU_Max_Bedrooms":null,"ADU_Min_Parking_Spaces":null,"ADU_Owner_Occupancy_Required":"No","ADU_Renter_Occupancy_Prohibited":"No","ADU_Employee_or_Family_Occupancy_Required":"No","ADU_Restricted_to_Primary_Structure":"No","Affordable_Housing_Allowance":"Prohibited","Affordable_Housing_District":"No","Affordable_Housing_Elderly_Only":null,"Affordable_Housing_Min_Lot_Size":null,"Affordable_Housing_Max_Density":null,"Affordable_Housing_Min_Parking_Spaces_per_mult_BR":null,"Affordable_Housing_Max_Units_per_Building":null,"Affordable_Housing_Min_Parking_Spaces_per_1BR":null,"PRD_Allowance":"Prohibited","PRD_Max_Density":null,"PRD_Max_Units":null,"PRD_Min_Lot_Size":null,"PRD_Mobile_or_Manufactured_Home_Park":null,"PUD_Allowance":null,"PUD_Required_with_Subdivision":null,"PUD_Requires_Land_Conservation":null,"PUD_Threshold_Number":null,"Notes":"None"},"geometry":{"type":"MultiPolygon","coordinates":[[[[-72.78972254636683,42.85636385505676],[-72.79066316276352,42.856262897923834],[-72.79101548691553,42.85616289691629],[-72.79166095054178,42.8556054358621],[-72.79202090580768,42.8553800608309],[-72.79246742315145,42.85518730209139],[-72.79408869629505,42.854904163714814],[-72.79450223537118,42.854789921834445],[-72.79515705322157,42.85451418861477],[-72.79584248198965,42.85442922734137],[-72.7962145216249,42.85455653630096],[-72.7965718007375,42.8547989021429],[-72.79698417314873,42.85555276699998],[-72.79907623261371,42.857762046449416],[-72.7993702478832,42.85797095777863],[-72.7996188076408,42.857745752947665],[-72.7993114995829,42.85707654301316],[-72.79895883552311,42.85508203580821],[-72.7987827040851,42.8546550548037],[-72.79855688011402,42.85447089427252],[-72.79961023702138,42.85376667555323],[-72.79706554562877,42.85193978335939],[-72.79206868501599,42.851864860785525],[-72.79033925848648,42.85440425385446],[-72.79076433871155,42.85472834927165],[-72.79117008031128,42.85525063688685],[-72.79112669722207,42.85574354088424],[-72.78972254636683,42.85636385505676]]]]}},{"type":"Feature","properties":{"OBJECT_ID":397,"County":"Windham","RPC":"WRC","Municipal_Name":"Marlboro","GEO_ID":"5002543375","District_Name":"Rural Residential","Abbreviated_District_Name":"Rur","District_Type":"Primarily Residential","Bylaw_Date":null,"Elderly_Housing_District":"No","District_Mapped":"Yes","Overlay_District":"No","Base_Density":null,"FIPS6":null,"GIS_ID":null,"Last_Update":null,"Shape_Length":100753.13345611299,"Shape_Area":106033413.07370119,"F1F_Allowance":"Permitted","F1F_Front_Setback":30.0,"F1F_Side_Setback":50.0,"F1F_Rear_Setback":50.0,"F1F_Frontage":200.0,"F1F_Max_Height":35.0,"F1F_Max_Stories":3.0,"F1F_Min_Lot_Size":2.0,"F1F_Max_Lot_Building_Coverage":10.0,"F1F_Max_Lot_Impervious_Coverage":null,"F1F_Min_Parking_Spaces":1.0,"F1F_Elderly_Housing_Only":null,"F1F_Affordable_Housing_Only":null,"F2F_Allowance":"Permitted","F2F_Front_Setback":30.0,"F2F_Side_Setback":50.0,"F2F_Rear_Setback":50.0,"F2F_Frontage":200.0,"F2F_Max_Density":0.5,"F2F_Max_Height":35.0,"F2F_Max_Stories":3.0,"F2F_Min_Lot_Size":2.0,"F2F_Max_Lot_Building_Coverage":10.0,"F2F_Max_Lot_Impervious_Coverage":null,"F2F_Min_Parking_Spaces_per_1BR":1.0,"F2F_Min_Parking_Spaces_per_mult_BR":1.0,"F2F_Elderly_Housing_Only":"No","F2F_Affordable_Housing_Only":"No","F3F_Allowance":"Prohibited","F3F_Front_Setback":null,"F3F_Side_Setback":null,"F3F_Rear_Setback":null,"F3F_Frontage":null,"F3F_Max_Density":null,"F3F_Max_Height":null,"F3F_Max_Stories":null,"F3F_Min_Lot_Size":null,"F3F_Max_Lot_Building_Coverage":null,"F3F_Max_Lot_Impervious_Coverage":null,"F3F_Min_Parking_Spaces_per_1BR":null,"F3F_Min_Parking_Spaces_per_mult_BR":null,"F3F_Affordable_Housing_Only":null,"F3F_Proximity_to_Public_Transit_Required":null,"F3F_Connection_to_Sewage/Water_Required":null,"F4F_Allowance":"Prohibited","F4F_Front_Setback":null,"F4F_Side_Setback":null,"F4F_Rear_Setback":null,"F4F_Frontage":null,"F1F_Max_Density":null,"F4F_Max_Density":null,"F4F_Max_Height":null,"F4F_Max_Stories":null,"F4F_Min_Lot_Size":null,"F4F_Max_Lot_Building_Coverage":null,"F4F_Max_Lot_Impervious_Coverage":null,"F4F_Min_Parking_Spaces_per_1BR":null,"F4F_Min_Parking_Spaces_per_mult_BR":null,"F3F_Elderly_Housing_Only":null,"F4F_Elderly_Housing_Only":null,"F4F_Affordable_Housing_Only":null,"F4F_Proximity_to_Public_Transit_Required":null,"F4F_Connection_to_Sewage/Water_Required":null,"ADU_Allowance":"Allowed/Conditional","ADU_Elderly_Housing_Only":"No","ADU_Max_Size_as_Percent_of_Primary_Strcture":30.0,"ADU_Max_Size_in_sq_ft":null,"ADU_Min_Lot_Size":null,"ADU_Max_Bedrooms":null,"ADU_Min_Parking_Spaces":null,"ADU_Owner_Occupancy_Required":"No","ADU_Renter_Occupancy_Prohibited":"No","ADU_Employee_or_Family_Occupancy_Required":"No","ADU_Restricted_to_Primary_Structure":"No","Affordable_Housing_Allowance":"Public Hearing","Affordable_Housing_District":"No","Affordable_Housing_Elderly_Only":"No","Affordable_Housing_Min_Lot_Size":null,"Affordable_Housing_Max_Density":null,"Affordable_Housing_Min_Parking_Spaces_per_mult_BR":null,"Affordable_Housing_Max_Units_per_Building":null,"Affordable_Housing_Min_Parking_Spaces_per_1BR":null,"PRD_Allowance":"Public Hearing","PRD_Max_Density":null,"PRD_Max_Units":null,"PRD_Min_Lot_Size":null,"PRD_Mobile_or_Manufactured_Home_Park":"No","PUD_Allowance":"Yes","PUD_Required_with_Subdivision":"Yes","PUD_Requires_Land_Conservation":"No","PUD_Threshold_Number":null,"Notes":"  Adus Are Conditional If Any Change Is Made to The Height Or Floor Area Of An Existing Building, If A New Structure Is Built Or If The Parking Area Dimensions Are Altered"},"geometry":{"type":"MultiPolygon","coordinates":[[[[-72.73043792042348,42.82771400680798],[-72.73051186780373,42.82819240571652],[-72.73072136738033,42.82871760604411],[-72.73118896793993,42.82939820556173],[-72.73112356812051,42.82967950570334],[-72.73115756880205,42.82987510616646],[-72.73134166799909,42.83025370638995],[-72.73163346862549,42.83055260556199],[-72.73172656844625,42.83102310588889],[-72.73267176843564,42.83282740704425],[-72.7327894680505,42.833218406763606],[-72.73282576810216,42.83402820676501],[-72.73274453410288,42.83447845099177],[-72.73282027138644,42.83485422063654],[-72.73275989190978,42.83497907422589],[-72.73251063170984,42.835227668594676],[-72.73197119287212,42.835567242195204],[-72.73151420887376,42.835822133360615],[-72.73105681199546,42.83589465159036],[-72.73065785227078,42.83624177710467],[-72.72922780861953,42.83618151743174],[-72.72829023079316,42.83643410257885],[-72.72794716632924,42.83642509803254],[-72.7272209156161,42.83655784563695],[-72.72620371826989,42.83665065359098],[-72.72597646187498,42.83701466687543],[-72.72589821672229,42.837368279186286],[-72.72553101680249,42.837128378786424],[-72.72515444498487,42.83703834758121],[-72.72239520021525,42.83700593319257],[-72.72259748185608,42.83772290284349],[-72.72364635447923,42.83900564401366],[-72.72508429122261,42.83845348821054],[-72.7252177279435,42.839562382307705],[-72.72515576614093,42.839691508180984],[-72.72522306651888,42.83994810824992],[-72.72519186677314,42.84007960867814],[-72.72496616624485,42.84010440831632],[-72.72489166601156,42.84015960765717],[-72.72485096651884,42.84038580759619],[-72.72502616629669,42.84060550882465],[-72.72498516669091,42.84075230943381],[-72.72513556656693,42.841014908100526],[-72.72545176719403,42.841148708258906],[-72.72551876625116,42.841313608329024],[-72.72543146705235,42.841460309417556],[-72.72545165062412,42.84187330832809],[-72.72534611276453,42.8420712633443],[-72.72525166178164,42.84275905587261],[-72.72826634182093,42.84301136797391],[-72.73023734569462,42.84323386920386],[-72.73027623099878,42.844570431977274],[-72.73488387571392,42.84488447759223],[-72.73484009831759,42.84591509956681],[-72.73997277446422,42.84602753784053],[-72.74014777211333,42.83918612741908],[-72.73986003431604,42.83922349225058],[-72.73969343349808,42.839185901948746],[-72.73813228539129,42.83859179165739],[-72.73721974943933,42.83840245957396],[-72.73814289034001,42.83571527385283],[-72.73913224313118,42.83582068756883],[-72.73956624034633,42.833588153649956],[-72.73563729997662,42.83353437944779],[-72.73595813277745,42.827757164907176],[-72.74903542243327,42.82785834459945],[-72.75244633889044,42.827940367760974],[-72.752834147941,42.83903267657959],[-72.75432927740411,42.84008482159072],[-72.75471835925812,42.84025499759033],[-72.75474326924156,42.83878124132624],[-72.76025595544353,42.83882112703843],[-72.7605530058058,42.83536479132692],[-72.75843300002376,42.835337033555234],[-72.75854233539728,42.82808670744205],[-72.77825428253747,42.82855767909102],[-72.79796651014688,42.82902525641067],[-72.80291051215478,42.82915199639014],[-72.8018941794091,42.847670622137954],[-72.79954982821704,42.84746898883324],[-72.7949520728018,42.8473850344149],[-72.79503088592705,42.846745845575136],[-72.79256724401094,42.84624767545061],[-72.79284959634535,42.84577501868726],[-72.79183971572148,42.846235234162705],[-72.79105901058377,42.84706378645193],[-72.79080538726106,42.84718666514379],[-72.78934668082962,42.84723801480625],[-72.78738789402976,42.84720293665226],[-72.786795629615,42.847272442026906],[-72.78656145099058,42.84738913581983],[-72.78650839723832,42.84742541809549],[-72.7875192180885,42.85225553768294],[-72.79033925848648,42.85440425385446],[-72.79076433871155,42.85472834927165],[-72.79117008031128,42.85525063688685],[-72.79112669722207,42.85574354088424],[-72.78972254636683,42.85636385505676],[-72.78923105821075,42.856784015207175],[-72.78901278330346,42.85706185498202],[-72.78873442842566,42.85765493123475],[-72.78859910000715,42.85856044604511],[-72.78830767658384,42.85905976644708],[-72.78750299930917,42.85991735040048],[-72.78538014028815,42.8624899669687],[-72.78436892919265,42.863382695392666],[-72.7842376440448,42.86741704161742],[-72.78958868808154,42.86741076901565],[-72.79934703538066,42.86799666569371],[-72.79908063078436,42.87045196307475],[-72.80062166741321,42.87088317687178],[-72.79870206939528,42.90494561595285],[-72.79265412433541,42.90454366527675],[-72.79247706429003,42.90469216298955],[-72.79230416085167,42.90466782040938],[-72.79200889535964,42.904717945132234],[-72.79009062831562,42.90456423723284],[-72.7900541823748,42.905774268556705],[-72.79031765569667,42.905891220215786],[-72.7905205614459,42.90606510209158],[-72.79060930587738,42.906252191253365],[-72.78783267255086,42.90623336856988],[-72.787976923355,42.907021021260185],[-72.78840421744101,42.90820842614259],[-72.78560965551884,42.908131462866166],[-72.78557346515926,42.90790548361188],[-72.7839220436508,42.90801293712464],[-72.78378235125888,42.91120495772507],[-72.78728588978416,42.91122987579132],[-72.78717657381868,42.912809262667345],[-72.7876020648112,42.91372279345226],[-72.78812643712577,42.915364840831664],[-72.79088674989299,42.91554367197887],[-72.79113580097338,42.91280958582465],[-72.79118625189403,42.91103900684281],[-72.7920037417026,42.91090998370236],[-72.79467922382736,42.9109212958744],[-72.79837157117389,42.91077358733318],[-72.79773196732405,42.922292425648635],[-72.7770450789218,42.92233616688733],[-72.77658757610115,42.924633844215236],[-72.74942960758042,42.92398463683021],[-72.72492595416306,42.92343790134691],[-72.70042271405845,42.92288592000602],[-72.69420049650729,42.92274765086948],[-72.6940672833496,42.91703703158459],[-72.7002555201456,42.91679063204531],[-72.69204152343642,42.91349898125031],[-72.69212821185495,42.912886750343944],[-72.69148063112124,42.91291119987291],[-72.69188192475704,42.91204066630247],[-72.69152386248481,42.91147421162658],[-72.69129943817563,42.91132859057199],[-72.69092233900652,42.911670528939624],[-72.69052198961268,42.911898988389005],[-72.69036758748967,42.91196415108435],[-72.69027552047413,42.911844814997856],[-72.69023658673095,42.91118971884421],[-72.68978516331089,42.910697317045226],[-72.68977024325913,42.90975599618388],[-72.68891213627829,42.909749577413656],[-72.68907385095375,42.91067422388528],[-72.68904407038204,42.911573553311065],[-72.68892412193794,42.91238156624849],[-72.68816382093175,42.912496729057835],[-72.68618974443838,42.91304630189658],[-72.67972104113882,42.91515304132584],[-72.67654589880088,42.91594881603293],[-72.67663024215557,42.91441855645047],[-72.67676777312454,42.91182883906092],[-72.67726000938531,42.90256043467797],[-72.67736443445283,42.89966401234288],[-72.67902761775393,42.86004939116807],[-72.68062995914838,42.8272877658163],[-72.70011026962833,42.82747214886145],[-72.71527406953687,42.8275940819611],[-72.73043792042348,42.82771400680798]],[[-72.70243978628146,42.832422068345174],[-72.70367540381453,42.832469918745346],[-72.70359091371292,42.833428516808866],[-72.70224185880637,42.8332573944272],[-72.70155914801715,42.832917457555375],[-72.7009118006491,42.832766961656674],[-72.7004371766227,42.83248679829977],[-72.69987773459945,42.83238033380232],[-72.69924114081792,42.83232890178086],[-72.69983935864296,42.83299990715153],[-72.69987265798204,42.83324360710751],[-72.70014585788235,42.83348710761008],[-72.70038375751412,42.834145006591285],[-72.70043405838781,42.83462360806895],[-72.70037275746041,42.835766807812725],[-72.70056475906955,42.83604470843215],[-72.70080335873487,42.83691210827738],[-72.70069875830401,42.83725930865872],[-72.70064945927302,42.8383695088286],[-72.7003997589389,42.839094108907496],[-72.70038425881465,42.83932750907359],[-72.70061205862773,42.84061680923155],[-72.70073845870624,42.84073930917132],[-72.70074658418291,42.84096618821528],[-72.70062239540387,42.84101008026695],[-72.70188169821292,42.84335223824646],[-72.70336497122814,42.8497121738824],[-72.70033954587512,42.854053096755855],[-72.70056659345538,42.85433243397858],[-72.70194857826293,42.85292693985893],[-72.70285876922536,42.85303455260672],[-72.70310320626069,42.85206510455398],[-72.70847157993107,42.85005794595746],[-72.7081909547094,42.85034644363922],[-72.70482862874745,42.855597415715714],[-72.70561139701272,42.85605762355488],[-72.70564651537703,42.85532145686964],[-72.70596670609783,42.85503099686885],[-72.70816333991412,42.855891842640595],[-72.70835642954354,42.85484912772919],[-72.7093731774545,42.8533371685884],[-72.70958844137651,42.852817207659015],[-72.71128512737542,42.8528569516007],[-72.71129844111537,42.85268024130202],[-72.71423067720376,42.85393306591986],[-72.71482250286009,42.85293009500345],[-72.71725226067804,42.8543356211762],[-72.71706145946597,42.85617300859497],[-72.71903259623463,42.856785047852654],[-72.71905461774948,42.85598524436757],[-72.71939587447201,42.855912375749185],[-72.72082610350724,42.85599570279089],[-72.72150048135069,42.856102918769956],[-72.72288346535834,42.85596771601048],[-72.72301563406504,42.85657744993796],[-72.72320414021821,42.85664856505368],[-72.72357663572197,42.856687852324555],[-72.72358607606155,42.85738831262254],[-72.7209551700077,42.85772942441072],[-72.72053487979501,42.85826883342418],[-72.72099721122545,42.859079781927164],[-72.72121581039978,42.85977538942832],[-72.72219884951454,42.8595797226317],[-72.72228585246759,42.85970452891091],[-72.72240341159214,42.86117607980245],[-72.72381317756641,42.86125389362009],[-72.7231140607762,42.862325940926645],[-72.72278512930926,42.862214835713104],[-72.72209310081925,42.86305432887512],[-72.71840455087465,42.8661811637229],[-72.71906741421638,42.86780930918295],[-72.71924763790774,42.86782195771611],[-72.71821674661432,42.86902974341307],[-72.71792354470224,42.86886680459047],[-72.71757494505019,42.86917650040311],[-72.71624255465919,42.8701389803674],[-72.71498487348296,42.870933057740636],[-72.71302914085433,42.87147304323841],[-72.7125695353097,42.87164896496476],[-72.71185994792654,42.872014017201245],[-72.71104161307574,42.87264234291759],[-72.70972889148827,42.87402739320153],[-72.70852861407643,42.874078960719096],[-72.70515030908992,42.87393173907586],[-72.70522571802249,42.87216446028926],[-72.70546201622672,42.87097121432991],[-72.70530758762173,42.87021525756179],[-72.70581236338268,42.870079216677745],[-72.70894993945693,42.870146297726144],[-72.70908338008846,42.86990437168997],[-72.7091818321538,42.86767187234165],[-72.70915218247431,42.867261324735104],[-72.70531537309945,42.86723448572244],[-72.70531616092046,42.86406643601185],[-72.7056404469175,42.864055639433985],[-72.70573778571001,42.86251700710417],[-72.70902322593479,42.86254743887124],[-72.70892619272547,42.858189745207866],[-72.70776253497255,42.85770420912901],[-72.70709377981319,42.85731727376401],[-72.70720663266384,42.85899431543371],[-72.70159410339126,42.85885764697488],[-72.7016641888478,42.85828647883131],[-72.7013203943671,42.85834870815312],[-72.7011462923754,42.85850775956364],[-72.70069974933726,42.85873370737401],[-72.70049159505812,42.8589018924111],[-72.70040989483262,42.859151977711875],[-72.699745212585,42.85922812343227],[-72.69959472123703,42.859217672560014],[-72.69951683645996,42.859146396103455],[-72.69934293870341,42.85940378256734],[-72.69920187734404,42.85930762264007],[-72.69913318219062,42.85941220889027],[-72.69895002525324,42.859449299684904],[-72.69879445521575,42.85938195385699],[-72.69873585346096,42.85927986724969],[-72.69883132996218,42.858783383555604],[-72.69864209221126,42.8587979964485],[-72.69836747964433,42.858927634586095],[-72.69774757130511,42.857445121711415],[-72.69768445093808,42.8571083503307],[-72.69668150820583,42.857448135425344],[-72.69378791479363,42.85879989676554],[-72.69374739187005,42.86041811614795],[-72.6921878970444,42.86047783804947],[-72.69213413734032,42.85963342274702],[-72.69132670831016,42.86000169755371],[-72.69127789971166,42.86095671605496],[-72.69374991386246,42.8610282432119],[-72.69345658979083,42.86567014024755],[-72.69840298838915,42.865803565450044],[-72.69842943829879,42.864377465415714],[-72.70087244184681,42.864219565181656],[-72.70059841072461,42.86616185433459],[-72.70085084520157,42.866152569095505],[-72.70084653924972,42.87385620931895],[-72.6964993521659,42.8740135084272],[-72.69596256530896,42.8786526510799],[-72.69564358142507,42.87854084985894],[-72.69613110981234,42.87881692982085],[-72.69641838908156,42.8791734241912],[-72.69680600204025,42.8798349833267],[-72.69695776068768,42.87993001659926],[-72.69762656085624,42.88012041669822],[-72.69799666038278,42.88016981665184],[-72.69932696035991,42.880672716564156],[-72.70086396144508,42.880878216773446],[-72.70159536199222,42.88061041635548],[-72.7021138456725,42.88023848944854],[-72.70207282819389,42.87956078888478],[-72.70275158914511,42.879412891413736],[-72.70457088135147,42.87934935796761],[-72.70448424789123,42.87873540000339],[-72.70486362443783,42.87805645084479],[-72.7053881156378,42.877452603968166],[-72.70464933463005,42.87629748835002],[-72.70694234567787,42.87518890187849],[-72.70797420705958,42.87669125425909],[-72.70783019961642,42.87692415359174],[-72.70759927460409,42.87712818701777],[-72.70578404727104,42.87802313204635],[-72.70654527138373,42.87912000157707],[-72.70641671889815,42.87931444702598],[-72.707060011036,42.880106411776445],[-72.70715392144695,42.880575286408245],[-72.70764836377134,42.88041055438486],[-72.70836609960907,42.8800801581053],[-72.70992156745483,42.87927798522021],[-72.71047635581684,42.878903597979146],[-72.71111752883341,42.87823568441889],[-72.7127790376054,42.87561392638018],[-72.71396138459018,42.87436168927912],[-72.71424173957385,42.87413003401574],[-72.71477979865615,42.87390575185882],[-72.71617928518097,42.87355058677593],[-72.7169626206513,42.873267906642575],[-72.71878535840808,42.872150242427956],[-72.72018818420314,42.87113768882778],[-72.72065938715124,42.87073531179286],[-72.72108181846619,42.870957710721605],[-72.72222277742482,42.86990820879409],[-72.7231142971838,42.87023911457497],[-72.72425527428922,42.8692077826085],[-72.72500635232011,42.8670790132343],[-72.72506717480258,42.8666832946661],[-72.72548116138056,42.86530726073242],[-72.72546597583428,42.86404690070286],[-72.72587751871441,42.863557526430306],[-72.72624706512954,42.86221064598655],[-72.7271451785856,42.8624375569599],[-72.7277022269101,42.86097623296245],[-72.72880205544647,42.86183034632804],[-72.72873128284803,42.861442248413645],[-72.7285499489553,42.86127040178683],[-72.72844984681866,42.85970951783234],[-72.72931638615621,42.85948135666177],[-72.72916207822294,42.859058791726284],[-72.72844651784962,42.85903952241323],[-72.72852492483436,42.85850116342393],[-72.7291746303339,42.85701833039343],[-72.73000497149398,42.855929726633306],[-72.72909068790474,42.855796409396184],[-72.72904963239094,42.85502135244921],[-72.72814081019557,42.85506850658138],[-72.72749074628953,42.85474056768201],[-72.7272176959551,42.8546819043841],[-72.72724364303834,42.854472184670804],[-72.7250621294643,42.85418691696083],[-72.72487915106795,42.8540040094222],[-72.72232029085694,42.8538519543423],[-72.72228167171332,42.853106566065925],[-72.72284127772845,42.85308869939687],[-72.72308634873306,42.85207725444744],[-72.72355196877949,42.85181609640699],[-72.72393584856765,42.85051679097455],[-72.72294196419449,42.850211290939754],[-72.71971068384495,42.85008109217287],[-72.71981135405706,42.84874924543014],[-72.71510843617611,42.84832454972803],[-72.715411889422,42.84787202157386],[-72.71572758738984,42.847865067255476],[-72.71584671267892,42.84779857958097],[-72.71641008416464,42.84800552825818],[-72.7186722487889,42.84518840596997],[-72.7192341485569,42.84180268709148],[-72.71801286088865,42.840971316861115],[-72.71405151921967,42.83658526365666],[-72.71077622559737,42.83776569315154],[-72.71072331337618,42.837417246848204],[-72.70942352273167,42.83660100720656],[-72.70868959291204,42.83582361901262],[-72.70877424722701,42.83532399762391],[-72.70916025356065,42.83464009834336],[-72.70921796585051,42.83399340042042],[-72.7093835075115,42.83363083474599],[-72.70742661296411,42.83388630227456],[-72.70681600846332,42.83385428006608],[-72.70697384507565,42.830749347697875],[-72.70206565621478,42.83039867956527],[-72.70190595546613,42.83246060805784],[-72.70243626456256,42.83247853196563],[-72.70243978628146,42.832422068345174]],[[-72.68591417872896,42.85593658422328],[-72.68592477038732,42.85561330841946],[-72.68661541558335,42.855646054995255],[-72.68665222632356,42.85499518016056],[-72.68628915965922,42.85476772914808],[-72.68594857301343,42.854696379010505],[-72.68561789051867,42.854555587188],[-72.68508175777468,42.85445479867821],[-72.6842493134523,42.85443630529025],[-72.6835813606009,42.85434138768483],[-72.68351692742547,42.855666778984244],[-72.6844415058428,42.85567524507204],[-72.68591417872896,42.85593658422328]],[[-72.7542250106219,42.87304337515141],[-72.75419751081935,42.87512104107857],[-72.75893017091039,42.8750832612853],[-72.76193000317434,42.87518905808304],[-72.76195226799763,42.874323526732994],[-72.76187095404823,42.873658076699215],[-72.76003836723346,42.874157015451694],[-72.75893507731776,42.87288486095886],[-72.7585469515075,42.87287635169732],[-72.75797510974071,42.87254546759806],[-72.75753970761662,42.87236163123791],[-72.75737930678818,42.872167183111465],[-72.75516837898465,42.87220928774108],[-72.75429464818582,42.872663562710315],[-72.7542250106219,42.87304337515141]],[[-72.69988666175382,42.89551971987717],[-72.69980446898009,42.89545568558933],[-72.6988973050765,42.895773481103596],[-72.6988879646945,42.896110718402035],[-72.69308081967671,42.89590784299811],[-72.69274346964218,42.89866652596523],[-72.69254488033947,42.90181348005328],[-72.69789026928791,42.90353821216165],[-72.70013937517759,42.90314711545087],[-72.7003651836898,42.903051013424786],[-72.70065168269885,42.90274695381871],[-72.70145797895472,42.9047124416706],[-72.70170306302138,42.90497212079899],[-72.70188416342175,42.90560562127959],[-72.70254666448085,42.90735002110982],[-72.70270046338585,42.908036921104504],[-72.70324496441617,42.90845372102804],[-72.70422066459085,42.90872572231339],[-72.70521826378834,42.909241122074334],[-72.7054418651933,42.90925602164601],[-72.70643516498401,42.9095178218294],[-72.70686096462781,42.909558421689034],[-72.70808628355326,42.909904140818504],[-72.70871391935195,42.90833771297112],[-72.70998296035236,42.901129934660254],[-72.70353778145306,42.8993306774155],[-72.7033332056517,42.89932611596561],[-72.70254752580603,42.897626966763546],[-72.7025197357874,42.89740621202187],[-72.70218521678984,42.89723317239518],[-72.70131479520829,42.896320552578956],[-72.70060887443945,42.896092010096666],[-72.70070358724907,42.89575638201052],[-72.70066336825792,42.89561848558318],[-72.70049076103979,42.89549239939511],[-72.70053006170609,42.895389718877276],[-72.70084346277945,42.895205719195914],[-72.70076331525216,42.89511977660357],[-72.69996582792986,42.895399158639414],[-72.6999776619352,42.89549561931197],[-72.69988666175382,42.89551971987717]]],[[[-72.696744936704,42.87920878237566],[-72.69750451569102,42.87827924421953],[-72.69889260944642,42.87872077033606],[-72.69858487201715,42.88003410371618],[-72.69735400750152,42.87961640320725],[-72.696744936704,42.87920878237566]]],[[[-72.70298278099851,42.90116425041785],[-72.70277230046739,42.901216336091935],[-72.7022089572504,42.90123304812146],[-72.70187415113516,42.90135678044779],[-72.7016859606249,42.9013161469033],[-72.70120561178905,42.901212430719966],[-72.70228310390637,42.89934395740624],[-72.70335448892014,42.899601936216456],[-72.70337730223115,42.900386814862756],[-72.70320896909378,42.900989294779166],[-72.70298278099851,42.90116425041785]]],[[[-72.79292427883166,42.90978249966878],[-72.79290685945632,42.909682878298945],[-72.79217087351299,42.90969965001325],[-72.79210673700015,42.90845762157069],[-72.7927166847815,42.908465809135905],[-72.79260978118971,42.90793106875565],[-72.7926340318126,42.90753395061898],[-72.79347161049034,42.90751177813367],[-72.79371587205402,42.90986703328073],[-72.79295997489382,42.909978359070784],[-72.79292427883166,42.90978249966878]]],[[[-72.68133011078949,42.920358098228945],[-72.68128917189493,42.920003879334985],[-72.68152073908131,42.919947626577105],[-72.68195903983819,42.91989292724644],[-72.68254951272196,42.91990296324858],[-72.68245384920802,42.92055284836923],[-72.68178260890564,42.920491175436666],[-72.68133011078949,42.920358098228945]]],[[[-72.68050489634554,42.92003781456302],[-72.68034082506342,42.92030915740169],[-72.68062846051531,42.9203717453656],[-72.68053472124689,42.920857206387275],[-72.6807593745464,42.92092755216744],[-72.68073543899862,42.92106265766484],[-72.68024635292014,42.92090951012367],[-72.68025870927995,42.92033811092501],[-72.67964771033208,42.92010544327555],[-72.67948040537013,42.91996920306271],[-72.67950215374529,42.919936377615144],[-72.67966547922525,42.91968986176751],[-72.67972233920821,42.91969022801376],[-72.6800991395988,42.91982042856264],[-72.68028193963393,42.9199726282094],[-72.68050489634554,42.92003781456302]]]]}},{"type":"Feature","properties":{"OBJECT_ID":395,"County":"Windham","RPC":"WRC","Municipal_Name":"Marlboro","GEO_ID":"5002543375","District_Name":"Conservation Priority","Abbreviated_District_Name":"Cons","District_Type":"Mixed with Residential","Bylaw_Date":null,"Elderly_Housing_District":"No","District_Mapped":"Yes","Overlay_District":"No","Base_Density":null,"FIPS6":null,"GIS_ID":null,"Last_Update":null,"Shape_Length":50674.48499056786,"Shape_Area":10558450.909437982,"F1F_Allowance":"Public Hearing","F1F_Front_Setback":30.0,"F1F_Side_Setback":50.0,"F1F_Rear_Setback":50.0,"F1F_Frontage":200.0,"F1F_Max_Height":35.0,"F1F_Max_Stories":3.0,"F1F_Min_Lot_Size":27.0,"F1F_Max_Lot_Building_Coverage":1.0,"F1F_Max_Lot_Impervious_Coverage":null,"F1F_Min_Parking_Spaces":1.0,"F1F_Elderly_Housing_Only":null,"F1F_Affordable_Housing_Only":null,"F2F_Allowance":"Public Hearing","F2F_Front_Setback":30.0,"F2F_Side_Setback":50.0,"F2F_Rear_Setback":50.0,"F2F_Frontage":200.0,"F2F_Max_Density":0.04,"F2F_Max_Height":35.0,"F2F_Max_Stories":3.0,"F2F_Min_Lot_Size":27.0,"F2F_Max_Lot_Building_Coverage":1.0,"F2F_Max_Lot_Impervious_Coverage":null,"F2F_Min_Parking_Spaces_per_1BR":1.0,"F2F_Min_Parking_Spaces_per_mult_BR":1.0,"F2F_Elderly_Housing_Only":"No","F2F_Affordable_Housing_Only":"No","F3F_Allowance":"Prohibited","F3F_Front_Setback":null,"F3F_Side_Setback":null,"F3F_Rear_Setback":null,"F3F_Frontage":null,"F3F_Max_Density":null,"F3F_Max_Height":null,"F3F_Max_Stories":null,"F3F_Min_Lot_Size":null,"F3F_Max_Lot_Building_Coverage":null,"F3F_Max_Lot_Impervious_Coverage":null,"F3F_Min_Parking_Spaces_per_1BR":null,"F3F_Min_Parking_Spaces_per_mult_BR":null,"F3F_Affordable_Housing_Only":null,"F3F_Proximity_to_Public_Transit_Required":null,"F3F_Connection_to_Sewage/Water_Required":null,"F4F_Allowance":"Prohibited","F4F_Front_Setback":null,"F4F_Side_Setback":null,"F4F_Rear_Setback":null,"F4F_Frontage":null,"F1F_Max_Density":null,"F4F_Max_Density":null,"F4F_Max_Height":null,"F4F_Max_Stories":null,"F4F_Min_Lot_Size":null,"F4F_Max_Lot_Building_Coverage":null,"F4F_Max_Lot_Impervious_Coverage":null,"F4F_Min_Parking_Spaces_per_1BR":null,"F4F_Min_Parking_Spaces_per_mult_BR":null,"F3F_Elderly_Housing_Only":null,"F4F_Elderly_Housing_Only":null,"F4F_Affordable_Housing_Only":null,"F4F_Proximity_to_Public_Transit_Required":null,"F4F_Connection_to_Sewage/Water_Required":null,"ADU_Allowance":"Allowed/Conditional","ADU_Elderly_Housing_Only":"No","ADU_Max_Size_as_Percent_of_Primary_Strcture":30.0,"ADU_Max_Size_in_sq_ft":null,"ADU_Min_Lot_Size":null,"ADU_Max_Bedrooms":null,"ADU_Min_Parking_Spaces":null,"ADU_Owner_Occupancy_Required":"No","ADU_Renter_Occupancy_Prohibited":"No","ADU_Employee_or_Family_Occupancy_Required":"No","ADU_Restricted_to_Primary_Structure":"No","Affordable_Housing_Allowance":"Prohibited","Affordable_Housing_District":"No","Affordable_Housing_Elderly_Only":null,"Affordable_Housing_Min_Lot_Size":null,"Affordable_Housing_Max_Density":null,"Affordable_Housing_Min_Parking_Spaces_per_mult_BR":null,"Affordable_Housing_Max_Units_per_Building":null,"Affordable_Housing_Min_Parking_Spaces_per_1BR":null,"PRD_Allowance":"Prohibited","PRD_Max_Density":null,"PRD_Max_Units":null,"PRD_Min_Lot_Size":null,"PRD_Mobile_or_Manufactured_Home_Park":null,"PUD_Allowance":null,"PUD_Required_with_Subdivision":null,"PUD_Requires_Land_Conservation":null,"PUD_Threshold_Number":null,"Notes":"None"},"geometry":{"type":"MultiPolygon","coordinates":[[[[-72.7605530058058,42.83536479132692],[-72.76025595544353,42.83882112703843],[-72.75474326924156,42.83878124132624],[-72.75471835925812,42.84025499759033],[-72.75432927740411,42.84008482159072],[-72.752834147941,42.83903267657959],[-72.75244633889044,42.827940367760974],[-72.75854233539728,42.82808670744205],[-72.75843300002376,42.835337033555234],[-72.7605530058058,42.83536479132692]]],[[[-72.7093835075115,42.83363083474599],[-72.70921796585051,42.83399340042042],[-72.70916025356065,42.83464009834336],[-72.70877424722701,42.83532399762391],[-72.70868959291204,42.83582361901262],[-72.70942352273167,42.83660100720656],[-72.71072331337618,42.837417246848204],[-72.71077622559737,42.83776569315154],[-72.71405151921967,42.83658526365666],[-72.71801286088865,42.840971316861115],[-72.7192341485569,42.84180268709148],[-72.7186722487889,42.84518840596997],[-72.71641008416464,42.84800552825818],[-72.71584671267892,42.84779857958097],[-72.71572758738984,42.847865067255476],[-72.715411889422,42.84787202157386],[-72.71510843617611,42.84832454972803],[-72.71981135405706,42.84874924543014],[-72.71971068384495,42.85008109217287],[-72.72294196419449,42.850211290939754],[-72.72393584856765,42.85051679097455],[-72.72355196877949,42.85181609640699],[-72.72308634873306,42.85207725444744],[-72.72284127772845,42.85308869939687],[-72.72228167171332,42.853106566065925],[-72.72232029085694,42.8538519543423],[-72.72247902949917,42.854987954155646],[-72.72288346535834,42.85596771601048],[-72.72150048135069,42.856102918769956],[-72.72082610350724,42.85599570279089],[-72.71939587447201,42.855912375749185],[-72.71905461774948,42.85598524436757],[-72.71903259623463,42.856785047852654],[-72.71706145946597,42.85617300859497],[-72.71725226067804,42.8543356211762],[-72.71482250286009,42.85293009500345],[-72.71423067720376,42.85393306591986],[-72.71129844111537,42.85268024130202],[-72.71128512737542,42.8528569516007],[-72.70958844137651,42.852817207659015],[-72.7093731774545,42.8533371685884],[-72.70835642954354,42.85484912772919],[-72.70816333991412,42.855891842640595],[-72.70596670609783,42.85503099686885],[-72.70564651537703,42.85532145686964],[-72.70561139701272,42.85605762355488],[-72.70482862874745,42.855597415715714],[-72.7081909547094,42.85034644363922],[-72.70847157993107,42.85005794595746],[-72.70310320626069,42.85206510455398],[-72.70285876922536,42.85303455260672],[-72.70194857826293,42.85292693985893],[-72.70056659345538,42.85433243397858],[-72.70033954587512,42.854053096755855],[-72.70336497122814,42.8497121738824],[-72.70188169821292,42.84335223824646],[-72.70062239540387,42.84101008026695],[-72.70074658418291,42.84096618821528],[-72.70073845870624,42.84073930917132],[-72.70061205862773,42.84061680923155],[-72.70038425881465,42.83932750907359],[-72.7003997589389,42.839094108907496],[-72.70064945927302,42.8383695088286],[-72.70069875830401,42.83725930865872],[-72.70080335873487,42.83691210827738],[-72.70056475906955,42.83604470843215],[-72.70037275746041,42.835766807812725],[-72.70043405838781,42.83462360806895],[-72.70038375751412,42.834145006591285],[-72.70014585788235,42.83348710761008],[-72.69987265798204,42.83324360710751],[-72.69983935864296,42.83299990715153],[-72.69924114081792,42.83232890178086],[-72.69987773459945,42.83238033380232],[-72.7004371766227,42.83248679829977],[-72.7009118006491,42.832766961656674],[-72.70155914801715,42.832917457555375],[-72.70224185880637,42.8332573944272],[-72.70359091371292,42.833428516808866],[-72.70367540381453,42.832469918745346],[-72.70243978628146,42.832422068345174],[-72.70243626456256,42.83247853196563],[-72.70190595546613,42.83246060805784],[-72.70206565621478,42.83039867956527],[-72.70697384507565,42.830749347697875],[-72.70681600846332,42.83385428006608],[-72.70742661296411,42.83388630227456],[-72.7093835075115,42.83363083474599]]],[[[-72.79954982821704,42.84746898883324],[-72.8018941794091,42.847670622137954],[-72.80181361540751,42.84919708024096],[-72.8017902262576,42.849640212391854],[-72.80122794659327,42.85981380866212],[-72.80062166741321,42.87088317687178],[-72.79908063078436,42.87045196307475],[-72.79934703538066,42.86799666569371],[-72.78958868808154,42.86741076901565],[-72.7842376440448,42.86741704161742],[-72.78436892919265,42.863382695392666],[-72.78538014028815,42.8624899669687],[-72.78750299930917,42.85991735040048],[-72.78830767658384,42.85905976644708],[-72.78859910000715,42.85856044604511],[-72.78873442842566,42.85765493123475],[-72.78901278330346,42.85706185498202],[-72.78923105821075,42.856784015207175],[-72.78972254636683,42.85636385505676],[-72.79066316276352,42.856262897923834],[-72.79101548691553,42.85616289691629],[-72.79166095054178,42.8556054358621],[-72.79202090580768,42.8553800608309],[-72.79246742315145,42.85518730209139],[-72.79408869629505,42.854904163714814],[-72.79450223537118,42.854789921834445],[-72.79515705322157,42.85451418861477],[-72.79584248198965,42.85442922734137],[-72.7962145216249,42.85455653630096],[-72.7965718007375,42.8547989021429],[-72.79698417314873,42.85555276699998],[-72.79907623261371,42.857762046449416],[-72.7993702478832,42.85797095777863],[-72.7996188076408,42.857745752947665],[-72.7993114995829,42.85707654301316],[-72.79895883552311,42.85508203580821],[-72.7987827040851,42.8546550548037],[-72.79855688011402,42.85447089427252],[-72.79961023702138,42.85376667555323],[-72.79706554562877,42.85193978335939],[-72.79206868501599,42.851864860785525],[-72.79033925848648,42.85440425385446],[-72.7875192180885,42.85225553768294],[-72.78650839723832,42.84742541809549],[-72.78656145099058,42.84738913581983],[-72.786795629615,42.847272442026906],[-72.78738789402976,42.84720293665226],[-72.78934668082962,42.84723801480625],[-72.79080538726106,42.84718666514379],[-72.79105901058377,42.84706378645193],[-72.79183971572148,42.846235234162705],[-72.79284959634535,42.84577501868726],[-72.79256724401094,42.84624767545061],[-72.79503088592705,42.846745845575136],[-72.7949520728018,42.8473850344149],[-72.79954982821704,42.84746898883324]]],[[[-72.69883132996218,42.858783383555604],[-72.69873585346096,42.85927986724969],[-72.69879445521575,42.85938195385699],[-72.69895002525324,42.859449299684904],[-72.69913318219062,42.85941220889027],[-72.69920187734404,42.85930762264007],[-72.69934293870341,42.85940378256734],[-72.69951683645996,42.859146396103455],[-72.69959472123703,42.859217672560014],[-72.699745212585,42.85922812343227],[-72.70040989483262,42.859151977711875],[-72.70049159505812,42.8589018924111],[-72.70069974933726,42.85873370737401],[-72.7011462923754,42.85850775956364],[-72.7013203943671,42.85834870815312],[-72.7016641888478,42.85828647883131],[-72.70159410339126,42.85885764697488],[-72.70720663266384,42.85899431543371],[-72.70709377981319,42.85731727376401],[-72.70776253497255,42.85770420912901],[-72.70892619272547,42.858189745207866],[-72.70902322593479,42.86254743887124],[-72.70573778571001,42.86251700710417],[-72.7056404469175,42.864055639433985],[-72.70531616092046,42.86406643601185],[-72.7017940779051,42.86415228917556],[-72.70087244184681,42.864219565181656],[-72.69842943829879,42.864377465415714],[-72.69840298838915,42.865803565450044],[-72.69345658979083,42.86567014024755],[-72.69374991386246,42.8610282432119],[-72.69127789971166,42.86095671605496],[-72.69132670831016,42.86000169755371],[-72.69213413734032,42.85963342274702],[-72.6921878970444,42.86047783804947],[-72.69374739187005,42.86041811614795],[-72.69378791479363,42.85879989676554],[-72.69668150820583,42.857448135425344],[-72.69768445093808,42.8571083503307],[-72.69774757130511,42.857445121711415],[-72.69836747964433,42.858927634586095],[-72.69864209221126,42.8587979964485],[-72.69883132996218,42.858783383555604]]],[[[-72.70066336825792,42.89561848558318],[-72.70070358724907,42.89575638201052],[-72.70060887443945,42.896092010096666],[-72.70131479520829,42.896320552578956],[-72.70218521678984,42.89723317239518],[-72.7025197357874,42.89740621202187],[-72.70254752580603,42.897626966763546],[-72.7033332056517,42.89932611596561],[-72.70353778145306,42.8993306774155],[-72.70998296035236,42.901129934660254],[-72.70871391935195,42.90833771297112],[-72.70808628355326,42.909904140818504],[-72.70686096462781,42.909558421689034],[-72.70643516498401,42.9095178218294],[-72.7054418651933,42.90925602164601],[-72.70521826378834,42.909241122074334],[-72.70422066459085,42.90872572231339],[-72.70324496441617,42.90845372102804],[-72.70270046338585,42.908036921104504],[-72.70254666448085,42.90735002110982],[-72.70188416342175,42.90560562127959],[-72.70170306302138,42.90497212079899],[-72.70145797895472,42.9047124416706],[-72.70065168269885,42.90274695381871],[-72.7003651836898,42.903051013424786],[-72.70013937517759,42.90314711545087],[-72.69789026928791,42.90353821216165],[-72.69254488033947,42.90181348005328],[-72.69274346964218,42.89866652596523],[-72.69308081967671,42.89590784299811],[-72.6988879646945,42.896110718402035],[-72.6988973050765,42.895773481103596],[-72.69980446898009,42.89545568558933],[-72.69988666175382,42.89551971987717],[-72.6999776619352,42.89549561931197],[-72.69996582792986,42.895399158639414],[-72.70076331525216,42.89511977660357],[-72.70084346277945,42.895205719195914],[-72.70053006170609,42.895389718877276],[-72.70049076103979,42.89549239939511],[-72.70066336825792,42.89561848558318]],[[-72.7022089572504,42.90123304812146],[-72.70277230046739,42.901216336091935],[-72.70298278099851,42.90116425041785],[-72.70320896909378,42.900989294779166],[-72.70337730223115,42.900386814862756],[-72.70335448892014,42.899601936216456],[-72.70228310390637,42.89934395740624],[-72.70120561178905,42.901212430719966],[-72.7016859606249,42.9013161469033],[-72.70187415113516,42.90135678044779],[-72.7022089572504,42.90123304812146]]],[[[-72.7920037417026,42.91090998370236],[-72.79118625189403,42.91103900684281],[-72.79113580097338,42.91280958582465],[-72.79088674989299,42.91554367197887],[-72.78812643712577,42.915364840831664],[-72.7876020648112,42.91372279345226],[-72.78717657381868,42.912809262667345],[-72.78728588978416,42.91122987579132],[-72.78378235125888,42.91120495772507],[-72.7839220436508,42.90801293712464],[-72.78557346515926,42.90790548361188],[-72.78560965551884,42.908131462866166],[-72.78840421744101,42.90820842614259],[-72.787976923355,42.907021021260185],[-72.78783267255086,42.90623336856988],[-72.79060930587738,42.906252191253365],[-72.7905205614459,42.90606510209158],[-72.79031765569667,42.905891220215786],[-72.7900541823748,42.905774268556705],[-72.79009062831562,42.90456423723284],[-72.79200889535964,42.904717945132234],[-72.79230416085167,42.90466782040938],[-72.79247706429003,42.90469216298955],[-72.79265412433541,42.90454366527675],[-72.79870206939528,42.90494561595285],[-72.79837157117389,42.91077358733318],[-72.79467922382736,42.9109212958744],[-72.7920037417026,42.91090998370236]],[[-72.79210673700015,42.90845762157069],[-72.79217087351299,42.90969965001325],[-72.79290685945632,42.909682878298945],[-72.79292427883166,42.90978249966878],[-72.79295997489382,42.909978359070784],[-72.79371587205402,42.90986703328073],[-72.79347161049034,42.90751177813367],[-72.7926340318126,42.90753395061898],[-72.79260978118971,42.90793106875565],[-72.7927166847815,42.908465809135905],[-72.79210673700015,42.90845762157069]]],[[[-72.69027552047413,42.911844814997856],[-72.69036758748967,42.91196415108435],[-72.69052198961268,42.911898988389005],[-72.69092233900652,42.911670528939624],[-72.69129943817563,42.91132859057199],[-72.69152386248481,42.91147421162658],[-72.69188192475704,42.91204066630247],[-72.69148063112124,42.91291119987291],[-72.69212821185495,42.912886750343944],[-72.69204152343642,42.91349898125031],[-72.7002555201456,42.91679063204531],[-72.6940672833496,42.91703703158459],[-72.69420049650729,42.92274765086948],[-72.67618170336365,42.922347238638835],[-72.67623142365494,42.9214185336115],[-72.6765127400998,42.916481008796985],[-72.67654589880088,42.91594881603293],[-72.67972104113882,42.91515304132584],[-72.68618974443838,42.91304630189658],[-72.68816382093175,42.912496729057835],[-72.68892412193794,42.91238156624849],[-72.68904407038204,42.911573553311065],[-72.68907385095375,42.91067422388528],[-72.68891213627829,42.909749577413656],[-72.68977024325913,42.90975599618388],[-72.68978516331089,42.910697317045226],[-72.69023658673095,42.91118971884421],[-72.69027552047413,42.911844814997856]],[[-72.68025870927995,42.92033811092501],[-72.68024635292014,42.92090951012367],[-72.68073543899862,42.92106265766484],[-72.6807593745464,42.92092755216744],[-72.68053472124689,42.920857206387275],[-72.68062846051531,42.9203717453656],[-72.68034082506342,42.92030915740169],[-72.68050489634554,42.92003781456302],[-72.68028193963393,42.9199726282094],[-72.6800991395988,42.91982042856264],[-72.67972233920821,42.91969022801376],[-72.67966547922525,42.91968986176751],[-72.67950215374529,42.919936377615144],[-72.67948040537013,42.91996920306271],[-72.67964771033208,42.92010544327555],[-72.68025870927995,42.92033811092501]],[[-72.68178260890564,42.920491175436666],[-72.68245384920802,42.92055284836923],[-72.68254951272196,42.91990296324858],[-72.68195903983819,42.91989292724644],[-72.68152073908131,42.919947626577105],[-72.68128917189493,42.920003879334985],[-72.68133011078949,42.920358098228945],[-72.68178260890564,42.920491175436666]]]]}},{"type":"Feature","properties":{"OBJECT_ID":396,"County":"Windham","RPC":"WRC","Municipal_Name":"Marlboro","GEO_ID":"5002543375","District_Name":"Educational","Abbreviated_District_Name":"Edu","District_Type":"Nonresidential","Bylaw_Date":null,"Elderly_Housing_District":"No","District_Mapped":"Yes","Overlay_District":"No","Base_Density":null,"FIPS6":null,"GIS_ID":null,"Last_Update":null,"Shape_Length":7281.787633102365,"Shape_Area":1474723.9622711707,"F1F_Allowance":"Prohibited","F1F_Front_Setback":null,"F1F_Side_Setback":null,"F1F_Rear_Setback":null,"F1F_Frontage":null,"F1F_Max_Height":null,"F1F_Max_Stories":null,"F1F_Min_Lot_Size":null,"F1F_Max_Lot_Building_Coverage":null,"F1F_Max_Lot_Impervious_Coverage":null,"F1F_Min_Parking_Spaces":null,"F1F_Elderly_Housing_Only":null,"F1F_Affordable_Housing_Only":null,"F2F_Allowance":"Prohibited","F2F_Front_Setback":null,"F2F_Side_Setback":null,"F2F_Rear_Setback":null,"F2F_Frontage":null,"F2F_Max_Density":null,"F2F_Max_Height":null,"F2F_Max_Stories":null,"F2F_Min_Lot_Size":null,"F2F_Max_Lot_Building_Coverage":null,"F2F_Max_Lot_Impervious_Coverage":null,"F2F_Min_Parking_Spaces_per_1BR":null,"F2F_Min_Parking_Spaces_per_mult_BR":null,"F2F_Elderly_Housing_Only":null,"F2F_Affordable_Housing_Only":null,"F3F_Allowance":"Prohibited","F3F_Front_Setback":null,"F3F_Side_Setback":null,"F3F_Rear_Setback":null,"F3F_Frontage":null,"F3F_Max_Density":null,"F3F_Max_Height":null,"F3F_Max_Stories":null,"F3F_Min_Lot_Size":null,"F3F_Max_Lot_Building_Coverage":null,"F3F_Max_Lot_Impervious_Coverage":null,"F3F_Min_Parking_Spaces_per_1BR":null,"F3F_Min_Parking_Spaces_per_mult_BR":null,"F3F_Affordable_Housing_Only":null,"F3F_Proximity_to_Public_Transit_Required":null,"F3F_Connection_to_Sewage/Water_Required":null,"F4F_Allowance":"Prohibited","F4F_Front_Setback":null,"F4F_Side_Setback":null,"F4F_Rear_Setback":null,"F4F_Frontage":null,"F1F_Max_Density":null,"F4F_Max_Density":null,"F4F_Max_Height":null,"F4F_Max_Stories":null,"F4F_Min_Lot_Size":null,"F4F_Max_Lot_Building_Coverage":null,"F4F_Max_Lot_Impervious_Coverage":null,"F4F_Min_Parking_Spaces_per_1BR":null,"F4F_Min_Parking_Spaces_per_mult_BR":null,"F3F_Elderly_Housing_Only":null,"F4F_Elderly_Housing_Only":null,"F4F_Affordable_Housing_Only":null,"F4F_Proximity_to_Public_Transit_Required":null,"F4F_Connection_to_Sewage/Water_Required":null,"ADU_Allowance":"Prohibited","ADU_Elderly_Housing_Only":null,"ADU_Max_Size_as_Percent_of_Primary_Strcture":null,"ADU_Max_Size_in_sq_ft":null,"ADU_Min_Lot_Size":null,"ADU_Max_Bedrooms":null,"ADU_Min_Parking_Spaces":null,"ADU_Owner_Occupancy_Required":null,"ADU_Renter_Occupancy_Prohibited":null,"ADU_Employee_or_Family_Occupancy_Required":null,"ADU_Restricted_to_Primary_Structure":null,"Affordable_Housing_Allowance":"Prohibited","Affordable_Housing_District":"No","Affordable_Housing_Elderly_Only":null,"Affordable_Housing_Min_Lot_Size":null,"Affordable_Housing_Max_Density":null,"Affordable_Housing_Min_Parking_Spaces_per_mult_BR":null,"Affordable_Housing_Max_Units_per_Building":null,"Affordable_Housing_Min_Parking_Spaces_per_1BR":null,"PRD_Allowance":"Prohibited","PRD_Max_Density":null,"PRD_Max_Units":null,"PRD_Min_Lot_Size":null,"PRD_Mobile_or_Manufactured_Home_Park":null,"PUD_Allowance":null,"PUD_Required_with_Subdivision":null,"PUD_Requires_Land_Conservation":null,"PUD_Threshold_Number":null,"Notes":"None"},"geometry":{"type":"MultiPolygon","coordinates":[[[[-72.73043792042348,42.82771400680798],[-72.73051186780373,42.82819240571652],[-72.73072136738033,42.82871760604411],[-72.73118896793993,42.82939820556173],[-72.73112356812051,42.82967950570334],[-72.73115756880205,42.82987510616646],[-72.73134166799909,42.83025370638995],[-72.73163346862549,42.83055260556199],[-72.73172656844625,42.83102310588889],[-72.73267176843564,42.83282740704425],[-72.7327894680505,42.833218406763606],[-72.73282576810216,42.83402820676501],[-72.73274453410288,42.83447845099177],[-72.73282027138644,42.83485422063654],[-72.73275989190978,42.83497907422589],[-72.73251063170984,42.835227668594676],[-72.73197119287212,42.835567242195204],[-72.73151420887376,42.835822133360615],[-72.73105681199546,42.83589465159036],[-72.73065785227078,42.83624177710467],[-72.72922780861953,42.83618151743174],[-72.72829023079316,42.83643410257885],[-72.72794716632924,42.83642509803254],[-72.7272209156161,42.83655784563695],[-72.72620371826989,42.83665065359098],[-72.72597646187498,42.83701466687543],[-72.72589821672229,42.837368279186286],[-72.72553101680249,42.837128378786424],[-72.72515444498487,42.83703834758121],[-72.72239520021525,42.83700593319257],[-72.72259748185608,42.83772290284349],[-72.72364635447923,42.83900564401366],[-72.72508429122261,42.83845348821054],[-72.7252177279435,42.839562382307705],[-72.72515576614093,42.839691508180984],[-72.72522306651888,42.83994810824992],[-72.72519186677314,42.84007960867814],[-72.72496616624485,42.84010440831632],[-72.72489166601156,42.84015960765717],[-72.72485096651884,42.84038580759619],[-72.72502616629669,42.84060550882465],[-72.72498516669091,42.84075230943381],[-72.72513556656693,42.841014908100526],[-72.72545176719403,42.841148708258906],[-72.72551876625116,42.841313608329024],[-72.72543146705235,42.841460309417556],[-72.72545165062412,42.84187330832809],[-72.72534611276453,42.8420712633443],[-72.72525166178164,42.84275905587261],[-72.72826634182093,42.84301136797391],[-72.73023734569462,42.84323386920386],[-72.73027623099878,42.844570431977274],[-72.73488387571392,42.84488447759223],[-72.73484009831759,42.84591509956681],[-72.73997277446422,42.84602753784053],[-72.74014777211333,42.83918612741908],[-72.73986003431604,42.83922349225058],[-72.73969343349808,42.839185901948746],[-72.73813228539129,42.83859179165739],[-72.73721974943933,42.83840245957396],[-72.73814289034001,42.83571527385283],[-72.73913224313118,42.83582068756883],[-72.73956624034633,42.833588153649956],[-72.73563729997662,42.83353437944779],[-72.73595813277745,42.827757164907176],[-72.73043792042348,42.82771400680798]]]]}},{"type":"Feature","properties":{"OBJECT_ID":398,"County":"Windham","RPC":"WRC","Municipal_Name":"Marlboro","GEO_ID":"5002543375","District_Name":"Village","Abbreviated_District_Name":"Vil","District_Type":"Mixed with Residential","Bylaw_Date":null,"Elderly_Housing_District":"No","District_Mapped":"Yes","Overlay_District":"No","Base_Density":null,"FIPS6":null,"GIS_ID":null,"Last_Update":null,"Shape_Length":5817.4207771038955,"Shape_Area":852378.2642530745,"F1F_Allowance":"Permitted","F1F_Front_Setback":10.0,"F1F_Side_Setback":10.0,"F1F_Rear_Setback":10.0,"F1F_Frontage":50.0,"F1F_Max_Height":35.0,"F1F_Max_Stories":3.0,"F1F_Min_Lot_Size":0.25,"F1F_Max_Lot_Building_Coverage":25.0,"F1F_Max_Lot_Impervious_Coverage":null,"F1F_Min_Parking_Spaces":1.0,"F1F_Elderly_Housing_Only":null,"F1F_Affordable_Housing_Only":null,"F2F_Allowance":"Permitted","F2F_Front_Setback":10.0,"F2F_Side_Setback":10.0,"F2F_Rear_Setback":10.0,"F2F_Frontage":50.0,"F2F_Max_Density":4.0,"F2F_Max_Height":35.0,"F2F_Max_Stories":3.0,"F2F_Min_Lot_Size":0.25,"F2F_Max_Lot_Building_Coverage":25.0,"F2F_Max_Lot_Impervious_Coverage":null,"F2F_Min_Parking_Spaces_per_1BR":1.0,"F2F_Min_Parking_Spaces_per_mult_BR":1.0,"F2F_Elderly_Housing_Only":"No","F2F_Affordable_Housing_Only":"No","F3F_Allowance":"Public Hearing","F3F_Front_Setback":10.0,"F3F_Side_Setback":10.0,"F3F_Rear_Setback":10.0,"F3F_Frontage":50.0,"F3F_Max_Density":4.0,"F3F_Max_Height":35.0,"F3F_Max_Stories":3.0,"F3F_Min_Lot_Size":0.25,"F3F_Max_Lot_Building_Coverage":25.0,"F3F_Max_Lot_Impervious_Coverage":null,"F3F_Min_Parking_Spaces_per_1BR":1.33,"F3F_Min_Parking_Spaces_per_mult_BR":1.33,"F3F_Affordable_Housing_Only":"No","F3F_Proximity_to_Public_Transit_Required":"No","F3F_Connection_to_Sewage/Water_Required":"No","F4F_Allowance":"Public Hearing","F4F_Front_Setback":10.0,"F4F_Side_Setback":10.0,"F4F_Rear_Setback":10.0,"F4F_Frontage":50.0,"F1F_Max_Density":null,"F4F_Max_Density":4.0,"F4F_Max_Height":35.0,"F4F_Max_Stories":3.0,"F4F_Min_Lot_Size":0.25,"F4F_Max_Lot_Building_Coverage":25.0,"F4F_Max_Lot_Impervious_Coverage":null,"F4F_Min_Parking_Spaces_per_1BR":1.33,"F4F_Min_Parking_Spaces_per_mult_BR":1.33,"F3F_Elderly_Housing_Only":"No","F4F_Elderly_Housing_Only":"No","F4F_Affordable_Housing_Only":"No","F4F_Proximity_to_Public_Transit_Required":"No","F4F_Connection_to_Sewage/Water_Required":"No","ADU_Allowance":"Allowed/Conditional","ADU_Elderly_Housing_Only":"No","ADU_Max_Size_as_Percent_of_Primary_Strcture":30.0,"ADU_Max_Size_in_sq_ft":null,"ADU_Min_Lot_Size":null,"ADU_Max_Bedrooms":null,"ADU_Min_Parking_Spaces":null,"ADU_Owner_Occupancy_Required":"No","ADU_Renter_Occupancy_Prohibited":"No","ADU_Employee_or_Family_Occupancy_Required":"No","ADU_Restricted_to_Primary_Structure":"No","Affordable_Housing_Allowance":"Public Hearing","Affordable_Housing_District":"No","Affordable_Housing_Elderly_Only":"No","Affordable_Housing_Min_Lot_Size":null,"Affordable_Housing_Max_Density":null,"Affordable_Housing_Min_Parking_Spaces_per_mult_BR":null,"Affordable_Housing_Max_Units_per_Building":null,"Affordable_Housing_Min_Parking_Spaces_per_1BR":null,"PRD_Allowance":"Public Hearing","PRD_Max_Density":null,"PRD_Max_Units":null,"PRD_Min_Lot_Size":null,"PRD_Mobile_or_Manufactured_Home_Park":"No","PUD_Allowance":"Yes","PUD_Required_with_Subdivision":"Yes","PUD_Requires_Land_Conservation":"No","PUD_Threshold_Number":null,"Notes":"  Adus Are Conditional If Any Change Is Made to The Height Or Floor Area Of An Existing Building, If A New Structure Is Built Or If The Parking Area Dimensions Are Altered"},"geometry":{"type":"MultiPolygon","coordinates":[[[[-72.72065938715124,42.87073531179286],[-72.72108181846619,42.870957710721605],[-72.72222277742482,42.86990820879409],[-72.7231142971838,42.87023911457497],[-72.72425527428922,42.8692077826085],[-72.72500635232011,42.8670790132343],[-72.72506717480258,42.8666832946661],[-72.72548116138056,42.86530726073242],[-72.72546597583428,42.86404690070286],[-72.72587751871441,42.863557526430306],[-72.72624706512954,42.86221064598655],[-72.7271451785856,42.8624375569599],[-72.7277022269101,42.86097623296245],[-72.72880205544647,42.86183034632804],[-72.72873128284803,42.861442248413645],[-72.7285499489553,42.86127040178683],[-72.72844984681866,42.85970951783234],[-72.72931638615621,42.85948135666177],[-72.72916207822294,42.859058791726284],[-72.72844651784962,42.85903952241323],[-72.72852492483436,42.85850116342393],[-72.7291746303339,42.85701833039343],[-72.73000497149398,42.855929726633306],[-72.72909068790474,42.855796409396184],[-72.72904963239094,42.85502135244921],[-72.72814081019557,42.85506850658138],[-72.72749074628953,42.85474056768201],[-72.7272176959551,42.8546819043841],[-72.72724364303834,42.854472184670804],[-72.7250621294643,42.85418691696083],[-72.72487915106795,42.8540040094222],[-72.72232029085694,42.8538519543423],[-72.72247902949917,42.854987954155646],[-72.72288346535834,42.85596771601048],[-72.72301563406504,42.85657744993796],[-72.72320414021821,42.85664856505368],[-72.72357663572197,42.856687852324555],[-72.72358607606155,42.85738831262254],[-72.7209551700077,42.85772942441072],[-72.72053487979501,42.85826883342418],[-72.72099721122545,42.859079781927164],[-72.72121581039978,42.85977538942832],[-72.72219884951454,42.8595797226317],[-72.72228585246759,42.85970452891091],[-72.72240341159214,42.86117607980245],[-72.72381317756641,42.86125389362009],[-72.7231140607762,42.862325940926645],[-72.72278512930926,42.862214835713104],[-72.72209310081925,42.86305432887512],[-72.71840455087465,42.8661811637229],[-72.71906741421638,42.86780930918295],[-72.71924763790774,42.86782195771611],[-72.71821674661432,42.86902974341307],[-72.71926106977575,42.869610086653644],[-72.71932155337097,42.87002533625603],[-72.72065938715124,42.87073531179286]]]]}},{"type":"Feature","properties":{"OBJECT_ID":392,"County":"Windham","RPC":"WRC","Municipal_Name":"Marlboro","GEO_ID":"5002543375","District_Name":"Agricultural/Forest Production","Abbreviated_District_Name":"Agr/F","District_Type":"Mixed with Residential","Bylaw_Date":null,"Elderly_Housing_District":"No","District_Mapped":"Yes","Overlay_District":"No","Base_Density":null,"FIPS6":null,"GIS_ID":null,"Last_Update":null,"Shape_Length":10111.199906122067,"Shape_Area":1292511.4840644915,"F1F_Allowance":"Permitted","F1F_Front_Setback":30.0,"F1F_Side_Setback":50.0,"F1F_Rear_Setback":50.0,"F1F_Frontage":200.0,"F1F_Max_Height":35.0,"F1F_Max_Stories":3.0,"F1F_Min_Lot_Size":10.0,"F1F_Max_Lot_Building_Coverage":3.0,"F1F_Max_Lot_Impervious_Coverage":null,"F1F_Min_Parking_Spaces":1.0,"F1F_Elderly_Housing_Only":null,"F1F_Affordable_Housing_Only":null,"F2F_Allowance":"Permitted","F2F_Front_Setback":30.0,"F2F_Side_Setback":50.0,"F2F_Rear_Setback":50.0,"F2F_Frontage":200.0,"F2F_Max_Density":0.1,"F2F_Max_Height":35.0,"F2F_Max_Stories":3.0,"F2F_Min_Lot_Size":10.0,"F2F_Max_Lot_Building_Coverage":3.0,"F2F_Max_Lot_Impervious_Coverage":null,"F2F_Min_Parking_Spaces_per_1BR":1.0,"F2F_Min_Parking_Spaces_per_mult_BR":1.0,"F2F_Elderly_Housing_Only":"No","F2F_Affordable_Housing_Only":"No","F3F_Allowance":"Prohibited","F3F_Front_Setback":null,"F3F_Side_Setback":null,"F3F_Rear_Setback":null,"F3F_Frontage":null,"F3F_Max_Density":null,"F3F_Max_Height":null,"F3F_Max_Stories":null,"F3F_Min_Lot_Size":null,"F3F_Max_Lot_Building_Coverage":null,"F3F_Max_Lot_Impervious_Coverage":null,"F3F_Min_Parking_Spaces_per_1BR":null,"F3F_Min_Parking_Spaces_per_mult_BR":null,"F3F_Affordable_Housing_Only":null,"F3F_Proximity_to_Public_Transit_Required":null,"F3F_Connection_to_Sewage/Water_Required":null,"F4F_Allowance":"Prohibited","F4F_Front_Setback":null,"F4F_Side_Setback":null,"F4F_Rear_Setback":null,"F4F_Frontage":null,"F1F_Max_Density":null,"F4F_Max_Density":null,"F4F_Max_Height":null,"F4F_Max_Stories":null,"F4F_Min_Lot_Size":null,"F4F_Max_Lot_Building_Coverage":null,"F4F_Max_Lot_Impervious_Coverage":null,"F4F_Min_Parking_Spaces_per_1BR":null,"F4F_Min_Parking_Spaces_per_mult_BR":null,"F3F_Elderly_Housing_Only":null,"F4F_Elderly_Housing_Only":null,"F4F_Affordable_Housing_Only":null,"F4F_Proximity_to_Public_Transit_Required":null,"F4F_Connection_to_Sewage/Water_Required":null,"ADU_Allowance":"Allowed/Conditional","ADU_Elderly_Housing_Only":"No","ADU_Max_Size_as_Percent_of_Primary_Strcture":30.0,"ADU_Max_Size_in_sq_ft":null,"ADU_Min_Lot_Size":null,"ADU_Max_Bedrooms":null,"ADU_Min_Parking_Spaces":null,"ADU_Owner_Occupancy_Required":"No","ADU_Renter_Occupancy_Prohibited":"No","ADU_Employee_or_Family_Occupancy_Required":"No","ADU_Restricted_to_Primary_Structure":"No","Affordable_Housing_Allowance":"Prohibited","Affordable_Housing_District":"No","Affordable_Housing_Elderly_Only":null,"Affordable_Housing_Min_Lot_Size":null,"Affordable_Housing_Max_Density":null,"Affordable_Housing_Min_Parking_Spaces_per_mult_BR":null,"Affordable_Housing_Max_Units_per_Building":null,"Affordable_Housing_Min_Parking_Spaces_per_1BR":null,"PRD_Allowance":"Prohibited","PRD_Max_Density":null,"PRD_Max_Units":null,"PRD_Min_Lot_Size":null,"PRD_Mobile_or_Manufactured_Home_Park":null,"PUD_Allowance":null,"PUD_Required_with_Subdivision":null,"PUD_Requires_Land_Conservation":null,"PUD_Threshold_Number":null,"Notes":"  Adus Are Conditional If Any Change Is Made to The Height Or Floor Area Of An Existing Building, If A New Structure Is Built Or If The Parking Area Dimensions Are Altered"},"geometry":{"type":"MultiPolygon","coordinates":[[[[-72.68508175777468,42.85445479867821],[-72.68561789051867,42.854555587188],[-72.68594857301343,42.854696379010505],[-72.68628915965922,42.85476772914808],[-72.68665222632356,42.85499518016056],[-72.68661541558335,42.855646054995255],[-72.68592477038732,42.85561330841946],[-72.68591417872896,42.85593658422328],[-72.6844415058428,42.85567524507204],[-72.68351692742547,42.855666778984244],[-72.6835813606009,42.85434138768483],[-72.6842493134523,42.85443630529025],[-72.68508175777468,42.85445479867821]]],[[[-72.7091818321538,42.86767187234165],[-72.70908338008846,42.86990437168997],[-72.70894993945693,42.870146297726144],[-72.70581236338268,42.870079216677745],[-72.70530758762173,42.87021525756179],[-72.70546201622672,42.87097121432991],[-72.70522571802249,42.87216446028926],[-72.70515030908992,42.87393173907586],[-72.70852861407643,42.874078960719096],[-72.70972889148827,42.87402739320153],[-72.7113809163179,42.87390687257087],[-72.71114246389249,42.87402691502108],[-72.7109048646651,42.87400241559269],[-72.7106255646359,42.87415261510609],[-72.71044036400701,42.87453341462438],[-72.71042416414818,42.87477661556138],[-72.7102720644657,42.874932815128595],[-72.71007846385525,42.87535101476026],[-72.70981626357887,42.87553861572127],[-72.70970376422231,42.8761344150691],[-72.70948426442287,42.876421716120724],[-72.70937556371706,42.87685221515401],[-72.70908941605266,42.877014361826724],[-72.70867679013601,42.877714144315966],[-72.70797420705958,42.87669125425909],[-72.70694234567787,42.87518890187849],[-72.70464933463005,42.87629748835002],[-72.7053881156378,42.877452603968166],[-72.70486362443783,42.87805645084479],[-72.70448424789123,42.87873540000339],[-72.70457088135147,42.87934935796761],[-72.70275158914511,42.879412891413736],[-72.70207282819389,42.87956078888478],[-72.7021138456725,42.88023848944854],[-72.70159536199222,42.88061041635548],[-72.70086396144508,42.880878216773446],[-72.69932696035991,42.880672716564156],[-72.69799666038278,42.88016981665184],[-72.69762656085624,42.88012041669822],[-72.69695776068768,42.87993001659926],[-72.69680600204025,42.8798349833267],[-72.69641838908156,42.8791734241912],[-72.69613110981234,42.87881692982085],[-72.69564358142507,42.87854084985894],[-72.69596256530896,42.8786526510799],[-72.6964993521659,42.8740135084272],[-72.70084653924972,42.87385620931895],[-72.70085084520157,42.866152569095505],[-72.70059841072461,42.86616185433459],[-72.70087244184681,42.864219565181656],[-72.7017940779051,42.86415228917556],[-72.70531616092046,42.86406643601185],[-72.70531537309945,42.86723448572244],[-72.70915218247431,42.867261324735104],[-72.7091818321538,42.86767187234165]],[[-72.69858487201715,42.88003410371618],[-72.69889260944642,42.87872077033606],[-72.69750451569102,42.87827924421953],[-72.696744936704,42.87920878237566],[-72.69735400750152,42.87961640320725],[-72.69858487201715,42.88003410371618]]],[[[-72.7585469515075,42.87287635169732],[-72.75893507731776,42.87288486095886],[-72.76003836723346,42.874157015451694],[-72.76187095404823,42.873658076699215],[-72.76195226799763,42.874323526732994],[-72.76193000317434,42.87518905808304],[-72.75893017091039,42.8750832612853],[-72.75419751081935,42.87512104107857],[-72.7542250106219,42.87304337515141],[-72.75429464818582,42.872663562710315],[-72.75516837898465,42.87220928774108],[-72.75737930678818,42.872167183111465],[-72.75753970761662,42.87236163123791],[-72.75797510974071,42.87254546759806],[-72.7585469515075,42.87287635169732]]]]}},{"type":"Feature","properties":{"OBJECT_ID":393,"County":"Windham","RPC":"WRC","Municipal_Name":"Marlboro","GEO_ID":"5002543375","District_Name":"Commercial East","Abbreviated_District_Name":"Com-E","District_Type":"Mixed with Residential","Bylaw_Date":null,"Elderly_Housing_District":"No","District_Mapped":"Yes","Overlay_District":"No","Base_Density":null,"FIPS6":null,"GIS_ID":null,"Last_Update":null,"Shape_Length":4146.732147372828,"Shape_Area":429241.8166683302,"F1F_Allowance":"Permitted","F1F_Front_Setback":30.0,"F1F_Side_Setback":50.0,"F1F_Rear_Setback":50.0,"F1F_Frontage":100.0,"F1F_Max_Height":35.0,"F1F_Max_Stories":3.0,"F1F_Min_Lot_Size":2.0,"F1F_Max_Lot_Building_Coverage":20.0,"F1F_Max_Lot_Impervious_Coverage":null,"F1F_Min_Parking_Spaces":1.0,"F1F_Elderly_Housing_Only":null,"F1F_Affordable_Housing_Only":null,"F2F_Allowance":"Permitted","F2F_Front_Setback":30.0,"F2F_Side_Setback":50.0,"F2F_Rear_Setback":50.0,"F2F_Frontage":100.0,"F2F_Max_Density":0.5,"F2F_Max_Height":35.0,"F2F_Max_Stories":3.0,"F2F_Min_Lot_Size":2.0,"F2F_Max_Lot_Building_Coverage":20.0,"F2F_Max_Lot_Impervious_Coverage":null,"F2F_Min_Parking_Spaces_per_1BR":1.0,"F2F_Min_Parking_Spaces_per_mult_BR":1.0,"F2F_Elderly_Housing_Only":"No","F2F_Affordable_Housing_Only":"No","F3F_Allowance":"Public Hearing","F3F_Front_Setback":30.0,"F3F_Side_Setback":50.0,"F3F_Rear_Setback":50.0,"F3F_Frontage":100.0,"F3F_Max_Density":0.5,"F3F_Max_Height":35.0,"F3F_Max_Stories":3.0,"F3F_Min_Lot_Size":2.0,"F3F_Max_Lot_Building_Coverage":20.0,"F3F_Max_Lot_Impervious_Coverage":null,"F3F_Min_Parking_Spaces_per_1BR":1.0,"F3F_Min_Parking_Spaces_per_mult_BR":1.0,"F3F_Affordable_Housing_Only":"No","F3F_Proximity_to_Public_Transit_Required":"No","F3F_Connection_to_Sewage/Water_Required":"No","F4F_Allowance":"Public Hearing","F4F_Front_Setback":30.0,"F4F_Side_Setback":50.0,"F4F_Rear_Setback":50.0,"F4F_Frontage":100.0,"F1F_Max_Density":null,"F4F_Max_Density":0.5,"F4F_Max_Height":35.0,"F4F_Max_Stories":3.0,"F4F_Min_Lot_Size":2.0,"F4F_Max_Lot_Building_Coverage":20.0,"F4F_Max_Lot_Impervious_Coverage":null,"F4F_Min_Parking_Spaces_per_1BR":1.0,"F4F_Min_Parking_Spaces_per_mult_BR":1.0,"F3F_Elderly_Housing_Only":"No","F4F_Elderly_Housing_Only":"No","F4F_Affordable_Housing_Only":"No","F4F_Proximity_to_Public_Transit_Required":"No","F4F_Connection_to_Sewage/Water_Required":"No","ADU_Allowance":"Allowed/Conditional","ADU_Elderly_Housing_Only":"No","ADU_Max_Size_as_Percent_of_Primary_Strcture":30.0,"ADU_Max_Size_in_sq_ft":null,"ADU_Min_Lot_Size":null,"ADU_Max_Bedrooms":null,"ADU_Min_Parking_Spaces":null,"ADU_Owner_Occupancy_Required":"No","ADU_Renter_Occupancy_Prohibited":"No","ADU_Employee_or_Family_Occupancy_Required":"No","ADU_Restricted_to_Primary_Structure":"No","Affordable_Housing_Allowance":"Public Hearing","Affordable_Housing_District":"No","Affordable_Housing_Elderly_Only":"No","Affordable_Housing_Min_Lot_Size":null,"Affordable_Housing_Max_Density":null,"Affordable_Housing_Min_Parking_Spaces_per_mult_BR":null,"Affordable_Housing_Max_Units_per_Building":null,"Affordable_Housing_Min_Parking_Spaces_per_1BR":null,"PRD_Allowance":"Public Hearing","PRD_Max_Density":null,"PRD_Max_Units":null,"PRD_Min_Lot_Size":null,"PRD_Mobile_or_Manufactured_Home_Park":"No","PUD_Allowance":null,"PUD_Required_with_Subdivision":null,"PUD_Requires_Land_Conservation":null,"PUD_Threshold_Number":null,"Notes":"None"},"geometry":{"type":"MultiPolygon","coordinates":[[[[-72.70797420705958,42.87669125425909],[-72.70783019961642,42.87692415359174],[-72.70759927460409,42.87712818701777],[-72.70578404727104,42.87802313204635],[-72.70654527138373,42.87912000157707],[-72.70641671889815,42.87931444702598],[-72.707060011036,42.880106411776445],[-72.70715392144695,42.880575286408245],[-72.70764836377134,42.88041055438486],[-72.70836609960907,42.8800801581053],[-72.70992156745483,42.87927798522021],[-72.71047635581684,42.878903597979146],[-72.71111752883341,42.87823568441889],[-72.7127790376054,42.87561392638018],[-72.71396138459018,42.87436168927912],[-72.71424173957385,42.87413003401574],[-72.71477979865615,42.87390575185882],[-72.71617928518097,42.87355058677593],[-72.7169626206513,42.873267906642575],[-72.71878535840808,42.872150242427956],[-72.72018818420314,42.87113768882778],[-72.72065938715124,42.87073531179286],[-72.71932155337097,42.87002533625603],[-72.71926106977575,42.869610086653644],[-72.71821674661432,42.86902974341307],[-72.71792354470224,42.86886680459047],[-72.71757494505019,42.86917650040311],[-72.71624255465919,42.8701389803674],[-72.71498487348296,42.870933057740636],[-72.71302914085433,42.87147304323841],[-72.7125695353097,42.87164896496476],[-72.71185994792654,42.872014017201245],[-72.71104161307574,42.87264234291759],[-72.70972889148827,42.87402739320153],[-72.7113809163179,42.87390687257087],[-72.71114246389249,42.87402691502108],[-72.7109048646651,42.87400241559269],[-72.7106255646359,42.87415261510609],[-72.71044036400701,42.87453341462438],[-72.71042416414818,42.87477661556138],[-72.7102720644657,42.874932815128595],[-72.71007846385525,42.87535101476026],[-72.70981626357887,42.87553861572127],[-72.70970376422231,42.8761344150691],[-72.70948426442287,42.876421716120724],[-72.70937556371706,42.87685221515401],[-72.70908941605266,42.877014361826724],[-72.70867679013601,42.877714144315966],[-72.70797420705958,42.87669125425909]]]]}}]}