{"type": "FeatureCollection", "crs": {"type": "name", "properties": {"name": "urn:ogc:def:crs:OGC:1.3:CRS84"}}, "features": [{"type": "Feature", "properties": {"ABB_DIST_NAME": "SFHA", "Jurisdiction_County": "Windsor", "Jurisdiction_District_Name": "Stockbridge"}, "geometry": {"type": "Polygon", "coordinates": [[[-72.7824406136323, 43.80474934801878], [-72.78337893671201, 43.80315202127529], [-72.77946470653744, 43.801805561879966], [-72.77649249395664, 43.800977728059244], [-72.77318806488601, 43.79888209541859], [-72.77046619184989, 43.79800412333611], [-72.76852066924232, 43.794556517788514], [-72.7672481540897, 43.79291012024185], [-72.76519779675549, 43.79131179464552], [-72.76404659768802, 43.789260259821425], [-72.7627024594438, 43.78715416734431], [-72.76123423486922, 43.78584479579157], [-72.75890299823958, 43.78376562662972], [-72.75735776380314, 43.7815722607864], [-72.75663943619521, 43.77934848845439], [-72.75497603014932, 43.77709829298248], [-72.755802548258, 43.77701085419156], [-72.75756770082523, 43.77543770515845], [-72.7577595485734, 43.7742675172261], [-72.75814604200576, 43.77258333739545], [-72.75956369420297, 43.772637187671506], [-72.76228126377642, 43.77283069768599], [-72.76432107679017, 43.77457116063432], [-72.7664518722704, 43.77501028643248], [-72.76832397679766, 43.775298061055864], [-72.77088795581601, 43.775221895629016], [-72.77547654431001, 43.77478041032414], [-72.77861538659236, 43.775004654973586], [-72.78110612314475, 43.77568663616427], [-72.78521652317113, 43.77863702561833], [-72.79006840997687, 43.776841650853974], [-72.79332392872362, 43.775763444105195], [-72.79510785983916, 43.77571427197171], [-72.80019290860548, 43.77573814925298], [-72.80114182496627, 43.77427866308871], [-72.79737932698976, 43.77472764411873], [-72.79288848484806, 43.7747838205386], [-72.7858879933512, 43.77752087039109], [-72.78311161850915, 43.77587835499181], [-72.77996938809518, 43.77490535504381], [-72.77658056220038, 43.77379912764318], [-72.77209158509035, 43.7742556942237], [-72.76766067997895, 43.77395410292104], [-72.76519866847593, 43.773692367267124], [-72.76287072743504, 43.77257256842019], [-72.75936325671843, 43.771810253785716], [-72.75747438578381, 43.77204276956406], [-72.75720575059215, 43.773669621107445], [-72.75650496217673, 43.77552568712281], [-72.75552327704608, 43.77615556056827], [-72.75414153571407, 43.77530272200445], [-72.75125933605358, 43.773426072362014], [-72.74867328201243, 43.77230958366491], [-72.7466400349746, 43.77035482393147], [-72.7467933739041, 43.76819757472241], [-72.74457079835052, 43.76690591913704], [-72.74267940260671, 43.76648997932224], [-72.74232069072407, 43.76501170989499], [-72.74220372472911, 43.76279045733249], [-72.7397885079219, 43.76026954274099], [-72.73805240397382, 43.75924606569477], [-72.73391754732977, 43.75882664195308], [-72.73037396078236, 43.758605593784466], [-72.72483634248032, 43.75862004510062], [-72.72317458546463, 43.75887893727051], [-72.72171469431528, 43.759228712441185], [-72.72023314186141, 43.76054627134876], [-72.71803390433975, 43.762337307021205], [-72.7174602001934, 43.76359569429178], [-72.713937400875, 43.7648544090552], [-72.71183692202226, 43.765766140852655], [-72.71151015285808, 43.76598586111205], [-72.71053014749918, 43.76673631594272], [-72.70768856373347, 43.76834836250374], [-72.70590517774026, 43.7699766959953], [-72.70540679254258, 43.7716026990432], [-72.7041522333723, 43.77317527417557], [-72.70501347995659, 43.77448842393243], [-72.70400712420236, 43.77496497492431], [-72.70010925022012, 43.777382133890995], [-72.69978717792243, 43.77904432046988], [-72.69785114666942, 43.77992186675179], [-72.69726245565145, 43.7805220266064], [-72.69659602530626, 43.7814361545645], [-72.69356628402515, 43.78218312176721], [-72.69160171497522, 43.7835559007356], [-72.68991371361068, 43.785242022734714], [-72.68873677606203, 43.78667050204422], [-72.68696485983114, 43.78675900619126], [-72.684444946161, 43.78693428423532], [-72.6818076481783, 43.787366467950946], [-72.67952612295069, 43.788254522235945], [-72.67839021354033, 43.790339032882144], [-72.67666218003886, 43.791996488849584], [-72.67312153472349, 43.79339990410178], [-72.6696163170852, 43.793462221643196], [-72.6670543782945, 43.79280979237742], [-72.66358958639935, 43.79324276184719], [-72.66242388821179, 43.7951551802279], [-72.66326015979742, 43.795377429233405], [-72.66359394487141, 43.7948404667265], [-72.66449836440705, 43.79429708765275], [-72.66713664832399, 43.794065015704604], [-72.672139662594, 43.794371425668224], [-72.67584178086206, 43.79428019800711], [-72.67768881954895, 43.79287934523686], [-72.679535773198, 43.79147846151827], [-72.68039572082506, 43.78930878406663], [-72.68299068424521, 43.787878130570604], [-72.68692761258774, 43.787443800478066], [-72.68984181443587, 43.78741046702428], [-72.69145111537225, 43.78572447767861], [-72.69227428003533, 43.78452481135822], [-72.69396542338892, 43.78383722010356], [-72.69742729020632, 43.78274712951419], [-72.69919405008528, 43.781146350484256], [-72.70074182778104, 43.778147927146556], [-72.70177198840064, 43.77723313385203], [-72.70295443071336, 43.776646732386425], [-72.70411009621742, 43.775603877564436], [-72.70584611848494, 43.77479734133291], [-72.70485860675, 43.77341138454773], [-72.70636337495823, 43.771327081617365], [-72.70666386388, 43.77077875010902], [-72.70766993760147, 43.770247397398755], [-72.70799351812414, 43.769096452202476], [-72.71127269359651, 43.766973462488856], [-72.71402912191853, 43.76713951814292], [-72.71749389826596, 43.76721856949495], [-72.71937975237196, 43.76615933020861], [-72.71992662259711, 43.76498852084602], [-72.72149648077152, 43.76367307747237], [-72.72259430364393, 43.76247265569044], [-72.72258266840076, 43.75933430097263], [-72.72490438399575, 43.75913004058497], [-72.72884118446949, 43.75923634937464], [-72.73199028171625, 43.75923000089245], [-72.73533653157261, 43.75930875206272], [-72.73872487650976, 43.76007205389281], [-72.74062224937516, 43.76203669394755], [-72.74129892526669, 43.763908213570886], [-72.74120899308397, 43.76464136011358], [-72.74126269653397, 43.76516478734439], [-72.7415335437838, 43.76579246338711], [-72.74212414040178, 43.76637458752058], [-72.74273466539297, 43.76677716642271], [-72.7433348765275, 43.767179763992466], [-72.7444100160922, 43.7676262180321], [-72.74581619295493, 43.76825892967226], [-72.74586145826709, 43.7692311205169], [-72.74548382331425, 43.77058145034453], [-72.74587310667692, 43.7711298628755], [-72.74603648053215, 43.77164370236607], [-72.74718542188218, 43.77259948710405], [-72.74933302464095, 43.773249246801214], [-72.75161047586985, 43.774085659332016], [-72.75264374111228, 43.77530604268908], [-72.75257183215598, 43.776182663014616], [-72.7522030438123, 43.778374628941364], [-72.75473358533056, 43.78083406137207], [-72.75718966591428, 43.783512719529575], [-72.7576965483527, 43.78416892264522], [-72.75875972978875, 43.78524383537948], [-72.76025395367793, 43.786902063159], [-72.7606940927751, 43.78958521582963], [-72.76228786658699, 43.790914517041486], [-72.76375439295268, 43.79195193678236], [-72.76456478485451, 43.79280826219157], [-72.76552684741937, 43.793755527462835], [-72.76608391753646, 43.794320277550185], [-72.76777917582086, 43.795740562694725], [-72.76942803570195, 43.79803738879628], [-72.77016353944383, 43.799021666816465], [-72.77112479956882, 43.79974977205731], [-72.77294422169045, 43.80069493658004], [-72.7741794326935, 43.80067371967625], [-72.77564422085754, 43.80123624212063], [-72.77579850697019, 43.80189321179617], [-72.77865188766528, 43.80287230494992], [-72.7824406136323, 43.80474934801878]]]}}]}