{"type": "FeatureCollection", "name": "Windsor_Rochester", "features": [{"type": "Feature", "properties": {"OBJECT_ID": 1678, "County": "Windsor", "RPC": "TRORC", "Municipal_Name": "Rochester ", "GEO_ID": "5002760100", "District_Name": "Commercial-Agricultural District", "Abbreviated_District_Name": "Com-Ag", "District_Type": "Mixed with Residential", "Bylaw_Date": "2024-06-12T00:00:00", "Elderly_Housing_District": "No", "District_Mapped": "Yes", "Overlay_District": "No", "Base_Density": null, "GIS_ID": null, "Last_Update": null, "Shape_Length": 18694.979743369837, "Shape_Area": 3669007.167013837, "F1F_Allowance": "Permitted", "F1F_Front_Setback": 30.0, "F1F_Side_Setback": 25.0, "F1F_Rear_Setback": 25.0, "F1F_Frontage": 90.0, "F1F_Max_Height": 35.0, "F1F_Max_Stories": null, "F1F_Min_Lot_Size": 1.0, "F1F_Max_Lot_Building_Coverage": null, "F1F_Max_Lot_Impervious_Coverage": null, "F1F_Min_Parking_Spaces": 1.0, "F1F_Elderly_Housing_Only": null, "F1F_Affordable_Housing_Only": null, "F2F_Allowance": "Permitted", "F2F_Front_Setback": 30.0, "F2F_Side_Setback": 25.0, "F2F_Rear_Setback": 25.0, "F2F_Frontage": 90.0, "F2F_Max_Density": null, "F2F_Max_Height": 35.0, "F2F_Max_Stories": null, "F2F_Min_Lot_Size": 1.0, "F2F_Max_Lot_Building_Coverage": null, "F2F_Max_Lot_Impervious_Coverage": null, "F2F_Min_Parking_Spaces_per_1BR": 1.0, "F2F_Min_Parking_Spaces_per_mult_BR": 1.0, "F2F_Elderly_Housing_Only": "No", "F2F_Affordable_Housing_Only": "No", "F3F_Allowance": "Permitted", "F3F_Front_Setback": 30.0, "F3F_Side_Setback": 25.0, "F3F_Rear_Setback": 25.0, "F3F_Frontage": 90.0, "F3F_Max_Density": null, "F3F_Max_Height": 35.0, "F3F_Max_Stories": null, "F3F_Min_Lot_Size": 1.0, "F3F_Max_Lot_Building_Coverage": null, "F3F_Max_Lot_Impervious_Coverage": null, "F3F_Min_Parking_Spaces_per_1BR": 1.0, "F3F_Min_Parking_Spaces_per_mult_BR": 1.0, "F3F_Affordable_Housing_Only": "No", "F3F_Proximity_to_Public_Transit_Required": "No", "F3F_Connection_to_Sewage/Water_Required": "No", "F4F_Allowance": "Permitted", "F4F_Front_Setback": 30.0, "F4F_Side_Setback": 25.0, "F4F_Rear_Setback": 25.0, "F4F_Frontage": 90.0, "F1F_Max_Density": null, "F4F_Max_Density": null, "F4F_Max_Height": 35.0, "F4F_Max_Stories": null, "F4F_Min_Lot_Size": 1.0, "F4F_Max_Lot_Building_Coverage": null, "F4F_Max_Lot_Impervious_Coverage": null, "F4F_Min_Parking_Spaces_per_1BR": 1.0, "F4F_Min_Parking_Spaces_per_mult_BR": 1.0, "F3F_Elderly_Housing_Only": "No", "F4F_Elderly_Housing_Only": "No", "F4F_Affordable_Housing_Only": "No", "F4F_Proximity_to_Public_Transit_Required": "No", "F4F_Connection_to_Sewage/Water_Required": "No", "ADU_Allowance": "Allowed/Conditional", "ADU_Elderly_Housing_Only": "No", "ADU_Max_Size_as_Percent_of_Primary_Strcture": 50.0, "ADU_Max_Size_in_sq_ft": 1200.0, "ADU_Min_Lot_Size": null, "ADU_Max_Bedrooms": null, "ADU_Min_Parking_Spaces": 1.0, "ADU_Owner_Occupancy_Required": "No", "ADU_Renter_Occupancy_Prohibited": "No", "ADU_Employee_or_Family_Occupancy_Required": "No", "ADU_Restricted_to_Primary_Structure": "No", "Affordable_Housing_Allowance": "Not Mentioned", "Affordable_Housing_District": "No", "Affordable_Housing_Elderly_Only": "No", "Affordable_Housing_Min_Lot_Size": null, "Affordable_Housing_Max_Density": null, "Affordable_Housing_Min_Parking_Spaces_per_mult_BR": null, "Affordable_Housing_Max_Units_per_Building": null, "Affordable_Housing_Min_Parking_Spaces_per_1BR": null, "PRD_Allowance": "Public Hearing", "PRD_Max_Density": null, "PRD_Max_Units": null, "PRD_Min_Lot_Size": null, "PRD_Mobile_or_Manufactured_Home_Park": "Yes", "PUD_Allowance": null, "PUD_Required_with_Subdivision": null, "PUD_Requires_Land_Conservation": null, "PUD_Threshold_Number": null, "Notes": "  Mobile Home Parks Are The Only Prds Mentioned In The Bylaws.", "FIPS6": null}, "geometry": {"type": "MultiPolygon", "coordinates": [[[[-72.81379895144023, 43.874767937277355], [-72.81337375224753, 43.87486467955718], [-72.81133933864123, 43.87597218903978], [-72.81085286408872, 43.87658352144387], [-72.809060327926, 43.877139356733736], [-72.80824656966551, 43.87759414164984], [-72.80773072008277, 43.87779230718925], [-72.80745848343514, 43.87775368472167], [-72.80693939874087, 43.87732217342622], [-72.80620632474817, 43.87759962670647], [-72.80490119108805, 43.878311742772986], [-72.80511106398095, 43.87837435205975], [-72.80558350969024, 43.87889281163661], [-72.80571468834749, 43.87890703875862], [-72.80610913589204, 43.87919672243553], [-72.80636695633414, 43.87944654103966], [-72.80654816419867, 43.87974474741899], [-72.80669379073602, 43.87984930333675], [-72.8071114111684, 43.88044784257156], [-72.80719473958926, 43.88080147891656], [-72.80735522379182, 43.88090099340008], [-72.80752563827266, 43.88129924338061], [-72.80784805509609, 43.88167118321385], [-72.80811529696334, 43.882420023652614], [-72.808761518422, 43.88373090571532], [-72.80928864457884, 43.88421618911635], [-72.81049107027086, 43.88510991543736], [-72.81086239360476, 43.88557101385728], [-72.81128031735753, 43.885726452704446], [-72.8117710889254, 43.88610176383207], [-72.81188723129723, 43.88670473330346], [-72.81163120090527, 43.887018785386395], [-72.81146895220657, 43.88746070656038], [-72.81120437045033, 43.88784597684568], [-72.81113039776201, 43.88870971471281], [-72.8119268732308, 43.888688001755696], [-72.81351900423495, 43.88881671842593], [-72.81484269583947, 43.88928018470076], [-72.81618435112577, 43.8894290309006], [-72.81656121416859, 43.88959623744132], [-72.81719943890761, 43.8900668608756], [-72.81746373036448, 43.89059301394018], [-72.81775837384721, 43.89078374330926], [-72.8179374718486, 43.89111076965704], [-72.81799320063685, 43.89147309661441], [-72.81786910243359, 43.891680609420135], [-72.8181031577873, 43.892542115108796], [-72.81790447983948, 43.89287417955733], [-72.81782917167864, 43.89317085844696], [-72.81752347696441, 43.89356791642341], [-72.81735272381431, 43.89408109998235], [-72.81713395184029, 43.894332905598866], [-72.81732162386, 43.89458865820447], [-72.81725867322871, 43.89486462661394], [-72.81695382896564, 43.89508950399759], [-72.81669309255663, 43.89552526710478], [-72.81641692228027, 43.89575910895537], [-72.81650359437305, 43.896525287260125], [-72.81632506049301, 43.89693749360801], [-72.81661344138725, 43.89759431375132], [-72.81678094689764, 43.89776990341523], [-72.81703998594871, 43.89767851693193], [-72.8173433014321, 43.8977980174014], [-72.81753477498566, 43.89810427631461], [-72.81756101077096, 43.89862979898843], [-72.81743138278449, 43.899131208822155], [-72.81726610538044, 43.89935051937916], [-72.81742892426985, 43.899647777449445], [-72.81853736228021, 43.89967430343566], [-72.81888419269006, 43.89926546298411], [-72.81909220392592, 43.89869002230568], [-72.81955990931978, 43.89876243841894], [-72.81985298431538, 43.899297525733544], [-72.82031990078418, 43.899542126397385], [-72.82047807942155, 43.899961092710285], [-72.82074792398706, 43.90019335465802], [-72.8207331167835, 43.90073064979377], [-72.82059492729476, 43.901303318778695], [-72.82089825188834, 43.9014227710032], [-72.8214302811642, 43.901786294313666], [-72.82162489810712, 43.90231522922303], [-72.82205842533558, 43.90267253206828], [-72.82227401253182, 43.90310947771517], [-72.82267965322998, 43.90328565487237], [-72.82323192130457, 43.9037293220877], [-72.82373841310317, 43.90430650098107], [-72.8241115458341, 43.904423188012224], [-72.82424954461437, 43.90476196131651], [-72.82423634844659, 43.904954912822504], [-72.82436585270732, 43.905364917426354], [-72.82458920173036, 43.90590280806309], [-72.82473181104395, 43.90703128285796], [-72.82471236076759, 43.90769031478012], [-72.82448112578008, 43.90796289173527], [-72.82457495362763, 43.90809079955564], [-72.82493182816118, 43.908177727074694], [-72.82505358801248, 43.90848676943052], [-72.82500847427457, 43.909359508795994], [-72.82521396080679, 43.910212045693555], [-72.82538063200074, 43.91147123285573], [-72.82565982498838, 43.91237143977476], [-72.82613144411785, 43.91340570897286], [-72.82719045836377, 43.91442655560709], [-72.82749377837594, 43.914546024245446], [-72.82787002899302, 43.91488536055872], [-72.82834951024884, 43.91510917282913], [-72.82862496200828, 43.91504748457744], [-72.82947456662635, 43.91516528291986], [-72.83021397939505, 43.915125493809676], [-72.83062826878918, 43.915230360616086], [-72.83095242390486, 43.91520681515958], [-72.83285711688147, 43.91224557310094], [-72.8325811287653, 43.91202273742305], [-72.83218621987203, 43.91125883795207], [-72.83177734530638, 43.91086002793447], [-72.83157332497859, 43.910574571349144], [-72.83164083474375, 43.910176918326954], [-72.8314732544546, 43.91000135916271], [-72.83136388966082, 43.90967156444776], [-72.83153766582338, 43.90938104062971], [-72.83133365760321, 43.90909551960331], [-72.83157415236757, 43.90857954727426], [-72.83155163884449, 43.9081044731428], [-72.83112649287149, 43.90767595795078], [-72.83091164450177, 43.907066861812595], [-72.83044074151822, 43.90677183140947], [-72.82939196404938, 43.90533541509274], [-72.82899248291287, 43.904693197437], [-72.82876440610369, 43.904277046401624], [-72.8288226441722, 43.904122795081115], [-72.82843476618193, 43.90363198230857], [-72.82840844722405, 43.90310645925362], [-72.82825718873333, 43.90296064309533], [-72.82834020430764, 43.90276489206184], [-72.82823082066719, 43.9024351263786], [-72.82767393555547, 43.90211311590836], [-72.82715114958353, 43.90150625643052], [-72.82722797716778, 43.9008651795683], [-72.82714735487842, 43.90054434695657], [-72.82685415743114, 43.900009275233714], [-72.82668817483248, 43.8994893332566], [-72.8267565245147, 43.89891946926978], [-72.82642226158326, 43.898396165599394], [-72.82591821187263, 43.89730242638722], [-72.82571344204851, 43.89718910040901], [-72.82520848122456, 43.897178976671704], [-72.82484782170592, 43.89704157471455], [-72.82472998533355, 43.896782996346204], [-72.82469432949762, 43.896500865261245], [-72.82428869062286, 43.89632471843268], [-72.82393272431132, 43.896065587973396], [-72.82391799445533, 43.8956914537995], [-72.8244044122881, 43.89527701004315], [-72.82492641676525, 43.895144672988174], [-72.82491092470588, 43.89494277075011], [-72.82478304170708, 43.894188373077334], [-72.82435817855598, 43.89284840678406], [-72.82355256916671, 43.891290818394], [-72.8229741390562, 43.89032156639299], [-72.82145434774225, 43.888762202178285], [-72.81993600953773, 43.88776985037207], [-72.81748193020914, 43.885893430162675], [-72.81611275203208, 43.88465201676041], [-72.81571658435428, 43.88423243555898], [-72.81413450476859, 43.88203747762125], [-72.81363467034426, 43.88099417344486], [-72.81338538890368, 43.88074911721708], [-72.81341290028023, 43.88057066074936], [-72.8130245314625, 43.88029188161517], [-72.81313279429659, 43.879851831005155], [-72.81354498702379, 43.87941093326145], [-72.8137094271434, 43.879150619228305], [-72.8132929468067, 43.87877197566538], [-72.81303411800862, 43.87835947756595], [-72.81324901556, 43.87819032706772], [-72.81329182989437, 43.87743485041927], [-72.81323858305174, 43.87726678933562], [-72.81365655486007, 43.876537560168465], [-72.81419064714939, 43.87578908589507], [-72.81435592006362, 43.87527185770681], [-72.81414503550548, 43.87493259782763], [-72.81379895144023, 43.874767937277355]]], [[[-72.80390183012503, 43.84552019589727], [-72.79649487575429, 43.84554247969945], [-72.796342268555, 43.84573134177647], [-72.79612483361623, 43.8458441286598], [-72.79625198913578, 43.84630012202681], [-72.79625360308748, 43.84659004095823], [-72.79655046320607, 43.84684593738866], [-72.79722813852086, 43.84845494910771], [-72.79754234372453, 43.84890543912795], [-72.79766908199556, 43.84934405095882], [-72.79753734589278, 43.849889499030034], [-72.79716433342175, 43.85024199618152], [-72.79695684636853, 43.85031779919269], [-72.79704974521209, 43.85048770971215], [-72.79711002594414, 43.85092900319332], [-72.79734598596593, 43.85140189478979], [-72.79742175588271, 43.85187151628501], [-72.7976748540341, 43.85204469579907], [-72.79760958134912, 43.85258747382846], [-72.79730385292522, 43.852773302839374], [-72.79720925657392, 43.852931378245145], [-72.79747503453186, 43.852920790724944], [-72.79839510445093, 43.85257542236397], [-72.79877829476534, 43.85253119557901], [-72.79896498249421, 43.85270701644581], [-72.79927356326382, 43.85273327944645], [-72.7994484378783, 43.85292884415702], [-72.79954052968348, 43.85326279614282], [-72.79976186688633, 43.853543330692844], [-72.79966727363357, 43.853701465705534], [-72.79928690326032, 43.85395776315778], [-72.79961745883227, 43.85427254122393], [-72.80035491090648, 43.85450352193106], [-72.80075642137326, 43.85469971906542], [-72.8013193848104, 43.85543928590819], [-72.80198668003959, 43.85562486089022], [-72.80225084210618, 43.855942260191725], [-72.80252967389605, 43.85645197772071], [-72.8026527753471, 43.856842553144475], [-72.80308899793083, 43.85714344322832], [-72.8035753046376, 43.857577378278485], [-72.80410367715596, 43.858212210856514], [-72.8053222254308, 43.85915704391863], [-72.80542700859215, 43.85930718662098], [-72.80575112051314, 43.859361745595066], [-72.80618734474486, 43.85966263090726], [-72.80687387948356, 43.8599245898541], [-72.80852627132039, 43.860090014309115], [-72.80902975961104, 43.860224216845175], [-72.80957897230662, 43.86060737616363], [-72.80982687134701, 43.86106046723603], [-72.81025869046448, 43.86147727278599], [-72.81035736430732, 43.86207138701263], [-72.81013854147122, 43.86287108275184], [-72.80986620617723, 43.86314859321992], [-72.81064867874841, 43.863459063238324], [-72.81168349397504, 43.8637120561382], [-72.81299853651477, 43.86382443263098], [-72.81362940699336, 43.86354163541696], [-72.81494410649952, 43.86242796460021], [-72.81592360702889, 43.861115466814255], [-72.81633726246578, 43.86042367870367], [-72.81621585393984, 43.85883696755773], [-72.81649138341984, 43.85843042407042], [-72.81765029153591, 43.85739353484098], [-72.81701192118439, 43.85674455409357], [-72.81691452340337, 43.85656536061137], [-72.81702173864669, 43.85599676743577], [-72.81774671213742, 43.85435979170761], [-72.81732577934575, 43.85384611088891], [-72.8171804999668, 43.854089084604226], [-72.81669027092096, 43.854375942232764], [-72.81658394129602, 43.854699155192236], [-72.81540548162975, 43.85503994340032], [-72.813745627455, 43.85564657172687], [-72.81199433021865, 43.855755279265246], [-72.81104487098608, 43.855716107111654], [-72.8104203315522, 43.85556747337013], [-72.80981609498802, 43.85446306421718], [-72.80945080266683, 43.85404360212159], [-72.80906471561728, 43.85387577044776], [-72.80873618129513, 43.853937149647166], [-72.80869050756996, 43.85368816557454], [-72.80849196121751, 43.85353214324928], [-72.80775899316441, 43.85318526083932], [-72.80742310403991, 43.853150450179186], [-72.8072681891266, 43.85286726865853], [-72.80671378467956, 43.85276404210908], [-72.80622869247665, 43.852870238846705], [-72.80571343955981, 43.85275580586033], [-72.8054235785277, 43.85210182987562], [-72.80465601174038, 43.851650190665346], [-72.80450926949348, 43.85129915516293], [-72.80393083967536, 43.85053130037516], [-72.8037144002762, 43.84926667163073], [-72.80391538902542, 43.8489306953833], [-72.80344539756989, 43.8483610627659], [-72.80380290325647, 43.847091782437964], [-72.80373440226097, 43.84632857987638], [-72.80376020674137, 43.84599293418867], [-72.80390183012503, 43.84552019589727]]]]}}, {"type": "Feature", "properties": {"OBJECT_ID": 1679, "County": "Windsor", "RPC": "TRORC", "Municipal_Name": "Rochester ", "GEO_ID": "5002760100", "District_Name": "Conservation-Residential District", "Abbreviated_District_Name": "Con-Res", "District_Type": "Mixed with Residential", "Bylaw_Date": "2024-06-12T00:00:00", "Elderly_Housing_District": "No", "District_Mapped": "Yes", "Overlay_District": "No", "Base_Density": null, "GIS_ID": null, "Last_Update": null, "Shape_Length": 121312.13449630607, "Shape_Area": 138577270.25714368, "F1F_Allowance": "Permitted", "F1F_Front_Setback": 30.0, "F1F_Side_Setback": 25.0, "F1F_Rear_Setback": 25.0, "F1F_Frontage": null, "F1F_Max_Height": 35.0, "F1F_Max_Stories": null, "F1F_Min_Lot_Size": 3.0, "F1F_Max_Lot_Building_Coverage": null, "F1F_Max_Lot_Impervious_Coverage": null, "F1F_Min_Parking_Spaces": 1.0, "F1F_Elderly_Housing_Only": null, "F1F_Affordable_Housing_Only": null, "F2F_Allowance": "Permitted", "F2F_Front_Setback": 30.0, "F2F_Side_Setback": 25.0, "F2F_Rear_Setback": 25.0, "F2F_Frontage": null, "F2F_Max_Density": 4.0, "F2F_Max_Height": 35.0, "F2F_Max_Stories": null, "F2F_Min_Lot_Size": 3.0, "F2F_Max_Lot_Building_Coverage": null, "F2F_Max_Lot_Impervious_Coverage": null, "F2F_Min_Parking_Spaces_per_1BR": 1.0, "F2F_Min_Parking_Spaces_per_mult_BR": 1.0, "F2F_Elderly_Housing_Only": "No", "F2F_Affordable_Housing_Only": "No", "F3F_Allowance": "Permitted", "F3F_Front_Setback": 30.0, "F3F_Side_Setback": 25.0, "F3F_Rear_Setback": 25.0, "F3F_Frontage": null, "F3F_Max_Density": 4.0, "F3F_Max_Height": 35.0, "F3F_Max_Stories": null, "F3F_Min_Lot_Size": 3.0, "F3F_Max_Lot_Building_Coverage": null, "F3F_Max_Lot_Impervious_Coverage": null, "F3F_Min_Parking_Spaces_per_1BR": 1.0, "F3F_Min_Parking_Spaces_per_mult_BR": 1.0, "F3F_Affordable_Housing_Only": "No", "F3F_Proximity_to_Public_Transit_Required": "No", "F3F_Connection_to_Sewage/Water_Required": "No", "F4F_Allowance": "Permitted", "F4F_Front_Setback": 30.0, "F4F_Side_Setback": 25.0, "F4F_Rear_Setback": 25.0, "F4F_Frontage": null, "F1F_Max_Density": null, "F4F_Max_Density": 4.0, "F4F_Max_Height": 35.0, "F4F_Max_Stories": null, "F4F_Min_Lot_Size": 3.0, "F4F_Max_Lot_Building_Coverage": null, "F4F_Max_Lot_Impervious_Coverage": null, "F4F_Min_Parking_Spaces_per_1BR": 1.0, "F4F_Min_Parking_Spaces_per_mult_BR": 1.0, "F3F_Elderly_Housing_Only": "No", "F4F_Elderly_Housing_Only": "No", "F4F_Affordable_Housing_Only": "No", "F4F_Proximity_to_Public_Transit_Required": "No", "F4F_Connection_to_Sewage/Water_Required": "No", "ADU_Allowance": "Allowed/Conditional", "ADU_Elderly_Housing_Only": "No", "ADU_Max_Size_as_Percent_of_Primary_Strcture": 50.0, "ADU_Max_Size_in_sq_ft": 1200.0, "ADU_Min_Lot_Size": null, "ADU_Max_Bedrooms": null, "ADU_Min_Parking_Spaces": 1.0, "ADU_Owner_Occupancy_Required": "No", "ADU_Renter_Occupancy_Prohibited": "No", "ADU_Employee_or_Family_Occupancy_Required": "No", "ADU_Restricted_to_Primary_Structure": "No", "Affordable_Housing_Allowance": "Not Mentioned", "Affordable_Housing_District": "No", "Affordable_Housing_Elderly_Only": "No", "Affordable_Housing_Min_Lot_Size": null, "Affordable_Housing_Max_Density": null, "Affordable_Housing_Min_Parking_Spaces_per_mult_BR": null, "Affordable_Housing_Max_Units_per_Building": null, "Affordable_Housing_Min_Parking_Spaces_per_1BR": null, "PRD_Allowance": "Prohibited", "PRD_Max_Density": null, "PRD_Max_Units": null, "PRD_Min_Lot_Size": null, "PRD_Mobile_or_Manufactured_Home_Park": "No", "PUD_Allowance": null, "PUD_Required_with_Subdivision": null, "PUD_Requires_Land_Conservation": null, "PUD_Threshold_Number": null, "Notes": "None", "FIPS6": null}, "geometry": {"type": "MultiPolygon", "coordinates": [[[[-72.79423955267445, 43.820322042302955], [-72.79390124185885, 43.81963221809704], [-72.79423968365204, 43.820322134671], [-72.79429268683012, 43.82124544059973], [-72.79423955267445, 43.820322042302955]]], [[[-72.8738113382269, 43.83980112702528], [-72.87445138083037, 43.85680008781973], [-72.87411232976976, 43.85690540636521], [-72.87374825403992, 43.85712705825434], [-72.87316692925745, 43.85721550809916], [-72.87267719948386, 43.85746802162366], [-72.87174465083511, 43.85752232460408], [-72.87061972820463, 43.85748953734789], [-72.8701045889604, 43.85738280542053], [-72.86920037378367, 43.856928410174206], [-72.86860764229564, 43.85669709939071], [-72.86783397794167, 43.856175155744886], [-72.86722802577744, 43.855423710902755], [-72.86657483201509, 43.85476261863569], [-72.86596765227942, 43.854286294045465], [-72.86469722106061, 43.853077212812096], [-72.86399113819488, 43.8526081262041], [-72.86278249897201, 43.85155372257648], [-72.8627398116661, 43.85132986635949], [-72.86249691990827, 43.85137212828254], [-72.86171601091141, 43.85049429558529], [-72.8604721295994, 43.84981190743364], [-72.8601276243151, 43.84951552111245], [-72.85961012359684, 43.84882960177781], [-72.85934881346245, 43.84868502126399], [-72.8591963117161, 43.84840670683391], [-72.85904322199556, 43.848274988192685], [-72.85867646323862, 43.84830705556247], [-72.85828920677102, 43.848227895283024], [-72.85767676446102, 43.847700970747326], [-72.85726781276578, 43.84780370858949], [-72.8559324719657, 43.84732323269662], [-72.85502868104025, 43.84718734592602], [-72.85484846254207, 43.846858451691425], [-72.85471253382401, 43.846794979363224], [-72.8543068842797, 43.84694065470186], [-72.85389521325193, 43.84685384719998], [-72.85358182402646, 43.84665102507673], [-72.85325394781398, 43.846569439056005], [-72.85305352186157, 43.84690510078516], [-72.85282929667338, 43.847086555935526], [-72.8522455595683, 43.84723942857978], [-72.85159579475739, 43.847308755663946], [-72.85083846496934, 43.847218657354404], [-72.85072244614004, 43.84741297890671], [-72.85041773593423, 43.84763213982393], [-72.84996655038776, 43.84780553208161], [-72.849460597371, 43.84773113442828], [-72.84916494498786, 43.84744997523285], [-72.84905656587169, 43.846661303834615], [-72.84927622857828, 43.84425607644472], [-72.84874853647767, 43.84436357403238], [-72.84888714717148, 43.84461656370012], [-72.84881929188207, 43.84497274301733], [-72.84856545686519, 43.84554327510905], [-72.84838734681459, 43.84555046776188], [-72.84814203727603, 43.84576724817014], [-72.84800034379252, 43.84624707255796], [-72.84777008876593, 43.84619601268878], [-72.84745856370847, 43.84555345018723], [-72.84727322174798, 43.84562128034774], [-72.84719481776752, 43.84599511541154], [-72.84613693834659, 43.846796322065764], [-72.84620561062056, 43.847069398818256], [-72.84607899749587, 43.84728138327275], [-72.84564892629892, 43.84741940012791], [-72.84518118641748, 43.847377946449896], [-72.84482107639853, 43.84749587672407], [-72.84436056273275, 43.847393791446606], [-72.84399835911508, 43.84717564443391], [-72.84355901695506, 43.847038177058906], [-72.84306362017134, 43.84694611082194], [-72.84281890095374, 43.84701626578605], [-72.84293631982278, 43.84730464935753], [-72.84275431602606, 43.8474154051775], [-72.84183995849735, 43.84729707590125], [-72.84120863930922, 43.84714149490641], [-72.83970063047272, 43.8470470866689], [-72.83856137603527, 43.847256728404034], [-72.8377579475336, 43.847340793986376], [-72.83749869692939, 43.84753221768009], [-72.83718077683939, 43.84757953102783], [-72.83677506406255, 43.84772515241474], [-72.83659960754301, 43.84792187768134], [-72.83489302222799, 43.847723324309726], [-72.83427556512261, 43.84759299621151], [-72.83338503034314, 43.84762879219203], [-72.83246411645639, 43.84742445887282], [-72.83208479901457, 43.847138001332894], [-72.83189216714696, 43.84726643956106], [-72.83153598091481, 43.84728076981801], [-72.83156891857482, 43.84771043122509], [-72.83177804031493, 43.84779683360536], [-72.8314251121997, 43.84862992277386], [-72.83148383725597, 43.84877410369971], [-72.83147193033258, 43.849084912559405], [-72.83039267293775, 43.849145549904065], [-72.82955885983434, 43.84898940528382], [-72.8290700380841, 43.848983178785055], [-72.82860165392303, 43.84908819566951], [-72.82655588720196, 43.84974788487398], [-72.82486235815522, 43.85049683377635], [-72.82443087718649, 43.85092792965761], [-72.82385686432198, 43.85120953691259], [-72.82348540941759, 43.85149167784451], [-72.82281173030101, 43.852182447376116], [-72.82250743976009, 43.853030770787555], [-72.82254763347419, 43.853399804820825], [-72.82272766111292, 43.85372875289718], [-72.82260168053936, 43.853794148596684], [-72.82154273372521, 43.85396594824554], [-72.82097271332016, 43.854143947891515], [-72.82040004056546, 43.854132443922], [-72.82001019563229, 43.85386362244675], [-72.81997661969106, 43.8535805179844], [-72.82063577579886, 43.85301102424094], [-72.82065430202658, 43.852786159715734], [-72.82027034569143, 43.85274983318804], [-72.81988244114066, 43.85281709999754], [-72.81871723376473, 43.85331204610073], [-72.8182243974902, 43.853409388686835], [-72.81775334485366, 43.85332482333654], [-72.81752901199498, 43.85350622105454], [-72.81732577934575, 43.85384611088891], [-72.8171804999668, 43.854089084604226], [-72.81669027092096, 43.854375942232764], [-72.81658394129602, 43.854699155192236], [-72.81540548162975, 43.85503994340032], [-72.813745627455, 43.85564657172687], [-72.81199433021865, 43.855755279265246], [-72.81104487098608, 43.855716107111654], [-72.8104203315522, 43.85556747337013], [-72.80981609498802, 43.85446306421718], [-72.80945080266683, 43.85404360212159], [-72.80906471561728, 43.85387577044776], [-72.80873618129513, 43.853937149647166], [-72.80869050756996, 43.85368816557454], [-72.80849196121751, 43.85353214324928], [-72.80775899316441, 43.85318526083932], [-72.80742310403991, 43.853150450179186], [-72.8072681891266, 43.85286726865853], [-72.80671378467956, 43.85276404210908], [-72.80622869247665, 43.852870238846705], [-72.80571343955981, 43.85275580586033], [-72.8054235785277, 43.85210182987562], [-72.80465601174038, 43.851650190665346], [-72.80450926949348, 43.85129915516293], [-72.80393083967536, 43.85053130037516], [-72.8037144002762, 43.84926667163073], [-72.80391538902542, 43.8489306953833], [-72.80344539756989, 43.8483610627659], [-72.80380290325647, 43.847091782437964], [-72.80373440226097, 43.84632857987638], [-72.80376020674137, 43.84599293418867], [-72.80390183012503, 43.84552019589727], [-72.80403827263152, 43.84519357042162], [-72.80396633849702, 43.844519730865684], [-72.80403828816634, 43.84398142912662], [-72.80390662901718, 43.84319843661049], [-72.80404866142153, 43.84250118357075], [-72.80392640902862, 43.842245813352676], [-72.80398298367305, 43.84177505589528], [-72.8041077398551, 43.84152465924513], [-72.80404803462068, 43.84141548211392], [-72.80369580309937, 43.841377511419374], [-72.8034877786208, 43.84080581638169], [-72.80349254833546, 43.84046353173183], [-72.80287045405537, 43.83958116943071], [-72.80247802748578, 43.83915065283531], [-72.80178812382363, 43.83859073513441], [-72.80182519438218, 43.83840334081423], [-72.80198225428326, 43.838307855616655], [-72.80185944921776, 43.83817888812802], [-72.80158861068185, 43.83813022293655], [-72.8011277360016, 43.83814865616062], [-72.80073682869788, 43.83800808091761], [-72.80055815718435, 43.83701129021628], [-72.79994652575542, 43.83586078286482], [-72.79969121490598, 43.834532451575356], [-72.79945313415412, 43.833969352570456], [-72.79911635538174, 43.83386381094208], [-72.79897529247084, 43.83376533398998], [-72.79849003918766, 43.832654402866936], [-72.79813003262055, 43.83237874758266], [-72.79782908679324, 43.83233870512855], [-72.79767890696714, 43.83225542513621], [-72.797581278758, 43.831917281597676], [-72.79719935824659, 43.83121863203592], [-72.79730589006982, 43.830998715006544], [-72.79762284352468, 43.83084479162679], [-72.79771526289154, 43.83043952957246], [-72.79808412185042, 43.830157119915924], [-72.79791007530666, 43.83003020143907], [-72.79741060692835, 43.82994601293207], [-72.79776121526639, 43.82969407706258], [-72.79786630562344, 43.82944051215447], [-72.80625877118939, 43.83191100615205], [-72.82238830705974, 43.836460131875114], [-72.83066668842413, 43.839128524018825], [-72.83834275094017, 43.82926312273361], [-72.86138298068772, 43.83623700275564], [-72.87387230912563, 43.839637062195244], [-72.8738113382269, 43.83980112702528]]], [[[-72.972895067211, 43.86677686486626], [-72.98023112484987, 43.86397512998485], [-72.98024716124, 43.8719843690443], [-72.98015118570015, 43.882932866677564], [-72.97404303754013, 43.88144729094431], [-72.96974979783988, 43.879677627785014], [-72.95318991872898, 43.87486735568826], [-72.94541879484322, 43.87755843257529], [-72.92762591258953, 43.884324685785636], [-72.91521013956027, 43.88857910409648], [-72.9027925912886, 43.89283217705257], [-72.88967433673086, 43.897803305239506], [-72.8765538917745, 43.90277293097817], [-72.87533455981423, 43.88570320083365], [-72.87508719695082, 43.883586302081966], [-72.87448302748876, 43.87237917106307], [-72.87534563607142, 43.86770511840981], [-72.87438370406412, 43.86471285340907], [-72.87473975403576, 43.86576596515805], [-72.87499176507154, 43.866277458573585], [-72.8751421068426, 43.866835785024335], [-72.87602595209488, 43.86702108557896], [-72.87703412389543, 43.867312929421814], [-72.87789108355513, 43.867838210970724], [-72.87792100395401, 43.867767795248675], [-72.87798919565098, 43.867801729058144], [-72.87910866161418, 43.86848670685104], [-72.88001188628776, 43.869369232270444], [-72.88102565380193, 43.87052683459424], [-72.88214538256256, 43.87123150044677], [-72.88304559776641, 43.871641719559214], [-72.88400167310738, 43.87226817168405], [-72.88494470177407, 43.870867893418364], [-72.88461603476101, 43.8705148008325], [-72.88412441556378, 43.870201617602426], [-72.8832766973665, 43.86949607344472], [-72.88297141743357, 43.86855258185815], [-72.88258788380199, 43.868120942170236], [-72.88190529303023, 43.8677099948141], [-72.88119224293288, 43.86678752341229], [-72.87992035804048, 43.86566355618416], [-72.87999441584385, 43.86558653893713], [-72.8795296000622, 43.86515917859131], [-72.87890907053796, 43.86483955402815], [-72.87791171759224, 43.86442317515954], [-72.87761590132085, 43.864142100894014], [-72.8774005310713, 43.863823273380106], [-72.87703309834535, 43.863079614359684], [-72.87668566871992, 43.86259374085752], [-72.8762289224576, 43.862388156123906], [-72.87504792389012, 43.86159992542376], [-72.87482202546973, 43.861298762921116], [-72.87466775138319, 43.86053781060275], [-72.87430316598743, 43.85998369230032], [-72.87408229390925, 43.8592857874385], [-72.87406622490785, 43.85892441541576], [-72.87433314360177, 43.858525668556105], [-72.874547893378, 43.858068707034654], [-72.87449918314891, 43.8580692509895], [-72.89147479498187, 43.851572608758815], [-72.90083574051421, 43.84821441165298], [-72.91037961632605, 43.8445630599101], [-72.92723289470827, 43.838732714803086], [-72.92847207759857, 43.83796033487748], [-72.93751838033873, 43.834580391976544], [-72.95974533334308, 43.82608570159892], [-72.96551127409974, 43.84460235792197], [-72.97026910527943, 43.85859209770099], [-72.972895067211, 43.86677686486626]]], [[[-72.78190716137665, 43.80809534770923], [-72.78232126227111, 43.80831367833573], [-72.78318299051831, 43.80841159357333], [-72.78348280482888, 43.80838966845022], [-72.78378688232858, 43.80854293086333], [-72.78408928622964, 43.8089741860609], [-72.7839801652781, 43.80964021372811], [-72.78333772502249, 43.81068153561949], [-72.78273044327297, 43.81110613897798], [-72.78179728488597, 43.81151064923921], [-72.78119592726375, 43.81183243119135], [-72.78081037353378, 43.812109196633216], [-72.78064494045755, 43.81251611614186], [-72.7802392372517, 43.81264809718752], [-72.77963948737582, 43.812691894801], [-72.77971760134413, 43.81281779556955], [-72.78097923615829, 43.81288651862091], [-72.7814991855272, 43.81299479078088], [-72.78189733117826, 43.813243552309864], [-72.78237196097841, 43.81389618119959], [-72.7826726913671, 43.814605408735495], [-72.78333126828274, 43.81527387200339], [-72.78410416961795, 43.81618252218162], [-72.78439065207267, 43.81664418871679], [-72.78487706864712, 43.81709123269238], [-72.78538531825335, 43.81740505561952], [-72.7858179941845, 43.81804613229656], [-72.78754858096194, 43.81887018134863], [-72.7878031933823, 43.81939265024161], [-72.78788395808577, 43.819971688258995], [-72.78777905777831, 43.82081290796236], [-72.78760774722892, 43.82132261683816], [-72.78759439170179, 43.821806182080444], [-72.78625111407449, 43.822167580298036], [-72.78510613594996, 43.82279233515249], [-72.78422068283682, 43.82310561796294], [-72.78366541670579, 43.82361413374235], [-72.78422325282827, 43.82355874565147], [-72.78432909449268, 43.82344866540636], [-72.78506082073794, 43.82333670881863], [-72.78715014992937, 43.82311089481876], [-72.78784243278827, 43.82344052584315], [-72.78804658035482, 43.82360107373738], [-72.78814495767817, 43.82387175715452], [-72.78831720859931, 43.82409313297581], [-72.78948009744488, 43.82490017840255], [-72.78995486664809, 43.82555277587481], [-72.79022548846609, 43.82604485113799], [-72.79043069590445, 43.82693647838265], [-72.79040134769646, 43.82745048060001], [-72.79061401125892, 43.82796138887136], [-72.79064529756985, 43.82890964136354], [-72.79092014421488, 43.82957686439906], [-72.79135828542442, 43.829920937947655], [-72.79192806568996, 43.831738417157425], [-72.79205523561545, 43.83246487927218], [-72.79204765011126, 43.832770087312305], [-72.79215222089846, 43.83292950584629], [-72.79225546633788, 43.83334181624382], [-72.79228717724651, 43.833623133659955], [-72.7922205258006, 43.833692732981724], [-72.79218906765325, 43.8339542263261], [-72.79239344415248, 43.834615370029724], [-72.79231077133981, 43.8348789357912], [-72.79255358350046, 43.835099794870736], [-72.79272062790537, 43.83540546919596], [-72.79279444976777, 43.8356999569174], [-72.79303031945895, 43.83609955808441], [-72.79309147061036, 43.836498670902984], [-72.79332320144336, 43.83711409743381], [-72.79336553273212, 43.83767012325957], [-72.79329263219648, 43.83779201040455], [-72.79343086262385, 43.837853424985006], [-72.79352287657876, 43.838117470767784], [-72.79340307603388, 43.83856841543767], [-72.79355887150756, 43.838725786594445], [-72.79347969826736, 43.83889998184513], [-72.79349661794804, 43.8391224059845], [-72.79376484023445, 43.83967685656539], [-72.79367652315926, 43.83986630243905], [-72.79391370064693, 43.84001301525956], [-72.79382190506831, 43.840291820636615], [-72.79428152496638, 43.840526337164874], [-72.79456645533283, 43.84076036078436], [-72.79463747821404, 43.84101780918312], [-72.79515478203983, 43.84174079583541], [-72.79565010735861, 43.8432529049486], [-72.7954162073681, 43.844228953232665], [-72.79591422212783, 43.84402318844917], [-72.79608895697108, 43.844023649417466], [-72.79634434373654, 43.84413986040267], [-72.7965419057468, 43.84497973912593], [-72.79649487575429, 43.84554247969945], [-72.796342268555, 43.84573134177647], [-72.79612483361623, 43.8458441286598], [-72.79625198913578, 43.84630012202681], [-72.79625360308748, 43.84659004095823], [-72.79655046320607, 43.84684593738866], [-72.79722813852086, 43.84845494910771], [-72.79754234372453, 43.84890543912795], [-72.79766908199556, 43.84934405095882], [-72.79753734589278, 43.849889499030034], [-72.79716433342175, 43.85024199618152], [-72.79695684636853, 43.85031779919269], [-72.79704974521209, 43.85048770971215], [-72.79711002594414, 43.85092900319332], [-72.79734598596593, 43.85140189478979], [-72.79742175588271, 43.85187151628501], [-72.7976748540341, 43.85204469579907], [-72.79760958134912, 43.85258747382846], [-72.79730385292522, 43.852773302839374], [-72.79720925657392, 43.852931378245145], [-72.79747503453186, 43.852920790724944], [-72.79839510445093, 43.85257542236397], [-72.79877829476534, 43.85253119557901], [-72.79896498249421, 43.85270701644581], [-72.79927356326382, 43.85273327944645], [-72.7994484378783, 43.85292884415702], [-72.79954052968348, 43.85326279614282], [-72.79976186688633, 43.853543330692844], [-72.79966727363357, 43.853701465705534], [-72.79928690326032, 43.85395776315778], [-72.79961745883227, 43.85427254122393], [-72.80035491090648, 43.85450352193106], [-72.80075642137326, 43.85469971906542], [-72.8013193848104, 43.85543928590819], [-72.80198668003959, 43.85562486089022], [-72.80225084210618, 43.855942260191725], [-72.80252967389605, 43.85645197772071], [-72.8026527753471, 43.856842553144475], [-72.80308899793083, 43.85714344322832], [-72.8035753046376, 43.857577378278485], [-72.80410367715596, 43.858212210856514], [-72.8053222254308, 43.85915704391863], [-72.80542700859215, 43.85930718662098], [-72.80575112051314, 43.859361745595066], [-72.80618734474486, 43.85966263090726], [-72.80687387948356, 43.8599245898541], [-72.80852627132039, 43.860090014309115], [-72.80902975961104, 43.860224216845175], [-72.80957897230662, 43.86060737616363], [-72.80982687134701, 43.86106046723603], [-72.81025869046448, 43.86147727278599], [-72.81035736430732, 43.86207138701263], [-72.81013854147122, 43.86287108275184], [-72.80986620617723, 43.86314859321992], [-72.81064867874841, 43.863459063238324], [-72.81168349397504, 43.8637120561382], [-72.81299853651477, 43.86382443263098], [-72.81362940699336, 43.86354163541696], [-72.81494410649952, 43.86242796460021], [-72.81592360702889, 43.861115466814255], [-72.81633726246578, 43.86042367870367], [-72.81621585393984, 43.85883696755773], [-72.81649138341984, 43.85843042407042], [-72.81765029153591, 43.85739353484098], [-72.8183198831119, 43.85683626822853], [-72.81885900771724, 43.85656467158896], [-72.82099873477159, 43.85603928506619], [-72.82151930132365, 43.855992545795786], [-72.82225035706877, 43.85573909141967], [-72.8226640851346, 43.8553863455993], [-72.82309098011284, 43.8552054310172], [-72.82451011090934, 43.854915759942365], [-72.82447256475118, 43.85473624807134], [-72.82459200572205, 43.85458492894717], [-72.82500833071558, 43.85442166819428], [-72.8267666510433, 43.85327358261481], [-72.82704705344881, 43.8530468249199], [-72.82714604583957, 43.85278424933673], [-72.82805185938177, 43.85248064138888], [-72.82825041717254, 43.85258474207302], [-72.8284133704514, 43.852845423998566], [-72.82879662241047, 43.85380406324409], [-72.82912583715361, 43.85359256790457], [-72.82970841048768, 43.85373295722882], [-72.83034109088796, 43.853595497764246], [-72.83103511250201, 43.85379170656368], [-72.8316948693635, 43.85385138007264], [-72.83314431097017, 43.85380173503084], [-72.83369914695415, 43.853891491589074], [-72.83435957603534, 43.85380456542038], [-72.83503976137284, 43.85397547658692], [-72.83681247891575, 43.85425760165495], [-72.83751709510871, 43.85443610794191], [-72.83798360293956, 43.85477074408222], [-72.83830157315434, 43.85472345810402], [-72.83859057534772, 43.85491873471649], [-72.83884067945165, 43.85522759375288], [-72.83954733599414, 43.85574221056514], [-72.8399062490891, 43.855917376072924], [-72.84010088020096, 43.856125053982794], [-72.84018671076302, 43.85646639087539], [-72.84079368558501, 43.856614319348694], [-72.84087166477278, 43.857162879389385], [-72.84127675477956, 43.85716381338645], [-72.84108072073455, 43.85647347719832], [-72.84078443616298, 43.856338872802766], [-72.84028817662232, 43.855617523426595], [-72.8399853562197, 43.855396990168735], [-72.83966130492325, 43.854436001410875], [-72.83970806111155, 43.85411514740963], [-72.83995083137553, 43.85370886675586], [-72.84031036406174, 43.85373749999245], [-72.84052476326374, 43.85342717183969], [-72.84083677449392, 43.85314737335192], [-72.84122469948284, 43.85308003626413], [-72.84149051543365, 43.85297448504731], [-72.84178147834437, 43.8527300421488], [-72.84257052958472, 43.85276719070289], [-72.84376920042365, 43.85255514065173], [-72.84404102152087, 43.85268210755912], [-72.84462359177819, 43.85282240197234], [-72.845136839116, 43.852836179955354], [-72.84588159287685, 43.852607872821025], [-72.84635663655348, 43.85258874456841], [-72.8472722880324, 43.8524138896333], [-72.84772223447521, 43.85253367212848], [-72.84816022631016, 43.85218842840986], [-72.84883900544105, 43.851876579789725], [-72.84932846078358, 43.851736166210614], [-72.84973080332392, 43.85154755058212], [-72.85014312806929, 43.85148777422535], [-72.85051978444055, 43.85125856593181], [-72.85107588728314, 43.851373903588026], [-72.85150337580293, 43.85128452992897], [-72.8520241631921, 43.85128959715267], [-72.8527472612077, 43.85145347455335], [-72.85356499765413, 43.85143670881811], [-72.85510583202787, 43.8515837880021], [-72.85736852209438, 43.85216980372748], [-72.85822091955696, 43.852541273228], [-72.85905840183553, 43.85278576876036], [-72.85948082380818, 43.853170743967176], [-72.8600766911171, 43.85348282105944], [-72.86110362375429, 43.85428604764601], [-72.86152805375637, 43.854691258953785], [-72.86226988055562, 43.85519571628979], [-72.86280579468489, 43.855656736645045], [-72.8640858840441, 43.857018962845096], [-72.86478347273513, 43.85809370140141], [-72.86561498305107, 43.858954328407435], [-72.86555968897754, 43.858987179618715], [-72.86690034566455, 43.860301282934785], [-72.86801871240787, 43.86084868058161], [-72.87017259719906, 43.861727201122896], [-72.87085496840052, 43.862118554680436], [-72.87148303853571, 43.86252975562561], [-72.87178536851901, 43.86304039079787], [-72.87223266817607, 43.86354193869526], [-72.86529107810452, 43.8616561942865], [-72.8612793235458, 43.86774794129059], [-72.85417772308128, 43.8788730312007], [-72.84707348989146, 43.88999766681394], [-72.83996662186313, 43.90112184761819], [-72.83285711688147, 43.91224557310094], [-72.8325811287653, 43.91202273742305], [-72.83218621987203, 43.91125883795207], [-72.83177734530638, 43.91086002793447], [-72.83157332497859, 43.910574571349144], [-72.83164083474375, 43.910176918326954], [-72.8314732544546, 43.91000135916271], [-72.83136388966082, 43.90967156444776], [-72.83153766582338, 43.90938104062971], [-72.83133365760321, 43.90909551960331], [-72.83157415236757, 43.90857954727426], [-72.83155163884449, 43.9081044731428], [-72.83112649287149, 43.90767595795078], [-72.83091164450177, 43.907066861812595], [-72.83044074151822, 43.90677183140947], [-72.82939196404938, 43.90533541509274], [-72.82899248291287, 43.904693197437], [-72.82876440610369, 43.904277046401624], [-72.8288226441722, 43.904122795081115], [-72.82843476618193, 43.90363198230857], [-72.82840844722405, 43.90310645925362], [-72.82825718873333, 43.90296064309533], [-72.82834020430764, 43.90276489206184], [-72.82823082066719, 43.9024351263786], [-72.82767393555547, 43.90211311590836], [-72.82715114958353, 43.90150625643052], [-72.82722797716778, 43.9008651795683], [-72.82714735487842, 43.90054434695657], [-72.82685415743114, 43.900009275233714], [-72.82668817483248, 43.8994893332566], [-72.8267565245147, 43.89891946926978], [-72.82642226158326, 43.898396165599394], [-72.82591821187263, 43.89730242638722], [-72.82571344204851, 43.89718910040901], [-72.82520848122456, 43.897178976671704], [-72.82484782170592, 43.89704157471455], [-72.82472998533355, 43.896782996346204], [-72.82469432949762, 43.896500865261245], [-72.82428869062286, 43.89632471843268], [-72.82393272431132, 43.896065587973396], [-72.82391799445533, 43.8956914537995], [-72.8244044122881, 43.89527701004315], [-72.82492641676525, 43.895144672988174], [-72.82491092470588, 43.89494277075011], [-72.82478304170708, 43.894188373077334], [-72.82435817855598, 43.89284840678406], [-72.82355256916671, 43.891290818394], [-72.8229741390562, 43.89032156639299], [-72.82145434774225, 43.888762202178285], [-72.81993600953773, 43.88776985037207], [-72.81748193020914, 43.885893430162675], [-72.81611275203208, 43.88465201676041], [-72.81571658435428, 43.88423243555898], [-72.81413450476859, 43.88203747762125], [-72.81363467034426, 43.88099417344486], [-72.81338538890368, 43.88074911721708], [-72.81341290028023, 43.88057066074936], [-72.8130245314625, 43.88029188161517], [-72.81313279429659, 43.879851831005155], [-72.81354498702379, 43.87941093326145], [-72.8137094271434, 43.879150619228305], [-72.8132929468067, 43.87877197566538], [-72.81303411800862, 43.87835947756595], [-72.81324901556, 43.87819032706772], [-72.81329182989437, 43.87743485041927], [-72.81323858305174, 43.87726678933562], [-72.81365655486007, 43.876537560168465], [-72.81419064714939, 43.87578908589507], [-72.81435592006362, 43.87527185770681], [-72.81414503550548, 43.87493259782763], [-72.81379895144023, 43.874767937277355], [-72.81385538325992, 43.87436239599491], [-72.81362371272412, 43.873895697559554], [-72.81320363231984, 43.87334541426756], [-72.81185691515088, 43.870928352943075], [-72.81162692802565, 43.87011727558332], [-72.81078000655619, 43.86874352920279], [-72.81028184236214, 43.86832595497563], [-72.81023286938233, 43.8679782220389], [-72.80909341411898, 43.86775301721023], [-72.80857541381425, 43.86751829336683], [-72.80745875778055, 43.86722614281316], [-72.80707676527057, 43.86699102815151], [-72.80639228090062, 43.86610735825626], [-72.80592015235939, 43.86462534624181], [-72.80517562319226, 43.86473228112058], [-72.80423781109015, 43.86547523430502], [-72.80452665711863, 43.8659187599143], [-72.80469327329739, 43.86648105917279], [-72.80465489303052, 43.86698466574142], [-72.80473933961193, 43.867487966385866], [-72.80498830559881, 43.86813891122465], [-72.80511492261175, 43.86887902545386], [-72.80431025767058, 43.87166532755984], [-72.80407618774402, 43.873946585123974], [-72.80362988884677, 43.874747479348706], [-72.80326397151255, 43.875251975205366], [-72.80220341464724, 43.87605447411648], [-72.80187854346936, 43.876588452959304], [-72.80208417183755, 43.87676561570003], [-72.80200703164883, 43.877131711001084], [-72.80162454267133, 43.87746412116525], [-72.80133912791534, 43.87762909219875], [-72.80230333310692, 43.878970023720946], [-72.80251653604464, 43.87890070533323], [-72.80280331091306, 43.87870964727967], [-72.80360188776561, 43.878495915143084], [-72.80389587988776, 43.878517513251786], [-72.80477896159266, 43.87827529671558], [-72.80490119108805, 43.878311742772986], [-72.80511106398095, 43.87837435205975], [-72.80558350969024, 43.87889281163661], [-72.80571468834749, 43.87890703875862], [-72.80610913589204, 43.87919672243553], [-72.80636695633414, 43.87944654103966], [-72.80654816419867, 43.87974474741899], [-72.80669379073602, 43.87984930333675], [-72.8071114111684, 43.88044784257156], [-72.80719473958926, 43.88080147891656], [-72.80735522379182, 43.88090099340008], [-72.80752563827266, 43.88129924338061], [-72.80784805509609, 43.88167118321385], [-72.80811529696334, 43.882420023652614], [-72.808761518422, 43.88373090571532], [-72.80928864457884, 43.88421618911635], [-72.81049107027086, 43.88510991543736], [-72.81086239360476, 43.88557101385728], [-72.81128031735753, 43.885726452704446], [-72.8117710889254, 43.88610176383207], [-72.81188723129723, 43.88670473330346], [-72.81163120090527, 43.887018785386395], [-72.81146895220657, 43.88746070656038], [-72.81120437045033, 43.88784597684568], [-72.81113039776201, 43.88870971471281], [-72.8119268732308, 43.888688001755696], [-72.81351900423495, 43.88881671842593], [-72.81484269583947, 43.88928018470076], [-72.81618435112577, 43.8894290309006], [-72.81656121416859, 43.88959623744132], [-72.81719943890761, 43.8900668608756], [-72.81746373036448, 43.89059301394018], [-72.81775837384721, 43.89078374330926], [-72.8179374718486, 43.89111076965704], [-72.81799320063685, 43.89147309661441], [-72.81786910243359, 43.891680609420135], [-72.8181031577873, 43.892542115108796], [-72.81790447983948, 43.89287417955733], [-72.81782917167864, 43.89317085844696], [-72.81752347696441, 43.89356791642341], [-72.81735272381431, 43.89408109998235], [-72.81713395184029, 43.894332905598866], [-72.81732162386, 43.89458865820447], [-72.81725867322871, 43.89486462661394], [-72.81695382896564, 43.89508950399759], [-72.81669309255663, 43.89552526710478], [-72.81641692228027, 43.89575910895537], [-72.81650359437305, 43.896525287260125], [-72.81632506049301, 43.89693749360801], [-72.81661344138725, 43.89759431375132], [-72.81678094689764, 43.89776990341523], [-72.81703998594871, 43.89767851693193], [-72.8173433014321, 43.8977980174014], [-72.81753477498566, 43.89810427631461], [-72.81756101077096, 43.89862979898843], [-72.81743138278449, 43.899131208822155], [-72.81726610538044, 43.89935051937916], [-72.81742892426985, 43.899647777449445], [-72.81853736228021, 43.89967430343566], [-72.81888419269006, 43.89926546298411], [-72.81909220392592, 43.89869002230568], [-72.81955990931978, 43.89876243841894], [-72.81985298431538, 43.899297525733544], [-72.82031990078418, 43.899542126397385], [-72.82047807942155, 43.899961092710285], [-72.82074792398706, 43.90019335465802], [-72.8207331167835, 43.90073064979377], [-72.82059492729476, 43.901303318778695], [-72.82089825188834, 43.9014227710032], [-72.8214302811642, 43.901786294313666], [-72.82162489810712, 43.90231522922303], [-72.82205842533558, 43.90267253206828], [-72.82227401253182, 43.90310947771517], [-72.82267965322998, 43.90328565487237], [-72.82323192130457, 43.9037293220877], [-72.82373841310317, 43.90430650098107], [-72.8241115458341, 43.904423188012224], [-72.82424954461437, 43.90476196131651], [-72.82423634844659, 43.904954912822504], [-72.82436585270732, 43.905364917426354], [-72.82458920173036, 43.90590280806309], [-72.82473181104395, 43.90703128285796], [-72.82471236076759, 43.90769031478012], [-72.82448112578008, 43.90796289173527], [-72.82457495362763, 43.90809079955564], [-72.82493182816118, 43.908177727074694], [-72.82505358801248, 43.90848676943052], [-72.82500847427457, 43.909359508795994], [-72.82521396080679, 43.910212045693555], [-72.82538063200074, 43.91147123285573], [-72.82565982498838, 43.91237143977476], [-72.82613144411785, 43.91340570897286], [-72.82719045836377, 43.91442655560709], [-72.82749377837594, 43.914546024245446], [-72.82787002899302, 43.91488536055872], [-72.82834951024884, 43.91510917282913], [-72.82862496200828, 43.91504748457744], [-72.82947456662635, 43.91516528291986], [-72.83021397939505, 43.915125493809676], [-72.83062826878918, 43.915230360616086], [-72.83095242390486, 43.91520681515958], [-72.8236422234371, 43.92651126214712], [-72.81632926346374, 43.937815227371466], [-72.80999702540048, 43.9360965075961], [-72.80350464771345, 43.945672456924875], [-72.79104452787269, 43.962252732980645], [-72.78705052497935, 43.96086707158826], [-72.79177769442472, 43.95397707360099], [-72.78522103663076, 43.95219986770381], [-72.78996045246983, 43.94532359883319], [-72.77108017967821, 43.93907353072867], [-72.77514531906405, 43.93366687865709], [-72.76891266149019, 43.931625740039976], [-72.77350320976221, 43.92454742502061], [-72.75819570929788, 43.92040682582948], [-72.74289032417586, 43.9162641681804], [-72.7275870553382, 43.9121194529549], [-72.71228590372552, 43.90797268103477], [-72.71453983746208, 43.9041215077902], [-72.7235713506406, 43.889869600357585], [-72.72381307378494, 43.88948816262493], [-72.72391861264289, 43.889321617615764], [-72.72574750826361, 43.88643558442545], [-72.7259703008977, 43.886081245328675], [-72.72706695915338, 43.884235402299716], [-72.7374337896143, 43.868077128902875], [-72.74899138145747, 43.85011612184358], [-72.74899159269486, 43.85011577666554], [-72.74948851150977, 43.84928885789991], [-72.7510765112289, 43.846630429162836], [-72.75146920944123, 43.84597303628461], [-72.76030994567705, 43.83202876238812], [-72.7660748475078, 43.823317592860754], [-72.76610336994044, 43.82332507157708], [-72.76691291745925, 43.823537354401985], [-72.76973915691588, 43.82427844029215], [-72.77104724548563, 43.8246214229268], [-72.77232441700451, 43.82240379689986], [-72.77306952468736, 43.82110122223782], [-72.77722975673547, 43.81385807779264], [-72.77744392072478, 43.813482966279], [-72.77982663240358, 43.80932098017977], [-72.78013929302243, 43.80877532760782], [-72.78034763990061, 43.808411543651545], [-72.78160500868063, 43.806215972445685], [-72.78161442257654, 43.80619951607598], [-72.78186563601533, 43.8057608516227], [-72.78117054584317, 43.80730096724498], [-72.7814888837164, 43.80770178822785], [-72.78190716137665, 43.80809534770923]], [[-72.80727740867329, 43.86541152044106], [-72.80758500261425, 43.86573829542522], [-72.8077632030179, 43.86606534970011], [-72.80794448485237, 43.86669938858492], [-72.80816892471714, 43.86701567904535], [-72.80953958698103, 43.86768054321387], [-72.80969134369941, 43.86769812302911], [-72.80986013244339, 43.867622164440895], [-72.81005599185671, 43.86724360861295], [-72.81019447244724, 43.866578007848624], [-72.81040129618904, 43.865990620443405], [-72.81029294342112, 43.865488688437935], [-72.81008392887304, 43.86519495401438], [-72.80993403257078, 43.865083847901026], [-72.80963731837576, 43.86500445201297], [-72.8089369585641, 43.86495503417475], [-72.80845960268441, 43.86480792168982], [-72.80734042826974, 43.864667926369066], [-72.8062206771386, 43.86464292565432], [-72.80625837604697, 43.864720304019556], [-72.80674157113611, 43.86502141385366], [-72.80727740867329, 43.86541152044106]]]]}}, {"type": "Feature", "properties": {"OBJECT_ID": 1675, "County": "Windsor", "RPC": "TRORC", "Municipal_Name": "Rochester ", "GEO_ID": "5002760100", "District_Name": "Agricultural-Residential District", "Abbreviated_District_Name": "Ag-Res", "District_Type": "Mixed with Residential", "Bylaw_Date": "2024-06-12T00:00:00", "Elderly_Housing_District": "No", "District_Mapped": "Yes", "Overlay_District": "No", "Base_Density": null, "GIS_ID": null, "Last_Update": null, "Shape_Length": 30099.054397005268, "Shape_Area": 5026443.755602786, "F1F_Allowance": "Permitted", "F1F_Front_Setback": 30.0, "F1F_Side_Setback": 25.0, "F1F_Rear_Setback": 25.0, "F1F_Frontage": 150.0, "F1F_Max_Height": 35.0, "F1F_Max_Stories": null, "F1F_Min_Lot_Size": 2.0, "F1F_Max_Lot_Building_Coverage": null, "F1F_Max_Lot_Impervious_Coverage": null, "F1F_Min_Parking_Spaces": 1.0, "F1F_Elderly_Housing_Only": null, "F1F_Affordable_Housing_Only": null, "F2F_Allowance": "Permitted", "F2F_Front_Setback": 30.0, "F2F_Side_Setback": 25.0, "F2F_Rear_Setback": 25.0, "F2F_Frontage": 150.0, "F2F_Max_Density": null, "F2F_Max_Height": 35.0, "F2F_Max_Stories": null, "F2F_Min_Lot_Size": 2.0, "F2F_Max_Lot_Building_Coverage": null, "F2F_Max_Lot_Impervious_Coverage": null, "F2F_Min_Parking_Spaces_per_1BR": 1.0, "F2F_Min_Parking_Spaces_per_mult_BR": 1.0, "F2F_Elderly_Housing_Only": "No", "F2F_Affordable_Housing_Only": "No", "F3F_Allowance": "Permitted", "F3F_Front_Setback": 30.0, "F3F_Side_Setback": 25.0, "F3F_Rear_Setback": 25.0, "F3F_Frontage": 150.0, "F3F_Max_Density": null, "F3F_Max_Height": 35.0, "F3F_Max_Stories": null, "F3F_Min_Lot_Size": 2.0, "F3F_Max_Lot_Building_Coverage": null, "F3F_Max_Lot_Impervious_Coverage": null, "F3F_Min_Parking_Spaces_per_1BR": 1.0, "F3F_Min_Parking_Spaces_per_mult_BR": 1.0, "F3F_Affordable_Housing_Only": "No", "F3F_Proximity_to_Public_Transit_Required": "No", "F3F_Connection_to_Sewage/Water_Required": "No", "F4F_Allowance": "Permitted", "F4F_Front_Setback": 30.0, "F4F_Side_Setback": 25.0, "F4F_Rear_Setback": 25.0, "F4F_Frontage": 150.0, "F1F_Max_Density": null, "F4F_Max_Density": null, "F4F_Max_Height": 35.0, "F4F_Max_Stories": null, "F4F_Min_Lot_Size": 2.0, "F4F_Max_Lot_Building_Coverage": null, "F4F_Max_Lot_Impervious_Coverage": null, "F4F_Min_Parking_Spaces_per_1BR": 1.0, "F4F_Min_Parking_Spaces_per_mult_BR": 1.0, "F3F_Elderly_Housing_Only": "No", "F4F_Elderly_Housing_Only": "No", "F4F_Affordable_Housing_Only": "No", "F4F_Proximity_to_Public_Transit_Required": "No", "F4F_Connection_to_Sewage/Water_Required": "No", "ADU_Allowance": "Allowed/Conditional", "ADU_Elderly_Housing_Only": "No", "ADU_Max_Size_as_Percent_of_Primary_Strcture": 50.0, "ADU_Max_Size_in_sq_ft": 1200.0, "ADU_Min_Lot_Size": null, "ADU_Max_Bedrooms": null, "ADU_Min_Parking_Spaces": 1.0, "ADU_Owner_Occupancy_Required": "No", "ADU_Renter_Occupancy_Prohibited": "No", "ADU_Employee_or_Family_Occupancy_Required": "No", "ADU_Restricted_to_Primary_Structure": "No", "Affordable_Housing_Allowance": "Not Mentioned", "Affordable_Housing_District": "No", "Affordable_Housing_Elderly_Only": "No", "Affordable_Housing_Min_Lot_Size": null, "Affordable_Housing_Max_Density": null, "Affordable_Housing_Min_Parking_Spaces_per_mult_BR": null, "Affordable_Housing_Max_Units_per_Building": null, "Affordable_Housing_Min_Parking_Spaces_per_1BR": null, "PRD_Allowance": "Public Hearing", "PRD_Max_Density": null, "PRD_Max_Units": null, "PRD_Min_Lot_Size": null, "PRD_Mobile_or_Manufactured_Home_Park": "Yes", "PUD_Allowance": null, "PUD_Required_with_Subdivision": null, "PUD_Requires_Land_Conservation": null, "PUD_Threshold_Number": null, "Notes": "  Mobile Home Parks Are The Only Prds Mentioned In The Bylaws.", "FIPS6": null}, "geometry": {"type": "MultiPolygon", "coordinates": [[[[-72.84927622857828, 43.84425607644472], [-72.84874853647767, 43.84436357403238], [-72.84888714717148, 43.84461656370012], [-72.84881929188207, 43.84497274301733], [-72.84856545686519, 43.84554327510905], [-72.84838734681459, 43.84555046776188], [-72.84814203727603, 43.84576724817014], [-72.84800034379252, 43.84624707255796], [-72.84777008876593, 43.84619601268878], [-72.84745856370847, 43.84555345018723], [-72.84727322174798, 43.84562128034774], [-72.84719481776752, 43.84599511541154], [-72.84613693834659, 43.846796322065764], [-72.84620561062056, 43.847069398818256], [-72.84607899749587, 43.84728138327275], [-72.84564892629892, 43.84741940012791], [-72.84518118641748, 43.847377946449896], [-72.84482107639853, 43.84749587672407], [-72.84436056273275, 43.847393791446606], [-72.84399835911508, 43.84717564443391], [-72.84355901695506, 43.847038177058906], [-72.84306362017134, 43.84694611082194], [-72.84281890095374, 43.84701626578605], [-72.84293631982278, 43.84730464935753], [-72.84275431602606, 43.8474154051775], [-72.84183995849735, 43.84729707590125], [-72.84120863930922, 43.84714149490641], [-72.83970063047272, 43.8470470866689], [-72.83856137603527, 43.847256728404034], [-72.8377579475336, 43.847340793986376], [-72.83749869692939, 43.84753221768009], [-72.83718077683939, 43.84757953102783], [-72.83677506406255, 43.84772515241474], [-72.83659960754301, 43.84792187768134], [-72.83489302222799, 43.847723324309726], [-72.83427556512261, 43.84759299621151], [-72.83338503034314, 43.84762879219203], [-72.83246411645639, 43.84742445887282], [-72.83208479901457, 43.847138001332894], [-72.83189216714696, 43.84726643956106], [-72.83153598091481, 43.84728076981801], [-72.83156891857482, 43.84771043122509], [-72.83177804031493, 43.84779683360536], [-72.8314251121997, 43.84862992277386], [-72.83148383725597, 43.84877410369971], [-72.83147193033258, 43.849084912559405], [-72.83039267293775, 43.849145549904065], [-72.82955885983434, 43.84898940528382], [-72.8290700380841, 43.848983178785055], [-72.82860165392303, 43.84908819566951], [-72.82655588720196, 43.84974788487398], [-72.82486235815522, 43.85049683377635], [-72.82443087718649, 43.85092792965761], [-72.82385686432198, 43.85120953691259], [-72.82348540941759, 43.85149167784451], [-72.82281173030101, 43.852182447376116], [-72.82250743976009, 43.853030770787555], [-72.82254763347419, 43.853399804820825], [-72.82272766111292, 43.85372875289718], [-72.82260168053936, 43.853794148596684], [-72.82154273372521, 43.85396594824554], [-72.82097271332016, 43.854143947891515], [-72.82040004056546, 43.854132443922], [-72.82001019563229, 43.85386362244675], [-72.81997661969106, 43.8535805179844], [-72.82063577579886, 43.85301102424094], [-72.82065430202658, 43.852786159715734], [-72.82027034569143, 43.85274983318804], [-72.81988244114066, 43.85281709999754], [-72.81871723376473, 43.85331204610073], [-72.8182243974902, 43.853409388686835], [-72.81775334485366, 43.85332482333654], [-72.81752901199498, 43.85350622105454], [-72.81732577934575, 43.85384611088891], [-72.81774671213742, 43.85435979170761], [-72.81702173864669, 43.85599676743577], [-72.81691452340337, 43.85656536061137], [-72.81701192118439, 43.85674455409357], [-72.81765029153591, 43.85739353484098], [-72.8183198831119, 43.85683626822853], [-72.81885900771724, 43.85656467158896], [-72.82099873477159, 43.85603928506619], [-72.82151930132365, 43.855992545795786], [-72.82225035706877, 43.85573909141967], [-72.8226640851346, 43.8553863455993], [-72.82309098011284, 43.8552054310172], [-72.82451011090934, 43.854915759942365], [-72.82447256475118, 43.85473624807134], [-72.82459200572205, 43.85458492894717], [-72.82500833071558, 43.85442166819428], [-72.8267666510433, 43.85327358261481], [-72.82704705344881, 43.8530468249199], [-72.82714604583957, 43.85278424933673], [-72.82805185938177, 43.85248064138888], [-72.82825041717254, 43.85258474207302], [-72.8284133704514, 43.852845423998566], [-72.82879662241047, 43.85380406324409], [-72.82912583715361, 43.85359256790457], [-72.82970841048768, 43.85373295722882], [-72.83034109088796, 43.853595497764246], [-72.83103511250201, 43.85379170656368], [-72.8316948693635, 43.85385138007264], [-72.83314431097017, 43.85380173503084], [-72.83369914695415, 43.853891491589074], [-72.83435957603534, 43.85380456542038], [-72.83503976137284, 43.85397547658692], [-72.83681247891575, 43.85425760165495], [-72.83751709510871, 43.85443610794191], [-72.83798360293956, 43.85477074408222], [-72.83830157315434, 43.85472345810402], [-72.83859057534772, 43.85491873471649], [-72.83884067945165, 43.85522759375288], [-72.83954733599414, 43.85574221056514], [-72.8399062490891, 43.855917376072924], [-72.84010088020096, 43.856125053982794], [-72.84018671076302, 43.85646639087539], [-72.84079368558501, 43.856614319348694], [-72.84087166477278, 43.857162879389385], [-72.84127675477956, 43.85716381338645], [-72.84108072073455, 43.85647347719832], [-72.84078443616298, 43.856338872802766], [-72.84028817662232, 43.855617523426595], [-72.8399853562197, 43.855396990168735], [-72.83966130492325, 43.854436001410875], [-72.83970806111155, 43.85411514740963], [-72.83995083137553, 43.85370886675586], [-72.84031036406174, 43.85373749999245], [-72.84052476326374, 43.85342717183969], [-72.84083677449392, 43.85314737335192], [-72.84122469948284, 43.85308003626413], [-72.84149051543365, 43.85297448504731], [-72.84178147834437, 43.8527300421488], [-72.84257052958472, 43.85276719070289], [-72.84376920042365, 43.85255514065173], [-72.84404102152087, 43.85268210755912], [-72.84462359177819, 43.85282240197234], [-72.845136839116, 43.852836179955354], [-72.84588159287685, 43.852607872821025], [-72.84635663655348, 43.85258874456841], [-72.8472722880324, 43.8524138896333], [-72.84772223447521, 43.85253367212848], [-72.84816022631016, 43.85218842840986], [-72.84883900544105, 43.851876579789725], [-72.84932846078358, 43.851736166210614], [-72.84973080332392, 43.85154755058212], [-72.85014312806929, 43.85148777422535], [-72.85051978444055, 43.85125856593181], [-72.85107588728314, 43.851373903588026], [-72.85150337580293, 43.85128452992897], [-72.8520241631921, 43.85128959715267], [-72.8527472612077, 43.85145347455335], [-72.85356499765413, 43.85143670881811], [-72.85510583202787, 43.8515837880021], [-72.85736852209438, 43.85216980372748], [-72.85822091955696, 43.852541273228], [-72.85905840183553, 43.85278576876036], [-72.85948082380818, 43.853170743967176], [-72.8600766911171, 43.85348282105944], [-72.86110362375429, 43.85428604764601], [-72.86152805375637, 43.854691258953785], [-72.86226988055562, 43.85519571628979], [-72.86280579468489, 43.855656736645045], [-72.8640858840441, 43.857018962845096], [-72.86478347273513, 43.85809370140141], [-72.86561498305107, 43.858954328407435], [-72.86555968897754, 43.858987179618715], [-72.86690034566455, 43.860301282934785], [-72.86801871240787, 43.86084868058161], [-72.87017259719906, 43.861727201122896], [-72.87085496840052, 43.862118554680436], [-72.87148303853571, 43.86252975562561], [-72.87178536851901, 43.86304039079787], [-72.87223266817607, 43.86354193869526], [-72.87417710995096, 43.86407016432933], [-72.87438370406412, 43.86471285340907], [-72.87473975403576, 43.86576596515805], [-72.87499176507154, 43.866277458573585], [-72.8751421068426, 43.866835785024335], [-72.87602595209488, 43.86702108557896], [-72.87703412389543, 43.867312929421814], [-72.87789108355513, 43.867838210970724], [-72.87792100395401, 43.867767795248675], [-72.87798919565098, 43.867801729058144], [-72.87910866161418, 43.86848670685104], [-72.88001188628776, 43.869369232270444], [-72.88102565380193, 43.87052683459424], [-72.88214538256256, 43.87123150044677], [-72.88304559776641, 43.871641719559214], [-72.88400167310738, 43.87226817168405], [-72.88494470177407, 43.870867893418364], [-72.88461603476101, 43.8705148008325], [-72.88412441556378, 43.870201617602426], [-72.8832766973665, 43.86949607344472], [-72.88297141743357, 43.86855258185815], [-72.88258788380199, 43.868120942170236], [-72.88190529303023, 43.8677099948141], [-72.88119224293288, 43.86678752341229], [-72.87992035804048, 43.86566355618416], [-72.87999441584385, 43.86558653893713], [-72.8795296000622, 43.86515917859131], [-72.87890907053796, 43.86483955402815], [-72.87791171759224, 43.86442317515954], [-72.87761590132085, 43.864142100894014], [-72.8774005310713, 43.863823273380106], [-72.87703309834535, 43.863079614359684], [-72.87668566871992, 43.86259374085752], [-72.8762289224576, 43.862388156123906], [-72.87504792389012, 43.86159992542376], [-72.87482202546973, 43.861298762921116], [-72.87466775138319, 43.86053781060275], [-72.87430316598743, 43.85998369230032], [-72.87408229390925, 43.8592857874385], [-72.87406622490785, 43.85892441541576], [-72.87433314360177, 43.858525668556105], [-72.874547893378, 43.858068707034654], [-72.87449918314891, 43.8580692509895], [-72.87445138083037, 43.85680008781973], [-72.87411232976976, 43.85690540636521], [-72.87374825403992, 43.85712705825434], [-72.87316692925745, 43.85721550809916], [-72.87267719948386, 43.85746802162366], [-72.87174465083511, 43.85752232460408], [-72.87061972820463, 43.85748953734789], [-72.8701045889604, 43.85738280542053], [-72.86920037378367, 43.856928410174206], [-72.86860764229564, 43.85669709939071], [-72.86783397794167, 43.856175155744886], [-72.86722802577744, 43.855423710902755], [-72.86657483201509, 43.85476261863569], [-72.86596765227942, 43.854286294045465], [-72.86469722106061, 43.853077212812096], [-72.86399113819488, 43.8526081262041], [-72.86278249897201, 43.85155372257648], [-72.8627398116661, 43.85132986635949], [-72.86249691990827, 43.85137212828254], [-72.86171601091141, 43.85049429558529], [-72.8604721295994, 43.84981190743364], [-72.8601276243151, 43.84951552111245], [-72.85961012359684, 43.84882960177781], [-72.85934881346245, 43.84868502126399], [-72.8591963117161, 43.84840670683391], [-72.85904322199556, 43.848274988192685], [-72.85867646323862, 43.84830705556247], [-72.85828920677102, 43.848227895283024], [-72.85767676446102, 43.847700970747326], [-72.85726781276578, 43.84780370858949], [-72.8559324719657, 43.84732323269662], [-72.85502868104025, 43.84718734592602], [-72.85484846254207, 43.846858451691425], [-72.85471253382401, 43.846794979363224], [-72.8543068842797, 43.84694065470186], [-72.85389521325193, 43.84685384719998], [-72.85358182402646, 43.84665102507673], [-72.85325394781398, 43.846569439056005], [-72.85305352186157, 43.84690510078516], [-72.85282929667338, 43.847086555935526], [-72.8522455595683, 43.84723942857978], [-72.85159579475739, 43.847308755663946], [-72.85083846496934, 43.847218657354404], [-72.85072244614004, 43.84741297890671], [-72.85041773593423, 43.84763213982393], [-72.84996655038776, 43.84780553208161], [-72.849460597371, 43.84773113442828], [-72.84916494498786, 43.84744997523285], [-72.84905656587169, 43.846661303834615], [-72.84927622857828, 43.84425607644472]]], [[[-72.78285746796037, 43.80401599297043], [-72.78244061238956, 43.80474934802186], [-72.78199882642727, 43.80552654337677], [-72.7819315965668, 43.805644813352025], [-72.78186563601533, 43.8057608516227], [-72.78117054584317, 43.80730096724498], [-72.7814888837164, 43.80770178822785], [-72.78190716137665, 43.80809534770923], [-72.78232126227111, 43.80831367833573], [-72.78318299051831, 43.80841159357333], [-72.78348280482888, 43.80838966845022], [-72.78378688232858, 43.80854293086333], [-72.78408928622964, 43.8089741860609], [-72.7839801652781, 43.80964021372811], [-72.78333772502249, 43.81068153561949], [-72.78273044327297, 43.81110613897798], [-72.78179728488597, 43.81151064923921], [-72.78119592726375, 43.81183243119135], [-72.78081037353378, 43.812109196633216], [-72.78064494045755, 43.81251611614186], [-72.7802392372517, 43.81264809718752], [-72.77963948737582, 43.812691894801], [-72.77971760134413, 43.81281779556955], [-72.78097923615829, 43.81288651862091], [-72.7814991855272, 43.81299479078088], [-72.78189733117826, 43.813243552309864], [-72.78237196097841, 43.81389618119959], [-72.7826726913671, 43.814605408735495], [-72.78333126828274, 43.81527387200339], [-72.78410416961795, 43.81618252218162], [-72.78439065207267, 43.81664418871679], [-72.78487706864712, 43.81709123269238], [-72.78538531825335, 43.81740505561952], [-72.7858179941845, 43.81804613229656], [-72.78754858096194, 43.81887018134863], [-72.7878031933823, 43.81939265024161], [-72.78788395808577, 43.819971688258995], [-72.78777905777831, 43.82081290796236], [-72.78760774722892, 43.82132261683816], [-72.78759439170179, 43.821806182080444], [-72.78625111407449, 43.822167580298036], [-72.78510613594996, 43.82279233515249], [-72.78422068283682, 43.82310561796294], [-72.78366541670579, 43.82361413374235], [-72.78422325282827, 43.82355874565147], [-72.78432909449268, 43.82344866540636], [-72.78506082073794, 43.82333670881863], [-72.78715014992937, 43.82311089481876], [-72.78784243278827, 43.82344052584315], [-72.78804658035482, 43.82360107373738], [-72.78814495767817, 43.82387175715452], [-72.78831720859931, 43.82409313297581], [-72.78948009744488, 43.82490017840255], [-72.78995486664809, 43.82555277587481], [-72.79022548846609, 43.82604485113799], [-72.79043069590445, 43.82693647838265], [-72.79040134769646, 43.82745048060001], [-72.79061401125892, 43.82796138887136], [-72.79064529756985, 43.82890964136354], [-72.79092014421488, 43.82957686439906], [-72.79135828542442, 43.829920937947655], [-72.79192806568996, 43.831738417157425], [-72.79205523561545, 43.83246487927218], [-72.79204765011126, 43.832770087312305], [-72.79215222089846, 43.83292950584629], [-72.79225546633788, 43.83334181624382], [-72.79228717724651, 43.833623133659955], [-72.7922205258006, 43.833692732981724], [-72.79218906765325, 43.8339542263261], [-72.79239344415248, 43.834615370029724], [-72.79231077133981, 43.8348789357912], [-72.79255358350046, 43.835099794870736], [-72.79272062790537, 43.83540546919596], [-72.79279444976777, 43.8356999569174], [-72.79303031945895, 43.83609955808441], [-72.79309147061036, 43.836498670902984], [-72.79332320144336, 43.83711409743381], [-72.79336553273212, 43.83767012325957], [-72.79329263219648, 43.83779201040455], [-72.79343086262385, 43.837853424985006], [-72.79352287657876, 43.838117470767784], [-72.79340307603388, 43.83856841543767], [-72.79355887150756, 43.838725786594445], [-72.79347969826736, 43.83889998184513], [-72.79349661794804, 43.8391224059845], [-72.79376484023445, 43.83967685656539], [-72.79367652315926, 43.83986630243905], [-72.79391370064693, 43.84001301525956], [-72.79382190506831, 43.840291820636615], [-72.79428152496638, 43.840526337164874], [-72.79456645533283, 43.84076036078436], [-72.79463747821404, 43.84101780918312], [-72.79515478203983, 43.84174079583541], [-72.79565010735861, 43.8432529049486], [-72.7954162073681, 43.844228953232665], [-72.79591422212783, 43.84402318844917], [-72.79608895697108, 43.844023649417466], [-72.79634434373654, 43.84413986040267], [-72.7965419057468, 43.84497973912593], [-72.79649487575429, 43.84554247969945], [-72.80390183012503, 43.84552019589727], [-72.80403827263152, 43.84519357042162], [-72.80396633849702, 43.844519730865684], [-72.80403828816634, 43.84398142912662], [-72.80390662901718, 43.84319843661049], [-72.80404866142153, 43.84250118357075], [-72.80392640902862, 43.842245813352676], [-72.80398298367305, 43.84177505589528], [-72.8041077398551, 43.84152465924513], [-72.80404803462068, 43.84141548211392], [-72.80369580309937, 43.841377511419374], [-72.8034877786208, 43.84080581638169], [-72.80349254833546, 43.84046353173183], [-72.80287045405537, 43.83958116943071], [-72.80247802748578, 43.83915065283531], [-72.80178812382363, 43.83859073513441], [-72.80182519438218, 43.83840334081423], [-72.80198225428326, 43.838307855616655], [-72.80185944921776, 43.83817888812802], [-72.80158861068185, 43.83813022293655], [-72.8011277360016, 43.83814865616062], [-72.80073682869788, 43.83800808091761], [-72.80055815718435, 43.83701129021628], [-72.79994652575542, 43.83586078286482], [-72.79969121490598, 43.834532451575356], [-72.79945313415412, 43.833969352570456], [-72.79911635538174, 43.83386381094208], [-72.79897529247084, 43.83376533398998], [-72.79849003918766, 43.832654402866936], [-72.79813003262055, 43.83237874758266], [-72.79782908679324, 43.83233870512855], [-72.79767890696714, 43.83225542513621], [-72.797581278758, 43.831917281597676], [-72.79719935824659, 43.83121863203592], [-72.79730589006982, 43.830998715006544], [-72.79762284352468, 43.83084479162679], [-72.79771526289154, 43.83043952957246], [-72.79808412185042, 43.830157119915924], [-72.79791007530666, 43.83003020143907], [-72.79741060692835, 43.82994601293207], [-72.79776121526639, 43.82969407706258], [-72.79786630562344, 43.82944051215447], [-72.79692532178369, 43.829167083914044], [-72.79690312963717, 43.82822658961145], [-72.79653204967545, 43.827353694634446], [-72.79541088059247, 43.82563480331924], [-72.79453736623019, 43.82496822964463], [-72.79356230735918, 43.824403706694255], [-72.79234562123798, 43.82420080395656], [-72.79109097157497, 43.8241400129227], [-72.79050759664476, 43.82330274113725], [-72.79129210190986, 43.82260320501957], [-72.79372599007979, 43.82206234543868], [-72.79429268683012, 43.82124544059973], [-72.79423955267445, 43.820322042302955], [-72.79390124185885, 43.81963221809704], [-72.79380748826911, 43.8194410965777], [-72.79313621168482, 43.81865004888587], [-72.79265200991888, 43.817755730572635], [-72.79211903753617, 43.81651044799379], [-72.79109820994329, 43.81595852994283], [-72.7897880362496, 43.81597266109007], [-72.78853304424172, 43.81606233136843], [-72.78730721910263, 43.81575508082268], [-72.78621600333265, 43.815235788778125], [-72.7844032084616, 43.81384073436037], [-72.78446785518456, 43.81201058723166], [-72.7843516385832, 43.81109282292593], [-72.78461813970203, 43.8102065932855], [-72.78549529513454, 43.809568071796015], [-72.786764565229, 43.809424575821545], [-72.78784875643167, 43.80896813364657], [-72.788554676604, 43.80821562026776], [-72.78869832705348, 43.80730809401689], [-72.78830272333889, 43.80645215200996], [-72.7875111310777, 43.805715292370635], [-72.78642776921536, 43.805267174963696], [-72.78395515041049, 43.804611805743], [-72.78285746796037, 43.80401599297043]]]]}}, {"type": "Feature", "properties": {"OBJECT_ID": 1677, "County": "Windsor", "RPC": "TRORC", "Municipal_Name": "Rochester ", "GEO_ID": "5002760100", "District_Name": "Business-Residential District", "Abbreviated_District_Name": "Bus-Res", "District_Type": "Mixed with Residential", "Bylaw_Date": "2024-06-12T00:00:00", "Elderly_Housing_District": "No", "District_Mapped": "Yes", "Overlay_District": "No", "Base_Density": null, "GIS_ID": null, "Last_Update": null, "Shape_Length": 4289.5780734388645, "Shape_Area": 784652.4375870657, "F1F_Allowance": "Permitted", "F1F_Front_Setback": 20.0, "F1F_Side_Setback": 10.0, "F1F_Rear_Setback": 10.0, "F1F_Frontage": 90.0, "F1F_Max_Height": 35.0, "F1F_Max_Stories": null, "F1F_Min_Lot_Size": 0.2, "F1F_Max_Lot_Building_Coverage": null, "F1F_Max_Lot_Impervious_Coverage": null, "F1F_Min_Parking_Spaces": null, "F1F_Elderly_Housing_Only": null, "F1F_Affordable_Housing_Only": null, "F2F_Allowance": "Permitted", "F2F_Front_Setback": 20.0, "F2F_Side_Setback": 10.0, "F2F_Rear_Setback": 10.0, "F2F_Frontage": 90.0, "F2F_Max_Density": null, "F2F_Max_Height": 35.0, "F2F_Max_Stories": null, "F2F_Min_Lot_Size": 0.2, "F2F_Max_Lot_Building_Coverage": null, "F2F_Max_Lot_Impervious_Coverage": null, "F2F_Min_Parking_Spaces_per_1BR": null, "F2F_Min_Parking_Spaces_per_mult_BR": null, "F2F_Elderly_Housing_Only": "No", "F2F_Affordable_Housing_Only": "No", "F3F_Allowance": "Permitted", "F3F_Front_Setback": 20.0, "F3F_Side_Setback": 10.0, "F3F_Rear_Setback": 10.0, "F3F_Frontage": 90.0, "F3F_Max_Density": null, "F3F_Max_Height": 35.0, "F3F_Max_Stories": null, "F3F_Min_Lot_Size": 0.2, "F3F_Max_Lot_Building_Coverage": null, "F3F_Max_Lot_Impervious_Coverage": null, "F3F_Min_Parking_Spaces_per_1BR": null, "F3F_Min_Parking_Spaces_per_mult_BR": null, "F3F_Affordable_Housing_Only": "No", "F3F_Proximity_to_Public_Transit_Required": "No", "F3F_Connection_to_Sewage/Water_Required": "No", "F4F_Allowance": "Permitted", "F4F_Front_Setback": 20.0, "F4F_Side_Setback": 10.0, "F4F_Rear_Setback": 10.0, "F4F_Frontage": 90.0, "F1F_Max_Density": null, "F4F_Max_Density": null, "F4F_Max_Height": 35.0, "F4F_Max_Stories": null, "F4F_Min_Lot_Size": 0.2, "F4F_Max_Lot_Building_Coverage": null, "F4F_Max_Lot_Impervious_Coverage": null, "F4F_Min_Parking_Spaces_per_1BR": null, "F4F_Min_Parking_Spaces_per_mult_BR": null, "F3F_Elderly_Housing_Only": "No", "F4F_Elderly_Housing_Only": "No", "F4F_Affordable_Housing_Only": "No", "F4F_Proximity_to_Public_Transit_Required": "No", "F4F_Connection_to_Sewage/Water_Required": "No", "ADU_Allowance": "Allowed/Conditional", "ADU_Elderly_Housing_Only": "No", "ADU_Max_Size_as_Percent_of_Primary_Strcture": 50.0, "ADU_Max_Size_in_sq_ft": 1200.0, "ADU_Min_Lot_Size": null, "ADU_Max_Bedrooms": null, "ADU_Min_Parking_Spaces": null, "ADU_Owner_Occupancy_Required": "No", "ADU_Renter_Occupancy_Prohibited": "No", "ADU_Employee_or_Family_Occupancy_Required": "No", "ADU_Restricted_to_Primary_Structure": "No", "Affordable_Housing_Allowance": "Not Mentioned", "Affordable_Housing_District": "No", "Affordable_Housing_Elderly_Only": "No", "Affordable_Housing_Min_Lot_Size": null, "Affordable_Housing_Max_Density": null, "Affordable_Housing_Min_Parking_Spaces_per_mult_BR": null, "Affordable_Housing_Max_Units_per_Building": null, "Affordable_Housing_Min_Parking_Spaces_per_1BR": null, "PRD_Allowance": "Public Hearing", "PRD_Max_Density": null, "PRD_Max_Units": null, "PRD_Min_Lot_Size": null, "PRD_Mobile_or_Manufactured_Home_Park": "Yes", "PUD_Allowance": null, "PUD_Required_with_Subdivision": null, "PUD_Requires_Land_Conservation": null, "PUD_Threshold_Number": null, "Notes": "  Mobile Home Parks Are The Only Prds Mentioned In The Bylaws.", "FIPS6": null}, "geometry": {"type": "MultiPolygon", "coordinates": [[[[-72.81379895144023, 43.874767937277355], [-72.81385538325992, 43.87436239599491], [-72.81362371272412, 43.873895697559554], [-72.81320363231984, 43.87334541426756], [-72.81185691515088, 43.870928352943075], [-72.81162692802565, 43.87011727558332], [-72.81078000655619, 43.86874352920279], [-72.81028184236214, 43.86832595497563], [-72.81023286938233, 43.8679782220389], [-72.80909341411898, 43.86775301721023], [-72.80857541381425, 43.86751829336683], [-72.80745875778055, 43.86722614281316], [-72.80707676527057, 43.86699102815151], [-72.80639228090062, 43.86610735825626], [-72.80592015235939, 43.86462534624181], [-72.80517562319226, 43.86473228112058], [-72.80423781109015, 43.86547523430502], [-72.80452665711863, 43.8659187599143], [-72.80469327329739, 43.86648105917279], [-72.80465489303052, 43.86698466574142], [-72.80473933961193, 43.867487966385866], [-72.80498830559881, 43.86813891122465], [-72.80511492261175, 43.86887902545386], [-72.80431025767058, 43.87166532755984], [-72.80407618774402, 43.873946585123974], [-72.80362988884677, 43.874747479348706], [-72.80326397151255, 43.875251975205366], [-72.80220341464724, 43.87605447411648], [-72.80187854346936, 43.876588452959304], [-72.80208417183755, 43.87676561570003], [-72.80200703164883, 43.877131711001084], [-72.80162454267133, 43.87746412116525], [-72.80133912791534, 43.87762909219875], [-72.80230333310692, 43.878970023720946], [-72.80251653604464, 43.87890070533323], [-72.80280331091306, 43.87870964727967], [-72.80360188776561, 43.878495915143084], [-72.80389587988776, 43.878517513251786], [-72.80477896159266, 43.87827529671558], [-72.80490119108805, 43.878311742772986], [-72.80620632474817, 43.87759962670647], [-72.80693939874087, 43.87732217342622], [-72.80745848343514, 43.87775368472167], [-72.80773072008277, 43.87779230718925], [-72.80824656966551, 43.87759414164984], [-72.809060327926, 43.877139356733736], [-72.81085286408872, 43.87658352144387], [-72.81133933864123, 43.87597218903978], [-72.81337375224753, 43.87486467955718], [-72.81379895144023, 43.874767937277355]]]]}}, {"type": "Feature", "properties": {"OBJECT_ID": 1676, "County": "Windsor", "RPC": "TRORC", "Municipal_Name": "Rochester ", "GEO_ID": "5002760100", "District_Name": "Aquifer Recharge District", "Abbreviated_District_Name": "Aquifer Recharge", "District_Type": "Nonresidential", "Bylaw_Date": "2024-06-12T00:00:00", "Elderly_Housing_District": "No", "District_Mapped": "Yes", "Overlay_District": "No", "Base_Density": null, "GIS_ID": null, "Last_Update": null, "Shape_Length": 1079.397405141231, "Shape_Area": 59779.24074344187, "F1F_Allowance": "Prohibited", "F1F_Front_Setback": null, "F1F_Side_Setback": null, "F1F_Rear_Setback": null, "F1F_Frontage": null, "F1F_Max_Height": null, "F1F_Max_Stories": null, "F1F_Min_Lot_Size": null, "F1F_Max_Lot_Building_Coverage": null, "F1F_Max_Lot_Impervious_Coverage": null, "F1F_Min_Parking_Spaces": null, "F1F_Elderly_Housing_Only": null, "F1F_Affordable_Housing_Only": null, "F2F_Allowance": "Prohibited", "F2F_Front_Setback": null, "F2F_Side_Setback": null, "F2F_Rear_Setback": null, "F2F_Frontage": null, "F2F_Max_Density": null, "F2F_Max_Height": null, "F2F_Max_Stories": null, "F2F_Min_Lot_Size": null, "F2F_Max_Lot_Building_Coverage": null, "F2F_Max_Lot_Impervious_Coverage": null, "F2F_Min_Parking_Spaces_per_1BR": null, "F2F_Min_Parking_Spaces_per_mult_BR": null, "F2F_Elderly_Housing_Only": "No", "F2F_Affordable_Housing_Only": "No", "F3F_Allowance": "Prohibited", "F3F_Front_Setback": null, "F3F_Side_Setback": null, "F3F_Rear_Setback": null, "F3F_Frontage": null, "F3F_Max_Density": null, "F3F_Max_Height": null, "F3F_Max_Stories": null, "F3F_Min_Lot_Size": null, "F3F_Max_Lot_Building_Coverage": null, "F3F_Max_Lot_Impervious_Coverage": null, "F3F_Min_Parking_Spaces_per_1BR": null, "F3F_Min_Parking_Spaces_per_mult_BR": null, "F3F_Affordable_Housing_Only": "No", "F3F_Proximity_to_Public_Transit_Required": "No", "F3F_Connection_to_Sewage/Water_Required": "No", "F4F_Allowance": "Prohibited", "F4F_Front_Setback": null, "F4F_Side_Setback": null, "F4F_Rear_Setback": null, "F4F_Frontage": null, "F1F_Max_Density": null, "F4F_Max_Density": null, "F4F_Max_Height": null, "F4F_Max_Stories": null, "F4F_Min_Lot_Size": null, "F4F_Max_Lot_Building_Coverage": null, "F4F_Max_Lot_Impervious_Coverage": null, "F4F_Min_Parking_Spaces_per_1BR": null, "F4F_Min_Parking_Spaces_per_mult_BR": null, "F3F_Elderly_Housing_Only": "No", "F4F_Elderly_Housing_Only": "No", "F4F_Affordable_Housing_Only": "No", "F4F_Proximity_to_Public_Transit_Required": "No", "F4F_Connection_to_Sewage/Water_Required": "No", "ADU_Allowance": "Prohibited", "ADU_Elderly_Housing_Only": "No", "ADU_Max_Size_as_Percent_of_Primary_Strcture": null, "ADU_Max_Size_in_sq_ft": null, "ADU_Min_Lot_Size": null, "ADU_Max_Bedrooms": null, "ADU_Min_Parking_Spaces": null, "ADU_Owner_Occupancy_Required": "No", "ADU_Renter_Occupancy_Prohibited": "No", "ADU_Employee_or_Family_Occupancy_Required": "No", "ADU_Restricted_to_Primary_Structure": "No", "Affordable_Housing_Allowance": "Prohibited", "Affordable_Housing_District": "No", "Affordable_Housing_Elderly_Only": "No", "Affordable_Housing_Min_Lot_Size": null, "Affordable_Housing_Max_Density": null, "Affordable_Housing_Min_Parking_Spaces_per_mult_BR": null, "Affordable_Housing_Max_Units_per_Building": null, "Affordable_Housing_Min_Parking_Spaces_per_1BR": null, "PRD_Allowance": "Prohibited", "PRD_Max_Density": null, "PRD_Max_Units": null, "PRD_Min_Lot_Size": null, "PRD_Mobile_or_Manufactured_Home_Park": "No", "PUD_Allowance": null, "PUD_Required_with_Subdivision": null, "PUD_Requires_Land_Conservation": null, "PUD_Threshold_Number": null, "Notes": "None", "FIPS6": null}, "geometry": {"type": "MultiPolygon", "coordinates": [[[[-72.80674157113611, 43.86502141385366], [-72.80727740867329, 43.86541152044106], [-72.80758500261425, 43.86573829542522], [-72.8077632030179, 43.86606534970011], [-72.80794448485237, 43.86669938858492], [-72.80816892471714, 43.86701567904535], [-72.80953958698103, 43.86768054321387], [-72.80969134369941, 43.86769812302911], [-72.80986013244339, 43.867622164440895], [-72.81005599185671, 43.86724360861295], [-72.81019447244724, 43.866578007848624], [-72.81040129618904, 43.865990620443405], [-72.81029294342112, 43.865488688437935], [-72.81008392887304, 43.86519495401438], [-72.80993403257078, 43.865083847901026], [-72.80963731837576, 43.86500445201297], [-72.8089369585641, 43.86495503417475], [-72.80845960268441, 43.86480792168982], [-72.80734042826974, 43.864667926369066], [-72.8062206771386, 43.86464292565432], [-72.80625837604697, 43.864720304019556], [-72.80674157113611, 43.86502141385366]]]]}}]}