{"type": "FeatureCollection", "name": "Windham_Windham", "features": [{"type": "Feature", "properties": {"OBJECT_ID": 1264, "County": "Windham", "RPC": "WRC", "Municipal_Name": "Windham ", "GEO_ID": "5002584850", "District_Name": "Hamlet", "Abbreviated_District_Name": "H", "District_Type": "Mixed with Residential", "Bylaw_Date": null, "Elderly_Housing_District": "No", "District_Mapped": "Yes", "Overlay_District": "No", "Base_Density": null, "GIS_ID": null, "Last_Update": null, "Shape_Length": 5157.538630763976, "Shape_Area": 420433.4468891194, "F1F_Allowance": "Permitted", "F1F_Front_Setback": null, "F1F_Side_Setback": 15.0, "F1F_Rear_Setback": 15.0, "F1F_Frontage": null, "F1F_Max_Height": 35.0, "F1F_Max_Stories": null, "F1F_Min_Lot_Size": 1.0, "F1F_Max_Lot_Building_Coverage": null, "F1F_Max_Lot_Impervious_Coverage": null, "F1F_Min_Parking_Spaces": null, "F1F_Elderly_Housing_Only": null, "F1F_Affordable_Housing_Only": null, "F2F_Allowance": "Public Hearing", "F2F_Front_Setback": null, "F2F_Side_Setback": 15.0, "F2F_Rear_Setback": 15.0, "F2F_Frontage": null, "F2F_Max_Density": null, "F2F_Max_Height": 35.0, "F2F_Max_Stories": null, "F2F_Min_Lot_Size": 1.0, "F2F_Max_Lot_Building_Coverage": null, "F2F_Max_Lot_Impervious_Coverage": null, "F2F_Min_Parking_Spaces_per_1BR": null, "F2F_Min_Parking_Spaces_per_mult_BR": null, "F2F_Elderly_Housing_Only": "No", "F2F_Affordable_Housing_Only": "No", "F3F_Allowance": "Public Hearing", "F3F_Front_Setback": null, "F3F_Side_Setback": 15.0, "F3F_Rear_Setback": 15.0, "F3F_Frontage": null, "F3F_Max_Density": null, "F3F_Max_Height": 35.0, "F3F_Max_Stories": null, "F3F_Min_Lot_Size": 1.0, "F3F_Max_Lot_Building_Coverage": null, "F3F_Max_Lot_Impervious_Coverage": null, "F3F_Min_Parking_Spaces_per_1BR": null, "F3F_Min_Parking_Spaces_per_mult_BR": null, "F3F_Affordable_Housing_Only": "No", "F3F_Proximity_to_Public_Transit_Required": null, "F3F_Connection_to_Sewage/Water_Required": null, "F4F_Allowance": "Public Hearing", "F4F_Front_Setback": null, "F4F_Side_Setback": 15.0, "F4F_Rear_Setback": 15.0, "F4F_Frontage": null, "F1F_Max_Density": null, "F4F_Max_Density": null, "F4F_Max_Height": 35.0, "F4F_Max_Stories": null, "F4F_Min_Lot_Size": 1.0, "F4F_Max_Lot_Building_Coverage": null, "F4F_Max_Lot_Impervious_Coverage": null, "F4F_Min_Parking_Spaces_per_1BR": null, "F4F_Min_Parking_Spaces_per_mult_BR": null, "F3F_Elderly_Housing_Only": "No", "F4F_Elderly_Housing_Only": "No", "F4F_Affordable_Housing_Only": "No", "F4F_Proximity_to_Public_Transit_Required": null, "F4F_Connection_to_Sewage/Water_Required": null, "ADU_Allowance": "Allowed/Conditional", "ADU_Elderly_Housing_Only": null, "ADU_Max_Size_as_Percent_of_Primary_Strcture": 30.0, "ADU_Max_Size_in_sq_ft": null, "ADU_Min_Lot_Size": null, "ADU_Max_Bedrooms": 1.0, "ADU_Min_Parking_Spaces": null, "ADU_Owner_Occupancy_Required": "Yes", "ADU_Renter_Occupancy_Prohibited": null, "ADU_Employee_or_Family_Occupancy_Required": null, "ADU_Restricted_to_Primary_Structure": null, "Affordable_Housing_Allowance": "Not Mentioned", "Affordable_Housing_District": "No", "Affordable_Housing_Elderly_Only": null, "Affordable_Housing_Min_Lot_Size": null, "Affordable_Housing_Max_Density": null, "Affordable_Housing_Min_Parking_Spaces_per_mult_BR": null, "Affordable_Housing_Max_Units_per_Building": null, "Affordable_Housing_Min_Parking_Spaces_per_1BR": null, "PRD_Allowance": "Not Mentioned", "PRD_Max_Density": null, "PRD_Max_Units": null, "PRD_Min_Lot_Size": null, "PRD_Mobile_or_Manufactured_Home_Park": null, "PUD_Allowance": "Yes", "PUD_Required_with_Subdivision": null, "PUD_Requires_Land_Conservation": null, "PUD_Threshold_Number": null, "Notes": "  Density: One Principal Structure Per Lot", "FIPS6": null}, "geometry": {"type": "MultiPolygon", "coordinates": [[[[-72.72569771613534, 43.17568608385567], [-72.72551474050177, 43.17828734068723], [-72.72537729418701, 43.17895834666892], [-72.72475522155565, 43.18028140542721], [-72.72442905274077, 43.1807465395553], [-72.72377862013482, 43.18136419277573], [-72.72496730727799, 43.182034584843706], [-72.72570163027677, 43.18133712842331], [-72.7259325755633, 43.18100776511684], [-72.72676530496528, 43.181360415726296], [-72.72693139227054, 43.18157410297013], [-72.7270450765623, 43.18196366124863], [-72.72851260108831, 43.181734861731286], [-72.72829345950467, 43.181105197268494], [-72.72783445094178, 43.18057040019056], [-72.7281818720854, 43.18055837490357], [-72.72871786733924, 43.18039373529784], [-72.72916242885792, 43.18034825037469], [-72.7290144536893, 43.179528914797324], [-72.72973437300527, 43.17921740679721], [-72.7291559451391, 43.17820408144338], [-72.72770523783069, 43.17880030081582], [-72.7272983204085, 43.179143505441864], [-72.7268857339048, 43.179001284749916], [-72.7270095686147, 43.17839696837175], [-72.72719614205242, 43.175742478728566], [-72.72569771613534, 43.17568608385567]]], [[[-72.71124739510238, 43.12644041513053], [-72.71097691802166, 43.127411614181916], [-72.71097376718058, 43.127615506375214], [-72.70870586182663, 43.12770305632232], [-72.70733740108392, 43.12824776759649], [-72.70642564948707, 43.12824715756726], [-72.70632831728105, 43.129343496304834], [-72.70712416883522, 43.12936470469288], [-72.7077108747923, 43.12932072511519], [-72.70862221451658, 43.128970893211736], [-72.70863242687022, 43.13310613262163], [-72.70987093990226, 43.133168711583664], [-72.71068934882439, 43.13314363326846], [-72.71101877749899, 43.13299710221013], [-72.71127406962958, 43.1327403016127], [-72.71257536001639, 43.132300709935315], [-72.71322158972586, 43.132136674018774], [-72.71362316411354, 43.13286076160569], [-72.7150403220138, 43.132501723876274], [-72.71477296714498, 43.13193939025186], [-72.71342177654064, 43.13006226901613], [-72.71261224621088, 43.12853562607271], [-72.71246611639813, 43.12803398420922], [-72.71247434058206, 43.12752727034398], [-72.7126783833647, 43.12678271943452], [-72.71124739510238, 43.12644041513053]]]]}}, {"type": "Feature", "properties": {"OBJECT_ID": 1266, "County": "Windham", "RPC": "WRC", "Municipal_Name": "Windham ", "GEO_ID": "5002584850", "District_Name": "Rural Residential", "Abbreviated_District_Name": "Rr", "District_Type": "Mixed with Residential", "Bylaw_Date": null, "Elderly_Housing_District": "No", "District_Mapped": "Yes", "Overlay_District": "No", "Base_Density": null, "GIS_ID": null, "Last_Update": null, "Shape_Length": 61239.571340755596, "Shape_Area": 33646759.3217131, "F1F_Allowance": "Permitted", "F1F_Front_Setback": null, "F1F_Side_Setback": 25.0, "F1F_Rear_Setback": 25.0, "F1F_Frontage": null, "F1F_Max_Height": 35.0, "F1F_Max_Stories": null, "F1F_Min_Lot_Size": 1.0, "F1F_Max_Lot_Building_Coverage": null, "F1F_Max_Lot_Impervious_Coverage": null, "F1F_Min_Parking_Spaces": null, "F1F_Elderly_Housing_Only": null, "F1F_Affordable_Housing_Only": null, "F2F_Allowance": "Public Hearing", "F2F_Front_Setback": null, "F2F_Side_Setback": 25.0, "F2F_Rear_Setback": 25.0, "F2F_Frontage": null, "F2F_Max_Density": null, "F2F_Max_Height": 35.0, "F2F_Max_Stories": null, "F2F_Min_Lot_Size": 1.0, "F2F_Max_Lot_Building_Coverage": null, "F2F_Max_Lot_Impervious_Coverage": null, "F2F_Min_Parking_Spaces_per_1BR": null, "F2F_Min_Parking_Spaces_per_mult_BR": null, "F2F_Elderly_Housing_Only": "No", "F2F_Affordable_Housing_Only": "No", "F3F_Allowance": "Public Hearing", "F3F_Front_Setback": null, "F3F_Side_Setback": 25.0, "F3F_Rear_Setback": 25.0, "F3F_Frontage": null, "F3F_Max_Density": null, "F3F_Max_Height": 35.0, "F3F_Max_Stories": null, "F3F_Min_Lot_Size": 1.0, "F3F_Max_Lot_Building_Coverage": null, "F3F_Max_Lot_Impervious_Coverage": null, "F3F_Min_Parking_Spaces_per_1BR": null, "F3F_Min_Parking_Spaces_per_mult_BR": null, "F3F_Affordable_Housing_Only": "No", "F3F_Proximity_to_Public_Transit_Required": null, "F3F_Connection_to_Sewage/Water_Required": null, "F4F_Allowance": "Public Hearing", "F4F_Front_Setback": null, "F4F_Side_Setback": 25.0, "F4F_Rear_Setback": 25.0, "F4F_Frontage": null, "F1F_Max_Density": null, "F4F_Max_Density": 1.0, "F4F_Max_Height": 35.0, "F4F_Max_Stories": null, "F4F_Min_Lot_Size": 1.0, "F4F_Max_Lot_Building_Coverage": null, "F4F_Max_Lot_Impervious_Coverage": null, "F4F_Min_Parking_Spaces_per_1BR": null, "F4F_Min_Parking_Spaces_per_mult_BR": null, "F3F_Elderly_Housing_Only": "No", "F4F_Elderly_Housing_Only": "No", "F4F_Affordable_Housing_Only": "No", "F4F_Proximity_to_Public_Transit_Required": null, "F4F_Connection_to_Sewage/Water_Required": null, "ADU_Allowance": "Allowed/Conditional", "ADU_Elderly_Housing_Only": null, "ADU_Max_Size_as_Percent_of_Primary_Strcture": 30.0, "ADU_Max_Size_in_sq_ft": null, "ADU_Min_Lot_Size": null, "ADU_Max_Bedrooms": 1.0, "ADU_Min_Parking_Spaces": null, "ADU_Owner_Occupancy_Required": "Yes", "ADU_Renter_Occupancy_Prohibited": null, "ADU_Employee_or_Family_Occupancy_Required": null, "ADU_Restricted_to_Primary_Structure": null, "Affordable_Housing_Allowance": null, "Affordable_Housing_District": "No", "Affordable_Housing_Elderly_Only": null, "Affordable_Housing_Min_Lot_Size": null, "Affordable_Housing_Max_Density": null, "Affordable_Housing_Min_Parking_Spaces_per_mult_BR": null, "Affordable_Housing_Max_Units_per_Building": null, "Affordable_Housing_Min_Parking_Spaces_per_1BR": null, "PRD_Allowance": null, "PRD_Max_Density": null, "PRD_Max_Units": null, "PRD_Min_Lot_Size": null, "PRD_Mobile_or_Manufactured_Home_Park": null, "PUD_Allowance": "Yes", "PUD_Required_with_Subdivision": null, "PUD_Requires_Land_Conservation": null, "PUD_Threshold_Number": null, "Notes": "  Density: 1 Dwelling Per Lot", "FIPS6": null}, "geometry": {"type": "MultiPolygon", "coordinates": [[[[-72.68544184955006, 43.2225889833361], [-72.70141356956562, 43.22633754563261], [-72.71581256812298, 43.229819693606295], [-72.73021319928212, 43.23330002341075], [-72.7294268085587, 43.231765235645376], [-72.72848177716648, 43.231185904810616], [-72.72863045794004, 43.23068035499289], [-72.72875801856264, 43.230246376244665], [-72.72884216477944, 43.22878657597296], [-72.7290196868479, 43.22827592333149], [-72.72915876142633, 43.22787570873794], [-72.72876435456278, 43.227015004623325], [-72.72864524135444, 43.22694113292259], [-72.7282002797841, 43.22666526462516], [-72.72805136422005, 43.22657293756455], [-72.7278080103558, 43.2264220630458], [-72.72823126326024, 43.22604242491085], [-72.72864702685314, 43.22566937841527], [-72.72979618245783, 43.225194875949164], [-72.73198295799274, 43.22406726484778], [-72.73241273915649, 43.22397727003671], [-72.73321054237503, 43.223810208750805], [-72.73428700155958, 43.22337008764854], [-72.73485398153355, 43.222546456765315], [-72.73488610556154, 43.22161492642091], [-72.73500933324495, 43.221147904575425], [-72.73519996107194, 43.220362672066166], [-72.73521522698442, 43.22029221866532], [-72.73537850419494, 43.21961150391894], [-72.73541919385318, 43.2194797540347], [-72.73552554217267, 43.21913539939824], [-72.73574732207913, 43.21841727587574], [-72.73614524853271, 43.21755933590552], [-72.73723109653727, 43.2170035893766], [-72.73751815090624, 43.216677697043394], [-72.73791234189449, 43.21623008214256], [-72.73817151050694, 43.215546574658994], [-72.73824886872727, 43.21534250426076], [-72.73822311147849, 43.214951253324], [-72.73818839824564, 43.214424548906635], [-72.73793646122259, 43.213526208083344], [-72.73794996923523, 43.21256833262586], [-72.73805970489605, 43.212404529596164], [-72.7382568874745, 43.21211019496097], [-72.73850178988413, 43.21174462726266], [-72.73775310114706, 43.210979510372454], [-72.73694317152106, 43.21028422995001], [-72.73602339818642, 43.20862274663206], [-72.73764502114781, 43.207594483123465], [-72.73833733093363, 43.2068340372834], [-72.73949394310735, 43.20642826464994], [-72.7398074344612, 43.20605836630911], [-72.7405079121795, 43.20523171832235], [-72.7404371324144, 43.20443964655912], [-72.74041496277556, 43.20419189579593], [-72.74052039356332, 43.203924421019025], [-72.74076603768705, 43.20330108796838], [-72.74148414797551, 43.20291462771088], [-72.74214008398384, 43.202561602732686], [-72.74438686449788, 43.20016705707265], [-72.74085478819008, 43.20152270240546], [-72.73824580196552, 43.20170327841437], [-72.7381269429095, 43.201595146151895], [-72.73790560304596, 43.200444623103174], [-72.73763060529178, 43.19993175409841], [-72.73750911099924, 43.199831731575436], [-72.73725152604314, 43.19974506408788], [-72.73638270922736, 43.19968433994719], [-72.73605395838854, 43.199388325059516], [-72.73587179908245, 43.199309736073204], [-72.73618893294396, 43.19869233643269], [-72.73557427477706, 43.19853416117403], [-72.73464850998343, 43.198459351138126], [-72.73468686668662, 43.19753267304697], [-72.7360191073949, 43.197527338189175], [-72.7360293996312, 43.197205941074415], [-72.73479097082104, 43.19720538741773], [-72.73505520462932, 43.19582605590739], [-72.73431217020396, 43.19567091442447], [-72.73504215981718, 43.19503501123621], [-72.7343666038316, 43.19522501992935], [-72.73459488539531, 43.19509880562493], [-72.73473784228965, 43.194879520331895], [-72.73414892841934, 43.19480752603878], [-72.73411158705154, 43.19529670430043], [-72.73386947529967, 43.19532863180912], [-72.73243482977787, 43.19518204869588], [-72.73139429875835, 43.194841251241044], [-72.73080839161233, 43.19423106189419], [-72.73055973384217, 43.194056228443806], [-72.7303261090914, 43.193990943953956], [-72.73007630079842, 43.194016185420395], [-72.7297636817491, 43.19420931076588], [-72.72966391784918, 43.19446688467168], [-72.72982062832517, 43.1948350670756], [-72.72977196342585, 43.19518567419828], [-72.73005036127635, 43.19570657064075], [-72.73012212794865, 43.19618463357378], [-72.7300592141608, 43.19622321809997], [-72.72903733682654, 43.19624004526601], [-72.72908873932934, 43.19569506369225], [-72.72884458189648, 43.195690348565115], [-72.72889333080911, 43.19505521692024], [-72.7279272922878, 43.19499238339301], [-72.72764824907686, 43.19377181975636], [-72.72697626261275, 43.19399293374773], [-72.72718365799443, 43.193006635336424], [-72.72717544200492, 43.19275981244619], [-72.72736349512442, 43.19246443082309], [-72.72887195201473, 43.19190437496896], [-72.72917544647349, 43.19225455063294], [-72.7294053624798, 43.192670892751586], [-72.73055990524168, 43.19318146310061], [-72.73146243751215, 43.19170963674809], [-72.73198194244198, 43.19051885740202], [-72.73049586890785, 43.18995806423717], [-72.73035866250409, 43.18986509216737], [-72.72967581053027, 43.18984508645159], [-72.72983588496764, 43.18957527785814], [-72.72998067830083, 43.189130676953866], [-72.72992810429913, 43.18823198193765], [-72.73339725666266, 43.18824273806939], [-72.73346070083434, 43.186632668588786], [-72.73340199084889, 43.186156476937406], [-72.73323109730067, 43.185695096415934], [-72.73268542663824, 43.184633695722326], [-72.73422409413828, 43.18500754760854], [-72.73399396173095, 43.18111183844363], [-72.73418058074638, 43.18116490314697], [-72.734437931756, 43.181113316775], [-72.73453631807647, 43.180809741365344], [-72.73398890530987, 43.18069543841311], [-72.73398126829095, 43.1752763932611], [-72.73502762314062, 43.17451040301914], [-72.73608217494267, 43.173590840757264], [-72.73629748227654, 43.17380917673068], [-72.7367893393342, 43.17378102021679], [-72.73686826250916, 43.17322310387591], [-72.7365741360013, 43.17319305230411], [-72.73711357405287, 43.17265009730511], [-72.73749234591692, 43.17200997230195], [-72.73756455123511, 43.17159758538279], [-72.73743438097972, 43.17034178655492], [-72.73711817218803, 43.16897119470752], [-72.73690076095811, 43.167112051749434], [-72.73709613288644, 43.16635248658645], [-72.73732871958237, 43.16478876991665], [-72.73834412597856, 43.1630404903153], [-72.74622165171232, 43.164931438591125], [-72.74623133486544, 43.161314266916975], [-72.74702529963413, 43.16152747292928], [-72.74715116511351, 43.15795457704043], [-72.74774046957765, 43.15564023505491], [-72.74792796320789, 43.155639411260104], [-72.74795118881117, 43.15558857862717], [-72.74765857364345, 43.155247297088195], [-72.7476990610259, 43.15509186320246], [-72.74818394731551, 43.15518640363564], [-72.74909973204093, 43.15551253932547], [-72.7496671078652, 43.15557444772053], [-72.74965255612497, 43.15596731926025], [-72.75042468091378, 43.156016119863104], [-72.7504271683542, 43.156060703644854], [-72.75107637967135, 43.15621561814407], [-72.75105173704189, 43.156013139827586], [-72.75207393668231, 43.156426000178385], [-72.75239349273036, 43.15601939019788], [-72.75360137635627, 43.15617241841436], [-72.75504335874278, 43.15625837996654], [-72.7559926236889, 43.15621781259102], [-72.75604041451517, 43.156159757217836], [-72.75647694268842, 43.1563546840603], [-72.757411718215, 43.1571639276994], [-72.75813304034216, 43.15755535741235], [-72.75842897936172, 43.15766114357922], [-72.75902118019815, 43.15777550056958], [-72.76010859719507, 43.15786944663064], [-72.76021105587915, 43.15566362128805], [-72.76031750950918, 43.155032982764844], [-72.76025898704512, 43.15419133577446], [-72.76029568783486, 43.15360418657585], [-72.76087843997115, 43.14563190218854], [-72.75951615836362, 43.145260928812455], [-72.76080159361386, 43.14418113391784], [-72.76138115042077, 43.14361130776267], [-72.76179492622128, 43.143349175570016], [-72.76242034216376, 43.14308337731539], [-72.76239073883998, 43.14388937097052], [-72.76296477182379, 43.14373360856215], [-72.76287655951863, 43.14295961334539], [-72.76348331168232, 43.14282440385863], [-72.76422585644407, 43.142728962588635], [-72.76432115997484, 43.14273911408898], [-72.76496739321075, 43.14338693483938], [-72.76525853259085, 43.14381875911265], [-72.76562628002964, 43.14419921641951], [-72.76565111576983, 43.144255193581124], [-72.76498231126936, 43.144527858413156], [-72.76518554218899, 43.14479510887544], [-72.76582472032204, 43.144515716410005], [-72.76644796573105, 43.145080077067774], [-72.76745505802661, 43.145743372345024], [-72.76779606012201, 43.146062040637766], [-72.76834817394288, 43.14678017719544], [-72.77036005978738, 43.14477181375789], [-72.771514988145, 43.1444553587207], [-72.77194339215673, 43.14455632739331], [-72.77147333828202, 43.14201309695452], [-72.77144538346296, 43.141861871005425], [-72.77141953445015, 43.14172202975103], [-72.75473943372562, 43.13729442278296], [-72.75235767719003, 43.141619783895614], [-72.75140837550883, 43.14525314775618], [-72.75185935618074, 43.14796114109228], [-72.75026028526074, 43.14897002723429], [-72.7493860028315, 43.14928191423971], [-72.74687967302725, 43.14902468013309], [-72.74634861759904, 43.14899819803037], [-72.74569876216901, 43.1490413041321], [-72.74506802820981, 43.149166349195816], [-72.74452590726109, 43.14934914904918], [-72.74275882361543, 43.15007431299152], [-72.73958801369581, 43.148778587140264], [-72.739033301583, 43.148593448108684], [-72.73840160750875, 43.14847092241385], [-72.73775064548136, 43.14843057441441], [-72.73636135189591, 43.14850912000628], [-72.73573062929805, 43.14863426121549], [-72.73473423055653, 43.14898078095099], [-72.7342237797149, 43.148413519074516], [-72.73454597260317, 43.148074541259696], [-72.7348205320794, 43.14764040473424], [-72.73498780026682, 43.14717803304074], [-72.7350428267074, 43.146701325341986], [-72.73498414913279, 43.14622486105044], [-72.73481335516394, 43.145763188681066], [-72.7345350955235, 43.145330201137966], [-72.73415903697719, 43.144939108379766], [-72.73369561971278, 43.14460180261674], [-72.73315944409023, 43.144328562554314], [-72.7325609427282, 43.14413048832628], [-72.73201486205329, 43.14356989476834], [-72.73170168232555, 43.14334191175162], [-72.73151542378797, 43.141727339284024], [-72.73261628729044, 43.14201174843256], [-72.73265410650221, 43.14114324199203], [-72.73224645583292, 43.14112092437844], [-72.73149474880341, 43.13471838414794], [-72.72841345879505, 43.13408202927316], [-72.72787083914405, 43.133905454792774], [-72.72765161072905, 43.133201655799525], [-72.72683968935809, 43.13154945239302], [-72.72660781397109, 43.1304365993276], [-72.7263659960957, 43.13005466024303], [-72.7126783833647, 43.12678271943452], [-72.71247434058206, 43.12752727034398], [-72.71246611639813, 43.12803398420922], [-72.71261224621088, 43.12853562607271], [-72.71342177654064, 43.13006226901613], [-72.71477296714498, 43.13193939025186], [-72.7150403220138, 43.132501723876274], [-72.71362316411354, 43.13286076160569], [-72.71322158972586, 43.132136674018774], [-72.71257536001639, 43.132300709935315], [-72.71127406962958, 43.1327403016127], [-72.71101877749899, 43.13299710221013], [-72.71068934882439, 43.13314363326846], [-72.70987093990226, 43.133168711583664], [-72.70863242687022, 43.13310613262163], [-72.70862221451658, 43.128970893211736], [-72.7077108747923, 43.12932072511519], [-72.70712416883522, 43.12936470469288], [-72.70632831728105, 43.129343496304834], [-72.70642564948707, 43.12824715756726], [-72.70733740108392, 43.12824776759649], [-72.70870586182663, 43.12770305632232], [-72.71097376718058, 43.127615506375214], [-72.71097691802166, 43.127411614181916], [-72.71124739510238, 43.12644041513053], [-72.69207075580907, 43.12186093217305], [-72.69092178426381, 43.13173914141558], [-72.69055550564312, 43.13623189810017], [-72.690631442125, 43.13644168066356], [-72.69054718788784, 43.13738854006683], [-72.69061182987244, 43.137673947572914], [-72.69051028436458, 43.13800211215549], [-72.69045898100264, 43.13929314792557], [-72.69000090206089, 43.1433191772344], [-72.69395363994832, 43.14424083958886], [-72.69427618453334, 43.14479775844515], [-72.6951197172569, 43.14573662441406], [-72.69558294537248, 43.14607416593958], [-72.69669622473214, 43.14666087156672], [-72.69721199818854, 43.147210431933026], [-72.69797078856377, 43.147698777566255], [-72.7007309642942, 43.15141050067263], [-72.70343124057158, 43.15445607259219], [-72.70466137560203, 43.15913476135213], [-72.70484275718901, 43.15959920241946], [-72.70570553554437, 43.16124464915683], [-72.70606309692806, 43.16175803042445], [-72.70753468096218, 43.16341417557746], [-72.70823766058855, 43.16470257630449], [-72.70883966771176, 43.16544185090944], [-72.70971075412497, 43.16620055068737], [-72.70621342605376, 43.16680852126418], [-72.7062270074279, 43.17438773105441], [-72.71614756495916, 43.17663034719056], [-72.72236073523555, 43.178113692337085], [-72.72225798011948, 43.17892717802225], [-72.72203991652755, 43.17931310071857], [-72.72197194625834, 43.17933407833913], [-72.72093941626815, 43.179309002129806], [-72.7207104776858, 43.18073625743557], [-72.71784871116661, 43.18354037243989], [-72.71757385815033, 43.18397381173426], [-72.71740597913697, 43.184436159815014], [-72.71735156024842, 43.184919092824025], [-72.71742050590478, 43.18885410711662], [-72.71806041480428, 43.19053272997852], [-72.71796692259818, 43.19267202038161], [-72.71312753952496, 43.19217663239128], [-72.71292614987199, 43.19363264675016], [-72.70510063713851, 43.195444014623675], [-72.70509320212844, 43.1952911437836], [-72.70583479543325, 43.19527076388506], [-72.70416284969644, 43.18885539426537], [-72.69981484876206, 43.188845649130485], [-72.69976776679266, 43.195390737237], [-72.69901732504185, 43.19552351743142], [-72.69809153226194, 43.19577508318308], [-72.69301630617225, 43.193794841430176], [-72.6888771845837, 43.19281277425985], [-72.68836594691429, 43.192720162607415], [-72.68771416891636, 43.19267953259515], [-72.6870637980492, 43.19272230540857], [-72.68643249668007, 43.192847102064626], [-72.6858406595069, 43.193049969592465], [-72.68532896738344, 43.19331127613698], [-72.68032833310407, 43.19634524892861], [-72.67896759354188, 43.19593042718721], [-72.67833592438693, 43.19580737020002], [-72.67785368579659, 43.19577724214368], [-72.67751393602941, 43.20152305159312], [-72.67915985127776, 43.20211225199608], [-72.6797919742051, 43.202235117239795], [-72.68108172948116, 43.20226295902445], [-72.68162993961226, 43.20222145637834], [-72.68226132871456, 43.2020965953493], [-72.68291241876916, 43.20186800487329], [-72.68551659639438, 43.200676316081385], [-72.68597775170781, 43.200337296687664], [-72.68643377993412, 43.19983065256726], [-72.68768124579579, 43.19924661055682], [-72.68814275731198, 43.198907580872], [-72.68849998612579, 43.198546317352424], [-72.68866276431625, 43.198961652552725], [-72.68894054900335, 43.19939473399341], [-72.68931664789628, 43.1997860435786], [-72.68978025490198, 43.2001235398735], [-72.69262479873825, 43.201456695577846], [-72.70533466199394, 43.208021563346485], [-72.70579833292022, 43.20821645027072], [-72.70646685779764, 43.20940841508065], [-72.7068435164532, 43.20979960139912], [-72.70739516354963, 43.2101893225705], [-72.7118418203891, 43.212707849237596], [-72.71576960935562, 43.21511472541719], [-72.71727442057924, 43.21648331655557], [-72.71765835340989, 43.216944635561724], [-72.71771073603843, 43.2173968585883], [-72.71734664118564, 43.218626945554654], [-72.71575738889217, 43.219172915746405], [-72.71343950433906, 43.219140780781], [-72.71014531211682, 43.2194011013083], [-72.70951379219133, 43.21952609811314], [-72.70664925329592, 43.220374352732904], [-72.70485447167212, 43.220232640046866], [-72.70294756746365, 43.22026966012923], [-72.70042718466921, 43.21936319974831], [-72.69928123668487, 43.219083905071784], [-72.69754180156367, 43.21891524684899], [-72.69665857295102, 43.218993910177105], [-72.69410802775788, 43.21945045913335], [-72.6904636056676, 43.2195520217613], [-72.68983204852648, 43.21967691268869], [-72.68837562682847, 43.22010919121949], [-72.68671971027676, 43.219707139880576], [-72.6860680335627, 43.21966648977974], [-72.68541659076524, 43.21970924763367], [-72.68409637270676, 43.21990568621431], [-72.68355591384123, 43.220017738902726], [-72.6829638005745, 43.22022087283115], [-72.68242883641194, 43.2204960655795], [-72.68196750857392, 43.22083504817868], [-72.68159326785518, 43.221227560997704], [-72.68131799143694, 43.22166154660496], [-72.68115011881416, 43.22212382680897], [-72.6810981472664, 43.22262923112727], [-72.68544184955006, 43.2225889833361]], [[-72.72377862013482, 43.18136419277573], [-72.72442905274077, 43.1807465395553], [-72.72475522155565, 43.18028140542721], [-72.72537729418701, 43.17895834666892], [-72.72551474050177, 43.17828734068723], [-72.72569771613534, 43.17568608385567], [-72.72719614205242, 43.175742478728566], [-72.7270095686147, 43.17839696837175], [-72.7268857339048, 43.179001284749916], [-72.7272983204085, 43.179143505441864], [-72.72770523783069, 43.17880030081582], [-72.7291559451391, 43.17820408144338], [-72.72973437300527, 43.17921740679721], [-72.7290144536893, 43.179528914797324], [-72.72916242885792, 43.18034825037469], [-72.72871786733924, 43.18039373529784], [-72.7281818720854, 43.18055837490357], [-72.72783445094178, 43.18057040019056], [-72.72829345950467, 43.181105197268494], [-72.72851260108831, 43.181734861731286], [-72.7270450765623, 43.18196366124863], [-72.72693139227054, 43.18157410297013], [-72.72676530496528, 43.181360415726296], [-72.7259325755633, 43.18100776511684], [-72.72570163027677, 43.18133712842331], [-72.72496730727799, 43.182034584843706], [-72.72377862013482, 43.18136419277573]]]]}}, {"type": "Feature", "properties": {"OBJECT_ID": 1265, "County": "Windham", "RPC": "WRC", "Municipal_Name": "Windham ", "GEO_ID": "5002584850", "District_Name": "Recreation Commercial", "Abbreviated_District_Name": "Rc", "District_Type": "Mixed with Residential", "Bylaw_Date": null, "Elderly_Housing_District": "No", "District_Mapped": "Yes", "Overlay_District": "No", "Base_Density": null, "GIS_ID": null, "Last_Update": null, "Shape_Length": 3481.2415045449707, "Shape_Area": 262412.2184598587, "F1F_Allowance": "Permitted", "F1F_Front_Setback": null, "F1F_Side_Setback": 15.0, "F1F_Rear_Setback": 15.0, "F1F_Frontage": null, "F1F_Max_Height": 35.0, "F1F_Max_Stories": null, "F1F_Min_Lot_Size": 1.0, "F1F_Max_Lot_Building_Coverage": null, "F1F_Max_Lot_Impervious_Coverage": null, "F1F_Min_Parking_Spaces": null, "F1F_Elderly_Housing_Only": null, "F1F_Affordable_Housing_Only": null, "F2F_Allowance": "Public Hearing", "F2F_Front_Setback": null, "F2F_Side_Setback": 15.0, "F2F_Rear_Setback": 15.0, "F2F_Frontage": null, "F2F_Max_Density": null, "F2F_Max_Height": 35.0, "F2F_Max_Stories": null, "F2F_Min_Lot_Size": 1.0, "F2F_Max_Lot_Building_Coverage": null, "F2F_Max_Lot_Impervious_Coverage": null, "F2F_Min_Parking_Spaces_per_1BR": null, "F2F_Min_Parking_Spaces_per_mult_BR": null, "F2F_Elderly_Housing_Only": "No", "F2F_Affordable_Housing_Only": "No", "F3F_Allowance": "Public Hearing", "F3F_Front_Setback": null, "F3F_Side_Setback": 15.0, "F3F_Rear_Setback": 15.0, "F3F_Frontage": null, "F3F_Max_Density": null, "F3F_Max_Height": 35.0, "F3F_Max_Stories": null, "F3F_Min_Lot_Size": 1.0, "F3F_Max_Lot_Building_Coverage": null, "F3F_Max_Lot_Impervious_Coverage": null, "F3F_Min_Parking_Spaces_per_1BR": null, "F3F_Min_Parking_Spaces_per_mult_BR": null, "F3F_Affordable_Housing_Only": "No", "F3F_Proximity_to_Public_Transit_Required": null, "F3F_Connection_to_Sewage/Water_Required": null, "F4F_Allowance": "Public Hearing", "F4F_Front_Setback": null, "F4F_Side_Setback": 15.0, "F4F_Rear_Setback": 15.0, "F4F_Frontage": null, "F1F_Max_Density": null, "F4F_Max_Density": null, "F4F_Max_Height": 35.0, "F4F_Max_Stories": null, "F4F_Min_Lot_Size": 1.0, "F4F_Max_Lot_Building_Coverage": null, "F4F_Max_Lot_Impervious_Coverage": null, "F4F_Min_Parking_Spaces_per_1BR": null, "F4F_Min_Parking_Spaces_per_mult_BR": null, "F3F_Elderly_Housing_Only": "No", "F4F_Elderly_Housing_Only": "No", "F4F_Affordable_Housing_Only": "No", "F4F_Proximity_to_Public_Transit_Required": null, "F4F_Connection_to_Sewage/Water_Required": null, "ADU_Allowance": "Allowed/Conditional", "ADU_Elderly_Housing_Only": null, "ADU_Max_Size_as_Percent_of_Primary_Strcture": 30.0, "ADU_Max_Size_in_sq_ft": null, "ADU_Min_Lot_Size": null, "ADU_Max_Bedrooms": 1.0, "ADU_Min_Parking_Spaces": null, "ADU_Owner_Occupancy_Required": "Yes", "ADU_Renter_Occupancy_Prohibited": null, "ADU_Employee_or_Family_Occupancy_Required": null, "ADU_Restricted_to_Primary_Structure": null, "Affordable_Housing_Allowance": "Not Mentioned", "Affordable_Housing_District": "No", "Affordable_Housing_Elderly_Only": null, "Affordable_Housing_Min_Lot_Size": null, "Affordable_Housing_Max_Density": null, "Affordable_Housing_Min_Parking_Spaces_per_mult_BR": null, "Affordable_Housing_Max_Units_per_Building": null, "Affordable_Housing_Min_Parking_Spaces_per_1BR": null, "PRD_Allowance": "Not Mentioned", "PRD_Max_Density": null, "PRD_Max_Units": null, "PRD_Min_Lot_Size": null, "PRD_Mobile_or_Manufactured_Home_Park": null, "PUD_Allowance": "Yes", "PUD_Required_with_Subdivision": null, "PUD_Requires_Land_Conservation": null, "PUD_Threshold_Number": null, "Notes": "None", "FIPS6": null}, "geometry": {"type": "MultiPolygon", "coordinates": [[[[-72.73339725666266, 43.18824273806939], [-72.72992810429913, 43.18823198193765], [-72.72998067830083, 43.189130676953866], [-72.72983588496764, 43.18957527785814], [-72.72967581053027, 43.18984508645159], [-72.73035866250409, 43.18986509216737], [-72.73049586890785, 43.18995806423717], [-72.73198194244198, 43.19051885740202], [-72.73146243751215, 43.19170963674809], [-72.73055990524168, 43.19318146310061], [-72.7294053624798, 43.192670892751586], [-72.72917544647349, 43.19225455063294], [-72.72887195201473, 43.19190437496896], [-72.72736349512442, 43.19246443082309], [-72.72717544200492, 43.19275981244619], [-72.72718365799443, 43.193006635336424], [-72.72697626261275, 43.19399293374773], [-72.72764824907686, 43.19377181975636], [-72.7279272922878, 43.19499238339301], [-72.72889333080911, 43.19505521692024], [-72.72884458189648, 43.195690348565115], [-72.72908873932934, 43.19569506369225], [-72.72903733682654, 43.19624004526601], [-72.7300592141608, 43.19622321809997], [-72.73012212794865, 43.19618463357378], [-72.73005036127635, 43.19570657064075], [-72.72977196342585, 43.19518567419828], [-72.72982062832517, 43.1948350670756], [-72.72966391784918, 43.19446688467168], [-72.7297636817491, 43.19420931076588], [-72.73007630079842, 43.194016185420395], [-72.7303261090914, 43.193990943953956], [-72.73055973384217, 43.194056228443806], [-72.73080839161233, 43.19423106189419], [-72.73139429875835, 43.194841251241044], [-72.73243482977787, 43.19518204869588], [-72.73386947529967, 43.19532863180912], [-72.73310508752228, 43.19329346107612], [-72.73422075450316, 43.191370838690766], [-72.73438852772894, 43.19090846404445], [-72.73444360063165, 43.190431202084156], [-72.73438488048573, 43.189955015778814], [-72.73421396135888, 43.189493616386464], [-72.73364505574091, 43.18850292590113], [-72.73339725666266, 43.18824273806939]]]]}}, {"type": "Feature", "properties": {"OBJECT_ID": 1263, "County": "Windham", "RPC": "WRC", "Municipal_Name": "Windham ", "GEO_ID": "5002584850", "District_Name": "Forest", "Abbreviated_District_Name": "F", "District_Type": "Mixed with Residential", "Bylaw_Date": null, "Elderly_Housing_District": "No", "District_Mapped": "Yes", "Overlay_District": "No", "Base_Density": null, "GIS_ID": null, "Last_Update": null, "Shape_Length": 59653.134052338144, "Shape_Area": 33455857.651681982, "F1F_Allowance": "Public Hearing", "F1F_Front_Setback": null, "F1F_Side_Setback": 50.0, "F1F_Rear_Setback": 50.0, "F1F_Frontage": null, "F1F_Max_Height": 35.0, "F1F_Max_Stories": null, "F1F_Min_Lot_Size": 27.0, "F1F_Max_Lot_Building_Coverage": null, "F1F_Max_Lot_Impervious_Coverage": null, "F1F_Min_Parking_Spaces": null, "F1F_Elderly_Housing_Only": null, "F1F_Affordable_Housing_Only": null, "F2F_Allowance": "Prohibited", "F2F_Front_Setback": null, "F2F_Side_Setback": null, "F2F_Rear_Setback": null, "F2F_Frontage": null, "F2F_Max_Density": null, "F2F_Max_Height": null, "F2F_Max_Stories": null, "F2F_Min_Lot_Size": null, "F2F_Max_Lot_Building_Coverage": null, "F2F_Max_Lot_Impervious_Coverage": null, "F2F_Min_Parking_Spaces_per_1BR": null, "F2F_Min_Parking_Spaces_per_mult_BR": null, "F2F_Elderly_Housing_Only": null, "F2F_Affordable_Housing_Only": null, "F3F_Allowance": "Prohibited", "F3F_Front_Setback": null, "F3F_Side_Setback": null, "F3F_Rear_Setback": null, "F3F_Frontage": null, "F3F_Max_Density": null, "F3F_Max_Height": null, "F3F_Max_Stories": null, "F3F_Min_Lot_Size": null, "F3F_Max_Lot_Building_Coverage": null, "F3F_Max_Lot_Impervious_Coverage": null, "F3F_Min_Parking_Spaces_per_1BR": null, "F3F_Min_Parking_Spaces_per_mult_BR": null, "F3F_Affordable_Housing_Only": null, "F3F_Proximity_to_Public_Transit_Required": null, "F3F_Connection_to_Sewage/Water_Required": null, "F4F_Allowance": "Prohibited", "F4F_Front_Setback": null, "F4F_Side_Setback": null, "F4F_Rear_Setback": null, "F4F_Frontage": null, "F1F_Max_Density": null, "F4F_Max_Density": null, "F4F_Max_Height": null, "F4F_Max_Stories": null, "F4F_Min_Lot_Size": null, "F4F_Max_Lot_Building_Coverage": null, "F4F_Max_Lot_Impervious_Coverage": null, "F4F_Min_Parking_Spaces_per_1BR": null, "F4F_Min_Parking_Spaces_per_mult_BR": null, "F3F_Elderly_Housing_Only": null, "F4F_Elderly_Housing_Only": null, "F4F_Affordable_Housing_Only": null, "F4F_Proximity_to_Public_Transit_Required": null, "F4F_Connection_to_Sewage/Water_Required": null, "ADU_Allowance": "Prohibited", "ADU_Elderly_Housing_Only": null, "ADU_Max_Size_as_Percent_of_Primary_Strcture": null, "ADU_Max_Size_in_sq_ft": null, "ADU_Min_Lot_Size": null, "ADU_Max_Bedrooms": null, "ADU_Min_Parking_Spaces": null, "ADU_Owner_Occupancy_Required": null, "ADU_Renter_Occupancy_Prohibited": null, "ADU_Employee_or_Family_Occupancy_Required": null, "ADU_Restricted_to_Primary_Structure": null, "Affordable_Housing_Allowance": "Not Mentioned", "Affordable_Housing_District": "No", "Affordable_Housing_Elderly_Only": null, "Affordable_Housing_Min_Lot_Size": null, "Affordable_Housing_Max_Density": null, "Affordable_Housing_Min_Parking_Spaces_per_mult_BR": null, "Affordable_Housing_Max_Units_per_Building": null, "Affordable_Housing_Min_Parking_Spaces_per_1BR": null, "PRD_Allowance": "Not Mentioned", "PRD_Max_Density": null, "PRD_Max_Units": null, "PRD_Min_Lot_Size": null, "PRD_Mobile_or_Manufactured_Home_Park": null, "PUD_Allowance": null, "PUD_Required_with_Subdivision": null, "PUD_Requires_Land_Conservation": null, "PUD_Threshold_Number": null, "Notes": "  Density: One Principal Structure Per Lot. Single Family Dwelling Requires State Approved Septic System.", "FIPS6": null}, "geometry": {"type": "MultiPolygon", "coordinates": [[[[-72.68849998612579, 43.198546317352424], [-72.68814275731198, 43.198907580872], [-72.68768124579579, 43.19924661055682], [-72.68643377993412, 43.19983065256726], [-72.68597775170781, 43.200337296687664], [-72.68551659639438, 43.200676316081385], [-72.68291241876916, 43.20186800487329], [-72.68226132871456, 43.2020965953493], [-72.68162993961226, 43.20222145637834], [-72.68108172948116, 43.20226295902445], [-72.6797919742051, 43.202235117239795], [-72.67915985127776, 43.20211225199608], [-72.67751393602941, 43.20152305159312], [-72.67631750003768, 43.22267352403179], [-72.6810981472664, 43.22262923112727], [-72.68115011881416, 43.22212382680897], [-72.68131799143694, 43.22166154660496], [-72.68159326785518, 43.221227560997704], [-72.68196750857392, 43.22083504817868], [-72.68242883641194, 43.2204960655795], [-72.6829638005745, 43.22022087283115], [-72.68355591384123, 43.220017738902726], [-72.68409637270676, 43.21990568621431], [-72.68541659076524, 43.21970924763367], [-72.6860680335627, 43.21966648977974], [-72.68671971027676, 43.219707139880576], [-72.68837562682847, 43.22010919121949], [-72.68983204852648, 43.21967691268869], [-72.6904636056676, 43.2195520217613], [-72.69410802775788, 43.21945045913335], [-72.69665857295102, 43.218993910177105], [-72.69754180156367, 43.21891524684899], [-72.69928123668487, 43.219083905071784], [-72.70042718466921, 43.21936319974831], [-72.70294756746365, 43.22026966012923], [-72.70485447167212, 43.220232640046866], [-72.70664925329592, 43.220374352732904], [-72.70951379219133, 43.21952609811314], [-72.71014531211682, 43.2194011013083], [-72.71343950433906, 43.219140780781], [-72.71575738889217, 43.219172915746405], [-72.71734664118564, 43.218626945554654], [-72.71771073603843, 43.2173968585883], [-72.71765835340989, 43.216944635561724], [-72.71727442057924, 43.21648331655557], [-72.71576960935562, 43.21511472541719], [-72.7118418203891, 43.212707849237596], [-72.70739516354963, 43.2101893225705], [-72.7068435164532, 43.20979960139912], [-72.70646685779764, 43.20940841508065], [-72.70579833292022, 43.20821645027072], [-72.70533466199394, 43.208021563346485], [-72.69262479873825, 43.201456695577846], [-72.68978025490198, 43.2001235398735], [-72.68931664789628, 43.1997860435786], [-72.68894054900335, 43.19939473399341], [-72.68866276431625, 43.198961652552725], [-72.68849998612579, 43.198546317352424]]], [[[-72.76422585644407, 43.142728962588635], [-72.76348331168232, 43.14282440385863], [-72.76287655951863, 43.14295961334539], [-72.76296477182379, 43.14373360856215], [-72.76239073883998, 43.14388937097052], [-72.76242034216376, 43.14308337731539], [-72.76179492622128, 43.143349175570016], [-72.76138115042077, 43.14361130776267], [-72.76080159361386, 43.14418113391784], [-72.75951615836362, 43.145260928812455], [-72.76087843997115, 43.14563190218854], [-72.76029568783486, 43.15360418657585], [-72.76025898704512, 43.15419133577446], [-72.76031750950918, 43.155032982764844], [-72.76021105587915, 43.15566362128805], [-72.76010859719507, 43.15786944663064], [-72.75902118019815, 43.15777550056958], [-72.75842897936172, 43.15766114357922], [-72.75813304034216, 43.15755535741235], [-72.757411718215, 43.1571639276994], [-72.75647694268842, 43.1563546840603], [-72.75604041451517, 43.156159757217836], [-72.7559926236889, 43.15621781259102], [-72.75504335874278, 43.15625837996654], [-72.75360137635627, 43.15617241841436], [-72.75239349273036, 43.15601939019788], [-72.75207393668231, 43.156426000178385], [-72.75105173704189, 43.156013139827586], [-72.75107637967135, 43.15621561814407], [-72.7504271683542, 43.156060703644854], [-72.75042468091378, 43.156016119863104], [-72.74965255612497, 43.15596731926025], [-72.7496671078652, 43.15557444772053], [-72.74909973204093, 43.15551253932547], [-72.74818394731551, 43.15518640363564], [-72.7476990610259, 43.15509186320246], [-72.74765857364345, 43.155247297088195], [-72.74795118881117, 43.15558857862717], [-72.74792796320789, 43.155639411260104], [-72.74774046957765, 43.15564023505491], [-72.74715116511351, 43.15795457704043], [-72.74702529963413, 43.16152747292928], [-72.74623133486544, 43.161314266916975], [-72.74622165171232, 43.164931438591125], [-72.73834412597856, 43.1630404903153], [-72.73732871958237, 43.16478876991665], [-72.73709613288644, 43.16635248658645], [-72.73690076095811, 43.167112051749434], [-72.73711817218803, 43.16897119470752], [-72.73743438097972, 43.17034178655492], [-72.73756455123511, 43.17159758538279], [-72.73749234591692, 43.17200997230195], [-72.73711357405287, 43.17265009730511], [-72.7365741360013, 43.17319305230411], [-72.73686826250916, 43.17322310387591], [-72.7367893393342, 43.17378102021679], [-72.73629748227654, 43.17380917673068], [-72.73608217494267, 43.173590840757264], [-72.73502762314062, 43.17451040301914], [-72.73398126829095, 43.1752763932611], [-72.73398890530987, 43.18069543841311], [-72.73453631807647, 43.180809741365344], [-72.734437931756, 43.181113316775], [-72.73418058074638, 43.18116490314697], [-72.73399396173095, 43.18111183844363], [-72.73422409413828, 43.18500754760854], [-72.73268542663824, 43.184633695722326], [-72.73323109730067, 43.185695096415934], [-72.73340199084889, 43.186156476937406], [-72.73346070083434, 43.186632668588786], [-72.73339725666266, 43.18824273806939], [-72.73364505574091, 43.18850292590113], [-72.73421396135888, 43.189493616386464], [-72.73438488048573, 43.189955015778814], [-72.73444360063165, 43.190431202084156], [-72.73438852772894, 43.19090846404445], [-72.73422075450316, 43.191370838690766], [-72.73310508752228, 43.19329346107612], [-72.73386947529967, 43.19532863180912], [-72.73411158705154, 43.19529670430043], [-72.73414892841934, 43.19480752603878], [-72.73473784228965, 43.194879520331895], [-72.73459488539531, 43.19509880562493], [-72.7343666038316, 43.19522501992935], [-72.73504215981718, 43.19503501123621], [-72.73431217020396, 43.19567091442447], [-72.73505520462932, 43.19582605590739], [-72.73479097082104, 43.19720538741773], [-72.7360293996312, 43.197205941074415], [-72.7360191073949, 43.197527338189175], [-72.73468686668662, 43.19753267304697], [-72.73464850998343, 43.198459351138126], [-72.73557427477706, 43.19853416117403], [-72.73618893294396, 43.19869233643269], [-72.73587179908245, 43.199309736073204], [-72.73605395838854, 43.199388325059516], [-72.73638270922736, 43.19968433994719], [-72.73725152604314, 43.19974506408788], [-72.73750911099924, 43.199831731575436], [-72.73763060529178, 43.19993175409841], [-72.73790560304596, 43.200444623103174], [-72.7381269429095, 43.201595146151895], [-72.73824580196552, 43.20170327841437], [-72.74085478819008, 43.20152270240546], [-72.74438686449788, 43.20016705707265], [-72.75059578107378, 43.19354981708729], [-72.75322710108237, 43.190865629772084], [-72.75435067040381, 43.18944215699513], [-72.75542378097168, 43.18911614317017], [-72.75690513485524, 43.188666099562525], [-72.75993565332493, 43.18676813001145], [-72.76135909468854, 43.18368960926469], [-72.76401008012088, 43.182837468329325], [-72.76538295592074, 43.18093245220545], [-72.76518574877923, 43.18041538686918], [-72.76456826558972, 43.1790122531807], [-72.7642672270463, 43.17837302071794], [-72.76398180583064, 43.17546049500894], [-72.76701661349598, 43.17447973378298], [-72.76703047618544, 43.17342693100755], [-72.76533161456449, 43.17163282538617], [-72.76536369742087, 43.169639178100546], [-72.76693536452018, 43.16906797331372], [-72.76744139641445, 43.16782116127114], [-72.76838909155136, 43.16706593082069], [-72.77027573347179, 43.16556238804699], [-72.77046888883112, 43.16335412704123], [-72.77058482900749, 43.16202829661238], [-72.77113219981304, 43.159257037988496], [-72.77159624074743, 43.15690743518367], [-72.77256166248813, 43.15479596166299], [-72.77335074898689, 43.153910096179324], [-72.77337090235886, 43.15231149822252], [-72.77256292201903, 43.147906815328355], [-72.77194339215673, 43.14455632739331], [-72.771514988145, 43.1444553587207], [-72.77036005978738, 43.14477181375789], [-72.76834817394288, 43.14678017719544], [-72.76779606012201, 43.146062040637766], [-72.76745505802661, 43.145743372345024], [-72.76644796573105, 43.145080077067774], [-72.76582472032204, 43.144515716410005], [-72.76518554218899, 43.14479510887544], [-72.76498231126936, 43.144527858413156], [-72.76565111576983, 43.144255193581124], [-72.76562628002964, 43.14419921641951], [-72.76525853259085, 43.14381875911265], [-72.76496739321075, 43.14338693483938], [-72.76432115997484, 43.14273911408898], [-72.76422585644407, 43.142728962588635]]], [[[-72.69092178426381, 43.13173914141558], [-72.6818871790655, 43.132534246972696], [-72.68069407743556, 43.1480865287177], [-72.67785368579659, 43.19577724214368], [-72.67833592438693, 43.19580737020002], [-72.67896759354188, 43.19593042718721], [-72.68032833310407, 43.19634524892861], [-72.68532896738344, 43.19331127613698], [-72.6858406595069, 43.193049969592465], [-72.68643249668007, 43.192847102064626], [-72.6870637980492, 43.19272230540857], [-72.68771416891636, 43.19267953259515], [-72.68836594691429, 43.192720162607415], [-72.6888771845837, 43.19281277425985], [-72.69301630617225, 43.193794841430176], [-72.69809153226194, 43.19577508318308], [-72.69901732504185, 43.19552351743142], [-72.69976776679266, 43.195390737237], [-72.69981484876206, 43.188845649130485], [-72.70416284969644, 43.18885539426537], [-72.70583479543325, 43.19527076388506], [-72.70509320212844, 43.1952911437836], [-72.70510063713851, 43.195444014623675], [-72.71292614987199, 43.19363264675016], [-72.71312753952496, 43.19217663239128], [-72.71796692259818, 43.19267202038161], [-72.71806041480428, 43.19053272997852], [-72.71742050590478, 43.18885410711662], [-72.71735156024842, 43.184919092824025], [-72.71740597913697, 43.184436159815014], [-72.71757385815033, 43.18397381173426], [-72.71784871116661, 43.18354037243989], [-72.7207104776858, 43.18073625743557], [-72.72093941626815, 43.179309002129806], [-72.72197194625834, 43.17933407833913], [-72.72203991652755, 43.17931310071857], [-72.72225798011948, 43.17892717802225], [-72.72236073523555, 43.178113692337085], [-72.71614756495916, 43.17663034719056], [-72.7062270074279, 43.17438773105441], [-72.70621342605376, 43.16680852126418], [-72.70971075412497, 43.16620055068737], [-72.70883966771176, 43.16544185090944], [-72.70823766058855, 43.16470257630449], [-72.70753468096218, 43.16341417557746], [-72.70606309692806, 43.16175803042445], [-72.70570553554437, 43.16124464915683], [-72.70484275718901, 43.15959920241946], [-72.70466137560203, 43.15913476135213], [-72.70343124057158, 43.15445607259219], [-72.7007309642942, 43.15141050067263], [-72.69797078856377, 43.147698777566255], [-72.69721199818854, 43.147210431933026], [-72.69669622473214, 43.14666087156672], [-72.69558294537248, 43.14607416593958], [-72.6951197172569, 43.14573662441406], [-72.69427618453334, 43.14479775844515], [-72.69395363994832, 43.14424083958886], [-72.69000090206089, 43.1433191772344], [-72.69045898100264, 43.13929314792557], [-72.69051028436458, 43.13800211215549], [-72.69061182987244, 43.137673947572914], [-72.69054718788784, 43.13738854006683], [-72.690631442125, 43.13644168066356], [-72.69055550564312, 43.13623189810017], [-72.69092178426381, 43.13173914141558]]], [[[-72.7263659960957, 43.13005466024303], [-72.72660781397109, 43.1304365993276], [-72.72683968935809, 43.13154945239302], [-72.72765161072905, 43.133201655799525], [-72.72787083914405, 43.133905454792774], [-72.72841345879505, 43.13408202927316], [-72.73149474880341, 43.13471838414794], [-72.73224645583292, 43.14112092437844], [-72.73265410650221, 43.14114324199203], [-72.73261628729044, 43.14201174843256], [-72.73151542378797, 43.141727339284024], [-72.73170168232555, 43.14334191175162], [-72.73201486205329, 43.14356989476834], [-72.7325609427282, 43.14413048832628], [-72.73315944409023, 43.144328562554314], [-72.73369561971278, 43.14460180261674], [-72.73415903697719, 43.144939108379766], [-72.7345350955235, 43.145330201137966], [-72.73481335516394, 43.145763188681066], [-72.73498414913279, 43.14622486105044], [-72.7350428267074, 43.146701325341986], [-72.73498780026682, 43.14717803304074], [-72.7348205320794, 43.14764040473424], [-72.73454597260317, 43.148074541259696], [-72.7342237797149, 43.148413519074516], [-72.73473423055653, 43.14898078095099], [-72.73573062929805, 43.14863426121549], [-72.73636135189591, 43.14850912000628], [-72.73775064548136, 43.14843057441441], [-72.73840160750875, 43.14847092241385], [-72.739033301583, 43.148593448108684], [-72.73958801369581, 43.148778587140264], [-72.74275882361543, 43.15007431299152], [-72.74452590726109, 43.14934914904918], [-72.74506802820981, 43.149166349195816], [-72.74569876216901, 43.1490413041321], [-72.74634861759904, 43.14899819803037], [-72.74687967302725, 43.14902468013309], [-72.7493860028315, 43.14928191423971], [-72.75026028526074, 43.14897002723429], [-72.75185935618074, 43.14796114109228], [-72.75140837550883, 43.14525314775618], [-72.75235767719003, 43.141619783895614], [-72.75473943372562, 43.13729442278296], [-72.75028158407977, 43.13611056778666], [-72.72914991392271, 43.13071993621308], [-72.7263659960957, 43.13005466024303]]]]}}]}