{"type":"FeatureCollection","name":"Windham_Whitingham","features":[{"type":"Feature","properties":{"OBJECT_ID":1242,"County":"Windham","RPC":"WRC","Municipal_Name":"Whitingham","GEO_ID":"5002583950","District_Name":"Conservation","Abbreviated_District_Name":"C","District_Type":"Mixed with Residential","Bylaw_Date":null,"Elderly_Housing_District":"No","District_Mapped":"Yes","Overlay_District":"No","Base_Density":null,"FIPS6":null,"GIS_ID":null,"Last_Update":null,"Shape_Length":71423.8941199765,"Shape_Area":25621740.74918879,"F1F_Allowance":"Permitted","F1F_Front_Setback":65.0,"F1F_Side_Setback":50.0,"F1F_Rear_Setback":50.0,"F1F_Frontage":300.0,"F1F_Max_Height":35.0,"F1F_Max_Stories":null,"F1F_Min_Lot_Size":27.0,"F1F_Max_Lot_Building_Coverage":10.0,"F1F_Max_Lot_Impervious_Coverage":null,"F1F_Min_Parking_Spaces":2.0,"F1F_Elderly_Housing_Only":null,"F1F_Affordable_Housing_Only":null,"F2F_Allowance":"Permitted","F2F_Front_Setback":65.0,"F2F_Side_Setback":50.0,"F2F_Rear_Setback":50.0,"F2F_Frontage":300.0,"F2F_Max_Density":null,"F2F_Max_Height":35.0,"F2F_Max_Stories":null,"F2F_Min_Lot_Size":27.0,"F2F_Max_Lot_Building_Coverage":10.0,"F2F_Max_Lot_Impervious_Coverage":null,"F2F_Min_Parking_Spaces_per_1BR":1.5,"F2F_Min_Parking_Spaces_per_mult_BR":1.5,"F2F_Elderly_Housing_Only":"No","F2F_Affordable_Housing_Only":"No","F3F_Allowance":"Prohibited","F3F_Front_Setback":null,"F3F_Side_Setback":null,"F3F_Rear_Setback":null,"F3F_Frontage":null,"F3F_Max_Density":null,"F3F_Max_Height":null,"F3F_Max_Stories":null,"F3F_Min_Lot_Size":null,"F3F_Max_Lot_Building_Coverage":null,"F3F_Max_Lot_Impervious_Coverage":null,"F3F_Min_Parking_Spaces_per_1BR":null,"F3F_Min_Parking_Spaces_per_mult_BR":null,"F3F_Affordable_Housing_Only":null,"F3F_Proximity_to_Public_Transit_Required":null,"F3F_Connection_to_Sewage/Water_Required":null,"F4F_Allowance":"Prohibited","F4F_Front_Setback":null,"F4F_Side_Setback":null,"F4F_Rear_Setback":null,"F4F_Frontage":null,"F1F_Max_Density":null,"F4F_Max_Density":null,"F4F_Max_Height":null,"F4F_Max_Stories":null,"F4F_Min_Lot_Size":null,"F4F_Max_Lot_Building_Coverage":null,"F4F_Max_Lot_Impervious_Coverage":null,"F4F_Min_Parking_Spaces_per_1BR":null,"F4F_Min_Parking_Spaces_per_mult_BR":null,"F3F_Elderly_Housing_Only":null,"F4F_Elderly_Housing_Only":null,"F4F_Affordable_Housing_Only":null,"F4F_Proximity_to_Public_Transit_Required":null,"F4F_Connection_to_Sewage/Water_Required":null,"ADU_Allowance":"Allowed/Conditional","ADU_Elderly_Housing_Only":null,"ADU_Max_Size_as_Percent_of_Primary_Strcture":50.0,"ADU_Max_Size_in_sq_ft":null,"ADU_Min_Lot_Size":null,"ADU_Max_Bedrooms":null,"ADU_Min_Parking_Spaces":null,"ADU_Owner_Occupancy_Required":"Yes","ADU_Renter_Occupancy_Prohibited":null,"ADU_Employee_or_Family_Occupancy_Required":null,"ADU_Restricted_to_Primary_Structure":null,"Affordable_Housing_Allowance":"Not Mentioned","Affordable_Housing_District":"No","Affordable_Housing_Elderly_Only":null,"Affordable_Housing_Min_Lot_Size":null,"Affordable_Housing_Max_Density":null,"Affordable_Housing_Min_Parking_Spaces_per_mult_BR":null,"Affordable_Housing_Max_Units_per_Building":null,"Affordable_Housing_Min_Parking_Spaces_per_1BR":null,"PRD_Allowance":"Not Mentioned","PRD_Max_Density":null,"PRD_Max_Units":null,"PRD_Min_Lot_Size":null,"PRD_Mobile_or_Manufactured_Home_Park":null,"PUD_Allowance":"Yes","PUD_Required_with_Subdivision":null,"PUD_Requires_Land_Conservation":null,"PUD_Threshold_Number":null,"Notes":"  125 Foot Setback Required When Property Borders Lake"},"geometry":{"type":"MultiPolygon","coordinates":[[[[-72.82331319065813,42.80668214922231],[-72.82340474040353,42.80766353423246],[-72.82253311275042,42.80779561119726],[-72.82279464210026,42.80921572117073],[-72.82170417783215,42.80950819667714],[-72.82206800992357,42.81018894084982],[-72.82269646457223,42.8108370772308],[-72.82291323255505,42.811300990658935],[-72.82320582015369,42.813412034591316],[-72.82334360090992,42.81572838743212],[-72.82778788820502,42.8167920972948],[-72.82784389771352,42.81661769700386],[-72.8277394634269,42.816233191717856],[-72.8278325951073,42.81389856919388],[-72.82790135425203,42.81360552069011],[-72.827884528988,42.81316935706106],[-72.82769181208056,42.81227444774299],[-72.8277801143155,42.811630259705574],[-72.82807554523498,42.8111390099702],[-72.82832184367211,42.8082806610379],[-72.82769895507334,42.807521418257366],[-72.82701539097431,42.80686547608942],[-72.82640499786744,42.80676869316142],[-72.82593809849628,42.80673472221979],[-72.82585893474406,42.807562403887296],[-72.82474213152264,42.807525178653954],[-72.82482048348868,42.80670517794456],[-72.82331319065813,42.80668214922231]]],[[[-72.86017436182155,42.79895383991785],[-72.85990554847106,42.8008844465875],[-72.85926516134843,42.80060261819547],[-72.85499233187458,42.80053923414174],[-72.85341398483337,42.80051578204785],[-72.85342007490671,42.80165302440362],[-72.85391784703049,42.80238747441142],[-72.85432844243412,42.80317515944469],[-72.85456361374911,42.80401528424615],[-72.85455932125292,42.8045708022663],[-72.85615164344037,42.80465828823562],[-72.8561512267033,42.80704973012208],[-72.85673054453189,42.80700600406445],[-72.85671963317833,42.80776566784131],[-72.85768785059837,42.80777635687738],[-72.85895429825217,42.807956586846984],[-72.8596334992226,42.80800040966903],[-72.86069659990754,42.807966936798785],[-72.86145199284744,42.80784309043805],[-72.86153477309585,42.80782156164788],[-72.86047879372471,42.80480387212559],[-72.86435934907631,42.80494997258904],[-72.86429985958688,42.806268060034455],[-72.86556764615885,42.80499190807254],[-72.86779189382091,42.805071722651846],[-72.86834653152182,42.801659235790865],[-72.86320796786553,42.801565335878735],[-72.86358850154085,42.801185110591],[-72.864523324669,42.8006677570456],[-72.86516715520632,42.80016706703816],[-72.86566544339834,42.79960660777475],[-72.86600595332048,42.799109067754465],[-72.86017436182155,42.79895383991785]]],[[[-72.8744244024284,42.78872000557219],[-72.8738146148891,42.78875111332093],[-72.87308000798623,42.788858773557024],[-72.87173571249264,42.78920666921568],[-72.87127005123385,42.78938825757659],[-72.87151027474138,42.78957557258357],[-72.8692421789528,42.79066040540855],[-72.8678469192713,42.790990888014896],[-72.86669574909634,42.78977313889046],[-72.86591080561269,42.78925164115191],[-72.8657743325665,42.79033431940132],[-72.86641515517148,42.79245324377328],[-72.86064726580817,42.79237035227637],[-72.8606233341809,42.792458778102194],[-72.86015063278957,42.792687976288626],[-72.86017483850713,42.792974888795605],[-72.86010866110614,42.79322247619665],[-72.85966869989285,42.79356635278472],[-72.85950461054716,42.79379094709889],[-72.85935922496502,42.794344166179805],[-72.85948121241653,42.7945009585581],[-72.85962219918513,42.79457197293201],[-72.8590184413156,42.795130031073285],[-72.85897296314599,42.795324593354245],[-72.85929091571677,42.79547980280867],[-72.85873107401416,42.79570418040365],[-72.85861938067482,42.79581005940036],[-72.85854802078701,42.796354249443695],[-72.86397972715233,42.79662837359966],[-72.86393559851892,42.79483688134613],[-72.86697813479263,42.7950630900517],[-72.86700109165143,42.795308984119636],[-72.87116190390644,42.79521025969393],[-72.87117400157986,42.7912120435566],[-72.8744244024284,42.78872000557219]]],[[[-72.83106858654108,42.7693849154132],[-72.83099528406548,42.769530512242056],[-72.83061946083087,42.76965430903737],[-72.83037867056449,42.77025625209835],[-72.83028515757387,42.77033576786824],[-72.82962692474806,42.770705258639666],[-72.82949471359979,42.770905919200075],[-72.82915646455264,42.77105834155709],[-72.82849241930867,42.77156144444063],[-72.82817158490197,42.77168909218784],[-72.82799851659814,42.77167171421261],[-72.82798598887094,42.771843396983236],[-72.82850164100537,42.77185993322576],[-72.82836406158047,42.77451457986815],[-72.83409512986306,42.774739473958356],[-72.83392901210223,42.77743860589641],[-72.83419433761073,42.77763805955808],[-72.83486687436056,42.77806970963054],[-72.83720298335065,42.77823259208048],[-72.83760284247272,42.77830813930946],[-72.83884932987175,42.77880123244967],[-72.84019672640702,42.779095904682954],[-72.84191401614542,42.779221202625855],[-72.84322130797692,42.77923451133968],[-72.84507532158348,42.779086061225335],[-72.8457168089803,42.77893207118113],[-72.84612318087267,42.77893856031826],[-72.84533719849148,42.77563123140841],[-72.84292045830946,42.775583998217655],[-72.84271496675812,42.77557524122016],[-72.84267562834098,42.77550535909511],[-72.83972533454721,42.77543684141438],[-72.83999492249286,42.77295012400262],[-72.83990022381191,42.77287364641299],[-72.83954519793296,42.77289008517717],[-72.83932642610955,42.77273831087561],[-72.83907221681302,42.772685257921644],[-72.83873910195868,42.77244897293787],[-72.83815541640762,42.772410362854316],[-72.83787269243702,42.772312373432655],[-72.8372321528144,42.77234941936846],[-72.8359407445373,42.772066016351644],[-72.83524460027569,42.77163786743636],[-72.83520655782627,42.77130983295056],[-72.83542678460363,42.770937199941955],[-72.83438340440291,42.76976548885782],[-72.83379262399482,42.76975068074065],[-72.83298946149989,42.76993114827822],[-72.83243761065741,42.769772775905686],[-72.83198522152279,42.769859043438515],[-72.83169010843358,42.76972396589581],[-72.83157598512612,42.769587489599324],[-72.8313212293325,42.769430763769506],[-72.83106858654108,42.7693849154132]]],[[[-72.90835344672448,42.765247186137756],[-72.90628708737248,42.76530283304144],[-72.90583241151329,42.76811683130227],[-72.90507396515342,42.770497647187966],[-72.90205584426901,42.7703121789952],[-72.900951329022,42.773349638745536],[-72.90234204866434,42.77364729289716],[-72.90188328131161,42.78466501312171],[-72.90403662430234,42.784729480039026],[-72.90453929440845,42.787377543204045],[-72.90496676962083,42.789090101439626],[-72.9136554193546,42.78937904874031],[-72.91362242730163,42.791421559920586],[-72.90789471386404,42.79122688310666],[-72.90789149585139,42.79294884926153],[-72.90391496238938,42.79292127443563],[-72.90313960648001,42.79363611669008],[-72.89952786640342,42.79130424757109],[-72.89759687084704,42.79068169008485],[-72.8960898325115,42.789391285209],[-72.89617637761346,42.787032592758166],[-72.89626553223971,42.78669719795844],[-72.89612556827775,42.785832883373324],[-72.89632719326622,42.785287852862574],[-72.89682830807286,42.78457217171472],[-72.8970101554458,42.78386449841861],[-72.89711766755971,42.782938074057625],[-72.89702825571989,42.78197451436111],[-72.89612808967729,42.77903915905457],[-72.89546038989792,42.77901512826283],[-72.89549315959292,42.77822389226276],[-72.89440394379723,42.77772761555778],[-72.89451771058037,42.77898615201425],[-72.8941460648587,42.77897515731372],[-72.89418351764616,42.77922167003248],[-72.8945234423309,42.78145347258543],[-72.89442725570663,42.78170255824013],[-72.89380622730559,42.78236814957354],[-72.89464861600209,42.78264171070469],[-72.89401972621846,42.78308223804557],[-72.89375674745196,42.78334858229104],[-72.89350214935797,42.78373268107701],[-72.89275026255814,42.78626853576816],[-72.8920767631659,42.787656539932755],[-72.89110176768448,42.78894740709957],[-72.89048321208138,42.78958754377961],[-72.88973730155,42.790021361420315],[-72.88942633776219,42.79074469861794],[-72.88923991492625,42.79077559307213],[-72.88936565661432,42.79093542684218],[-72.88963703260885,42.79084282976233],[-72.89028538168155,42.79135419945298],[-72.89085222350116,42.79135485066862],[-72.89104918780629,42.79157685838655],[-72.89044356583304,42.79257750973786],[-72.89053051447115,42.792919539657824],[-72.89050930284085,42.79331254110914],[-72.89197344699377,42.79325547774459],[-72.89394809405398,42.79364885673252],[-72.89369455628591,42.79438732188059],[-72.89538632456104,42.79468070828224],[-72.89504902950617,42.79651993914168],[-72.89487971033599,42.79748897430646],[-72.89856610484618,42.79785583386983],[-72.89814960028477,42.79974255373222],[-72.89791418794232,42.79984820968073],[-72.89731253357915,42.800629753668204],[-72.8968833714118,42.800903580002974],[-72.89686944933331,42.801415726708484],[-72.89657542314104,42.80167637515223],[-72.89640491093883,42.80171507776509],[-72.89605828424564,42.80163529509513],[-72.89579647964669,42.801857736764255],[-72.89471575885392,42.80198380929736],[-72.89448142571102,42.8024418887302],[-72.89448718362029,42.80286711940424],[-72.89422730514586,42.80303360002003],[-72.89499680315717,42.803585739044955],[-72.89553667821359,42.80407469816543],[-72.89716863096764,42.80602345191669],[-72.89779420913425,42.80658209330548],[-72.89566891938557,42.806538640617774],[-72.89394321662832,42.806429326664116],[-72.89363234999661,42.8100648477529],[-72.88331161809316,42.80951521513395],[-72.88231258680983,42.81368722999939],[-72.88786964761377,42.813769576561256],[-72.88765728423772,42.81916639773726],[-72.88851048668286,42.81915105800018],[-72.89161990940514,42.81890303680628],[-72.89274856894075,42.818938137566285],[-72.89255485690657,42.820511389554355],[-72.8904394423502,42.82023251989028],[-72.8898267475917,42.820211468451106],[-72.88938518042302,42.82024345911909],[-72.88762115116857,42.820541349234986],[-72.88756868896911,42.82193084000445],[-72.88977671139382,42.821980235628494],[-72.88972186149472,42.82164330174849],[-72.89032806233745,42.82166166174599],[-72.89236775660979,42.82289268944381],[-72.89210938118867,42.824821641293006],[-72.88307149515784,42.82434431167295],[-72.88278452140534,42.824968778346765],[-72.88243463098968,42.82549339636384],[-72.88203962703753,42.825893975725414],[-72.88151951473444,42.826210072990975],[-72.87007884141018,42.825682501310105],[-72.87012947178478,42.82539173635628],[-72.86418814270664,42.82525880695849],[-72.86392098519683,42.82518820779548],[-72.86359601275606,42.82523171284838],[-72.86336625310379,42.82554808098693],[-72.86473527041464,42.82607843171198],[-72.86621826597246,42.828271063130664],[-72.8810103099921,42.8286899637266],[-72.89580253964193,42.82910695259811],[-72.91211567071788,42.82953713392895],[-72.92740562375106,42.829814517571485],[-72.92659925159568,42.8233738466569],[-72.92829503458154,42.78737397274454],[-72.92918532070436,42.76625790858104],[-72.92696250843046,42.76661716380273],[-72.92619670167016,42.76663422084644],[-72.92545141644233,42.76697129173842],[-72.92486452188977,42.76735499288738],[-72.92504433159652,42.76836977724021],[-72.9248215073601,42.76854841284704],[-72.92484104564531,42.76861310458759],[-72.92402888602746,42.76917235155998],[-72.92328102706534,42.769359594850314],[-72.92286802198699,42.76938082543276],[-72.92242353358708,42.76931961458501],[-72.92315655948424,42.76952914412567],[-72.92385423550603,42.7693721906057],[-72.92473563666736,42.769280248417225],[-72.92306557413525,42.77265519722762],[-72.92265025298765,42.7731814814421],[-72.92178569723286,42.77390826533286],[-72.91901550384485,42.77387774856781],[-72.92262174913773,42.7803317137905],[-72.913866233948,42.78008606394051],[-72.91441887638027,42.77384998626092],[-72.91270452373693,42.7738199769026],[-72.9127501802174,42.76781507796607],[-72.91176497780774,42.76733813062654],[-72.9112455486213,42.767027319615224],[-72.91025602079849,42.766236932965924],[-72.90892714487545,42.76539840540142],[-72.90835344672448,42.765247186137756]]],[[[-72.88295447234414,42.7621851643367],[-72.88309841241615,42.76386700930327],[-72.88465989935555,42.76391772820108],[-72.88438202284486,42.76825323415711],[-72.88783432134417,42.768350114931344],[-72.88761461613224,42.77297825210678],[-72.88876877305842,42.77300890540514],[-72.89427201545564,42.77324853018741],[-72.89389700997712,42.77215916923108],[-72.89376436422168,42.771171448910486],[-72.89335173071535,42.77119254296525],[-72.89305121213809,42.769981563972834],[-72.89295713814047,42.76983993177778],[-72.8928645347647,42.768599991415925],[-72.89307076037548,42.76540551812448],[-72.88907550264518,42.765400261147704],[-72.88923073849132,42.762508148248],[-72.88295447234414,42.7621851643367]]],[[[-72.8255596965077,42.75301017014159],[-72.82549482078183,42.75505615405489],[-72.82572314114698,42.75506338183014],[-72.82555067567222,42.75850689161429],[-72.8254075807574,42.75866545220907],[-72.82526616685253,42.76002163085103],[-72.82504840680687,42.76434615697013],[-72.82516465371685,42.764349193782664],[-72.82513289103748,42.7645619305674],[-72.82717579022712,42.76463597798927],[-72.82851950352179,42.76454615877392],[-72.83030316115064,42.7645979724414],[-72.83048551724431,42.76226887041523],[-72.83145966191057,42.76187877076386],[-72.83054093175707,42.76102408223926],[-72.83060633311614,42.76036213258816],[-72.83455754953685,42.76054533113249],[-72.83468514475031,42.758646541019594],[-72.83384245536142,42.757840589411124],[-72.83191451652813,42.75547152331056],[-72.83177383761998,42.7553627947367],[-72.83183275297914,42.754742230278424],[-72.83172825673873,42.75454723055747],[-72.83023519222824,42.75330924356606],[-72.8255596965077,42.75301017014159]]],[[[-72.91072268945368,42.73878339325321],[-72.91160251693849,42.74366070798881],[-72.91136678117826,42.74368179909338],[-72.91133025394299,42.743756962703245],[-72.90861481250121,42.7443050711321],[-72.90823741404617,42.74949383159811],[-72.90854940539414,42.751142219580686],[-72.90849634260653,42.75549997393317],[-72.91154461169725,42.755503916896025],[-72.91140369650412,42.760518252138404],[-72.91857915998636,42.76000291092269],[-72.92299950141921,42.75997141800412],[-72.92302420935988,42.7631551209697],[-72.92931335358878,42.76322122599304],[-72.92981371666136,42.751353448758834],[-72.93010501964913,42.739199042091364],[-72.91072268945368,42.73878339325321]]]]}},{"type":"Feature","properties":{"OBJECT_ID":1244,"County":"Windham","RPC":"WRC","Municipal_Name":"Whitingham","GEO_ID":"5002583950","District_Name":"Rural","Abbreviated_District_Name":"Ru","District_Type":"Mixed with Residential","Bylaw_Date":null,"Elderly_Housing_District":"No","District_Mapped":"Yes","Overlay_District":"No","Base_Density":null,"FIPS6":null,"GIS_ID":null,"Last_Update":null,"Shape_Length":97823.44701053463,"Shape_Area":52099490.64543575,"F1F_Allowance":"Permitted","F1F_Front_Setback":65.0,"F1F_Side_Setback":40.0,"F1F_Rear_Setback":40.0,"F1F_Frontage":null,"F1F_Max_Height":35.0,"F1F_Max_Stories":null,"F1F_Min_Lot_Size":3.0,"F1F_Max_Lot_Building_Coverage":10.0,"F1F_Max_Lot_Impervious_Coverage":null,"F1F_Min_Parking_Spaces":2.0,"F1F_Elderly_Housing_Only":null,"F1F_Affordable_Housing_Only":null,"F2F_Allowance":"Permitted","F2F_Front_Setback":65.0,"F2F_Side_Setback":40.0,"F2F_Rear_Setback":40.0,"F2F_Frontage":null,"F2F_Max_Density":null,"F2F_Max_Height":35.0,"F2F_Max_Stories":null,"F2F_Min_Lot_Size":3.0,"F2F_Max_Lot_Building_Coverage":10.0,"F2F_Max_Lot_Impervious_Coverage":null,"F2F_Min_Parking_Spaces_per_1BR":1.5,"F2F_Min_Parking_Spaces_per_mult_BR":1.5,"F2F_Elderly_Housing_Only":"No","F2F_Affordable_Housing_Only":"No","F3F_Allowance":"Public Hearing","F3F_Front_Setback":65.0,"F3F_Side_Setback":40.0,"F3F_Rear_Setback":40.0,"F3F_Frontage":null,"F3F_Max_Density":null,"F3F_Max_Height":35.0,"F3F_Max_Stories":null,"F3F_Min_Lot_Size":3.0,"F3F_Max_Lot_Building_Coverage":10.0,"F3F_Max_Lot_Impervious_Coverage":null,"F3F_Min_Parking_Spaces_per_1BR":1.5,"F3F_Min_Parking_Spaces_per_mult_BR":1.5,"F3F_Affordable_Housing_Only":"No","F3F_Proximity_to_Public_Transit_Required":null,"F3F_Connection_to_Sewage/Water_Required":null,"F4F_Allowance":"Public Hearing","F4F_Front_Setback":65.0,"F4F_Side_Setback":40.0,"F4F_Rear_Setback":40.0,"F4F_Frontage":null,"F1F_Max_Density":null,"F4F_Max_Density":null,"F4F_Max_Height":35.0,"F4F_Max_Stories":null,"F4F_Min_Lot_Size":3.0,"F4F_Max_Lot_Building_Coverage":10.0,"F4F_Max_Lot_Impervious_Coverage":null,"F4F_Min_Parking_Spaces_per_1BR":1.5,"F4F_Min_Parking_Spaces_per_mult_BR":1.5,"F3F_Elderly_Housing_Only":"No","F4F_Elderly_Housing_Only":"No","F4F_Affordable_Housing_Only":"No","F4F_Proximity_to_Public_Transit_Required":null,"F4F_Connection_to_Sewage/Water_Required":null,"ADU_Allowance":"Allowed/Conditional","ADU_Elderly_Housing_Only":null,"ADU_Max_Size_as_Percent_of_Primary_Strcture":50.0,"ADU_Max_Size_in_sq_ft":null,"ADU_Min_Lot_Size":null,"ADU_Max_Bedrooms":null,"ADU_Min_Parking_Spaces":null,"ADU_Owner_Occupancy_Required":"Yes","ADU_Renter_Occupancy_Prohibited":null,"ADU_Employee_or_Family_Occupancy_Required":null,"ADU_Restricted_to_Primary_Structure":null,"Affordable_Housing_Allowance":"Not Mentioned","Affordable_Housing_District":"No","Affordable_Housing_Elderly_Only":null,"Affordable_Housing_Min_Lot_Size":null,"Affordable_Housing_Max_Density":null,"Affordable_Housing_Min_Parking_Spaces_per_mult_BR":null,"Affordable_Housing_Max_Units_per_Building":null,"Affordable_Housing_Min_Parking_Spaces_per_1BR":null,"PRD_Allowance":"Not Mentioned","PRD_Max_Density":null,"PRD_Max_Units":null,"PRD_Min_Lot_Size":null,"PRD_Mobile_or_Manufactured_Home_Park":null,"PUD_Allowance":"Yes","PUD_Required_with_Subdivision":null,"PUD_Requires_Land_Conservation":null,"PUD_Threshold_Number":null,"Notes":"  125 Foot Setback Required When Property Borders Lake"},"geometry":{"type":"MultiPolygon","coordinates":[[[[-72.81227200748752,42.746149714980206],[-72.81233540059422,42.746760339665826],[-72.81253263620202,42.74737428819177],[-72.81267105853175,42.74765894071278],[-72.81299699362556,42.74767893642302],[-72.81218775261834,42.750745564984946],[-72.81202445771098,42.75380534914448],[-72.81121993241324,42.7588749765894],[-72.81144771604188,42.75907746998496],[-72.81145485175045,42.75934724774955],[-72.8107852789461,42.75944795298074],[-72.81007114126395,42.759714046896846],[-72.80948896311816,42.76011863484681],[-72.80908669015784,42.760628399291065],[-72.80889745643489,42.76120135839411],[-72.80891056438925,42.76167359259178],[-72.80910236110807,42.7621942534295],[-72.80942967956858,42.76267502376047],[-72.80983912414524,42.76537618836214],[-72.80883662847093,42.76638890466484],[-72.8078765721631,42.76725141108736],[-72.80736539351206,42.7678046558055],[-72.80628030081013,42.76916303901826],[-72.8058105270768,42.76996292242284],[-72.80617925954547,42.762489865613865],[-72.80696922643003,42.73642546387473],[-72.81262839038865,42.736563139067655],[-72.81227200748752,42.746149714980206]]],[[[-72.86244995763776,42.73773268482264],[-72.87854070330987,42.738085182380004],[-72.89463161453243,42.73843541854953],[-72.91072268945368,42.73878339325321],[-72.91160251693849,42.74366070798881],[-72.91136678117826,42.74368179909338],[-72.91133025394299,42.743756962703245],[-72.90861481250121,42.7443050711321],[-72.90823741404617,42.74949383159811],[-72.90854940539414,42.751142219580686],[-72.90849634260653,42.75549997393317],[-72.91154461169725,42.755503916896025],[-72.91140369650412,42.760518252138404],[-72.91857915998636,42.76000291092269],[-72.92299950141921,42.75997141800412],[-72.92302420935988,42.7631551209697],[-72.92931335358878,42.76322122599304],[-72.92918532070436,42.76625790858104],[-72.92696250843046,42.76661716380273],[-72.92619670167016,42.76663422084644],[-72.92545141644233,42.76697129173842],[-72.92486452188977,42.76735499288738],[-72.92504433159652,42.76836977724021],[-72.9248215073601,42.76854841284704],[-72.92484104564531,42.76861310458759],[-72.92402888602746,42.76917235155998],[-72.92328102706534,42.769359594850314],[-72.92286802198699,42.76938082543276],[-72.92242353358708,42.76931961458501],[-72.92315655948424,42.76952914412567],[-72.92385423550603,42.7693721906057],[-72.92473563666736,42.769280248417225],[-72.92306557413525,42.77265519722762],[-72.92265025298765,42.7731814814421],[-72.92178569723286,42.77390826533286],[-72.91901550384485,42.77387774856781],[-72.92262174913773,42.7803317137905],[-72.913866233948,42.78008606394051],[-72.91441887638027,42.77384998626092],[-72.91270452373693,42.7738199769026],[-72.9127501802174,42.76781507796607],[-72.91176497780774,42.76733813062654],[-72.9112455486213,42.767027319615224],[-72.91025602079849,42.766236932965924],[-72.90892714487545,42.76539840540142],[-72.90835344672448,42.765247186137756],[-72.90628708737248,42.76530283304144],[-72.90583241151329,42.76811683130227],[-72.90507396515342,42.770497647187966],[-72.90205584426901,42.7703121789952],[-72.900951329022,42.773349638745536],[-72.90234204866434,42.77364729289716],[-72.90188328131161,42.78466501312171],[-72.90403662430234,42.784729480039026],[-72.90453929440845,42.787377543204045],[-72.90496676962083,42.789090101439626],[-72.9136554193546,42.78937904874031],[-72.91362242730163,42.791421559920586],[-72.90789471386404,42.79122688310666],[-72.90789149585139,42.79294884926153],[-72.90391496238938,42.79292127443563],[-72.90313960648001,42.79363611669008],[-72.89952786640342,42.79130424757109],[-72.89759687084704,42.79068169008485],[-72.8960898325115,42.789391285209],[-72.89617637761346,42.787032592758166],[-72.89626553223971,42.78669719795844],[-72.89612556827775,42.785832883373324],[-72.89632719326622,42.785287852862574],[-72.89682830807286,42.78457217171472],[-72.8970101554458,42.78386449841861],[-72.89711766755971,42.782938074057625],[-72.89702825571989,42.78197451436111],[-72.89612808967729,42.77903915905457],[-72.89546038989792,42.77901512826283],[-72.89549315959292,42.77822389226276],[-72.89440394379723,42.77772761555778],[-72.89451771058037,42.77898615201425],[-72.8941460648587,42.77897515731372],[-72.89418351764616,42.77922167003248],[-72.88937039877555,42.77913702674193],[-72.88925257420853,42.779533379376744],[-72.88236941065438,42.77942315061312],[-72.87451721754914,42.77737874887102],[-72.87436162140122,42.77260612867265],[-72.87460484436325,42.77215061734041],[-72.87472498551512,42.77174566917911],[-72.8747218358249,42.77008426460649],[-72.87501217031435,42.769663835208625],[-72.87562390247541,42.769353925007856],[-72.87204203910458,42.76936812441008],[-72.87201294179143,42.77063175126394],[-72.8679465303361,42.77032145622063],[-72.86807321417858,42.77002360156509],[-72.86639265818049,42.76945639374531],[-72.86651151163824,42.770063490024526],[-72.8627759179973,42.769016420594056],[-72.86387143842842,42.77044610341356],[-72.85946488387827,42.769826459361724],[-72.85799706167649,42.769155785277036],[-72.85783501166662,42.77184825895787],[-72.85708940039105,42.77173716359978],[-72.85705438392732,42.773884674186704],[-72.8561076810993,42.77387195278148],[-72.85573631330863,42.7866443022335],[-72.85736760056878,42.786715825010106],[-72.85925168316008,42.786648887338956],[-72.85985393128387,42.786701783420106],[-72.86063592308498,42.78686219994859],[-72.86152500980647,42.78717907134788],[-72.86231658601088,42.78760655921305],[-72.86312602466963,42.787952030418225],[-72.8645490395095,42.78838697801403],[-72.86518953814428,42.78864053027095],[-72.865947708226,42.78904402593337],[-72.86591080561269,42.78925164115191],[-72.8657743325665,42.79033431940132],[-72.86641515517148,42.79245324377328],[-72.86064726580817,42.79237035227637],[-72.8606233341809,42.792458778102194],[-72.86015063278957,42.792687976288626],[-72.86017483850713,42.792974888795605],[-72.86010866110614,42.79322247619665],[-72.85966869989285,42.79356635278472],[-72.85950461054716,42.79379094709889],[-72.85935922496502,42.794344166179805],[-72.85948121241653,42.7945009585581],[-72.85962219918513,42.79457197293201],[-72.8590184413156,42.795130031073285],[-72.85897296314599,42.795324593354245],[-72.85929091571677,42.79547980280867],[-72.85873107401416,42.79570418040365],[-72.85861938067482,42.79581005940036],[-72.85854802078701,42.796354249443695],[-72.86397972715233,42.79662837359966],[-72.86393559851892,42.79483688134613],[-72.86697813479263,42.7950630900517],[-72.86700109165143,42.795308984119636],[-72.87116190390644,42.79521025969393],[-72.87115663751516,42.79693528887018],[-72.8773873366098,42.79716916059899],[-72.88904455406258,42.797783938452234],[-72.88951518350464,42.79681077087212],[-72.8896758637383,42.795996940573566],[-72.88991289450033,42.79553233203184],[-72.89504902950617,42.79651993914168],[-72.89487971033599,42.79748897430646],[-72.89856610484618,42.79785583386983],[-72.89814960028477,42.79974255373222],[-72.89791418794232,42.79984820968073],[-72.89731253357915,42.800629753668204],[-72.8968833714118,42.800903580002974],[-72.89686944933331,42.801415726708484],[-72.89657542314104,42.80167637515223],[-72.89640491093883,42.80171507776509],[-72.89605828424564,42.80163529509513],[-72.89579647964669,42.801857736764255],[-72.89471575885392,42.80198380929736],[-72.89448142571102,42.8024418887302],[-72.89448718362029,42.80286711940424],[-72.89422730514586,42.80303360002003],[-72.89499680315717,42.803585739044955],[-72.89553667821359,42.80407469816543],[-72.89716863096764,42.80602345191669],[-72.89779420913425,42.80658209330548],[-72.89566891938557,42.806538640617774],[-72.89394321662832,42.806429326664116],[-72.89363234999661,42.8100648477529],[-72.88331161809316,42.80951521513395],[-72.88231258680983,42.81368722999939],[-72.88786964761377,42.813769576561256],[-72.88765728423772,42.81916639773726],[-72.88851048668286,42.81915105800018],[-72.89161990940514,42.81890303680628],[-72.89274856894075,42.818938137566285],[-72.89255485690657,42.820511389554355],[-72.8904394423502,42.82023251989028],[-72.8898267475917,42.820211468451106],[-72.88938518042302,42.82024345911909],[-72.88762115116857,42.820541349234986],[-72.88756868896911,42.82193084000445],[-72.88977671139382,42.821980235628494],[-72.88972186149472,42.82164330174849],[-72.89032806233745,42.82166166174599],[-72.89236775660979,42.82289268944381],[-72.89210938118867,42.824821641293006],[-72.88307149515784,42.82434431167295],[-72.88278452140534,42.824968778346765],[-72.88243463098968,42.82549339636384],[-72.88203962703753,42.825893975725414],[-72.88151951473444,42.826210072990975],[-72.87007884141018,42.825682501310105],[-72.87012947178478,42.82539173635628],[-72.86418814270664,42.82525880695849],[-72.86392098519683,42.82518820779548],[-72.86359601275606,42.82523171284838],[-72.86336625310379,42.82554808098693],[-72.86473527041464,42.82607843171198],[-72.86621826597246,42.828271063130664],[-72.84686458442769,42.827724233924236],[-72.83550144532549,42.82742303678201],[-72.83811077962329,42.823426263059915],[-72.83957917427539,42.82135523740687],[-72.84076722233344,42.822108127616154],[-72.84084075733601,42.82199854428148],[-72.84126924423919,42.822293850568656],[-72.84146939114918,42.82199621944917],[-72.84232436961457,42.822420402115924],[-72.84223138937256,42.81998447374071],[-72.84494702941201,42.81953173657566],[-72.84690339590396,42.819287563730185],[-72.85012227280411,42.81997471795863],[-72.85043002369731,42.81700169132185],[-72.85052683097884,42.816875199254426],[-72.85126432534061,42.817522245425586],[-72.85170267609212,42.817806197617074],[-72.85328357077104,42.81680446608613],[-72.85581590707467,42.81733833479681],[-72.85617484776411,42.81469700080861],[-72.8514591597101,42.81338266671056],[-72.85207499398025,42.813100916008075],[-72.85266177619575,42.812731423430634],[-72.85317556118729,42.81230591240598],[-72.85379175862347,42.8116846057742],[-72.85452089508887,42.81069146923529],[-72.85499244029707,42.809660018027365],[-72.8551474254674,42.808976032363404],[-72.85514634698538,42.808039740739474],[-72.85455932125292,42.8045708022663],[-72.85615164344037,42.80465828823562],[-72.8561512267033,42.80704973012208],[-72.85673054453189,42.80700600406445],[-72.85671963317833,42.80776566784131],[-72.85768785059837,42.80777635687738],[-72.85895429825217,42.807956586846984],[-72.8596334992226,42.80800040966903],[-72.86069659990754,42.807966936798785],[-72.86145199284744,42.80784309043805],[-72.86153477309585,42.80782156164788],[-72.86047879372471,42.80480387212559],[-72.86435934907631,42.80494997258904],[-72.86429985958688,42.806268060034455],[-72.86556764615885,42.80499190807254],[-72.86779189382091,42.805071722651846],[-72.86834653152182,42.801659235790865],[-72.86320796786553,42.801565335878735],[-72.86358850154085,42.801185110591],[-72.864523324669,42.8006677570456],[-72.86516715520632,42.80016706703816],[-72.86566544339834,42.79960660777475],[-72.86600595332048,42.799109067754465],[-72.86017436182155,42.79895383991785],[-72.85990554847106,42.8008844465875],[-72.85926516134843,42.80060261819547],[-72.85499233187458,42.80053923414174],[-72.8545991895773,42.79617815980543],[-72.85479593338505,42.795235068884104],[-72.8548572718838,42.79458598067229],[-72.85464655292945,42.792307885247574],[-72.85228510607614,42.79230057183809],[-72.85228486733622,42.79225890893196],[-72.85073582872703,42.792233061977235],[-72.84927295287667,42.79231454722226],[-72.84937341177194,42.790889120272],[-72.8479062360188,42.790246651751474],[-72.84787901170911,42.79031353296071],[-72.8475000597992,42.790236177755226],[-72.84440510121566,42.79010991958221],[-72.84418132148264,42.78818611575484],[-72.8443254717627,42.787802070897854],[-72.84406510162474,42.78768618672334],[-72.8440716981617,42.78687566870848],[-72.84447857134336,42.78372624759182],[-72.84363930513679,42.78362318210146],[-72.84368128180557,42.78320445658427],[-72.84326703934978,42.7830883777226],[-72.84415871441891,42.78231605972658],[-72.84381876656549,42.782303753191165],[-72.84173731547394,42.78120177007189],[-72.84067184641171,42.78233769065067],[-72.83908829312469,42.782450680894385],[-72.83783515378894,42.78285839444922],[-72.8371177909364,42.783269040974865],[-72.83571273436625,42.78428224104625],[-72.83446906690007,42.7847686001038],[-72.83245048137861,42.78565697115006],[-72.83168653503328,42.786153844861246],[-72.83128403973078,42.786550582751545],[-72.83046822224264,42.78754835471315],[-72.82706455432894,42.788898708911944],[-72.82648931646287,42.789268287369154],[-72.82603528746542,42.78981404700004],[-72.82539839030478,42.78958707563794],[-72.82307581441503,42.78946287144487],[-72.8230700018163,42.78929515560186],[-72.81911920634514,42.78909867297963],[-72.81961986584194,42.78952624005906],[-72.81917152026644,42.78968920305318],[-72.81846897036458,42.78899208844191],[-72.8179834292211,42.78860449059429],[-72.81665279205004,42.78771827704272],[-72.81464875364372,42.78885614082144],[-72.81501579486165,42.78907819741716],[-72.81559201474344,42.78919989779687],[-72.81590109919603,42.78914306401051],[-72.81596524108109,42.78898700700157],[-72.81643815595324,42.78929842721162],[-72.81611068669847,42.789646010082734],[-72.81638519720352,42.790147517875646],[-72.81585758054405,42.790423238721715],[-72.81488777599385,42.791174122577864],[-72.81443782031461,42.79140073359636],[-72.81402591600828,42.79137292472135],[-72.8130920733465,42.79184263915597],[-72.80976847643561,42.79174826410039],[-72.80971216477903,42.79324845195733],[-72.81003165414096,42.7944264204374],[-72.80890279479442,42.79525159919887],[-72.80765556961485,42.79701955302547],[-72.81038726180847,42.797083553817345],[-72.81024072352412,42.80096629281046],[-72.81084992837407,42.80098938842759],[-72.81049379472199,42.80175066244071],[-72.81035963545575,42.80242228584728],[-72.81024949587629,42.8037001757796],[-72.81095341596841,42.8037409589772],[-72.81101864299517,42.80379461716121],[-72.81102008272269,42.804541579571406],[-72.81152089363519,42.80468237955872],[-72.81242997144923,42.80509773125934],[-72.81213068817473,42.80545061089455],[-72.8121363875876,42.80559768980821],[-72.811827925445,42.80617585607786],[-72.81215295028585,42.80630951692501],[-72.81246251911301,42.806632608941875],[-72.81241341926292,42.806667978954096],[-72.81227150382448,42.806633868174046],[-72.81212835256585,42.806735461940136],[-72.81191198756545,42.80716717405519],[-72.81165573706191,42.80703807579942],[-72.8114815566994,42.80712189211822],[-72.81146583766275,42.80741723724506],[-72.81167238443108,42.80761556596741],[-72.81075421027897,42.807678196318086],[-72.80967442899393,42.80766410662023],[-72.80951809707759,42.808340913214685],[-72.80939883384622,42.81062822678849],[-72.80927368960153,42.811739369025524],[-72.80446868819435,42.811776871104115],[-72.80374071030681,42.81181830292094],[-72.80489712185316,42.78776054021307],[-72.80544103931489,42.77728759415252],[-72.80902732996682,42.777209347589604],[-72.8090302407082,42.77710291808137],[-72.81204675318303,42.777177898393525],[-72.81200374091527,42.77637491996952],[-72.81190744580631,42.775863744675114],[-72.8124273804378,42.77512590606456],[-72.81280910589571,42.77439642931624],[-72.81370548955948,42.77203562415366],[-72.81464305776137,42.77089570543875],[-72.81626758336286,42.769369662381806],[-72.81747686558602,42.76903353066037],[-72.81861663278993,42.768550380662724],[-72.8193128297072,42.76815194841479],[-72.82251588862773,42.76607582655541],[-72.8234701686226,42.76529252997875],[-72.82388202141685,42.76480926728745],[-72.82419103400791,42.76432376913319],[-72.82504840680687,42.76434615697013],[-72.82516465371685,42.764349193782664],[-72.82513289103748,42.7645619305674],[-72.82717579022712,42.76463597798927],[-72.82851950352179,42.76454615877392],[-72.83030316115064,42.7645979724414],[-72.83048551724431,42.76226887041523],[-72.83145966191057,42.76187877076386],[-72.83054093175707,42.76102408223926],[-72.83060633311614,42.76036213258816],[-72.83455754953685,42.76054533113249],[-72.83468514475031,42.758646541019594],[-72.83384245536142,42.757840589411124],[-72.83191451652813,42.75547152331056],[-72.83177383761998,42.7553627947367],[-72.83183275297914,42.754742230278424],[-72.83172825673873,42.75454723055747],[-72.83023519222824,42.75330924356606],[-72.8319424111232,42.751971504156764],[-72.83084249372047,42.75160836067659],[-72.83080666313167,42.745055954987016],[-72.82957313853761,42.74391841361679],[-72.82890598805061,42.7431250470238],[-72.83022935761309,42.74156436404506],[-72.82975623047943,42.741208306293565],[-72.82906067883002,42.7407950664471],[-72.82845624383486,42.74053159459277],[-72.8279804083064,42.740392092557165],[-72.82739030213023,42.74028568508917],[-72.82675372951552,42.740244686680896],[-72.82570462387838,42.74033805174665],[-72.82496323915294,42.74026375956188],[-72.82385627773087,42.74032093802056],[-72.823195655921,42.74011574881153],[-72.82229411230286,42.7396758693947],[-72.82166603647613,42.739458253915096],[-72.8208415858354,42.73929360064392],[-72.81998919760976,42.73924568365701],[-72.82006886987331,42.73674372326989],[-72.84635937936777,42.73737792595617],[-72.86244995763776,42.73773268482264]],[[-72.88465989935555,42.76391772820108],[-72.88438202284486,42.76825323415711],[-72.88783432134417,42.768350114931344],[-72.88761461613224,42.77297825210678],[-72.88876877305842,42.77300890540514],[-72.89427201545564,42.77324853018741],[-72.89389700997712,42.77215916923108],[-72.89376436422168,42.771171448910486],[-72.89335173071535,42.77119254296525],[-72.89305121213809,42.769981563972834],[-72.89295713814047,42.76983993177778],[-72.8928645347647,42.768599991415925],[-72.89307076037548,42.76540551812448],[-72.88907550264518,42.765400261147704],[-72.88923073849132,42.762508148248],[-72.88295447234414,42.7621851643367],[-72.88309841241615,42.76386700930327],[-72.88465989935555,42.76391772820108]],[[-72.83061946083087,42.76965430903737],[-72.83037867056449,42.77025625209835],[-72.83028515757387,42.77033576786824],[-72.82962692474806,42.770705258639666],[-72.82949471359979,42.770905919200075],[-72.82915646455264,42.77105834155709],[-72.82849241930867,42.77156144444063],[-72.82817158490197,42.77168909218784],[-72.82799851659814,42.77167171421261],[-72.82798598887094,42.771843396983236],[-72.82850164100537,42.77185993322576],[-72.82836406158047,42.77451457986815],[-72.83409512986306,42.774739473958356],[-72.83392901210223,42.77743860589641],[-72.83419433761073,42.77763805955808],[-72.83486687436056,42.77806970963054],[-72.83720298335065,42.77823259208048],[-72.83760284247272,42.77830813930946],[-72.83884932987175,42.77880123244967],[-72.84019672640702,42.779095904682954],[-72.84191401614542,42.779221202625855],[-72.84322130797692,42.77923451133968],[-72.84507532158348,42.779086061225335],[-72.8457168089803,42.77893207118113],[-72.84612318087267,42.77893856031826],[-72.84533719849148,42.77563123140841],[-72.84292045830946,42.775583998217655],[-72.84271496675812,42.77557524122016],[-72.84267562834098,42.77550535909511],[-72.83972533454721,42.77543684141438],[-72.83999492249286,42.77295012400262],[-72.83990022381191,42.77287364641299],[-72.83954519793296,42.77289008517717],[-72.83932642610955,42.77273831087561],[-72.83907221681302,42.772685257921644],[-72.83873910195868,42.77244897293787],[-72.83815541640762,42.772410362854316],[-72.83787269243702,42.772312373432655],[-72.8372321528144,42.77234941936846],[-72.8359407445373,42.772066016351644],[-72.83524460027569,42.77163786743636],[-72.83520655782627,42.77130983295056],[-72.83542678460363,42.770937199941955],[-72.83438340440291,42.76976548885782],[-72.83379262399482,42.76975068074065],[-72.83298946149989,42.76993114827822],[-72.83243761065741,42.769772775905686],[-72.83198522152279,42.769859043438515],[-72.83169010843358,42.76972396589581],[-72.83157598512612,42.769587489599324],[-72.8313212293325,42.769430763769506],[-72.83106858654108,42.7693849154132],[-72.83099528406548,42.769530512242056],[-72.83061946083087,42.76965430903737]]]]}},{"type":"Feature","properties":{"OBJECT_ID":1243,"County":"Windham","RPC":"WRC","Municipal_Name":"Whitingham","GEO_ID":"5002583950","District_Name":"Rura Residential","Abbreviated_District_Name":"Rr","District_Type":"Mixed with Residential","Bylaw_Date":null,"Elderly_Housing_District":"No","District_Mapped":"Yes","Overlay_District":"No","Base_Density":null,"FIPS6":null,"GIS_ID":null,"Last_Update":null,"Shape_Length":56914.01063637164,"Shape_Area":25430640.262027595,"F1F_Allowance":"Permitted","F1F_Front_Setback":65.0,"F1F_Side_Setback":25.0,"F1F_Rear_Setback":25.0,"F1F_Frontage":null,"F1F_Max_Height":35.0,"F1F_Max_Stories":null,"F1F_Min_Lot_Size":3.0,"F1F_Max_Lot_Building_Coverage":10.0,"F1F_Max_Lot_Impervious_Coverage":null,"F1F_Min_Parking_Spaces":2.0,"F1F_Elderly_Housing_Only":null,"F1F_Affordable_Housing_Only":null,"F2F_Allowance":"Permitted","F2F_Front_Setback":65.0,"F2F_Side_Setback":25.0,"F2F_Rear_Setback":25.0,"F2F_Frontage":null,"F2F_Max_Density":null,"F2F_Max_Height":35.0,"F2F_Max_Stories":null,"F2F_Min_Lot_Size":3.0,"F2F_Max_Lot_Building_Coverage":10.0,"F2F_Max_Lot_Impervious_Coverage":null,"F2F_Min_Parking_Spaces_per_1BR":1.5,"F2F_Min_Parking_Spaces_per_mult_BR":1.5,"F2F_Elderly_Housing_Only":"No","F2F_Affordable_Housing_Only":"No","F3F_Allowance":"Public Hearing","F3F_Front_Setback":65.0,"F3F_Side_Setback":25.0,"F3F_Rear_Setback":25.0,"F3F_Frontage":null,"F3F_Max_Density":null,"F3F_Max_Height":35.0,"F3F_Max_Stories":null,"F3F_Min_Lot_Size":3.0,"F3F_Max_Lot_Building_Coverage":10.0,"F3F_Max_Lot_Impervious_Coverage":null,"F3F_Min_Parking_Spaces_per_1BR":1.5,"F3F_Min_Parking_Spaces_per_mult_BR":1.5,"F3F_Affordable_Housing_Only":"No","F3F_Proximity_to_Public_Transit_Required":null,"F3F_Connection_to_Sewage/Water_Required":null,"F4F_Allowance":"Public Hearing","F4F_Front_Setback":65.0,"F4F_Side_Setback":25.0,"F4F_Rear_Setback":25.0,"F4F_Frontage":null,"F1F_Max_Density":null,"F4F_Max_Density":null,"F4F_Max_Height":35.0,"F4F_Max_Stories":null,"F4F_Min_Lot_Size":3.0,"F4F_Max_Lot_Building_Coverage":10.0,"F4F_Max_Lot_Impervious_Coverage":null,"F4F_Min_Parking_Spaces_per_1BR":1.5,"F4F_Min_Parking_Spaces_per_mult_BR":1.5,"F3F_Elderly_Housing_Only":"No","F4F_Elderly_Housing_Only":"No","F4F_Affordable_Housing_Only":"No","F4F_Proximity_to_Public_Transit_Required":null,"F4F_Connection_to_Sewage/Water_Required":null,"ADU_Allowance":"Allowed/Conditional","ADU_Elderly_Housing_Only":null,"ADU_Max_Size_as_Percent_of_Primary_Strcture":50.0,"ADU_Max_Size_in_sq_ft":null,"ADU_Min_Lot_Size":null,"ADU_Max_Bedrooms":null,"ADU_Min_Parking_Spaces":null,"ADU_Owner_Occupancy_Required":"Yes","ADU_Renter_Occupancy_Prohibited":null,"ADU_Employee_or_Family_Occupancy_Required":null,"ADU_Restricted_to_Primary_Structure":null,"Affordable_Housing_Allowance":"Not Mentioned","Affordable_Housing_District":"No","Affordable_Housing_Elderly_Only":null,"Affordable_Housing_Min_Lot_Size":null,"Affordable_Housing_Max_Density":null,"Affordable_Housing_Min_Parking_Spaces_per_mult_BR":null,"Affordable_Housing_Max_Units_per_Building":null,"Affordable_Housing_Min_Parking_Spaces_per_1BR":null,"PRD_Allowance":"Not Mentioned","PRD_Max_Density":null,"PRD_Max_Units":null,"PRD_Min_Lot_Size":null,"PRD_Mobile_or_Manufactured_Home_Park":null,"PUD_Allowance":"Yes","PUD_Required_with_Subdivision":null,"PUD_Requires_Land_Conservation":null,"PUD_Threshold_Number":null,"Notes":"  125 Foot Setback Required When Property Borders Lake"},"geometry":{"type":"MultiPolygon","coordinates":[[[[-72.81998919760976,42.73924568365701],[-72.8208415858354,42.73929360064392],[-72.82166603647613,42.739458253915096],[-72.82229411230286,42.7396758693947],[-72.823195655921,42.74011574881153],[-72.82385627773087,42.74032093802056],[-72.82496323915294,42.74026375956188],[-72.82570462387838,42.74033805174665],[-72.82675372951552,42.740244686680896],[-72.82739030213023,42.74028568508917],[-72.8279804083064,42.740392092557165],[-72.82845624383486,42.74053159459277],[-72.82906067883002,42.7407950664471],[-72.82975623047943,42.741208306293565],[-72.83022935761309,42.74156436404506],[-72.82890598805061,42.7431250470238],[-72.82957313853761,42.74391841361679],[-72.83080666313167,42.745055954987016],[-72.83084249372047,42.75160836067659],[-72.8319424111232,42.751971504156764],[-72.83023519222824,42.75330924356606],[-72.8255596965077,42.75301017014159],[-72.82549482078183,42.75505615405489],[-72.82572314114698,42.75506338183014],[-72.82555067567222,42.75850689161429],[-72.8254075807574,42.75866545220907],[-72.82526616685253,42.76002163085103],[-72.82504840680687,42.76434615697013],[-72.82419103400791,42.76432376913319],[-72.82388202141685,42.76480926728745],[-72.8234701686226,42.76529252997875],[-72.82251588862773,42.76607582655541],[-72.8193128297072,42.76815194841479],[-72.81861663278993,42.768550380662724],[-72.81747686558602,42.76903353066037],[-72.81626758336286,42.769369662381806],[-72.81464305776137,42.77089570543875],[-72.81370548955948,42.77203562415366],[-72.81280910589571,42.77439642931624],[-72.8124273804378,42.77512590606456],[-72.81190744580631,42.775863744675114],[-72.81200374091527,42.77637491996952],[-72.81204675318303,42.777177898393525],[-72.8090302407082,42.77710291808137],[-72.80902732996682,42.777209347589604],[-72.80544103931489,42.77728759415252],[-72.80560262512378,42.77417567961462],[-72.8058105270768,42.76996292242284],[-72.80628030081013,42.76916303901826],[-72.80736539351206,42.7678046558055],[-72.8078765721631,42.76725141108736],[-72.80883662847093,42.76638890466484],[-72.80983912414524,42.76537618836214],[-72.80942967956858,42.76267502376047],[-72.80910236110807,42.7621942534295],[-72.80891056438925,42.76167359259178],[-72.80889745643489,42.76120135839411],[-72.80908669015784,42.760628399291065],[-72.80948896311816,42.76011863484681],[-72.81007114126395,42.759714046896846],[-72.8107852789461,42.75944795298074],[-72.81145485175045,42.75934724774955],[-72.81144771604188,42.75907746998496],[-72.81121993241324,42.7588749765894],[-72.81202445771098,42.75380534914448],[-72.81218775261834,42.750745564984946],[-72.81299699362556,42.74767893642302],[-72.81267105853175,42.74765894071278],[-72.81253263620202,42.74737428819177],[-72.81233540059422,42.746760339665826],[-72.81227200748752,42.746149714980206],[-72.81262839038865,42.736563139067655],[-72.82006886987331,42.73674372326989],[-72.81998919760976,42.73924568365701]]],[[[-72.86807321417858,42.77002360156509],[-72.8679465303361,42.77032145622063],[-72.87201294179143,42.77063175126394],[-72.87204203910458,42.76936812441008],[-72.87562390247541,42.769353925007856],[-72.87501217031435,42.769663835208625],[-72.8747218358249,42.77008426460649],[-72.87472498551512,42.77174566917911],[-72.87460484436325,42.77215061734041],[-72.87436162140122,42.77260612867265],[-72.87451721754914,42.77737874887102],[-72.88236941065438,42.77942315061312],[-72.88925257420853,42.779533379376744],[-72.88937039877555,42.77913702674193],[-72.89418351764616,42.77922167003248],[-72.8945234423309,42.78145347258543],[-72.89442725570663,42.78170255824013],[-72.89380622730559,42.78236814957354],[-72.89464861600209,42.78264171070469],[-72.89401972621846,42.78308223804557],[-72.89375674745196,42.78334858229104],[-72.89350214935797,42.78373268107701],[-72.89275026255814,42.78626853576816],[-72.88842786946032,42.786189114364056],[-72.88177052413468,42.78593584126597],[-72.88231258395173,42.788620588556405],[-72.8808557535423,42.78904425441131],[-72.87680450432595,42.788648250341765],[-72.87681536780804,42.78890217457953],[-72.87763537347877,42.78996316672811],[-72.87800837134493,42.79075043061246],[-72.87800548348544,42.79134301499948],[-72.87806281890416,42.79139565829992],[-72.87816773412608,42.79208183284021],[-72.87828091000762,42.793566039701915],[-72.87888784591772,42.79386961199607],[-72.87891173443545,42.7939612276645],[-72.88047230498441,42.79411433040725],[-72.88051941891203,42.793831786318094],[-72.8815456919944,42.79404066763793],[-72.88161838973218,42.79362110117702],[-72.88184346247236,42.793303225046856],[-72.88285681205346,42.793941962926205],[-72.88360599015289,42.79303226420725],[-72.88400290194646,42.79328548873662],[-72.88758338574829,42.790196388557],[-72.88856951348113,42.79036501882437],[-72.88912905116938,42.79092750712759],[-72.88923991492625,42.79077559307213],[-72.88936565661432,42.79093542684218],[-72.88963703260885,42.79084282976233],[-72.89028538168155,42.79135419945298],[-72.89085222350116,42.79135485066862],[-72.89104918780629,42.79157685838655],[-72.89044356583304,42.79257750973786],[-72.89053051447115,42.792919539657824],[-72.89050930284085,42.79331254110914],[-72.89197344699377,42.79325547774459],[-72.89394809405398,42.79364885673252],[-72.89369455628591,42.79438732188059],[-72.89538632456104,42.79468070828224],[-72.89504902950617,42.79651993914168],[-72.88991289450033,42.79553233203184],[-72.8896758637383,42.795996940573566],[-72.88951518350464,42.79681077087212],[-72.88904455406258,42.797783938452234],[-72.8773873366098,42.79716916059899],[-72.87115663751516,42.79693528887018],[-72.87116190390644,42.79521025969393],[-72.87117400157986,42.7912120435566],[-72.8744244024284,42.78872000557219],[-72.8738146148891,42.78875111332093],[-72.87308000798623,42.788858773557024],[-72.87173571249264,42.78920666921568],[-72.87127005123385,42.78938825757659],[-72.87151027474138,42.78957557258357],[-72.8692421789528,42.79066040540855],[-72.8678469192713,42.790990888014896],[-72.86669574909634,42.78977313889046],[-72.86591080561269,42.78925164115191],[-72.865947708226,42.78904402593337],[-72.86518953814428,42.78864053027095],[-72.8645490395095,42.78838697801403],[-72.86312602466963,42.787952030418225],[-72.86231658601088,42.78760655921305],[-72.86152500980647,42.78717907134788],[-72.86063592308498,42.78686219994859],[-72.85985393128387,42.786701783420106],[-72.85925168316008,42.786648887338956],[-72.85736760056878,42.786715825010106],[-72.85573631330863,42.7866443022335],[-72.8561076810993,42.77387195278148],[-72.85705438392732,42.773884674186704],[-72.85708940039105,42.77173716359978],[-72.85783501166662,42.77184825895787],[-72.85799706167649,42.769155785277036],[-72.85946488387827,42.769826459361724],[-72.86387143842842,42.77044610341356],[-72.8627759179973,42.769016420594056],[-72.86651151163824,42.770063490024526],[-72.86639265818049,42.76945639374531],[-72.86807321417858,42.77002360156509]]],[[[-72.84326703934978,42.7830883777226],[-72.84368128180557,42.78320445658427],[-72.84363930513679,42.78362318210146],[-72.84447857134336,42.78372624759182],[-72.8440716981617,42.78687566870848],[-72.84406510162474,42.78768618672334],[-72.8443254717627,42.787802070897854],[-72.84418132148264,42.78818611575484],[-72.84440510121566,42.79010991958221],[-72.8475000597992,42.790236177755226],[-72.84787901170911,42.79031353296071],[-72.8479062360188,42.790246651751474],[-72.84937341177194,42.790889120272],[-72.84927295287667,42.79231454722226],[-72.85073582872703,42.792233061977235],[-72.85228486733622,42.79225890893196],[-72.85228510607614,42.79230057183809],[-72.85464655292945,42.792307885247574],[-72.8548572718838,42.79458598067229],[-72.85479593338505,42.795235068884104],[-72.8545991895773,42.79617815980543],[-72.85499233187458,42.80053923414174],[-72.85341398483337,42.80051578204785],[-72.85342007490671,42.80165302440362],[-72.85391784703049,42.80238747441142],[-72.85432844243412,42.80317515944469],[-72.85456361374911,42.80401528424615],[-72.85455932125292,42.8045708022663],[-72.85514634698538,42.808039740739474],[-72.8551474254674,42.808976032363404],[-72.85499244029707,42.809660018027365],[-72.85452089508887,42.81069146923529],[-72.85379175862347,42.8116846057742],[-72.85317556118729,42.81230591240598],[-72.85266177619575,42.812731423430634],[-72.85207499398025,42.813100916008075],[-72.8514591597101,42.81338266671056],[-72.85617484776411,42.81469700080861],[-72.85581590707467,42.81733833479681],[-72.85328357077104,42.81680446608613],[-72.85170267609212,42.817806197617074],[-72.85126432534061,42.817522245425586],[-72.85052683097884,42.816875199254426],[-72.85043002369731,42.81700169132185],[-72.85012227280411,42.81997471795863],[-72.84690339590396,42.819287563730185],[-72.84494702941201,42.81953173657566],[-72.84223138937256,42.81998447374071],[-72.84232436961457,42.822420402115924],[-72.84146939114918,42.82199621944917],[-72.84126924423919,42.822293850568656],[-72.84084075733601,42.82199854428148],[-72.84076722233344,42.822108127616154],[-72.83957917427539,42.82135523740687],[-72.83811077962329,42.823426263059915],[-72.83550144532549,42.82742303678201],[-72.83229183692008,42.82733796159925],[-72.81767335574621,42.82700127454878],[-72.80305502252999,42.82666272068798],[-72.80316554548004,42.82377735218252],[-72.80374071030681,42.81181830292094],[-72.80446868819435,42.811776871104115],[-72.80927368960153,42.811739369025524],[-72.80939883384622,42.81062822678849],[-72.80951809707759,42.808340913214685],[-72.80967442899393,42.80766410662023],[-72.81075421027897,42.807678196318086],[-72.81167238443108,42.80761556596741],[-72.81146583766275,42.80741723724506],[-72.8114815566994,42.80712189211822],[-72.81165573706191,42.80703807579942],[-72.81191198756545,42.80716717405519],[-72.81212835256585,42.806735461940136],[-72.81227150382448,42.806633868174046],[-72.81241341926292,42.806667978954096],[-72.81246251911301,42.806632608941875],[-72.81215295028585,42.80630951692501],[-72.811827925445,42.80617585607786],[-72.8121363875876,42.80559768980821],[-72.81213068817473,42.80545061089455],[-72.81242997144923,42.80509773125934],[-72.81152089363519,42.80468237955872],[-72.81102008272269,42.804541579571406],[-72.81101864299517,42.80379461716121],[-72.81095341596841,42.8037409589772],[-72.81024949587629,42.8037001757796],[-72.81035963545575,42.80242228584728],[-72.81049379472199,42.80175066244071],[-72.81084992837407,42.80098938842759],[-72.81024072352412,42.80096629281046],[-72.81038726180847,42.797083553817345],[-72.80765556961485,42.79701955302547],[-72.80890279479442,42.79525159919887],[-72.81003165414096,42.7944264204374],[-72.80971216477903,42.79324845195733],[-72.80976847643561,42.79174826410039],[-72.8130920733465,42.79184263915597],[-72.81402591600828,42.79137292472135],[-72.81443782031461,42.79140073359636],[-72.81488777599385,42.791174122577864],[-72.81585758054405,42.790423238721715],[-72.81638519720352,42.790147517875646],[-72.81654970286516,42.790200149732115],[-72.81679901710727,42.79160180235163],[-72.81645643051837,42.796932765967924],[-72.81782620364481,42.79714069691801],[-72.81804173181182,42.79678352990296],[-72.81909518503562,42.7969872987818],[-72.81890521649662,42.797484634321684],[-72.8188579676835,42.79795435158603],[-72.81834406685249,42.79786027158071],[-72.81802427595922,42.79867170556441],[-72.81776381691186,42.79890999992014],[-72.81861814235882,42.79923532025011],[-72.8184762732227,42.79950553536436],[-72.81876036552336,42.79962968619556],[-72.8200242931176,42.79952400759692],[-72.82012734659418,42.7983932497698],[-72.82033076905755,42.79843167809],[-72.82019791341592,42.801928911760506],[-72.82467289573643,42.80205046719053],[-72.82458665835541,42.803531104435045],[-72.8260938446697,42.80361001715193],[-72.82600133385303,42.80520066426306],[-72.8278435070511,42.805329911756374],[-72.82801998214264,42.80322713032539],[-72.82901805690948,42.80340656241794],[-72.82909614932137,42.802571075336346],[-72.82915361481253,42.7989985101341],[-72.82930727275696,42.7953403241697],[-72.82697070887272,42.79542765159631],[-72.82673551267665,42.79399596430876],[-72.82622314101644,42.7944073431438],[-72.82610302043138,42.79386326374805],[-72.82515982952329,42.79377634673357],[-72.82516678975043,42.79422910777637],[-72.82512213861352,42.79423705560223],[-72.82479855101703,42.79422816694052],[-72.82416145609054,42.794093618778184],[-72.82355649232989,42.79418485941933],[-72.82324173479157,42.79418476619218],[-72.82307581441503,42.78946287144487],[-72.82539839030478,42.78958707563794],[-72.82603528746542,42.78981404700004],[-72.82648931646287,42.789268287369154],[-72.82706455432894,42.788898708911944],[-72.83046822224264,42.78754835471315],[-72.83128403973078,42.786550582751545],[-72.83168653503328,42.786153844861246],[-72.83245048137861,42.78565697115006],[-72.83446906690007,42.7847686001038],[-72.83571273436625,42.78428224104625],[-72.8371177909364,42.783269040974865],[-72.83783515378894,42.78285839444922],[-72.83908829312469,42.782450680894385],[-72.84067184641171,42.78233769065067],[-72.84173731547394,42.78120177007189],[-72.84381876656549,42.782303753191165],[-72.84415871441891,42.78231605972658],[-72.84326703934978,42.7830883777226]],[[-72.82279464210026,42.80921572117073],[-72.82170417783215,42.80950819667714],[-72.82206800992357,42.81018894084982],[-72.82269646457223,42.8108370772308],[-72.82291323255505,42.811300990658935],[-72.82320582015369,42.813412034591316],[-72.82334360090992,42.81572838743212],[-72.82778788820502,42.8167920972948],[-72.82784389771352,42.81661769700386],[-72.8277394634269,42.816233191717856],[-72.8278325951073,42.81389856919388],[-72.82790135425203,42.81360552069011],[-72.827884528988,42.81316935706106],[-72.82769181208056,42.81227444774299],[-72.8277801143155,42.811630259705574],[-72.82807554523498,42.8111390099702],[-72.82832184367211,42.8082806610379],[-72.82769895507334,42.807521418257366],[-72.82701539097431,42.80686547608942],[-72.82640499786744,42.80676869316142],[-72.82593809849628,42.80673472221979],[-72.82585893474406,42.807562403887296],[-72.82474213152264,42.807525178653954],[-72.82482048348868,42.80670517794456],[-72.82331319065813,42.80668214922231],[-72.82340474040353,42.80766353423246],[-72.82253311275042,42.80779561119726],[-72.82279464210026,42.80921572117073]]]]}},{"type":"Feature","properties":{"OBJECT_ID":1245,"County":"Windham","RPC":"WRC","Municipal_Name":"Whitingham","GEO_ID":"5002583950","District_Name":"Village","Abbreviated_District_Name":"V","District_Type":"Mixed with Residential","Bylaw_Date":null,"Elderly_Housing_District":"No","District_Mapped":"Yes","Overlay_District":"No","Base_Density":null,"FIPS6":null,"GIS_ID":null,"Last_Update":null,"Shape_Length":10931.12419977808,"Shape_Area":1813916.607936514,"F1F_Allowance":"Permitted","F1F_Front_Setback":45.0,"F1F_Side_Setback":10.0,"F1F_Rear_Setback":10.0,"F1F_Frontage":null,"F1F_Max_Height":35.0,"F1F_Max_Stories":null,"F1F_Min_Lot_Size":0.17,"F1F_Max_Lot_Building_Coverage":40.0,"F1F_Max_Lot_Impervious_Coverage":null,"F1F_Min_Parking_Spaces":2.0,"F1F_Elderly_Housing_Only":null,"F1F_Affordable_Housing_Only":null,"F2F_Allowance":"Permitted","F2F_Front_Setback":45.0,"F2F_Side_Setback":10.0,"F2F_Rear_Setback":10.0,"F2F_Frontage":null,"F2F_Max_Density":null,"F2F_Max_Height":35.0,"F2F_Max_Stories":null,"F2F_Min_Lot_Size":0.17,"F2F_Max_Lot_Building_Coverage":40.0,"F2F_Max_Lot_Impervious_Coverage":null,"F2F_Min_Parking_Spaces_per_1BR":1.5,"F2F_Min_Parking_Spaces_per_mult_BR":1.5,"F2F_Elderly_Housing_Only":"No","F2F_Affordable_Housing_Only":"No","F3F_Allowance":"Public Hearing","F3F_Front_Setback":45.0,"F3F_Side_Setback":10.0,"F3F_Rear_Setback":10.0,"F3F_Frontage":null,"F3F_Max_Density":null,"F3F_Max_Height":35.0,"F3F_Max_Stories":null,"F3F_Min_Lot_Size":0.17,"F3F_Max_Lot_Building_Coverage":40.0,"F3F_Max_Lot_Impervious_Coverage":null,"F3F_Min_Parking_Spaces_per_1BR":1.5,"F3F_Min_Parking_Spaces_per_mult_BR":1.5,"F3F_Affordable_Housing_Only":"No","F3F_Proximity_to_Public_Transit_Required":null,"F3F_Connection_to_Sewage/Water_Required":null,"F4F_Allowance":"Public Hearing","F4F_Front_Setback":45.0,"F4F_Side_Setback":10.0,"F4F_Rear_Setback":10.0,"F4F_Frontage":null,"F1F_Max_Density":null,"F4F_Max_Density":null,"F4F_Max_Height":35.0,"F4F_Max_Stories":null,"F4F_Min_Lot_Size":0.17,"F4F_Max_Lot_Building_Coverage":40.0,"F4F_Max_Lot_Impervious_Coverage":null,"F4F_Min_Parking_Spaces_per_1BR":1.5,"F4F_Min_Parking_Spaces_per_mult_BR":1.5,"F3F_Elderly_Housing_Only":"No","F4F_Elderly_Housing_Only":"No","F4F_Affordable_Housing_Only":"No","F4F_Proximity_to_Public_Transit_Required":null,"F4F_Connection_to_Sewage/Water_Required":null,"ADU_Allowance":"Allowed/Conditional","ADU_Elderly_Housing_Only":null,"ADU_Max_Size_as_Percent_of_Primary_Strcture":50.0,"ADU_Max_Size_in_sq_ft":null,"ADU_Min_Lot_Size":null,"ADU_Max_Bedrooms":null,"ADU_Min_Parking_Spaces":null,"ADU_Owner_Occupancy_Required":"Yes","ADU_Renter_Occupancy_Prohibited":null,"ADU_Employee_or_Family_Occupancy_Required":null,"ADU_Restricted_to_Primary_Structure":null,"Affordable_Housing_Allowance":"Not Mentioned","Affordable_Housing_District":"No","Affordable_Housing_Elderly_Only":null,"Affordable_Housing_Min_Lot_Size":null,"Affordable_Housing_Max_Density":null,"Affordable_Housing_Min_Parking_Spaces_per_mult_BR":null,"Affordable_Housing_Max_Units_per_Building":null,"Affordable_Housing_Min_Parking_Spaces_per_1BR":null,"PRD_Allowance":"Not Mentioned","PRD_Max_Density":null,"PRD_Max_Units":null,"PRD_Min_Lot_Size":null,"PRD_Mobile_or_Manufactured_Home_Park":null,"PUD_Allowance":"Yes","PUD_Required_with_Subdivision":null,"PUD_Requires_Land_Conservation":null,"PUD_Threshold_Number":null,"Notes":"None"},"geometry":{"type":"MultiPolygon","coordinates":[[[[-72.81665279205004,42.78771827704272],[-72.81464875364372,42.78885614082144],[-72.81501579486165,42.78907819741716],[-72.81559201474344,42.78919989779687],[-72.81590109919603,42.78914306401051],[-72.81596524108109,42.78898700700157],[-72.81643815595324,42.78929842721162],[-72.81611068669847,42.789646010082734],[-72.81638519720352,42.790147517875646],[-72.81654970286516,42.790200149732115],[-72.81679901710727,42.79160180235163],[-72.81645643051837,42.796932765967924],[-72.81782620364481,42.79714069691801],[-72.81804173181182,42.79678352990296],[-72.81909518503562,42.7969872987818],[-72.81890521649662,42.797484634321684],[-72.8188579676835,42.79795435158603],[-72.81834406685249,42.79786027158071],[-72.81802427595922,42.79867170556441],[-72.81776381691186,42.79890999992014],[-72.81861814235882,42.79923532025011],[-72.8184762732227,42.79950553536436],[-72.81876036552336,42.79962968619556],[-72.8200242931176,42.79952400759692],[-72.82012734659418,42.7983932497698],[-72.82033076905755,42.79843167809],[-72.82019791341592,42.801928911760506],[-72.82467289573643,42.80205046719053],[-72.82458665835541,42.803531104435045],[-72.8260938446697,42.80361001715193],[-72.82600133385303,42.80520066426306],[-72.8278435070511,42.805329911756374],[-72.82801998214264,42.80322713032539],[-72.82901805690948,42.80340656241794],[-72.82909614932137,42.802571075336346],[-72.82915361481253,42.7989985101341],[-72.82930727275696,42.7953403241697],[-72.82697070887272,42.79542765159631],[-72.82673551267665,42.79399596430876],[-72.82622314101644,42.7944073431438],[-72.82610302043138,42.79386326374805],[-72.82515982952329,42.79377634673357],[-72.82516678975043,42.79422910777637],[-72.82512213861352,42.79423705560223],[-72.82479855101703,42.79422816694052],[-72.82416145609054,42.794093618778184],[-72.82355649232989,42.79418485941933],[-72.82324173479157,42.79418476619218],[-72.82307581441503,42.78946287144487],[-72.8230700018163,42.78929515560186],[-72.81911920634514,42.78909867297963],[-72.81961986584194,42.78952624005906],[-72.81917152026644,42.78968920305318],[-72.81846897036458,42.78899208844191],[-72.8179834292211,42.78860449059429],[-72.81665279205004,42.78771827704272]]],[[[-72.88177052413468,42.78593584126597],[-72.88231258395173,42.788620588556405],[-72.8808557535423,42.78904425441131],[-72.87680450432595,42.788648250341765],[-72.87681536780804,42.78890217457953],[-72.87763537347877,42.78996316672811],[-72.87800837134493,42.79075043061246],[-72.87800548348544,42.79134301499948],[-72.87806281890416,42.79139565829992],[-72.87816773412608,42.79208183284021],[-72.87828091000762,42.793566039701915],[-72.87888784591772,42.79386961199607],[-72.87891173443545,42.7939612276645],[-72.88047230498441,42.79411433040725],[-72.88051941891203,42.793831786318094],[-72.8815456919944,42.79404066763793],[-72.88161838973218,42.79362110117702],[-72.88184346247236,42.793303225046856],[-72.88285681205346,42.793941962926205],[-72.88360599015289,42.79303226420725],[-72.88400290194646,42.79328548873662],[-72.88758338574829,42.790196388557],[-72.88856951348113,42.79036501882437],[-72.88912905116938,42.79092750712759],[-72.88923991492625,42.79077559307213],[-72.88942633776219,42.79074469861794],[-72.88973730155,42.790021361420315],[-72.89048321208138,42.78958754377961],[-72.89110176768448,42.78894740709957],[-72.8920767631659,42.787656539932755],[-72.89275026255814,42.78626853576816],[-72.88842786946032,42.786189114364056],[-72.88177052413468,42.78593584126597]]]]}}]}