{"type":"FeatureCollection","name":"Windham_Wilmington","features":[{"type":"Feature","properties":{"OBJECT_ID":1257,"County":"Windham","RPC":"WRC","Municipal_Name":"Wilmington","GEO_ID":"5002584700","District_Name":"Conservation","Abbreviated_District_Name":"Con","District_Type":"Mixed with Residential","Bylaw_Date":null,"Elderly_Housing_District":"No","District_Mapped":"Yes","Overlay_District":"No","Base_Density":null,"FIPS6":null,"GIS_ID":null,"Last_Update":null,"Shape_Length":58543.02460981861,"Shape_Area":25651820.89432663,"F1F_Allowance":"Public Hearing","F1F_Front_Setback":40.0,"F1F_Side_Setback":25.0,"F1F_Rear_Setback":25.0,"F1F_Frontage":500.0,"F1F_Max_Height":38.0,"F1F_Max_Stories":null,"F1F_Min_Lot_Size":5.0,"F1F_Max_Lot_Building_Coverage":null,"F1F_Max_Lot_Impervious_Coverage":null,"F1F_Min_Parking_Spaces":2.0,"F1F_Elderly_Housing_Only":null,"F1F_Affordable_Housing_Only":null,"F2F_Allowance":"Prohibited","F2F_Front_Setback":null,"F2F_Side_Setback":null,"F2F_Rear_Setback":null,"F2F_Frontage":null,"F2F_Max_Density":null,"F2F_Max_Height":null,"F2F_Max_Stories":null,"F2F_Min_Lot_Size":null,"F2F_Max_Lot_Building_Coverage":null,"F2F_Max_Lot_Impervious_Coverage":null,"F2F_Min_Parking_Spaces_per_1BR":null,"F2F_Min_Parking_Spaces_per_mult_BR":null,"F2F_Elderly_Housing_Only":null,"F2F_Affordable_Housing_Only":null,"F3F_Allowance":"Prohibited","F3F_Front_Setback":null,"F3F_Side_Setback":null,"F3F_Rear_Setback":null,"F3F_Frontage":null,"F3F_Max_Density":null,"F3F_Max_Height":null,"F3F_Max_Stories":null,"F3F_Min_Lot_Size":null,"F3F_Max_Lot_Building_Coverage":null,"F3F_Max_Lot_Impervious_Coverage":null,"F3F_Min_Parking_Spaces_per_1BR":null,"F3F_Min_Parking_Spaces_per_mult_BR":null,"F3F_Affordable_Housing_Only":null,"F3F_Proximity_to_Public_Transit_Required":null,"F3F_Connection_to_Sewage/Water_Required":null,"F4F_Allowance":"Prohibited","F4F_Front_Setback":null,"F4F_Side_Setback":null,"F4F_Rear_Setback":null,"F4F_Frontage":null,"F1F_Max_Density":null,"F4F_Max_Density":null,"F4F_Max_Height":null,"F4F_Max_Stories":null,"F4F_Min_Lot_Size":null,"F4F_Max_Lot_Building_Coverage":null,"F4F_Max_Lot_Impervious_Coverage":null,"F4F_Min_Parking_Spaces_per_1BR":null,"F4F_Min_Parking_Spaces_per_mult_BR":null,"F3F_Elderly_Housing_Only":null,"F4F_Elderly_Housing_Only":null,"F4F_Affordable_Housing_Only":null,"F4F_Proximity_to_Public_Transit_Required":null,"F4F_Connection_to_Sewage/Water_Required":null,"ADU_Allowance":"Prohibited","ADU_Elderly_Housing_Only":null,"ADU_Max_Size_as_Percent_of_Primary_Strcture":null,"ADU_Max_Size_in_sq_ft":null,"ADU_Min_Lot_Size":null,"ADU_Max_Bedrooms":null,"ADU_Min_Parking_Spaces":null,"ADU_Owner_Occupancy_Required":null,"ADU_Renter_Occupancy_Prohibited":null,"ADU_Employee_or_Family_Occupancy_Required":null,"ADU_Restricted_to_Primary_Structure":null,"Affordable_Housing_Allowance":"Prohibited","Affordable_Housing_District":"No","Affordable_Housing_Elderly_Only":null,"Affordable_Housing_Min_Lot_Size":null,"Affordable_Housing_Max_Density":null,"Affordable_Housing_Min_Parking_Spaces_per_mult_BR":null,"Affordable_Housing_Max_Units_per_Building":null,"Affordable_Housing_Min_Parking_Spaces_per_1BR":null,"PRD_Allowance":"Public Hearing","PRD_Max_Density":5.0,"PRD_Max_Units":null,"PRD_Min_Lot_Size":2.0,"PRD_Mobile_or_Manufactured_Home_Park":"No","PUD_Allowance":"Yes","PUD_Required_with_Subdivision":null,"PUD_Requires_Land_Conservation":"Yes","PUD_Threshold_Number":null,"Notes":"None"},"geometry":{"type":"MultiPolygon","coordinates":[[[[-72.86754738316198,42.90872137211941],[-72.86727540129304,42.91392879397739],[-72.86699735563428,42.917396043993016],[-72.87056139166918,42.91759788697721],[-72.87029539685618,42.92155774197034],[-72.8749377987901,42.92172181541841],[-72.87484191093938,42.92375026007923],[-72.87852867566342,42.923915129920346],[-72.878662911618,42.92200598933277],[-72.88067818522899,42.92203029107933],[-72.88090381241183,42.920863683774456],[-72.88066989899477,42.919612957804496],[-72.88163453414491,42.918324441343685],[-72.88225367942485,42.91805554594738],[-72.88323863493157,42.91809352758979],[-72.88317030899145,42.91797400277937],[-72.87753972720202,42.91786065842459],[-72.87767662131675,42.91382963770947],[-72.8770528832264,42.91359222793305],[-72.87705053678056,42.91308457789276],[-72.87607741200837,42.91159475019109],[-72.87434491411946,42.91096346668747],[-72.87492158806897,42.91027241543917],[-72.87440987698196,42.91003600324694],[-72.87218773316057,42.908781078118956],[-72.86754738316198,42.90872137211941]]],[[[-72.91964738226007,42.871450483791286],[-72.91994832345037,42.87176891070055],[-72.9201486515485,42.872459990767894],[-72.9186870605429,42.873854650647196],[-72.91352848974509,42.873790977737606],[-72.91147208509308,42.87369552280945],[-72.91260280850511,42.876130852746904],[-72.9069125675006,42.87652459713478],[-72.90659078759099,42.87716119613409],[-72.9033883041735,42.87511391144908],[-72.90341060296126,42.874951149779896],[-72.90192740802584,42.87484139280742],[-72.90225294761508,42.87537021299066],[-72.90235811896767,42.87762694115904],[-72.9024250205149,42.878274023647585],[-72.90253103981959,42.87853401001091],[-72.90263784646264,42.879162876875434],[-72.90249998036259,42.879506257168735],[-72.90270855656352,42.88190242867107],[-72.90999129758195,42.88214621571785],[-72.90965186613097,42.88143451166087],[-72.91044502318144,42.88143785167664],[-72.91041442666153,42.88555637539258],[-72.92065612958119,42.885752650122484],[-72.9205387104069,42.89042637596236],[-72.92008572656006,42.90057008117528],[-72.90938101651743,42.90029969585716],[-72.90932342226199,42.90303188192415],[-72.89833986049584,42.902746379315055],[-72.89759665390814,42.904030295655204],[-72.89749716490206,42.904648647272396],[-72.89347139689117,42.90460099917777],[-72.8932772864837,42.90497418830201],[-72.89306132023064,42.909429244140505],[-72.89295029417804,42.91171934541036],[-72.8951927217924,42.91174239588828],[-72.89516359304959,42.91306621013943],[-72.89527633192269,42.913085511757984],[-72.89553923052785,42.913313719111805],[-72.89605211855162,42.913337819236766],[-72.89637502183,42.91351042186182],[-72.89679803351835,42.913621608421344],[-72.89700562802501,42.91386481943721],[-72.89696530283486,42.91570418774009],[-72.89971843851814,42.91579690043004],[-72.90430708464908,42.918926950585416],[-72.90402580330517,42.92322023181592],[-72.9041029803718,42.92700264442705],[-72.92379150493059,42.92745051470547],[-72.92333501824497,42.91516899696304],[-72.92406486393021,42.89541405276249],[-72.92494363151727,42.881153132161536],[-72.92061040211506,42.881044520148315],[-72.92095277533674,42.87644212956105],[-72.92442884247149,42.87651936999148],[-72.92400259796469,42.87513237002342],[-72.92153728156175,42.874303265728976],[-72.92143277404648,42.873961679191574],[-72.92256907798745,42.87289455356361],[-72.92225698055908,42.87212122925554],[-72.92188419745614,42.871910589425866],[-72.92082301256498,42.871542320815074],[-72.91964738226007,42.871450483791286]]],[[[-72.80495695050314,42.84799730064556],[-72.80486075524483,42.84926856307091],[-72.80181361540751,42.84919708024096],[-72.8017902262576,42.849640212391854],[-72.8016027505867,42.85303265856776],[-72.80999824610488,42.85311137273759],[-72.8105370375235,42.85459111700877],[-72.81104731758438,42.85444596495524],[-72.81094407985573,42.85414025101108],[-72.81127376003255,42.854046465943604],[-72.8132774534131,42.853833416971476],[-72.81310084267123,42.8547634714369],[-72.8161282757103,42.854759281876284],[-72.816399687087,42.853021699053386],[-72.81663947445541,42.84936765704423],[-72.81558662056123,42.8493050442792],[-72.81552650558295,42.84808585841612],[-72.80495695050314,42.84799730064556]]],[[[-72.86677402922274,42.82828929768408],[-72.86809588280866,42.83013867606211],[-72.86809949601825,42.83068284558105],[-72.8678529701661,42.83289789955412],[-72.86857633707471,42.83330893269985],[-72.8705926326425,42.833383197412026],[-72.87090202580022,42.8332204070011],[-72.87220587118426,42.83291397963125],[-72.87226921360427,42.833024427941524],[-72.8718655650438,42.83754637999896],[-72.8738217640144,42.837839123172095],[-72.8737955465065,42.839005503821156],[-72.87508056048003,42.83884661935694],[-72.87604228499539,42.84150055383664],[-72.87832976149132,42.84153917643799],[-72.87908936060505,42.83847524089929],[-72.87992278916671,42.83882261513751],[-72.88185901043649,42.84044213341827],[-72.88292930705435,42.84121587767842],[-72.88295920094652,42.84134038403061],[-72.88392236312623,42.841259493414604],[-72.88499550144964,42.842408035855534],[-72.88502462798948,42.84296393928792],[-72.88548802967942,42.842990922864686],[-72.88557706059069,42.843479514169275],[-72.88554386358655,42.844493487274775],[-72.88560368963074,42.84449877975785],[-72.88676768016796,42.84371722142501],[-72.88720494035081,42.84427535462195],[-72.8880227938136,42.844228728900966],[-72.89091693772427,42.84534240124844],[-72.89277684945658,42.845389393011125],[-72.89305739007158,42.846631760357845],[-72.89283305148801,42.8469874085748],[-72.89212229321438,42.84723761157158],[-72.8917726926435,42.847511706850106],[-72.89016499766177,42.848006931587996],[-72.89058368811467,42.84857991765207],[-72.89004291499566,42.84882437132981],[-72.8895280709224,42.849366367579385],[-72.8888616907312,42.84945340125153],[-72.88764539839867,42.84978706934171],[-72.88645378927751,42.850243741284814],[-72.88537111502197,42.850906179827206],[-72.88457276093246,42.85090083070037],[-72.88288424370185,42.85123011445235],[-72.88302272515199,42.85197285262356],[-72.88129658125423,42.85130611100998],[-72.88179795582717,42.85238310222433],[-72.88161917583597,42.85315404685771],[-72.8819691933779,42.85318057805102],[-72.88142567408613,42.85401690944073],[-72.88111316121466,42.85542630803569],[-72.88110460787433,42.85689701600029],[-72.88124777701434,42.85717190222201],[-72.88144451691095,42.857389022959104],[-72.88145764155998,42.85790592660232],[-72.88233302448816,42.85904389758366],[-72.8835343817555,42.85921472040297],[-72.88358588138345,42.858945999654225],[-72.88339523516733,42.85866405672008],[-72.88386119496258,42.858575126373196],[-72.8839182290288,42.85883327869635],[-72.8842251580206,42.85918189022206],[-72.88438229344709,42.85960947807764],[-72.88505225422995,42.8601068794034],[-72.88564456462503,42.859549925927475],[-72.88641610487079,42.8597777204475],[-72.88675861554914,42.85994303377909],[-72.88714608394126,42.86032775505951],[-72.88768700411194,42.86109622184282],[-72.88803629729179,42.86100087119542],[-72.88881148124173,42.86174382964752],[-72.88998498250545,42.86130602156121],[-72.89092768212763,42.86071363201577],[-72.89114890012732,42.86074581935651],[-72.891379465514,42.86092208398071],[-72.89193101951072,42.8620936917427],[-72.89202776471627,42.86336272258899],[-72.8926188619031,42.86370772106704],[-72.89264284050422,42.863449715019655],[-72.89430148501204,42.86455087504802],[-72.89389398530663,42.86535760640301],[-72.89616486787776,42.86764057031486],[-72.89657825674843,42.86799373620817],[-72.89776206732887,42.86932934364417],[-72.89789362953258,42.86927132320355],[-72.89798794884335,42.869368299812265],[-72.8979101927035,42.869408863033655],[-72.89865519704156,42.87029939768304],[-72.89738193829933,42.870764472556985],[-72.89652916753982,42.87131806527985],[-72.89533331453609,42.87223116487573],[-72.89478826260063,42.87252606332039],[-72.89407750652809,42.87274589305596],[-72.89326171421615,42.87280654942951],[-72.892677088071,42.87277476435472],[-72.89165721030507,42.872617307446816],[-72.89117524088219,42.8718809012087],[-72.89120766245816,42.87087166095976],[-72.88766202944234,42.87070359383959],[-72.88767353176152,42.87147217892486],[-72.88385275107346,42.870298720307034],[-72.88381484527461,42.87093696590368],[-72.88421860301594,42.87097443998683],[-72.88480527319435,42.871136947938886],[-72.88565922577858,42.87147086463241],[-72.88634286269442,42.8718131824149],[-72.88801160214919,42.873021547696894],[-72.88894048151964,42.873410011585435],[-72.88979354983834,42.8735950855974],[-72.89040076756365,42.87363217894677],[-72.89060906162457,42.873591586058375],[-72.89064515766458,42.8738551682514],[-72.89207892314424,42.87347100867862],[-72.89274332908964,42.87339029797927],[-72.89281553931218,42.874098846631824],[-72.89362135964689,42.87409002970255],[-72.89441896377633,42.873932106566194],[-72.89770736666179,42.872485477899666],[-72.89851403256283,42.87225593155541],[-72.9011297646281,42.871739000645256],[-72.90206364123107,42.87134305958614],[-72.90276281900452,42.870974324320095],[-72.90419499584924,42.870294923953814],[-72.9040979329018,42.87013140137884],[-72.90412447446361,42.869897481650064],[-72.90431239862971,42.8699417084495],[-72.90455570302038,42.86924927840569],[-72.9047334829828,42.86906488143231],[-72.90502036818893,42.86889718856568],[-72.9052766414622,42.868844310446576],[-72.90592298066181,42.86890404991828],[-72.90597419148067,42.86878174268824],[-72.90650617172884,42.86889867523979],[-72.90663116672835,42.86906350271796],[-72.90723786593259,42.86914331317291],[-72.90850960512168,42.8690581346232],[-72.91000003246074,42.869104918736674],[-72.91104707172514,42.86923346506864],[-72.91180295617198,42.86942105559973],[-72.91187898674711,42.86939346103825],[-72.91536181609729,42.87071704906088],[-72.91560524694557,42.87090251601786],[-72.91622288055756,42.87115794280584],[-72.9168210602226,42.871293042569235],[-72.91853953729445,42.87118970659862],[-72.91907123242846,42.87101770855436],[-72.91965959649143,42.87093276299626],[-72.91993032170456,42.870951710677744],[-72.9206327259134,42.87113210324179],[-72.92167112481438,42.87156090777432],[-72.92353663291458,42.87163900885546],[-72.9254301488922,42.871504841640366],[-72.92550367370154,42.8699941260511],[-72.92454648052983,42.869966152620634],[-72.92450853113166,42.870121085392356],[-72.92393195386978,42.87003242760235],[-72.92385009202107,42.87026991802909],[-72.92322477682151,42.870196622568905],[-72.92264203541576,42.87032578801132],[-72.92047904445636,42.870405768171864],[-72.9196111452916,42.87054833924159],[-72.91914414247982,42.87044287026536],[-72.91874586479595,42.8704443276335],[-72.91825957960782,42.87036036112628],[-72.91723589646728,42.869813904000786],[-72.91693288570497,42.869536339252114],[-72.91653802297671,42.86885249383924],[-72.91607303389435,42.86846655482496],[-72.91528906996183,42.86804961257767],[-72.91417923017727,42.86792561175881],[-72.91421183576826,42.862005163679484],[-72.92195375969415,42.86186756769159],[-72.92162463263655,42.868347482558605],[-72.92160356815634,42.86868010663875],[-72.92387403683634,42.86838735109772],[-72.92399200928809,42.86746375272592],[-72.9237501815689,42.867333098153935],[-72.92470952581093,42.866525516989654],[-72.92540101783518,42.86636710262992],[-72.92569170008463,42.86613078365585],[-72.92601927180151,42.85940020135427],[-72.92627138296479,42.856364593043835],[-72.927400265499,42.829950834174895],[-72.91211567071788,42.82953713392895],[-72.89580253964193,42.82910695259811],[-72.88128819537269,42.82869904542653],[-72.86677402922274,42.82828929768408]]]]}},{"type":"Feature","properties":{"OBJECT_ID":1256,"County":"Windham","RPC":"WRC","Municipal_Name":"Wilmington","GEO_ID":"5002584700","District_Name":"Commercial/Residential","Abbreviated_District_Name":"Com/Res","District_Type":"Mixed with Residential","Bylaw_Date":null,"Elderly_Housing_District":"Yes","District_Mapped":"Yes","Overlay_District":"No","Base_Density":null,"FIPS6":null,"GIS_ID":null,"Last_Update":null,"Shape_Length":30567.46130126769,"Shape_Area":3884087.1462156656,"F1F_Allowance":"Permitted","F1F_Front_Setback":40.0,"F1F_Side_Setback":20.0,"F1F_Rear_Setback":20.0,"F1F_Frontage":150.0,"F1F_Max_Height":38.0,"F1F_Max_Stories":null,"F1F_Min_Lot_Size":1.0,"F1F_Max_Lot_Building_Coverage":25.0,"F1F_Max_Lot_Impervious_Coverage":null,"F1F_Min_Parking_Spaces":2.0,"F1F_Elderly_Housing_Only":null,"F1F_Affordable_Housing_Only":null,"F2F_Allowance":"Permitted","F2F_Front_Setback":40.0,"F2F_Side_Setback":20.0,"F2F_Rear_Setback":20.0,"F2F_Frontage":150.0,"F2F_Max_Density":1.0,"F2F_Max_Height":38.0,"F2F_Max_Stories":null,"F2F_Min_Lot_Size":1.0,"F2F_Max_Lot_Building_Coverage":25.0,"F2F_Max_Lot_Impervious_Coverage":null,"F2F_Min_Parking_Spaces_per_1BR":2.0,"F2F_Min_Parking_Spaces_per_mult_BR":2.0,"F2F_Elderly_Housing_Only":"No","F2F_Affordable_Housing_Only":"No","F3F_Allowance":"Public Hearing","F3F_Front_Setback":40.0,"F3F_Side_Setback":20.0,"F3F_Rear_Setback":20.0,"F3F_Frontage":150.0,"F3F_Max_Density":1.0,"F3F_Max_Height":38.0,"F3F_Max_Stories":null,"F3F_Min_Lot_Size":1.0,"F3F_Max_Lot_Building_Coverage":25.0,"F3F_Max_Lot_Impervious_Coverage":null,"F3F_Min_Parking_Spaces_per_1BR":2.0,"F3F_Min_Parking_Spaces_per_mult_BR":2.0,"F3F_Affordable_Housing_Only":"No","F3F_Proximity_to_Public_Transit_Required":"No","F3F_Connection_to_Sewage/Water_Required":"No","F4F_Allowance":"Public Hearing","F4F_Front_Setback":40.0,"F4F_Side_Setback":20.0,"F4F_Rear_Setback":20.0,"F4F_Frontage":150.0,"F1F_Max_Density":null,"F4F_Max_Density":1.0,"F4F_Max_Height":38.0,"F4F_Max_Stories":null,"F4F_Min_Lot_Size":1.0,"F4F_Max_Lot_Building_Coverage":25.0,"F4F_Max_Lot_Impervious_Coverage":null,"F4F_Min_Parking_Spaces_per_1BR":2.0,"F4F_Min_Parking_Spaces_per_mult_BR":2.0,"F3F_Elderly_Housing_Only":"No","F4F_Elderly_Housing_Only":"No","F4F_Affordable_Housing_Only":"No","F4F_Proximity_to_Public_Transit_Required":"No","F4F_Connection_to_Sewage/Water_Required":"No","ADU_Allowance":"Allowed/Conditional","ADU_Elderly_Housing_Only":"No","ADU_Max_Size_as_Percent_of_Primary_Strcture":null,"ADU_Max_Size_in_sq_ft":null,"ADU_Min_Lot_Size":null,"ADU_Max_Bedrooms":null,"ADU_Min_Parking_Spaces":null,"ADU_Owner_Occupancy_Required":"No","ADU_Renter_Occupancy_Prohibited":"No","ADU_Employee_or_Family_Occupancy_Required":"No","ADU_Restricted_to_Primary_Structure":null,"Affordable_Housing_Allowance":"Public Hearing","Affordable_Housing_District":"Yes","Affordable_Housing_Elderly_Only":"No","Affordable_Housing_Min_Lot_Size":null,"Affordable_Housing_Max_Density":null,"Affordable_Housing_Min_Parking_Spaces_per_mult_BR":2.0,"Affordable_Housing_Max_Units_per_Building":null,"Affordable_Housing_Min_Parking_Spaces_per_1BR":2.0,"PRD_Allowance":"Public Hearing","PRD_Max_Density":5.0,"PRD_Max_Units":null,"PRD_Min_Lot_Size":2.0,"PRD_Mobile_or_Manufactured_Home_Park":"Yes","PUD_Allowance":"Yes","PUD_Required_with_Subdivision":null,"PUD_Requires_Land_Conservation":"Yes","PUD_Threshold_Number":null,"Notes":"None"},"geometry":{"type":"MultiPolygon","coordinates":[[[[-72.83115363571925,42.89304930911125],[-72.83110568124077,42.89377663944639],[-72.83031705898486,42.89483291736731],[-72.82914893576765,42.89532677545293],[-72.82850701817894,42.89597094812698],[-72.82932388235913,42.897211891307315],[-72.8298977576524,42.89792125456074],[-72.83054005426426,42.898469999677395],[-72.8314405159856,42.898997279605396],[-72.83167957694258,42.89919438641667],[-72.83266691622752,42.900290120705186],[-72.8329030372728,42.90114876926731],[-72.83316163055004,42.90177730504916],[-72.8337890826935,42.90268273936157],[-72.8343738844228,42.90319579511675],[-72.83560506880848,42.90393454214619],[-72.83644072785077,42.90462843440813],[-72.83685313210206,42.90558684395837],[-72.83735949535308,42.90532630291658],[-72.83842595715954,42.90601781496596],[-72.83951714309713,42.906541657111084],[-72.84092159532803,42.90703195758544],[-72.84237177113131,42.90730758857336],[-72.8432069609602,42.907390166080084],[-72.84399527860668,42.907349015169395],[-72.8462742587782,42.906821737585794],[-72.84526287383993,42.907697519219674],[-72.84471448588043,42.907969777449416],[-72.84318369195225,42.90853128457529],[-72.84197875860023,42.908540043905354],[-72.84140204527623,42.90861077681469],[-72.84077283763274,42.908781512650876],[-72.84009577529764,42.90909378972895],[-72.83962135065445,42.90941881080186],[-72.83920040662933,42.90982935373344],[-72.83838045381765,42.91105208344681],[-72.83764459997809,42.912018061390484],[-72.83725190648642,42.91270301156165],[-72.83705269954466,42.91343579062119],[-72.8369686537807,42.91513418745192],[-72.83581000165879,42.91628101042881],[-72.8374995040945,42.91697870041314],[-72.83747160295566,42.916875080417576],[-72.83737833257796,42.91687275107148],[-72.83738531843937,42.91676854122851],[-72.83968030273145,42.91647542025767],[-72.8398428769954,42.91640375497885],[-72.83992432869731,42.91656066257678],[-72.8403318900493,42.91754019584238],[-72.84138837889328,42.91612279275623],[-72.842039471782,42.91621350887082],[-72.84145136184658,42.91523877803484],[-72.84148388468222,42.913919406987084],[-72.84160287364207,42.913565446042675],[-72.84239427807755,42.91251864374958],[-72.84282174380999,42.911822557948845],[-72.84375956893719,42.9117870416647],[-72.84462145339792,42.91165277180899],[-72.84734752836124,42.910657241695056],[-72.84797169289128,42.91033461156343],[-72.84849470484448,42.90998005092782],[-72.84949731272705,42.909108364674964],[-72.85111018078817,42.90792592839454],[-72.84943387150085,42.90674247191319],[-72.8507421034731,42.90568540102314],[-72.8518529607035,42.904655893437635],[-72.8526562987543,42.90406337620721],[-72.85295884615438,42.90367336781654],[-72.85318040712386,42.903221317669036],[-72.84955728901443,42.902046153128204],[-72.84870644942623,42.901873003629646],[-72.84751162051596,42.901768718615344],[-72.84654883657784,42.90182804242421],[-72.84566252707741,42.901948624111405],[-72.84365429359016,42.902411869358644],[-72.84277265000351,42.902562722437985],[-72.84184162888961,42.902603541267624],[-72.84069031105491,42.90256892920878],[-72.83971803134465,42.90238040184151],[-72.83870062089667,42.90155526536242],[-72.83750511541938,42.900840542571174],[-72.83723642547069,42.90031441832029],[-72.83697836545556,42.899354066128815],[-72.83655325026469,42.89864911832127],[-72.83505797544272,42.897030091436534],[-72.8345794915642,42.89663881256476],[-72.83355727078289,42.8960230553311],[-72.83211971559638,42.893939240338646],[-72.8315514594622,42.89334988660058],[-72.83115363571925,42.89304930911125]]],[[[-72.86502296421546,42.88364069763553],[-72.86503781316937,42.884543728117656],[-72.86521824864946,42.88618723538761],[-72.86317812124801,42.88665040638572],[-72.86244182032706,42.88665821472146],[-72.86096171026794,42.88687521418486],[-72.86039910975107,42.887125915559544],[-72.86009451547716,42.88718701080236],[-72.85999611995275,42.887311316164165],[-72.85986580856407,42.88751401645019],[-72.85945692008761,42.889033108635026],[-72.85918809601891,42.88945312563714],[-72.8590628626468,42.88987885357729],[-72.85805702692302,42.89139082683666],[-72.85692497480663,42.89271954880871],[-72.85631953095309,42.893752089790596],[-72.85595724989562,42.89495511058372],[-72.85584344988096,42.89652227587087],[-72.85569948047358,42.89735352779152],[-72.85520652552783,42.898478792786484],[-72.85486580142246,42.89906998993354],[-72.85449058262027,42.90024601582645],[-72.85837779693924,42.900365801902545],[-72.85834209549886,42.900962623571374],[-72.86293883945751,42.89809687681566],[-72.86159596341165,42.89713774718919],[-72.86040545819422,42.896471123318584],[-72.85929102134504,42.89605598726289],[-72.85797260541858,42.89568187191602],[-72.85810394883156,42.89508305111723],[-72.85856374025919,42.89386446439005],[-72.85992825262831,42.892181111419696],[-72.86146388692295,42.89002490684355],[-72.86437913347524,42.88927358794572],[-72.86520764451329,42.88900911844291],[-72.86605995647481,42.88854582126204],[-72.86660155693772,42.88806404629345],[-72.86707124437046,42.88742133965317],[-72.86733568560604,42.8866643335991],[-72.86736288043083,42.886154541794184],[-72.8672173620141,42.884105153565216],[-72.86656852674163,42.883875111366834],[-72.86577535283122,42.88371119886973],[-72.86502296421546,42.88364069763553]]],[[[-72.86399106140023,42.87228774856881],[-72.86358900043102,42.87243405100626],[-72.86195712540011,42.873336441015894],[-72.86198031679365,42.874820495416515],[-72.86112765853305,42.8748680215922],[-72.86127856839431,42.875688731786695],[-72.86122098971175,42.8759816529135],[-72.86124594548872,42.876458049694925],[-72.86109385660328,42.87746594334581],[-72.86153726059345,42.8773502268281],[-72.86160422302123,42.8776179974417],[-72.861675835862,42.87789349772546],[-72.86131681511208,42.87844167687852],[-72.86132809154765,42.87880326832491],[-72.86209365471164,42.87902759266263],[-72.86380400447432,42.87989693071313],[-72.86332579281218,42.87917372982671],[-72.86260366484927,42.87787470142815],[-72.86223619366054,42.876781135146814],[-72.86214432480996,42.87611475256416],[-72.8622051784961,42.875730003881024],[-72.86252540458516,42.875067182605584],[-72.8643417475297,42.87506733840934],[-72.86374347016499,42.87392164916637],[-72.86319752405697,42.873734531262926],[-72.86356545184043,42.87282255214384],[-72.86380195942034,42.87252065970248],[-72.86407985173577,42.87229998623334],[-72.86399106140023,42.87228774856881]]],[[[-72.88381484527461,42.87093696590368],[-72.88382219217632,42.871274125582396],[-72.88411946113949,42.871308086996],[-72.88404539550933,42.87145264831535],[-72.88399678404896,42.87200158221862],[-72.88490631801864,42.873176769828355],[-72.88507368211636,42.87456638159876],[-72.88533996449664,42.87464014012357],[-72.8863043248057,42.87582603202066],[-72.88731407046177,42.87680169605269],[-72.88737604148471,42.876803629765035],[-72.88740207239009,42.876867119145395],[-72.88758464756157,42.87780319156055],[-72.88776772257437,42.87772138720779],[-72.88872982899831,42.87943961070973],[-72.8894425806058,42.879886410963785],[-72.8904631815532,42.879444522755996],[-72.89066548139107,42.87943768068073],[-72.89325678167263,42.87878632212134],[-72.89297429822908,42.87766217140325],[-72.89250749514643,42.87643838044093],[-72.89281553931218,42.874098846631824],[-72.89274332908964,42.87339029797927],[-72.89207892314424,42.87347100867862],[-72.89064515766458,42.8738551682514],[-72.89060906162457,42.873591586058375],[-72.89040076756365,42.87363217894677],[-72.88979354983834,42.8735950855974],[-72.88894048151964,42.873410011585435],[-72.88801160214919,42.873021547696894],[-72.88634286269442,42.8718131824149],[-72.88565922577858,42.87147086463241],[-72.88480527319435,42.871136947938886],[-72.88421860301594,42.87097443998683],[-72.88381484527461,42.87093696590368]]],[[[-72.90597419148067,42.86878174268824],[-72.90592298066181,42.86890404991828],[-72.9052766414622,42.868844310446576],[-72.90502036818893,42.86889718856568],[-72.9047334829828,42.86906488143231],[-72.90455570302038,42.86924927840569],[-72.90431239862971,42.8699417084495],[-72.90412447446361,42.869897481650064],[-72.9040979329018,42.87013140137884],[-72.90419499584924,42.870294923953814],[-72.90276281900452,42.870974324320095],[-72.90373383036527,42.872703792381145],[-72.90739579511222,42.87097355369041],[-72.9080607357995,42.87088043025355],[-72.91006221073695,42.870933611570386],[-72.90977938143105,42.87037953217167],[-72.91000003246074,42.869104918736674],[-72.90850960512168,42.8690581346232],[-72.90723786593259,42.86914331317291],[-72.90663116672835,42.86906350271796],[-72.90650617172884,42.86889867523979],[-72.90597419148067,42.86878174268824]]],[[[-72.92569170008463,42.86613078365585],[-72.92540101783518,42.86636710262992],[-72.92470952581093,42.866525516989654],[-72.9237501815689,42.867333098153935],[-72.92399200928809,42.86746375272592],[-72.92387403683634,42.86838735109772],[-72.92160356815634,42.86868010663875],[-72.92162463263655,42.868347482558605],[-72.92105638533157,42.868356183923815],[-72.92104693304901,42.86921619058381],[-72.91971583495906,42.869188622181056],[-72.91863835721827,42.86894479058055],[-72.91816365699634,42.868703727871825],[-72.91810946776687,42.868734391247344],[-72.91771571798449,42.868575748609366],[-72.91760078943123,42.868603314293736],[-72.91746789773882,42.86874621328253],[-72.91712745205008,42.868849183939034],[-72.91702708928916,42.868995374752096],[-72.9168611796369,42.86900614130129],[-72.91665463808388,42.86883226871732],[-72.91653802297671,42.86885249383924],[-72.91693288570497,42.869536339252114],[-72.91723589646728,42.869813904000786],[-72.91825957960782,42.87036036112628],[-72.91874586479595,42.8704443276335],[-72.91914414247982,42.87044287026536],[-72.9196111452916,42.87054833924159],[-72.92047904445636,42.870405768171864],[-72.92264203541576,42.87032578801132],[-72.92322477682151,42.870196622568905],[-72.92385009202107,42.87026991802909],[-72.92393195386978,42.87003242760235],[-72.92450853113166,42.870121085392356],[-72.92454648052983,42.869966152620634],[-72.92550367370154,42.8699941260511],[-72.92569170008463,42.86613078365585]]],[[[-72.85533361903695,42.85268215657731],[-72.8544692808738,42.85287431407432],[-72.85374237249984,42.853128372390806],[-72.85288956920141,42.853618541328075],[-72.85244426972578,42.85400933980931],[-72.8519657890285,42.854639384625536],[-72.85152536117755,42.85559047227106],[-72.85065930383384,42.85713909982168],[-72.8502060980229,42.858134323840396],[-72.85002132306208,42.858800639722695],[-72.84806761648854,42.85884068364241],[-72.84512564586711,42.85911892456942],[-72.84440765393967,42.86041366782324],[-72.84434501665902,42.86040623781348],[-72.8443995065296,42.860428360221675],[-72.8434440702263,42.862180165705595],[-72.84430164737046,42.86235928496333],[-72.84504766952702,42.8624200883575],[-72.8486790032722,42.86210785627399],[-72.85134237001894,42.86211823238413],[-72.85213519316642,42.86320300167853],[-72.85261112256597,42.863679892271584],[-72.85298943402931,42.863971634069024],[-72.85379526748702,42.864443602413225],[-72.85610586022298,42.86554159903803],[-72.85668675109369,42.86576461784895],[-72.85806561750923,42.86616071789829],[-72.86466361539595,42.867601169395385],[-72.86465351885016,42.865884834555054],[-72.86485499025136,42.865331033594],[-72.86486927832253,42.8649650356213],[-72.86495114223695,42.86483941540138],[-72.865492380882,42.86479422540021],[-72.86641909547083,42.8648781885632],[-72.86671244397513,42.86520680758257],[-72.8671411080651,42.86533090022658],[-72.86764120416302,42.8652475032327],[-72.86823244910144,42.86503037773714],[-72.86676851653137,42.86461959423734],[-72.85930383008666,42.86299726943001],[-72.85810625364319,42.86258894604806],[-72.8560290743292,42.861552415338025],[-72.85569867458818,42.86116638432273],[-72.85454465416584,42.85950876979462],[-72.85446362322894,42.85930780212163],[-72.85447679315457,42.8591238365599],[-72.85482643323006,42.858341592319135],[-72.85570835918458,42.85676110357125],[-72.85607965820806,42.855943068766706],[-72.85694280274608,42.85576421691385],[-72.857517189571,42.855583812916464],[-72.85533361903695,42.85268215657731]]]]}},{"type":"Feature","properties":{"OBJECT_ID":1261,"County":"Windham","RPC":"WRC","Municipal_Name":"Wilmington","GEO_ID":"5002584700","District_Name":"Resort - Residential","Abbreviated_District_Name":"R-Res","District_Type":"Primarily Residential","Bylaw_Date":null,"Elderly_Housing_District":"Yes","District_Mapped":"Yes","Overlay_District":"No","Base_Density":null,"FIPS6":null,"GIS_ID":null,"Last_Update":null,"Shape_Length":18179.949546509546,"Shape_Area":4325788.529348077,"F1F_Allowance":"Permitted","F1F_Front_Setback":40.0,"F1F_Side_Setback":20.0,"F1F_Rear_Setback":20.0,"F1F_Frontage":150.0,"F1F_Max_Height":38.0,"F1F_Max_Stories":null,"F1F_Min_Lot_Size":1.0,"F1F_Max_Lot_Building_Coverage":25.0,"F1F_Max_Lot_Impervious_Coverage":null,"F1F_Min_Parking_Spaces":2.0,"F1F_Elderly_Housing_Only":null,"F1F_Affordable_Housing_Only":null,"F2F_Allowance":"Permitted","F2F_Front_Setback":40.0,"F2F_Side_Setback":20.0,"F2F_Rear_Setback":20.0,"F2F_Frontage":150.0,"F2F_Max_Density":1.0,"F2F_Max_Height":38.0,"F2F_Max_Stories":null,"F2F_Min_Lot_Size":1.0,"F2F_Max_Lot_Building_Coverage":25.0,"F2F_Max_Lot_Impervious_Coverage":null,"F2F_Min_Parking_Spaces_per_1BR":2.0,"F2F_Min_Parking_Spaces_per_mult_BR":2.0,"F2F_Elderly_Housing_Only":"No","F2F_Affordable_Housing_Only":"No","F3F_Allowance":"Public Hearing","F3F_Front_Setback":40.0,"F3F_Side_Setback":20.0,"F3F_Rear_Setback":20.0,"F3F_Frontage":150.0,"F3F_Max_Density":1.0,"F3F_Max_Height":38.0,"F3F_Max_Stories":null,"F3F_Min_Lot_Size":1.0,"F3F_Max_Lot_Building_Coverage":25.0,"F3F_Max_Lot_Impervious_Coverage":null,"F3F_Min_Parking_Spaces_per_1BR":2.0,"F3F_Min_Parking_Spaces_per_mult_BR":2.0,"F3F_Affordable_Housing_Only":"No","F3F_Proximity_to_Public_Transit_Required":"No","F3F_Connection_to_Sewage/Water_Required":"No","F4F_Allowance":"Public Hearing","F4F_Front_Setback":40.0,"F4F_Side_Setback":20.0,"F4F_Rear_Setback":20.0,"F4F_Frontage":150.0,"F1F_Max_Density":null,"F4F_Max_Density":1.0,"F4F_Max_Height":38.0,"F4F_Max_Stories":null,"F4F_Min_Lot_Size":1.0,"F4F_Max_Lot_Building_Coverage":25.0,"F4F_Max_Lot_Impervious_Coverage":null,"F4F_Min_Parking_Spaces_per_1BR":2.0,"F4F_Min_Parking_Spaces_per_mult_BR":2.0,"F3F_Elderly_Housing_Only":"No","F4F_Elderly_Housing_Only":"No","F4F_Affordable_Housing_Only":"No","F4F_Proximity_to_Public_Transit_Required":"No","F4F_Connection_to_Sewage/Water_Required":"No","ADU_Allowance":"Allowed/Conditional","ADU_Elderly_Housing_Only":"No","ADU_Max_Size_as_Percent_of_Primary_Strcture":null,"ADU_Max_Size_in_sq_ft":null,"ADU_Min_Lot_Size":null,"ADU_Max_Bedrooms":null,"ADU_Min_Parking_Spaces":null,"ADU_Owner_Occupancy_Required":"No","ADU_Renter_Occupancy_Prohibited":"No","ADU_Employee_or_Family_Occupancy_Required":"No","ADU_Restricted_to_Primary_Structure":null,"Affordable_Housing_Allowance":"Public Hearing","Affordable_Housing_District":"Yes","Affordable_Housing_Elderly_Only":"No","Affordable_Housing_Min_Lot_Size":null,"Affordable_Housing_Max_Density":null,"Affordable_Housing_Min_Parking_Spaces_per_mult_BR":2.0,"Affordable_Housing_Max_Units_per_Building":null,"Affordable_Housing_Min_Parking_Spaces_per_1BR":2.0,"PRD_Allowance":"Public Hearing","PRD_Max_Density":5.0,"PRD_Max_Units":null,"PRD_Min_Lot_Size":2.0,"PRD_Mobile_or_Manufactured_Home_Park":"Yes","PUD_Allowance":"Yes","PUD_Required_with_Subdivision":null,"PUD_Requires_Land_Conservation":"Yes","PUD_Threshold_Number":null,"Notes":"None"},"geometry":{"type":"MultiPolygon","coordinates":[[[[-72.85730402651325,42.90973403019011],[-72.85709636721626,42.913007152872446],[-72.85579699725436,42.91313238267093],[-72.85556616540875,42.91704848605994],[-72.8576939078334,42.91712895488995],[-72.85726514644352,42.9217633023789],[-72.85546004981923,42.92174762659731],[-72.85331504387213,42.92015316759708],[-72.84802558850083,42.9198840200578],[-72.84792238853386,42.92204179431807],[-72.84908835901722,42.92240493714066],[-72.8478530350839,42.92343738931557],[-72.84648045600632,42.92443449957871],[-72.84675996902932,42.92472908541856],[-72.84742072778046,42.92475756791505],[-72.8633390343543,42.92544397166753],[-72.86716718407398,42.925609043862025],[-72.88571187857796,42.92640869922311],[-72.8852726003465,42.92539431611356],[-72.88468593357224,42.92296560508378],[-72.88441520800161,42.922137902263316],[-72.88067818522899,42.92203029107933],[-72.878662911618,42.92200598933277],[-72.87852867566342,42.923915129920346],[-72.87484191093938,42.92375026007923],[-72.8749377987901,42.92172181541841],[-72.87029539685618,42.92155774197034],[-72.87056139166918,42.91759788697721],[-72.86699735563428,42.917396043993016],[-72.86727540129304,42.91392879397739],[-72.86024358599846,42.913687704957844],[-72.8605049285969,42.909736966074036],[-72.85730402651325,42.90973403019011]]],[[[-72.89256872905317,42.89159797012274],[-72.89147636282144,42.891622207183126],[-72.89167058516847,42.89281796179089],[-72.89010552450753,42.89279156265019],[-72.89008632675815,42.89268109113096],[-72.8896099715015,42.89267044804599],[-72.88928078756483,42.891814458219756],[-72.88720483363791,42.89175167801126],[-72.88807922150465,42.89545912627755],[-72.88703173477599,42.895424241070565],[-72.88735361098009,42.89682009107034],[-72.8874994174432,42.89707325124603],[-72.88759374064216,42.89712870628379],[-72.88762669079199,42.89731630896468],[-72.88703562476411,42.89759151543158],[-72.88691386640777,42.89787757441787],[-72.88571579814591,42.89870530344239],[-72.88536855593274,42.898818231221306],[-72.88496293671811,42.89874684566331],[-72.88419586454353,42.898094119591576],[-72.88395725795269,42.898124375385095],[-72.88311489734461,42.89799757371149],[-72.88296040568302,42.89888041561901],[-72.88309925314489,42.89963615406199],[-72.88323521985112,42.90002623439772],[-72.87859318460303,42.89977394521532],[-72.87852655311397,42.899978247967184],[-72.87827372564308,42.90305352677791],[-72.87815195279681,42.905721457426665],[-72.87790204374407,42.908916780702654],[-72.87916571003647,42.909203693618245],[-72.87993391055491,42.90931798021107],[-72.88014765193364,42.90944250564645],[-72.88233866669503,42.90927683442296],[-72.88812087551939,42.90909499212917],[-72.89306132023064,42.909429244140505],[-72.8932772864837,42.90497418830201],[-72.89347139689117,42.90460099917777],[-72.89749716490206,42.904648647272396],[-72.89759665390814,42.904030295655204],[-72.89833986049584,42.902746379315055],[-72.89842254211247,42.90260534342179],[-72.89859486621299,42.9017351066023],[-72.89750910072837,42.90130911871759],[-72.89733937720592,42.900540521721794],[-72.89685014850332,42.90044849392181],[-72.89485055852775,42.90035405944028],[-72.89509523021955,42.899844710267004],[-72.8953556358037,42.899532816275524],[-72.89532682742765,42.89921790856318],[-72.89546672946499,42.898902518087695],[-72.8954658232078,42.89876070891434],[-72.89482581755325,42.89707001261559],[-72.8947015218555,42.89689330967672],[-72.89476704255597,42.89640974068906],[-72.89436419105687,42.895859247756235],[-72.89473959613593,42.8956125704508],[-72.89449552996085,42.89530338599538],[-72.89443100514883,42.895182049437196],[-72.89454865874276,42.8951381681566],[-72.89256872905317,42.89159797012274]]]]}},{"type":"Feature","properties":{"OBJECT_ID":1260,"County":"Windham","RPC":"WRC","Municipal_Name":"Wilmington","GEO_ID":"5002584700","District_Name":"Resort - Commercial/Residential","Abbreviated_District_Name":"R-Com/Res","District_Type":"Mixed with Residential","Bylaw_Date":null,"Elderly_Housing_District":"Yes","District_Mapped":"Yes","Overlay_District":"No","Base_Density":null,"FIPS6":null,"GIS_ID":null,"Last_Update":null,"Shape_Length":5753.97324845829,"Shape_Area":1923200.2374928093,"F1F_Allowance":"Permitted","F1F_Front_Setback":40.0,"F1F_Side_Setback":20.0,"F1F_Rear_Setback":20.0,"F1F_Frontage":150.0,"F1F_Max_Height":38.0,"F1F_Max_Stories":null,"F1F_Min_Lot_Size":1.0,"F1F_Max_Lot_Building_Coverage":25.0,"F1F_Max_Lot_Impervious_Coverage":null,"F1F_Min_Parking_Spaces":2.0,"F1F_Elderly_Housing_Only":null,"F1F_Affordable_Housing_Only":null,"F2F_Allowance":"Permitted","F2F_Front_Setback":40.0,"F2F_Side_Setback":20.0,"F2F_Rear_Setback":20.0,"F2F_Frontage":150.0,"F2F_Max_Density":1.0,"F2F_Max_Height":38.0,"F2F_Max_Stories":null,"F2F_Min_Lot_Size":1.0,"F2F_Max_Lot_Building_Coverage":25.0,"F2F_Max_Lot_Impervious_Coverage":null,"F2F_Min_Parking_Spaces_per_1BR":2.0,"F2F_Min_Parking_Spaces_per_mult_BR":2.0,"F2F_Elderly_Housing_Only":"No","F2F_Affordable_Housing_Only":"No","F3F_Allowance":"Public Hearing","F3F_Front_Setback":40.0,"F3F_Side_Setback":20.0,"F3F_Rear_Setback":20.0,"F3F_Frontage":150.0,"F3F_Max_Density":1.0,"F3F_Max_Height":38.0,"F3F_Max_Stories":null,"F3F_Min_Lot_Size":1.0,"F3F_Max_Lot_Building_Coverage":25.0,"F3F_Max_Lot_Impervious_Coverage":null,"F3F_Min_Parking_Spaces_per_1BR":2.0,"F3F_Min_Parking_Spaces_per_mult_BR":2.0,"F3F_Affordable_Housing_Only":"No","F3F_Proximity_to_Public_Transit_Required":"No","F3F_Connection_to_Sewage/Water_Required":"No","F4F_Allowance":"Public Hearing","F4F_Front_Setback":40.0,"F4F_Side_Setback":20.0,"F4F_Rear_Setback":20.0,"F4F_Frontage":150.0,"F1F_Max_Density":null,"F4F_Max_Density":1.0,"F4F_Max_Height":38.0,"F4F_Max_Stories":null,"F4F_Min_Lot_Size":1.0,"F4F_Max_Lot_Building_Coverage":25.0,"F4F_Max_Lot_Impervious_Coverage":null,"F4F_Min_Parking_Spaces_per_1BR":2.0,"F4F_Min_Parking_Spaces_per_mult_BR":2.0,"F3F_Elderly_Housing_Only":"No","F4F_Elderly_Housing_Only":"No","F4F_Affordable_Housing_Only":"No","F4F_Proximity_to_Public_Transit_Required":"No","F4F_Connection_to_Sewage/Water_Required":"No","ADU_Allowance":"Allowed/Conditional","ADU_Elderly_Housing_Only":"No","ADU_Max_Size_as_Percent_of_Primary_Strcture":null,"ADU_Max_Size_in_sq_ft":null,"ADU_Min_Lot_Size":null,"ADU_Max_Bedrooms":null,"ADU_Min_Parking_Spaces":null,"ADU_Owner_Occupancy_Required":"No","ADU_Renter_Occupancy_Prohibited":"No","ADU_Employee_or_Family_Occupancy_Required":"No","ADU_Restricted_to_Primary_Structure":null,"Affordable_Housing_Allowance":"Public Hearing","Affordable_Housing_District":"Yes","Affordable_Housing_Elderly_Only":"No","Affordable_Housing_Min_Lot_Size":null,"Affordable_Housing_Max_Density":null,"Affordable_Housing_Min_Parking_Spaces_per_mult_BR":2.0,"Affordable_Housing_Max_Units_per_Building":null,"Affordable_Housing_Min_Parking_Spaces_per_1BR":2.0,"PRD_Allowance":"Public Hearing","PRD_Max_Density":5.0,"PRD_Max_Units":null,"PRD_Min_Lot_Size":2.0,"PRD_Mobile_or_Manufactured_Home_Park":"Yes","PUD_Allowance":"Yes","PUD_Required_with_Subdivision":null,"PUD_Requires_Land_Conservation":"Yes","PUD_Threshold_Number":null,"Notes":"None"},"geometry":{"type":"MultiPolygon","coordinates":[[[[-72.8964300901178,42.92687087261858],[-72.9041028703865,42.92703341784594],[-72.90402580330517,42.92322023181592],[-72.90430708464908,42.918926950585416],[-72.89971843851814,42.91579690043004],[-72.89696530283486,42.91570418774009],[-72.88755795432456,42.915326876442705],[-72.88753714443392,42.916253647808176],[-72.88713893192987,42.916164656298825],[-72.88671612921588,42.91600131222127],[-72.88598048726759,42.915568313051786],[-72.8857947964483,42.91629610762577],[-72.88541926490227,42.916253875233394],[-72.88461021094824,42.91598602705462],[-72.88415996205532,42.91591375813681],[-72.8839518496194,42.9157617970924],[-72.88348509703796,42.915681795097555],[-72.88343530494035,42.91611855096191],[-72.8843341425291,42.91630478082463],[-72.88336713553602,42.91796414294455],[-72.8832622737829,42.917967893186216],[-72.88355117887215,42.91860969460271],[-72.88357595460606,42.91970366857259],[-72.88367160459414,42.92024351744009],[-72.88441520800161,42.922137902263316],[-72.88468593357224,42.92296560508378],[-72.8852726003465,42.92539431611356],[-72.88571187857796,42.92640869922311],[-72.88578545821844,42.926303688820994],[-72.8964300901178,42.92687087261858]]]]}},{"type":"Feature","properties":{"OBJECT_ID":1262,"County":"Windham","RPC":"WRC","Municipal_Name":"Wilmington","GEO_ID":"5002584700","District_Name":"Village","Abbreviated_District_Name":"Vil","District_Type":"Mixed with Residential","Bylaw_Date":null,"Elderly_Housing_District":"Yes","District_Mapped":"Yes","Overlay_District":"No","Base_Density":null,"FIPS6":null,"GIS_ID":null,"Last_Update":null,"Shape_Length":6575.656939273767,"Shape_Area":1022009.3166206087,"F1F_Allowance":"Permitted","F1F_Front_Setback":20.0,"F1F_Side_Setback":20.0,"F1F_Rear_Setback":20.0,"F1F_Frontage":150.0,"F1F_Max_Height":38.0,"F1F_Max_Stories":null,"F1F_Min_Lot_Size":0.125,"F1F_Max_Lot_Building_Coverage":null,"F1F_Max_Lot_Impervious_Coverage":null,"F1F_Min_Parking_Spaces":2.0,"F1F_Elderly_Housing_Only":null,"F1F_Affordable_Housing_Only":null,"F2F_Allowance":"Permitted","F2F_Front_Setback":20.0,"F2F_Side_Setback":20.0,"F2F_Rear_Setback":20.0,"F2F_Frontage":150.0,"F2F_Max_Density":2.0,"F2F_Max_Height":38.0,"F2F_Max_Stories":null,"F2F_Min_Lot_Size":0.125,"F2F_Max_Lot_Building_Coverage":null,"F2F_Max_Lot_Impervious_Coverage":null,"F2F_Min_Parking_Spaces_per_1BR":2.0,"F2F_Min_Parking_Spaces_per_mult_BR":2.0,"F2F_Elderly_Housing_Only":"No","F2F_Affordable_Housing_Only":"No","F3F_Allowance":"Public Hearing","F3F_Front_Setback":20.0,"F3F_Side_Setback":20.0,"F3F_Rear_Setback":20.0,"F3F_Frontage":150.0,"F3F_Max_Density":2.0,"F3F_Max_Height":38.0,"F3F_Max_Stories":null,"F3F_Min_Lot_Size":0.125,"F3F_Max_Lot_Building_Coverage":null,"F3F_Max_Lot_Impervious_Coverage":null,"F3F_Min_Parking_Spaces_per_1BR":2.0,"F3F_Min_Parking_Spaces_per_mult_BR":2.0,"F3F_Affordable_Housing_Only":"No","F3F_Proximity_to_Public_Transit_Required":"No","F3F_Connection_to_Sewage/Water_Required":"No","F4F_Allowance":"Public Hearing","F4F_Front_Setback":20.0,"F4F_Side_Setback":20.0,"F4F_Rear_Setback":20.0,"F4F_Frontage":150.0,"F1F_Max_Density":null,"F4F_Max_Density":2.0,"F4F_Max_Height":38.0,"F4F_Max_Stories":null,"F4F_Min_Lot_Size":0.125,"F4F_Max_Lot_Building_Coverage":null,"F4F_Max_Lot_Impervious_Coverage":null,"F4F_Min_Parking_Spaces_per_1BR":2.0,"F4F_Min_Parking_Spaces_per_mult_BR":2.0,"F3F_Elderly_Housing_Only":"No","F4F_Elderly_Housing_Only":"No","F4F_Affordable_Housing_Only":"No","F4F_Proximity_to_Public_Transit_Required":"No","F4F_Connection_to_Sewage/Water_Required":"No","ADU_Allowance":"Allowed/Conditional","ADU_Elderly_Housing_Only":"No","ADU_Max_Size_as_Percent_of_Primary_Strcture":null,"ADU_Max_Size_in_sq_ft":null,"ADU_Min_Lot_Size":null,"ADU_Max_Bedrooms":null,"ADU_Min_Parking_Spaces":null,"ADU_Owner_Occupancy_Required":"No","ADU_Renter_Occupancy_Prohibited":"No","ADU_Employee_or_Family_Occupancy_Required":"No","ADU_Restricted_to_Primary_Structure":null,"Affordable_Housing_Allowance":"Public Hearing","Affordable_Housing_District":"Yes","Affordable_Housing_Elderly_Only":"No","Affordable_Housing_Min_Lot_Size":null,"Affordable_Housing_Max_Density":null,"Affordable_Housing_Min_Parking_Spaces_per_mult_BR":2.0,"Affordable_Housing_Max_Units_per_Building":null,"Affordable_Housing_Min_Parking_Spaces_per_1BR":2.0,"PRD_Allowance":"Public Hearing","PRD_Max_Density":5.0,"PRD_Max_Units":null,"PRD_Min_Lot_Size":2.0,"PRD_Mobile_or_Manufactured_Home_Park":"No","PUD_Allowance":"Yes","PUD_Required_with_Subdivision":null,"PUD_Requires_Land_Conservation":"Yes","PUD_Threshold_Number":null,"Notes":"None"},"geometry":{"type":"MultiPolygon","coordinates":[[[[-72.86466361539595,42.867601169395385],[-72.86469115242994,42.87227740359758],[-72.86528654141604,42.872094486139474],[-72.86575140649204,42.87185006596668],[-72.8665671574818,42.87180457876019],[-72.86708438670941,42.87165525817169],[-72.86796747183749,42.8709521775705],[-72.86818247726173,42.870679960786255],[-72.86829178903106,42.87071958709953],[-72.86864946631317,42.87035852244153],[-72.8688948276701,42.87045845014745],[-72.86948174221946,42.87017602009823],[-72.87064319102946,42.869461872088955],[-72.87102810135269,42.869119503450996],[-72.8710821398139,42.86914838678803],[-72.87096058505607,42.869381856076444],[-72.87182506909129,42.86954450596369],[-72.87205698973303,42.869635673797845],[-72.87252975708498,42.87015354755655],[-72.87246562178602,42.8702376620816],[-72.87225900141881,42.870220644238444],[-72.87238428086111,42.870703389575795],[-72.8745930487309,42.871034813434015],[-72.87500251784684,42.8710372511445],[-72.8749094605594,42.871389551223025],[-72.87796671240525,42.871537018951976],[-72.87830589890456,42.871402949072426],[-72.87843140924264,42.87140194825931],[-72.87839886154642,42.871957671840775],[-72.87903529346666,42.87195851659439],[-72.87900363070304,42.8723269912981],[-72.87966246440405,42.87236630676074],[-72.87968564913474,42.87452445134027],[-72.88056713065347,42.87444293457451],[-72.88042164618246,42.8764752480773],[-72.88731407046177,42.87680169605269],[-72.8863043248057,42.87582603202066],[-72.88533996449664,42.87464014012357],[-72.88507368211636,42.87456638159876],[-72.88490631801864,42.873176769828355],[-72.88399678404896,42.87200158221862],[-72.88404539550933,42.87145264831535],[-72.88411946113949,42.871308086996],[-72.88382219217632,42.871274125582396],[-72.88381484527461,42.87093696590368],[-72.88385275107346,42.870298720307034],[-72.88388247501463,42.8694802063582],[-72.88185792917832,42.8693147097636],[-72.88187051752051,42.86874950940908],[-72.88121331593089,42.86847538929968],[-72.88034099384546,42.86847982439576],[-72.8798892019959,42.868021907037054],[-72.8793274485774,42.86827980459278],[-72.87911115040171,42.86805646110929],[-72.87918813673326,42.868012355596996],[-72.87785267210057,42.86652891732216],[-72.87705351453444,42.866470174443634],[-72.87529745241979,42.86672093285392],[-72.8749347976594,42.86684379666089],[-72.87406132553173,42.867530831446004],[-72.87371905651514,42.867665799097104],[-72.87346640088434,42.867696382350545],[-72.8733523239645,42.867476149438794],[-72.8733179392024,42.867164847942185],[-72.87310829652786,42.86702452477792],[-72.87260372940545,42.866429182703875],[-72.87231167356865,42.866194153245225],[-72.87165730736974,42.865933743775855],[-72.87133563709205,42.865479545085535],[-72.87129626583906,42.86529116618413],[-72.87109017596777,42.86510472485574],[-72.8701053215158,42.8648286279996],[-72.86889464397588,42.864903751873285],[-72.86823244910144,42.86503037773714],[-72.86764120416302,42.8652475032327],[-72.8671411080651,42.86533090022658],[-72.86671244397513,42.86520680758257],[-72.86641909547083,42.8648781885632],[-72.865492380882,42.86479422540021],[-72.86495114223695,42.86483941540138],[-72.86486927832253,42.8649650356213],[-72.86485499025136,42.865331033594],[-72.86465351885016,42.865884834555054],[-72.86466361539595,42.867601169395385]]]]}},{"type":"Feature","properties":{"OBJECT_ID":1258,"County":"Windham","RPC":"WRC","Municipal_Name":"Wilmington","GEO_ID":"5002584700","District_Name":"Historic Design Review District","Abbreviated_District_Name":"Hdrd","District_Type":"Overlay","Bylaw_Date":null,"Elderly_Housing_District":"No","District_Mapped":"Yes","Overlay_District":"Yes","Base_Density":null,"FIPS6":null,"GIS_ID":null,"Last_Update":null,"Shape_Length":1655.6460063442617,"Shape_Area":79025.7210316183,"F1F_Allowance":"Permitted","F1F_Front_Setback":0.0,"F1F_Side_Setback":0.0,"F1F_Rear_Setback":0.0,"F1F_Frontage":40.0,"F1F_Max_Height":38.0,"F1F_Max_Stories":null,"F1F_Min_Lot_Size":0.125,"F1F_Max_Lot_Building_Coverage":null,"F1F_Max_Lot_Impervious_Coverage":null,"F1F_Min_Parking_Spaces":2.0,"F1F_Elderly_Housing_Only":null,"F1F_Affordable_Housing_Only":null,"F2F_Allowance":"Permitted","F2F_Front_Setback":0.0,"F2F_Side_Setback":0.0,"F2F_Rear_Setback":0.0,"F2F_Frontage":40.0,"F2F_Max_Density":2.0,"F2F_Max_Height":38.0,"F2F_Max_Stories":null,"F2F_Min_Lot_Size":0.125,"F2F_Max_Lot_Building_Coverage":null,"F2F_Max_Lot_Impervious_Coverage":null,"F2F_Min_Parking_Spaces_per_1BR":2.0,"F2F_Min_Parking_Spaces_per_mult_BR":2.0,"F2F_Elderly_Housing_Only":"No","F2F_Affordable_Housing_Only":"No","F3F_Allowance":"Public Hearing","F3F_Front_Setback":0.0,"F3F_Side_Setback":0.0,"F3F_Rear_Setback":0.0,"F3F_Frontage":40.0,"F3F_Max_Density":2.0,"F3F_Max_Height":38.0,"F3F_Max_Stories":null,"F3F_Min_Lot_Size":0.125,"F3F_Max_Lot_Building_Coverage":null,"F3F_Max_Lot_Impervious_Coverage":null,"F3F_Min_Parking_Spaces_per_1BR":2.0,"F3F_Min_Parking_Spaces_per_mult_BR":2.0,"F3F_Affordable_Housing_Only":"No","F3F_Proximity_to_Public_Transit_Required":"No","F3F_Connection_to_Sewage/Water_Required":"No","F4F_Allowance":"Public Hearing","F4F_Front_Setback":0.0,"F4F_Side_Setback":0.0,"F4F_Rear_Setback":0.0,"F4F_Frontage":40.0,"F1F_Max_Density":null,"F4F_Max_Density":2.0,"F4F_Max_Height":38.0,"F4F_Max_Stories":null,"F4F_Min_Lot_Size":0.125,"F4F_Max_Lot_Building_Coverage":null,"F4F_Max_Lot_Impervious_Coverage":null,"F4F_Min_Parking_Spaces_per_1BR":2.0,"F4F_Min_Parking_Spaces_per_mult_BR":2.0,"F3F_Elderly_Housing_Only":"No","F4F_Elderly_Housing_Only":"No","F4F_Affordable_Housing_Only":"No","F4F_Proximity_to_Public_Transit_Required":"No","F4F_Connection_to_Sewage/Water_Required":"No","ADU_Allowance":"Not Mentioned","ADU_Elderly_Housing_Only":null,"ADU_Max_Size_as_Percent_of_Primary_Strcture":null,"ADU_Max_Size_in_sq_ft":null,"ADU_Min_Lot_Size":null,"ADU_Max_Bedrooms":null,"ADU_Min_Parking_Spaces":null,"ADU_Owner_Occupancy_Required":null,"ADU_Renter_Occupancy_Prohibited":null,"ADU_Employee_or_Family_Occupancy_Required":null,"ADU_Restricted_to_Primary_Structure":null,"Affordable_Housing_Allowance":"Not Mentioned","Affordable_Housing_District":"No","Affordable_Housing_Elderly_Only":null,"Affordable_Housing_Min_Lot_Size":null,"Affordable_Housing_Max_Density":null,"Affordable_Housing_Min_Parking_Spaces_per_mult_BR":null,"Affordable_Housing_Max_Units_per_Building":null,"Affordable_Housing_Min_Parking_Spaces_per_1BR":null,"PRD_Allowance":"Not Mentioned","PRD_Max_Density":null,"PRD_Max_Units":null,"PRD_Min_Lot_Size":null,"PRD_Mobile_or_Manufactured_Home_Park":null,"PUD_Allowance":null,"PUD_Required_with_Subdivision":null,"PUD_Requires_Land_Conservation":null,"PUD_Threshold_Number":null,"Notes":"  Data Is Possibly Off, Currently Unclear If Both Hdrd And Vdrd Are Within The Village District, And If They Share The Same Dimensions"},"geometry":{"type":"MultiPolygon","coordinates":[[[[-72.87393051213927,42.870253327972065],[-72.87430887504875,42.86989434574422],[-72.87412257333554,42.8695688859238],[-72.87380628994896,42.86874496907385],[-72.87340521712302,42.86838160932462],[-72.87323384556103,42.86835517829506],[-72.87343230690249,42.86776293556325],[-72.87327970137387,42.86739181418213],[-72.8732846171806,42.86718624993491],[-72.87168587325864,42.867578540193634],[-72.871590443676,42.86740768400138],[-72.87102931703036,42.867779779710574],[-72.8696347749944,42.86688630602479],[-72.86901288326563,42.8675042249116],[-72.86969784460294,42.867889033974556],[-72.86953163328515,42.868039281111784],[-72.87031328071245,42.868495660762754],[-72.86971145329714,42.86882164729135],[-72.86989745637018,42.868797409047716],[-72.86934869383114,42.869104106446954],[-72.86947031052858,42.8696567350448],[-72.86997611877366,42.869622410891786],[-72.8705936163582,42.86926860831328],[-72.87100359142356,42.868865850585415],[-72.87393051213927,42.870253327972065]]]]}},{"type":"Feature","properties":{"OBJECT_ID":1259,"County":"Windham","RPC":"WRC","Municipal_Name":"Wilmington","GEO_ID":"5002584700","District_Name":"Residential","Abbreviated_District_Name":"Res","District_Type":"Primarily Residential","Bylaw_Date":null,"Elderly_Housing_District":"No","District_Mapped":"Yes","Overlay_District":"No","Base_Density":null,"FIPS6":null,"GIS_ID":null,"Last_Update":null,"Shape_Length":98291.4326744606,"Shape_Area":77672688.29833959,"F1F_Allowance":"Permitted","F1F_Front_Setback":40.0,"F1F_Side_Setback":20.0,"F1F_Rear_Setback":20.0,"F1F_Frontage":150.0,"F1F_Max_Height":38.0,"F1F_Max_Stories":null,"F1F_Min_Lot_Size":1.0,"F1F_Max_Lot_Building_Coverage":25.0,"F1F_Max_Lot_Impervious_Coverage":null,"F1F_Min_Parking_Spaces":2.0,"F1F_Elderly_Housing_Only":null,"F1F_Affordable_Housing_Only":null,"F2F_Allowance":"Permitted","F2F_Front_Setback":40.0,"F2F_Side_Setback":20.0,"F2F_Rear_Setback":20.0,"F2F_Frontage":150.0,"F2F_Max_Density":1.0,"F2F_Max_Height":38.0,"F2F_Max_Stories":null,"F2F_Min_Lot_Size":1.0,"F2F_Max_Lot_Building_Coverage":25.0,"F2F_Max_Lot_Impervious_Coverage":null,"F2F_Min_Parking_Spaces_per_1BR":2.0,"F2F_Min_Parking_Spaces_per_mult_BR":2.0,"F2F_Elderly_Housing_Only":"No","F2F_Affordable_Housing_Only":"No","F3F_Allowance":"Public Hearing","F3F_Front_Setback":40.0,"F3F_Side_Setback":20.0,"F3F_Rear_Setback":20.0,"F3F_Frontage":150.0,"F3F_Max_Density":1.0,"F3F_Max_Height":38.0,"F3F_Max_Stories":null,"F3F_Min_Lot_Size":1.0,"F3F_Max_Lot_Building_Coverage":25.0,"F3F_Max_Lot_Impervious_Coverage":null,"F3F_Min_Parking_Spaces_per_1BR":2.0,"F3F_Min_Parking_Spaces_per_mult_BR":2.0,"F3F_Affordable_Housing_Only":"No","F3F_Proximity_to_Public_Transit_Required":"No","F3F_Connection_to_Sewage/Water_Required":"No","F4F_Allowance":"Public Hearing","F4F_Front_Setback":40.0,"F4F_Side_Setback":20.0,"F4F_Rear_Setback":20.0,"F4F_Frontage":150.0,"F1F_Max_Density":null,"F4F_Max_Density":1.0,"F4F_Max_Height":38.0,"F4F_Max_Stories":null,"F4F_Min_Lot_Size":1.0,"F4F_Max_Lot_Building_Coverage":25.0,"F4F_Max_Lot_Impervious_Coverage":null,"F4F_Min_Parking_Spaces_per_1BR":2.0,"F4F_Min_Parking_Spaces_per_mult_BR":2.0,"F3F_Elderly_Housing_Only":"No","F4F_Elderly_Housing_Only":"No","F4F_Affordable_Housing_Only":"No","F4F_Proximity_to_Public_Transit_Required":"No","F4F_Connection_to_Sewage/Water_Required":"No","ADU_Allowance":"Allowed/Conditional","ADU_Elderly_Housing_Only":"No","ADU_Max_Size_as_Percent_of_Primary_Strcture":null,"ADU_Max_Size_in_sq_ft":null,"ADU_Min_Lot_Size":null,"ADU_Max_Bedrooms":null,"ADU_Min_Parking_Spaces":null,"ADU_Owner_Occupancy_Required":"No","ADU_Renter_Occupancy_Prohibited":"No","ADU_Employee_or_Family_Occupancy_Required":"No","ADU_Restricted_to_Primary_Structure":null,"Affordable_Housing_Allowance":"Public Hearing","Affordable_Housing_District":"Yes","Affordable_Housing_Elderly_Only":"No","Affordable_Housing_Min_Lot_Size":null,"Affordable_Housing_Max_Density":null,"Affordable_Housing_Min_Parking_Spaces_per_mult_BR":2.0,"Affordable_Housing_Max_Units_per_Building":null,"Affordable_Housing_Min_Parking_Spaces_per_1BR":2.0,"PRD_Allowance":"Public Hearing","PRD_Max_Density":5.0,"PRD_Max_Units":null,"PRD_Min_Lot_Size":2.0,"PRD_Mobile_or_Manufactured_Home_Park":"Yes","PUD_Allowance":"Yes","PUD_Required_with_Subdivision":null,"PUD_Requires_Land_Conservation":"Yes","PUD_Threshold_Number":null,"Notes":"None"},"geometry":{"type":"MultiPolygon","coordinates":[[[[-72.92105638533157,42.868356183923815],[-72.92104693304901,42.86921619058381],[-72.91971583495906,42.869188622181056],[-72.91863835721827,42.86894479058055],[-72.91816365699634,42.868703727871825],[-72.91810946776687,42.868734391247344],[-72.91771571798449,42.868575748609366],[-72.91760078943123,42.868603314293736],[-72.91746789773882,42.86874621328253],[-72.91712745205008,42.868849183939034],[-72.91702708928916,42.868995374752096],[-72.9168611796369,42.86900614130129],[-72.91665463808388,42.86883226871732],[-72.91653802297671,42.86885249383924],[-72.91607303389435,42.86846655482496],[-72.91528906996183,42.86804961257767],[-72.91417923017727,42.86792561175881],[-72.91421183576826,42.862005163679484],[-72.92195375969415,42.86186756769159],[-72.92162463263655,42.868347482558605],[-72.92105638533157,42.868356183923815]]],[[[-72.83229183692008,42.82733796159925],[-72.83550144532549,42.82742303678201],[-72.84686458442769,42.827724233924236],[-72.86677402922274,42.82828929768408],[-72.86809588280866,42.83013867606211],[-72.86809949601825,42.83068284558105],[-72.8678529701661,42.83289789955412],[-72.86857633707471,42.83330893269985],[-72.8705926326425,42.833383197412026],[-72.87090202580022,42.8332204070011],[-72.87220587118426,42.83291397963125],[-72.87226921360427,42.833024427941524],[-72.8718655650438,42.83754637999896],[-72.8738217640144,42.837839123172095],[-72.8737955465065,42.839005503821156],[-72.87508056048003,42.83884661935694],[-72.87604228499539,42.84150055383664],[-72.87832976149132,42.84153917643799],[-72.87908936060505,42.83847524089929],[-72.87992278916671,42.83882261513751],[-72.88185901043649,42.84044213341827],[-72.88292930705435,42.84121587767842],[-72.88295920094652,42.84134038403061],[-72.88392236312623,42.841259493414604],[-72.88499550144964,42.842408035855534],[-72.88502462798948,42.84296393928792],[-72.88548802967942,42.842990922864686],[-72.88557706059069,42.843479514169275],[-72.88554386358655,42.844493487274775],[-72.88560368963074,42.84449877975785],[-72.88676768016796,42.84371722142501],[-72.88720494035081,42.84427535462195],[-72.8880227938136,42.844228728900966],[-72.89091693772427,42.84534240124844],[-72.89277684945658,42.845389393011125],[-72.89305739007158,42.846631760357845],[-72.89283305148801,42.8469874085748],[-72.89212229321438,42.84723761157158],[-72.8917726926435,42.847511706850106],[-72.89016499766177,42.848006931587996],[-72.89058368811467,42.84857991765207],[-72.89004291499566,42.84882437132981],[-72.8895280709224,42.849366367579385],[-72.8888616907312,42.84945340125153],[-72.88764539839867,42.84978706934171],[-72.88645378927751,42.850243741284814],[-72.88537111502197,42.850906179827206],[-72.88457276093246,42.85090083070037],[-72.88288424370185,42.85123011445235],[-72.88302272515199,42.85197285262356],[-72.88129658125423,42.85130611100998],[-72.88179795582717,42.85238310222433],[-72.88161917583597,42.85315404685771],[-72.8819691933779,42.85318057805102],[-72.88142567408613,42.85401690944073],[-72.88111316121466,42.85542630803569],[-72.88110460787433,42.85689701600029],[-72.88124777701434,42.85717190222201],[-72.88144451691095,42.857389022959104],[-72.88145764155998,42.85790592660232],[-72.88233302448816,42.85904389758366],[-72.8835343817555,42.85921472040297],[-72.88358588138345,42.858945999654225],[-72.88339523516733,42.85866405672008],[-72.88386119496258,42.858575126373196],[-72.8839182290288,42.85883327869635],[-72.8842251580206,42.85918189022206],[-72.88438229344709,42.85960947807764],[-72.88505225422995,42.8601068794034],[-72.88564456462503,42.859549925927475],[-72.88641610487079,42.8597777204475],[-72.88675861554914,42.85994303377909],[-72.88714608394126,42.86032775505951],[-72.88768700411194,42.86109622184282],[-72.88803629729179,42.86100087119542],[-72.88881148124173,42.86174382964752],[-72.88998498250545,42.86130602156121],[-72.89092768212763,42.86071363201577],[-72.89114890012732,42.86074581935651],[-72.891379465514,42.86092208398071],[-72.89193101951072,42.8620936917427],[-72.89202776471627,42.86336272258899],[-72.8926188619031,42.86370772106704],[-72.89264284050422,42.863449715019655],[-72.89430148501204,42.86455087504802],[-72.89389398530663,42.86535760640301],[-72.89616486787776,42.86764057031486],[-72.89657825674843,42.86799373620817],[-72.89776206732887,42.86932934364417],[-72.89789362953258,42.86927132320355],[-72.89798794884335,42.869368299812265],[-72.8979101927035,42.869408863033655],[-72.89865519704156,42.87029939768304],[-72.89738193829933,42.870764472556985],[-72.89652916753982,42.87131806527985],[-72.89533331453609,42.87223116487573],[-72.89478826260063,42.87252606332039],[-72.89407750652809,42.87274589305596],[-72.89326171421615,42.87280654942951],[-72.892677088071,42.87277476435472],[-72.89165721030507,42.872617307446816],[-72.89117524088219,42.8718809012087],[-72.89120766245816,42.87087166095976],[-72.88766202944234,42.87070359383959],[-72.88767353176152,42.87147217892486],[-72.88385275107346,42.870298720307034],[-72.88388247501463,42.8694802063582],[-72.88185792917832,42.8693147097636],[-72.88187051752051,42.86874950940908],[-72.88121331593089,42.86847538929968],[-72.88034099384546,42.86847982439576],[-72.8798892019959,42.868021907037054],[-72.8793274485774,42.86827980459278],[-72.87911115040171,42.86805646110929],[-72.87918813673326,42.868012355596996],[-72.87785267210057,42.86652891732216],[-72.87705351453444,42.866470174443634],[-72.87529745241979,42.86672093285392],[-72.8749347976594,42.86684379666089],[-72.87406132553173,42.867530831446004],[-72.87371905651514,42.867665799097104],[-72.87346640088434,42.867696382350545],[-72.8733523239645,42.867476149438794],[-72.8733179392024,42.867164847942185],[-72.87310829652786,42.86702452477792],[-72.87260372940545,42.866429182703875],[-72.87231167356865,42.866194153245225],[-72.87165730736974,42.865933743775855],[-72.87133563709205,42.865479545085535],[-72.87129626583906,42.86529116618413],[-72.87109017596777,42.86510472485574],[-72.8701053215158,42.8648286279996],[-72.86889464397588,42.864903751873285],[-72.86823244910144,42.86503037773714],[-72.86676851653137,42.86461959423734],[-72.85930383008666,42.86299726943001],[-72.85810625364319,42.86258894604806],[-72.8560290743292,42.861552415338025],[-72.85569867458818,42.86116638432273],[-72.85454465416584,42.85950876979462],[-72.85446362322894,42.85930780212163],[-72.85447679315457,42.8591238365599],[-72.85482643323006,42.858341592319135],[-72.85570835918458,42.85676110357125],[-72.85607965820806,42.855943068766706],[-72.85694280274608,42.85576421691385],[-72.857517189571,42.855583812916464],[-72.85533361903695,42.85268215657731],[-72.8544692808738,42.85287431407432],[-72.85374237249984,42.853128372390806],[-72.85288956920141,42.853618541328075],[-72.85244426972578,42.85400933980931],[-72.8519657890285,42.854639384625536],[-72.85152536117755,42.85559047227106],[-72.85065930383384,42.85713909982168],[-72.8502060980229,42.858134323840396],[-72.85002132306208,42.858800639722695],[-72.84806761648854,42.85884068364241],[-72.84512564586711,42.85911892456942],[-72.84440765393967,42.86041366782324],[-72.84434501665902,42.86040623781348],[-72.8443995065296,42.860428360221675],[-72.8434440702263,42.862180165705595],[-72.84430164737046,42.86235928496333],[-72.84504766952702,42.8624200883575],[-72.8486790032722,42.86210785627399],[-72.85134237001894,42.86211823238413],[-72.85213519316642,42.86320300167853],[-72.85261112256597,42.863679892271584],[-72.85298943402931,42.863971634069024],[-72.85379526748702,42.864443602413225],[-72.85610586022298,42.86554159903803],[-72.85668675109369,42.86576461784895],[-72.85806561750923,42.86616071789829],[-72.86466361539595,42.867601169395385],[-72.86469115242994,42.87227740359758],[-72.86528654141604,42.872094486139474],[-72.86575140649204,42.87185006596668],[-72.8665671574818,42.87180457876019],[-72.86708438670941,42.87165525817169],[-72.86796747183749,42.8709521775705],[-72.86818247726173,42.870679960786255],[-72.86829178903106,42.87071958709953],[-72.86864946631317,42.87035852244153],[-72.8688948276701,42.87045845014745],[-72.86948174221946,42.87017602009823],[-72.87064319102946,42.869461872088955],[-72.87102810135269,42.869119503450996],[-72.8710821398139,42.86914838678803],[-72.87096058505607,42.869381856076444],[-72.87182506909129,42.86954450596369],[-72.87205698973303,42.869635673797845],[-72.87252975708498,42.87015354755655],[-72.87246562178602,42.8702376620816],[-72.87225900141881,42.870220644238444],[-72.87238428086111,42.870703389575795],[-72.8745930487309,42.871034813434015],[-72.87500251784684,42.8710372511445],[-72.8749094605594,42.871389551223025],[-72.87796671240525,42.871537018951976],[-72.87830589890456,42.871402949072426],[-72.87843140924264,42.87140194825931],[-72.87839886154642,42.871957671840775],[-72.87903529346666,42.87195851659439],[-72.87900363070304,42.8723269912981],[-72.87966246440405,42.87236630676074],[-72.87968564913474,42.87452445134027],[-72.88056713065347,42.87444293457451],[-72.88042164618246,42.8764752480773],[-72.88731407046177,42.87680169605269],[-72.88737604148471,42.876803629765035],[-72.88740207239009,42.876867119145395],[-72.88758464756157,42.87780319156055],[-72.88776772257437,42.87772138720779],[-72.88872982899831,42.87943961070973],[-72.8894425806058,42.879886410963785],[-72.8904631815532,42.879444522755996],[-72.89066548139107,42.87943768068073],[-72.89325678167263,42.87878632212134],[-72.89297429822908,42.87766217140325],[-72.89250749514643,42.87643838044093],[-72.89281553931218,42.874098846631824],[-72.89362135964689,42.87409002970255],[-72.89441896377633,42.873932106566194],[-72.89770736666179,42.872485477899666],[-72.89851403256283,42.87225593155541],[-72.9011297646281,42.871739000645256],[-72.90206364123107,42.87134305958614],[-72.90276281900452,42.870974324320095],[-72.90373383036527,42.872703792381145],[-72.90739579511222,42.87097355369041],[-72.9080607357995,42.87088043025355],[-72.91006221073695,42.870933611570386],[-72.90977938143105,42.87037953217167],[-72.91000003246074,42.869104918736674],[-72.91104707172514,42.86923346506864],[-72.91180295617198,42.86942105559973],[-72.91187898674711,42.86939346103825],[-72.91536181609729,42.87071704906088],[-72.91560524694557,42.87090251601786],[-72.91622288055756,42.87115794280584],[-72.9168210602226,42.871293042569235],[-72.91853953729445,42.87118970659862],[-72.91907123242846,42.87101770855436],[-72.91965959649143,42.87093276299626],[-72.91993032170456,42.870951710677744],[-72.9206327259134,42.87113210324179],[-72.92167112481438,42.87156090777432],[-72.92353663291458,42.87163900885546],[-72.9254301488922,42.871504841640366],[-72.92494363151727,42.881153132161536],[-72.92061040211506,42.881044520148315],[-72.92095277533674,42.87644212956105],[-72.92442884247149,42.87651936999148],[-72.92400259796469,42.87513237002342],[-72.92153728156175,42.874303265728976],[-72.92143277404648,42.873961679191574],[-72.92256907798745,42.87289455356361],[-72.92225698055908,42.87212122925554],[-72.92188419745614,42.871910589425866],[-72.92082301256498,42.871542320815074],[-72.91964738226007,42.871450483791286],[-72.91994832345037,42.87176891070055],[-72.9201486515485,42.872459990767894],[-72.9186870605429,42.873854650647196],[-72.91352848974509,42.873790977737606],[-72.91147208509308,42.87369552280945],[-72.91260280850511,42.876130852746904],[-72.9069125675006,42.87652459713478],[-72.90659078759099,42.87716119613409],[-72.9033883041735,42.87511391144908],[-72.90341060296126,42.874951149779896],[-72.90192740802584,42.87484139280742],[-72.90225294761508,42.87537021299066],[-72.90235811896767,42.87762694115904],[-72.9024250205149,42.878274023647585],[-72.90253103981959,42.87853401001091],[-72.90263784646264,42.879162876875434],[-72.90249998036259,42.879506257168735],[-72.90270855656352,42.88190242867107],[-72.90999129758195,42.88214621571785],[-72.90965186613097,42.88143451166087],[-72.91044502318144,42.88143785167664],[-72.91041442666153,42.88555637539258],[-72.92065612958119,42.885752650122484],[-72.9205387104069,42.89042637596236],[-72.92008572656006,42.90057008117528],[-72.90938101651743,42.90029969585716],[-72.90932342226199,42.90303188192415],[-72.89833986049584,42.902746379315055],[-72.89842254211247,42.90260534342179],[-72.89859486621299,42.9017351066023],[-72.89750910072837,42.90130911871759],[-72.89733937720592,42.900540521721794],[-72.89685014850332,42.90044849392181],[-72.89485055852775,42.90035405944028],[-72.89509523021955,42.899844710267004],[-72.8953556358037,42.899532816275524],[-72.89532682742765,42.89921790856318],[-72.89546672946499,42.898902518087695],[-72.8954658232078,42.89876070891434],[-72.89482581755325,42.89707001261559],[-72.8947015218555,42.89689330967672],[-72.89476704255597,42.89640974068906],[-72.89436419105687,42.895859247756235],[-72.89473959613593,42.8956125704508],[-72.89449552996085,42.89530338599538],[-72.89443100514883,42.895182049437196],[-72.89454865874276,42.8951381681566],[-72.89256872905317,42.89159797012274],[-72.89147636282144,42.891622207183126],[-72.89167058516847,42.89281796179089],[-72.89010552450753,42.89279156265019],[-72.89008632675815,42.89268109113096],[-72.8896099715015,42.89267044804599],[-72.88928078756483,42.891814458219756],[-72.88720483363791,42.89175167801126],[-72.88807922150465,42.89545912627755],[-72.88703173477599,42.895424241070565],[-72.88735361098009,42.89682009107034],[-72.8874994174432,42.89707325124603],[-72.88759374064216,42.89712870628379],[-72.88762669079199,42.89731630896468],[-72.88703562476411,42.89759151543158],[-72.88691386640777,42.89787757441787],[-72.88571579814591,42.89870530344239],[-72.88536855593274,42.898818231221306],[-72.88496293671811,42.89874684566331],[-72.88419586454353,42.898094119591576],[-72.88395725795269,42.898124375385095],[-72.88311489734461,42.89799757371149],[-72.88296040568302,42.89888041561901],[-72.88309925314489,42.89963615406199],[-72.88323521985112,42.90002623439772],[-72.87859318460303,42.89977394521532],[-72.87852655311397,42.899978247967184],[-72.87827372564308,42.90305352677791],[-72.87815195279681,42.905721457426665],[-72.87790204374407,42.908916780702654],[-72.87916571003647,42.909203693618245],[-72.87993391055491,42.90931798021107],[-72.88014765193364,42.90944250564645],[-72.88233866669503,42.90927683442296],[-72.88812087551939,42.90909499212917],[-72.89306132023064,42.909429244140505],[-72.89295029417804,42.91171934541036],[-72.8951927217924,42.91174239588828],[-72.89516359304959,42.91306621013943],[-72.89527633192269,42.913085511757984],[-72.89553923052785,42.913313719111805],[-72.89605211855162,42.913337819236766],[-72.89637502183,42.91351042186182],[-72.89679803351835,42.913621608421344],[-72.89700562802501,42.91386481943721],[-72.89696530283486,42.91570418774009],[-72.88755795432456,42.915326876442705],[-72.88753714443392,42.916253647808176],[-72.88713893192987,42.916164656298825],[-72.88671612921588,42.91600131222127],[-72.88598048726759,42.915568313051786],[-72.8857947964483,42.91629610762577],[-72.88541926490227,42.916253875233394],[-72.88461021094824,42.91598602705462],[-72.88415996205532,42.91591375813681],[-72.8839518496194,42.9157617970924],[-72.88348509703796,42.915681795097555],[-72.88343530494035,42.91611855096191],[-72.8843341425291,42.91630478082463],[-72.88336713553602,42.91796414294455],[-72.8832622737829,42.917967893186216],[-72.88355117887215,42.91860969460271],[-72.88357595460606,42.91970366857259],[-72.88367160459414,42.92024351744009],[-72.88441520800161,42.922137902263316],[-72.88067818522899,42.92203029107933],[-72.88090381241183,42.920863683774456],[-72.88066989899477,42.919612957804496],[-72.88163453414491,42.918324441343685],[-72.88225367942485,42.91805554594738],[-72.88323863493157,42.91809352758979],[-72.88317030899145,42.91797400277937],[-72.87753972720202,42.91786065842459],[-72.87767662131675,42.91382963770947],[-72.8770528832264,42.91359222793305],[-72.87705053678056,42.91308457789276],[-72.87607741200837,42.91159475019109],[-72.87434491411946,42.91096346668747],[-72.87492158806897,42.91027241543917],[-72.87440987698196,42.91003600324694],[-72.87218773316057,42.908781078118956],[-72.86754738316198,42.90872137211941],[-72.86727540129304,42.91392879397739],[-72.86024358599846,42.913687704957844],[-72.8605049285969,42.909736966074036],[-72.85730402651325,42.90973403019011],[-72.85709636721626,42.913007152872446],[-72.85579699725436,42.91313238267093],[-72.85556616540875,42.91704848605994],[-72.8576939078334,42.91712895488995],[-72.85726514644352,42.9217633023789],[-72.85546004981923,42.92174762659731],[-72.85331504387213,42.92015316759708],[-72.84802558850083,42.9198840200578],[-72.84792238853386,42.92204179431807],[-72.84908835901722,42.92240493714066],[-72.8478530350839,42.92343738931557],[-72.84648045600632,42.92443449957871],[-72.84675996902932,42.92472908541856],[-72.84659041672562,42.9247217762139],[-72.84078419495228,42.92447149712529],[-72.82874011827798,42.92395233313927],[-72.81481212241539,42.92334541442878],[-72.79773196732405,42.922292425648635],[-72.79837157117389,42.91077358733318],[-72.79870206939528,42.90494561595285],[-72.80062166741321,42.87088317687178],[-72.80122794659327,42.85981380866212],[-72.8016027505867,42.85303265856776],[-72.80999824610488,42.85311137273759],[-72.8105370375235,42.85459111700877],[-72.81104731758438,42.85444596495524],[-72.81094407985573,42.85414025101108],[-72.81127376003255,42.854046465943604],[-72.8132774534131,42.853833416971476],[-72.81310084267123,42.8547634714369],[-72.8161282757103,42.854759281876284],[-72.816399687087,42.853021699053386],[-72.81663947445541,42.84936765704423],[-72.81558662056123,42.8493050442792],[-72.81552650558295,42.84808585841612],[-72.80495695050314,42.84799730064556],[-72.80486075524483,42.84926856307091],[-72.80181361540751,42.84919708024096],[-72.8018941794091,42.847670622137954],[-72.80291051215478,42.82915199639014],[-72.80305502252999,42.82666272068798],[-72.81767335574621,42.82700127454878],[-72.83229183692008,42.82733796159925]],[[-72.86195712540011,42.873336441015894],[-72.86198031679365,42.874820495416515],[-72.86112765853305,42.8748680215922],[-72.86127856839431,42.875688731786695],[-72.86122098971175,42.8759816529135],[-72.86124594548872,42.876458049694925],[-72.86109385660328,42.87746594334581],[-72.86153726059345,42.8773502268281],[-72.86160422302123,42.8776179974417],[-72.861675835862,42.87789349772546],[-72.86131681511208,42.87844167687852],[-72.86132809154765,42.87880326832491],[-72.86209365471164,42.87902759266263],[-72.86380400447432,42.87989693071313],[-72.86332579281218,42.87917372982671],[-72.86260366484927,42.87787470142815],[-72.86223619366054,42.876781135146814],[-72.86214432480996,42.87611475256416],[-72.8622051784961,42.875730003881024],[-72.86252540458516,42.875067182605584],[-72.8643417475297,42.87506733840934],[-72.86374347016499,42.87392164916637],[-72.86319752405697,42.873734531262926],[-72.86356545184043,42.87282255214384],[-72.86380195942034,42.87252065970248],[-72.86407985173577,42.87229998623334],[-72.86399106140023,42.87228774856881],[-72.86358900043102,42.87243405100626],[-72.86195712540011,42.873336441015894]],[[-72.86521824864946,42.88618723538761],[-72.86317812124801,42.88665040638572],[-72.86244182032706,42.88665821472146],[-72.86096171026794,42.88687521418486],[-72.86039910975107,42.887125915559544],[-72.86009451547716,42.88718701080236],[-72.85999611995275,42.887311316164165],[-72.85986580856407,42.88751401645019],[-72.85945692008761,42.889033108635026],[-72.85918809601891,42.88945312563714],[-72.8590628626468,42.88987885357729],[-72.85805702692302,42.89139082683666],[-72.85692497480663,42.89271954880871],[-72.85631953095309,42.893752089790596],[-72.85595724989562,42.89495511058372],[-72.85584344988096,42.89652227587087],[-72.85569948047358,42.89735352779152],[-72.85520652552783,42.898478792786484],[-72.85486580142246,42.89906998993354],[-72.85449058262027,42.90024601582645],[-72.85837779693924,42.900365801902545],[-72.85834209549886,42.900962623571374],[-72.86293883945751,42.89809687681566],[-72.86159596341165,42.89713774718919],[-72.86040545819422,42.896471123318584],[-72.85929102134504,42.89605598726289],[-72.85797260541858,42.89568187191602],[-72.85810394883156,42.89508305111723],[-72.85856374025919,42.89386446439005],[-72.85992825262831,42.892181111419696],[-72.86146388692295,42.89002490684355],[-72.86437913347524,42.88927358794572],[-72.86520764451329,42.88900911844291],[-72.86605995647481,42.88854582126204],[-72.86660155693772,42.88806404629345],[-72.86707124437046,42.88742133965317],[-72.86733568560604,42.8866643335991],[-72.86736288043083,42.886154541794184],[-72.8672173620141,42.884105153565216],[-72.86656852674163,42.883875111366834],[-72.86577535283122,42.88371119886973],[-72.86502296421546,42.88364069763553],[-72.86503781316937,42.884543728117656],[-72.86521824864946,42.88618723538761]],[[-72.83031705898486,42.89483291736731],[-72.82914893576765,42.89532677545293],[-72.82850701817894,42.89597094812698],[-72.82932388235913,42.897211891307315],[-72.8298977576524,42.89792125456074],[-72.83054005426426,42.898469999677395],[-72.8314405159856,42.898997279605396],[-72.83167957694258,42.89919438641667],[-72.83266691622752,42.900290120705186],[-72.8329030372728,42.90114876926731],[-72.83316163055004,42.90177730504916],[-72.8337890826935,42.90268273936157],[-72.8343738844228,42.90319579511675],[-72.83560506880848,42.90393454214619],[-72.83644072785077,42.90462843440813],[-72.83685313210206,42.90558684395837],[-72.83735949535308,42.90532630291658],[-72.83842595715954,42.90601781496596],[-72.83951714309713,42.906541657111084],[-72.84092159532803,42.90703195758544],[-72.84237177113131,42.90730758857336],[-72.8432069609602,42.907390166080084],[-72.84399527860668,42.907349015169395],[-72.8462742587782,42.906821737585794],[-72.84526287383993,42.907697519219674],[-72.84471448588043,42.907969777449416],[-72.84318369195225,42.90853128457529],[-72.84197875860023,42.908540043905354],[-72.84140204527623,42.90861077681469],[-72.84077283763274,42.908781512650876],[-72.84009577529764,42.90909378972895],[-72.83962135065445,42.90941881080186],[-72.83920040662933,42.90982935373344],[-72.83838045381765,42.91105208344681],[-72.83764459997809,42.912018061390484],[-72.83725190648642,42.91270301156165],[-72.83705269954466,42.91343579062119],[-72.8369686537807,42.91513418745192],[-72.83581000165879,42.91628101042881],[-72.8374995040945,42.91697870041314],[-72.83747160295566,42.916875080417576],[-72.83737833257796,42.91687275107148],[-72.83738531843937,42.91676854122851],[-72.83968030273145,42.91647542025767],[-72.8398428769954,42.91640375497885],[-72.83992432869731,42.91656066257678],[-72.8403318900493,42.91754019584238],[-72.84138837889328,42.91612279275623],[-72.842039471782,42.91621350887082],[-72.84145136184658,42.91523877803484],[-72.84148388468222,42.913919406987084],[-72.84160287364207,42.913565446042675],[-72.84239427807755,42.91251864374958],[-72.84282174380999,42.911822557948845],[-72.84375956893719,42.9117870416647],[-72.84462145339792,42.91165277180899],[-72.84734752836124,42.910657241695056],[-72.84797169289128,42.91033461156343],[-72.84849470484448,42.90998005092782],[-72.84949731272705,42.909108364674964],[-72.85111018078817,42.90792592839454],[-72.84943387150085,42.90674247191319],[-72.8507421034731,42.90568540102314],[-72.8518529607035,42.904655893437635],[-72.8526562987543,42.90406337620721],[-72.85295884615438,42.90367336781654],[-72.85318040712386,42.903221317669036],[-72.84955728901443,42.902046153128204],[-72.84870644942623,42.901873003629646],[-72.84751162051596,42.901768718615344],[-72.84654883657784,42.90182804242421],[-72.84566252707741,42.901948624111405],[-72.84365429359016,42.902411869358644],[-72.84277265000351,42.902562722437985],[-72.84184162888961,42.902603541267624],[-72.84069031105491,42.90256892920878],[-72.83971803134465,42.90238040184151],[-72.83870062089667,42.90155526536242],[-72.83750511541938,42.900840542571174],[-72.83723642547069,42.90031441832029],[-72.83697836545556,42.899354066128815],[-72.83655325026469,42.89864911832127],[-72.83505797544272,42.897030091436534],[-72.8345794915642,42.89663881256476],[-72.83355727078289,42.8960230553311],[-72.83211971559638,42.893939240338646],[-72.8315514594622,42.89334988660058],[-72.83115363571925,42.89304930911125],[-72.83110568124077,42.89377663944639],[-72.83031705898486,42.89483291736731]]]]}}]}