{"type": "FeatureCollection", "name": "Windsor_LudlowVillage", "features": [{"type": "Feature", "properties": {"OBJECT_ID": 346, "County": "Windsor", "RPC": "MARC", "Municipal_Name": "Ludlow Village ", "GEO_ID": "5002741275", "District_Name": "Ludlow Preservation District", "Abbreviated_District_Name": "L-P", "District_Type": "Primarily Residential", "Bylaw_Date": null, "Elderly_Housing_District": "No", "District_Mapped": "Yes", "Overlay_District": "No", "Base_Density": null, "GIS_ID": null, "Last_Update": null, "Shape_Length": 2846.2498140370176, "Shape_Area": 115321.68589219463, "F1F_Allowance": "Permitted", "F1F_Front_Setback": 30.0, "F1F_Side_Setback": 30.0, "F1F_Rear_Setback": 8.0, "F1F_Frontage": 70.0, "F1F_Max_Height": 35.0, "F1F_Max_Stories": 3.0, "F1F_Min_Lot_Size": 0.23, "F1F_Max_Lot_Building_Coverage": 12.0, "F1F_Max_Lot_Impervious_Coverage": null, "F1F_Min_Parking_Spaces": 2.0, "F1F_Elderly_Housing_Only": null, "F1F_Affordable_Housing_Only": null, "F2F_Allowance": "Public Hearing", "F2F_Front_Setback": 30.0, "F2F_Side_Setback": 30.0, "F2F_Rear_Setback": 8.0, "F2F_Frontage": 70.0, "F2F_Max_Density": 4.36, "F2F_Max_Height": 35.0, "F2F_Max_Stories": 3.0, "F2F_Min_Lot_Size": 0.23, "F2F_Max_Lot_Building_Coverage": 12.0, "F2F_Max_Lot_Impervious_Coverage": null, "F2F_Min_Parking_Spaces_per_1BR": 2.0, "F2F_Min_Parking_Spaces_per_mult_BR": 2.0, "F2F_Elderly_Housing_Only": "No", "F2F_Affordable_Housing_Only": "No", "F3F_Allowance": "Public Hearing", "F3F_Front_Setback": 30.0, "F3F_Side_Setback": 30.0, "F3F_Rear_Setback": 8.0, "F3F_Frontage": 70.0, "F3F_Max_Density": 8.71, "F3F_Max_Height": 35.0, "F3F_Max_Stories": 3.0, "F3F_Min_Lot_Size": null, "F3F_Max_Lot_Building_Coverage": 12.0, "F3F_Max_Lot_Impervious_Coverage": null, "F3F_Min_Parking_Spaces_per_1BR": 2.0, "F3F_Min_Parking_Spaces_per_mult_BR": 2.0, "F3F_Affordable_Housing_Only": "No", "F3F_Proximity_to_Public_Transit_Required": "No", "F3F_Connection_to_Sewage/Water_Required": "No", "F4F_Allowance": "Public Hearing", "F4F_Front_Setback": 30.0, "F4F_Side_Setback": 30.0, "F4F_Rear_Setback": 8.0, "F4F_Frontage": 70.0, "F1F_Max_Density": null, "F4F_Max_Density": 8.71, "F4F_Max_Height": 35.0, "F4F_Max_Stories": 3.0, "F4F_Min_Lot_Size": null, "F4F_Max_Lot_Building_Coverage": 12.0, "F4F_Max_Lot_Impervious_Coverage": null, "F4F_Min_Parking_Spaces_per_1BR": 2.0, "F4F_Min_Parking_Spaces_per_mult_BR": 2.0, "F3F_Elderly_Housing_Only": "No", "F4F_Elderly_Housing_Only": "No", "F4F_Affordable_Housing_Only": "No", "F4F_Proximity_to_Public_Transit_Required": "No", "F4F_Connection_to_Sewage/Water_Required": "No", "ADU_Allowance": "Prohibited", "ADU_Elderly_Housing_Only": null, "ADU_Max_Size_as_Percent_of_Primary_Strcture": null, "ADU_Max_Size_in_sq_ft": null, "ADU_Min_Lot_Size": null, "ADU_Max_Bedrooms": null, "ADU_Min_Parking_Spaces": null, "ADU_Owner_Occupancy_Required": null, "ADU_Renter_Occupancy_Prohibited": null, "ADU_Employee_or_Family_Occupancy_Required": null, "ADU_Restricted_to_Primary_Structure": null, "Affordable_Housing_Allowance": "Not Mentioned", "Affordable_Housing_District": "No", "Affordable_Housing_Elderly_Only": null, "Affordable_Housing_Min_Lot_Size": null, "Affordable_Housing_Max_Density": null, "Affordable_Housing_Min_Parking_Spaces_per_mult_BR": null, "Affordable_Housing_Max_Units_per_Building": null, "Affordable_Housing_Min_Parking_Spaces_per_1BR": null, "PRD_Allowance": "Prohibited", "PRD_Max_Density": null, "PRD_Max_Units": null, "PRD_Min_Lot_Size": null, "PRD_Mobile_or_Manufactured_Home_Park": null, "PUD_Allowance": "Yes", "PUD_Required_with_Subdivision": "No", "PUD_Requires_Land_Conservation": "Yes", "PUD_Threshold_Number": null, "Notes": "  Adus Are Noted As Prohibited Because \"Accessory Apartments\" (Which Refer to Adus In The Zoning Code) Are not Listed As Permitted Or Conditional Use. No Minimum Lot Area Specified, But For Single- And Two-Family Dwellings, The Acreage For Density Are Listed. Lot Coverage Is \"Not to Exceed 2,500 Sqft Total Footprint\" (Page 31).", "FIPS6": null}, "geometry": {"type": "MultiPolygon", "coordinates": [[[[-72.69260309379244, 43.39800575293997], [-72.69265205062848, 43.39831738764202], [-72.69333755544889, 43.398383503814394], [-72.6932841988276, 43.39804842697195], [-72.69320128889935, 43.39752776506314], [-72.69338032659174, 43.39753561842981], [-72.69338550471716, 43.39740513125371], [-72.69379108676418, 43.397406481665264], [-72.6938072916921, 43.39722704715968], [-72.6941873426225, 43.39723650808945], [-72.69418034693543, 43.397392963198676], [-72.69482756204975, 43.39741685511201], [-72.69482533404481, 43.39759218841064], [-72.69539876437966, 43.397601400323055], [-72.6954009576043, 43.39741383716859], [-72.6958263967108, 43.39741144694672], [-72.69605532783493, 43.39736989861013], [-72.69603355901222, 43.397557497135566], [-72.6964112112827, 43.39757111783164], [-72.69636893010568, 43.39747129443427], [-72.6972643379135, 43.39757576034803], [-72.69742219235646, 43.397092314452316], [-72.69785046781595, 43.39719146763413], [-72.69812192684833, 43.39686730078644], [-72.69886496225153, 43.396928388422175], [-72.69889054594542, 43.396768241710305], [-72.69756104746956, 43.39660748073464], [-72.69685650017747, 43.396450934647525], [-72.69640151455334, 43.39628719691124], [-72.69572206698147, 43.395931769079816], [-72.6951273129394, 43.39565265327038], [-72.69502387677647, 43.39601381227432], [-72.69518663363412, 43.39596471668898], [-72.69522104138592, 43.396038384850996], [-72.69505184441859, 43.39607587814233], [-72.69509100369103, 43.39616278077846], [-72.69481602569024, 43.39622446657923], [-72.69476448888624, 43.396087226010664], [-72.69445275463738, 43.39602535038039], [-72.69442766388455, 43.39630694284545], [-72.69351337274912, 43.39630337640709], [-72.69350261907763, 43.396385704118984], [-72.69333177974883, 43.39636190318852], [-72.69334024177421, 43.39642412216036], [-72.69297395274306, 43.39643277257533], [-72.69297049685916, 43.396211950587194], [-72.69245414108714, 43.39616508292547], [-72.69245435999683, 43.39623503345112], [-72.69218594507048, 43.39623083482643], [-72.6921840498423, 43.396334587446304], [-72.6917214529473, 43.39633374278456], [-72.69079316982523, 43.3962333964354], [-72.68953703032983, 43.395846523344105], [-72.68945579473568, 43.39508375627158], [-72.68925754220018, 43.39512948200581], [-72.68904675170747, 43.39562262659464], [-72.68918080863459, 43.39569345935994], [-72.68885373236724, 43.3965520287465], [-72.68926361866694, 43.3965841703521], [-72.68917805606507, 43.39728619529157], [-72.68969633018362, 43.39732174296509], [-72.68963883554079, 43.39773544168879], [-72.69044108710217, 43.39761496532508], [-72.6904602738534, 43.39790709819566], [-72.69074114809642, 43.397859109245964], [-72.69074050544454, 43.397934819246615], [-72.6907391079981, 43.39809968089417], [-72.69107483163593, 43.39812154420285], [-72.69109309659957, 43.397936292798356], [-72.69109828134337, 43.3978837199415], [-72.6925835301005, 43.39788122035236], [-72.69260309379244, 43.39800575293997]], [[-72.69585592100618, 43.39689091297018], [-72.69490887470491, 43.396850679958625], [-72.69591679464989, 43.3966164040655], [-72.69585592100618, 43.39689091297018]]]]}}, {"type": "Feature", "properties": {"OBJECT_ID": 347, "County": "Windsor", "RPC": "MARC", "Municipal_Name": "Ludlow Village ", "GEO_ID": "5002741275", "District_Name": "Village Residential District", "Abbreviated_District_Name": "V-R", "District_Type": "Primarily Residential", "Bylaw_Date": null, "Elderly_Housing_District": "No", "District_Mapped": "Yes", "Overlay_District": "No", "Base_Density": 8.71, "GIS_ID": null, "Last_Update": null, "Shape_Length": 14809.274538026744, "Shape_Area": 2187892.772518437, "F1F_Allowance": "Permitted", "F1F_Front_Setback": 10.0, "F1F_Side_Setback": 15.0, "F1F_Rear_Setback": 8.0, "F1F_Frontage": 60.0, "F1F_Max_Height": 35.0, "F1F_Max_Stories": 3.0, "F1F_Min_Lot_Size": 0.12, "F1F_Max_Lot_Building_Coverage": null, "F1F_Max_Lot_Impervious_Coverage": 50.0, "F1F_Min_Parking_Spaces": 2.0, "F1F_Elderly_Housing_Only": null, "F1F_Affordable_Housing_Only": null, "F2F_Allowance": "Public Hearing", "F2F_Front_Setback": 10.0, "F2F_Side_Setback": 15.0, "F2F_Rear_Setback": 8.0, "F2F_Frontage": 60.0, "F2F_Max_Density": 8.71, "F2F_Max_Height": 35.0, "F2F_Max_Stories": 3.0, "F2F_Min_Lot_Size": 0.23, "F2F_Max_Lot_Building_Coverage": null, "F2F_Max_Lot_Impervious_Coverage": 50.0, "F2F_Min_Parking_Spaces_per_1BR": 2.0, "F2F_Min_Parking_Spaces_per_mult_BR": 2.0, "F2F_Elderly_Housing_Only": "No", "F2F_Affordable_Housing_Only": "No", "F3F_Allowance": "Public Hearing", "F3F_Front_Setback": 10.0, "F3F_Side_Setback": 15.0, "F3F_Rear_Setback": 8.0, "F3F_Frontage": 60.0, "F3F_Max_Density": 8.71, "F3F_Max_Height": 35.0, "F3F_Max_Stories": 3.0, "F3F_Min_Lot_Size": 0.34, "F3F_Max_Lot_Building_Coverage": null, "F3F_Max_Lot_Impervious_Coverage": 50.0, "F3F_Min_Parking_Spaces_per_1BR": 2.0, "F3F_Min_Parking_Spaces_per_mult_BR": 2.0, "F3F_Affordable_Housing_Only": "No", "F3F_Proximity_to_Public_Transit_Required": "No", "F3F_Connection_to_Sewage/Water_Required": "No", "F4F_Allowance": "Public Hearing", "F4F_Front_Setback": 10.0, "F4F_Side_Setback": 15.0, "F4F_Rear_Setback": 8.0, "F4F_Frontage": 60.0, "F1F_Max_Density": null, "F4F_Max_Density": 8.71, "F4F_Max_Height": 35.0, "F4F_Max_Stories": 3.0, "F4F_Min_Lot_Size": 0.34, "F4F_Max_Lot_Building_Coverage": null, "F4F_Max_Lot_Impervious_Coverage": 50.0, "F4F_Min_Parking_Spaces_per_1BR": 2.0, "F4F_Min_Parking_Spaces_per_mult_BR": 2.0, "F3F_Elderly_Housing_Only": "No", "F4F_Elderly_Housing_Only": "No", "F4F_Affordable_Housing_Only": "No", "F4F_Proximity_to_Public_Transit_Required": "No", "F4F_Connection_to_Sewage/Water_Required": "No", "ADU_Allowance": "Allowed/Conditional", "ADU_Elderly_Housing_Only": "No", "ADU_Max_Size_as_Percent_of_Primary_Strcture": 30.0, "ADU_Max_Size_in_sq_ft": null, "ADU_Min_Lot_Size": null, "ADU_Max_Bedrooms": 1.0, "ADU_Min_Parking_Spaces": null, "ADU_Owner_Occupancy_Required": "No", "ADU_Renter_Occupancy_Prohibited": "No", "ADU_Employee_or_Family_Occupancy_Required": "No", "ADU_Restricted_to_Primary_Structure": "Yes", "Affordable_Housing_Allowance": "Not Mentioned", "Affordable_Housing_District": "No", "Affordable_Housing_Elderly_Only": null, "Affordable_Housing_Min_Lot_Size": null, "Affordable_Housing_Max_Density": null, "Affordable_Housing_Min_Parking_Spaces_per_mult_BR": null, "Affordable_Housing_Max_Units_per_Building": null, "Affordable_Housing_Min_Parking_Spaces_per_1BR": null, "PRD_Allowance": "Public Hearing", "PRD_Max_Density": null, "PRD_Max_Units": null, "PRD_Min_Lot_Size": 10.0, "PRD_Mobile_or_Manufactured_Home_Park": "No", "PUD_Allowance": "Yes", "PUD_Required_with_Subdivision": "No", "PUD_Requires_Land_Conservation": "Yes", "PUD_Threshold_Number": null, "Notes": "  Accessory Building Height Maximum: 25ft; No Minimum Lot Area Specified, But For Single- And Two-Family Dwellings, The Acreage For Density Are Listed.", "FIPS6": null}, "geometry": {"type": "MultiPolygon", "coordinates": [[[[-72.70103143802994, 43.39653969566349], [-72.7009924416523, 43.39690619332394], [-72.69994888680668, 43.39698687206957], [-72.69886496225153, 43.396928388422175], [-72.69812192684833, 43.39686730078644], [-72.69785046781595, 43.39719146763413], [-72.69742219235646, 43.397092314452316], [-72.6972643379135, 43.39757576034803], [-72.69636893010568, 43.39747129443427], [-72.6964112112827, 43.39757111783164], [-72.69603355901222, 43.397557497135566], [-72.69605532783493, 43.39736989861013], [-72.6958263967108, 43.39741144694672], [-72.69579436359373, 43.398159319867275], [-72.6932841988276, 43.39804842697195], [-72.69333755544889, 43.398383503814394], [-72.69265205062848, 43.39831738764202], [-72.69260309379244, 43.39800575293997], [-72.69109309659957, 43.397936292798356], [-72.69107483163593, 43.39812154420285], [-72.6907391079981, 43.39809968089417], [-72.69074050544454, 43.397934819246615], [-72.69046291791967, 43.397930333039774], [-72.68959061233824, 43.39808238303332], [-72.68957821780211, 43.398171557569206], [-72.68924141780076, 43.39822776608371], [-72.68815531790635, 43.398222092581925], [-72.68674210724281, 43.39787152487897], [-72.686067051151, 43.39794984991719], [-72.68560915473063, 43.397824343439446], [-72.6848445874149, 43.39746562994623], [-72.68462075055226, 43.397298356214286], [-72.68445679068428, 43.397245813553695], [-72.68390559314207, 43.39675208540777], [-72.68160383616468, 43.40368191290542], [-72.6928642491516, 43.40506389175329], [-72.70173434825885, 43.40510418622101], [-72.70198260708212, 43.40472983225556], [-72.70197325268242, 43.40420508418198], [-72.70179696922483, 43.40394535607068], [-72.70055543741496, 43.403070283241206], [-72.70034499905441, 43.403071212867665], [-72.70020708303618, 43.402954924321016], [-72.69992298966567, 43.40283825575981], [-72.69957207307588, 43.40222777365897], [-72.69936444955474, 43.4016831084222], [-72.6993756866689, 43.401483063835265], [-72.69969717325966, 43.40129317670116], [-72.69984683056741, 43.400163271322405], [-72.70001077024294, 43.39962832020656], [-72.69998481823731, 43.399117458738054], [-72.70013904778155, 43.39910762428023], [-72.70049640671942, 43.39837929982417], [-72.70062630716396, 43.39843334642323], [-72.70050707103971, 43.39879636606085], [-72.701623844263, 43.39901195838818], [-72.70169514419497, 43.39890254125318], [-72.7023888412524, 43.39915376545155], [-72.7028078638982, 43.399362521044644], [-72.70250138890277, 43.40026942325526], [-72.70195513422185, 43.40153215327011], [-72.70115518064087, 43.40137719203877], [-72.70109598384967, 43.401978272141896], [-72.70307757218228, 43.402075878873234], [-72.70306651474728, 43.402193782375164], [-72.70425959946003, 43.40227576460028], [-72.7040757407466, 43.402917492098794], [-72.70359424411274, 43.40301481227049], [-72.70357293078204, 43.40367900974853], [-72.70333607346994, 43.40363517417404], [-72.70334064759453, 43.4036821044473], [-72.7024620545745, 43.40375435306131], [-72.70237919305953, 43.40417949719414], [-72.70266150615619, 43.40511165881936], [-72.70782476421712, 43.40518924187857], [-72.7076492931332, 43.404327935414194], [-72.70738537911848, 43.40350170361129], [-72.70670681426932, 43.40212939915862], [-72.70598755709402, 43.401462459705485], [-72.70572616312758, 43.40102548214057], [-72.70538736323756, 43.40064997879864], [-72.70501277459826, 43.39997509645229], [-72.70448208297147, 43.3986472594076], [-72.70367473011298, 43.397767148004014], [-72.7027629404846, 43.39730515702457], [-72.70222837108791, 43.39682720830668], [-72.70185887071469, 43.396655276040775], [-72.70103143802994, 43.39653969566349]]], [[[-72.70455328181674, 43.39427944159613], [-72.70415809230713, 43.39484645463546], [-72.70408207872671, 43.394795820925125], [-72.7040107574028, 43.394854207446016], [-72.70401137176407, 43.39496632870776], [-72.7046507905949, 43.39496518536147], [-72.70463455859043, 43.39582936407219], [-72.70532322742066, 43.395727104947184], [-72.70532201536112, 43.395788552801434], [-72.70531420033201, 43.396184077913226], [-72.70630147743222, 43.39622420620373], [-72.70652169929677, 43.396164432426026], [-72.70673567902885, 43.395678549898975], [-72.70716633533969, 43.39549963355739], [-72.70688258425459, 43.395253375259365], [-72.70568300925123, 43.394667452910696], [-72.705083355627, 43.39442552842589], [-72.70455328181674, 43.39427944159613]]], [[[-72.71045092319004, 43.387527844370226], [-72.70734470685738, 43.38812361318375], [-72.68537244990885, 43.39233502971637], [-72.68529864673793, 43.39255728966962], [-72.68514284885195, 43.39302646342222], [-72.68472884148404, 43.394273185276525], [-72.68467957143918, 43.39442153959191], [-72.68505351264747, 43.39451642239995], [-72.68596441136408, 43.39452031042755], [-72.68619966586482, 43.39462962059074], [-72.68660355679131, 43.395020401333035], [-72.68688932962566, 43.39520331132556], [-72.68743765377438, 43.39537584157391], [-72.68801924324022, 43.39536980571365], [-72.68875382526794, 43.395264132406815], [-72.68925754220018, 43.39512948200581], [-72.68945579473568, 43.39508375627158], [-72.69093877771255, 43.39483505079096], [-72.69175829678062, 43.39461130710713], [-72.69240483762343, 43.394618616593895], [-72.69289325527151, 43.39470704958765], [-72.69362352091328, 43.394964821934714], [-72.69425791848761, 43.395214823345384], [-72.6951273129394, 43.39565265327038], [-72.69572206698147, 43.395931769079816], [-72.6958546155039, 43.39492145627031], [-72.69657532839787, 43.3950027011817], [-72.70104571958659, 43.39505880755968], [-72.70092254413036, 43.39394805181263], [-72.6988363546397, 43.39390202043553], [-72.69883999518177, 43.39380325758727], [-72.69818062866817, 43.39378300179016], [-72.69818136443078, 43.3937110639306], [-72.69694496302992, 43.393692705925965], [-72.69695047115836, 43.393556422069516], [-72.69729287530927, 43.39358543318824], [-72.69773818202192, 43.39354722096342], [-72.69791490523605, 43.39350687798482], [-72.69791825596624, 43.3934160844114], [-72.69937784378175, 43.393345135587786], [-72.70004829154469, 43.3936513724206], [-72.70104594755355, 43.3936521630628], [-72.7017675394827, 43.39292669992216], [-72.70200999791012, 43.39246981174226], [-72.70272415516085, 43.39231321361702], [-72.70314030288841, 43.39230990534248], [-72.70348742639153, 43.39236687873556], [-72.70382818972105, 43.39247822598905], [-72.70428292666736, 43.39271672920798], [-72.70508635761828, 43.391395508977425], [-72.7054611123739, 43.390328640735376], [-72.70627833775333, 43.390396450894386], [-72.70614680009236, 43.3901645671354], [-72.70615197419467, 43.39004077791325], [-72.70677013553082, 43.38926413176137], [-72.7071830392781, 43.3888472889955], [-72.70888428305116, 43.38894646861609], [-72.70922707387973, 43.388878859613584], [-72.70967617138982, 43.38870615661075], [-72.71003861828649, 43.388714540422846], [-72.71023853718846, 43.38813914435444], [-72.71045092319004, 43.387527844370226]]]]}}, {"type": "Feature", "properties": {"OBJECT_ID": 348, "County": "Windsor", "RPC": "MARC", "Municipal_Name": "Ludlow Village ", "GEO_ID": "5002741275", "District_Name": "Village Residential/Commercial District", "Abbreviated_District_Name": "R-C", "District_Type": "Mixed with Residential", "Bylaw_Date": null, "Elderly_Housing_District": "No", "District_Mapped": "Yes", "Overlay_District": "No", "Base_Density": null, "GIS_ID": null, "Last_Update": null, "Shape_Length": 11633.515329195452, "Shape_Area": 1005581.999602766, "F1F_Allowance": "Permitted", "F1F_Front_Setback": 10.0, "F1F_Side_Setback": 15.0, "F1F_Rear_Setback": 8.0, "F1F_Frontage": 60.0, "F1F_Max_Height": 35.0, "F1F_Max_Stories": 3.0, "F1F_Min_Lot_Size": 0.12, "F1F_Max_Lot_Building_Coverage": null, "F1F_Max_Lot_Impervious_Coverage": 50.0, "F1F_Min_Parking_Spaces": 2.0, "F1F_Elderly_Housing_Only": null, "F1F_Affordable_Housing_Only": null, "F2F_Allowance": "Permitted", "F2F_Front_Setback": 10.0, "F2F_Side_Setback": 15.0, "F2F_Rear_Setback": 8.0, "F2F_Frontage": 60.0, "F2F_Max_Density": 17.42, "F2F_Max_Height": 35.0, "F2F_Max_Stories": 3.0, "F2F_Min_Lot_Size": 0.12, "F2F_Max_Lot_Building_Coverage": null, "F2F_Max_Lot_Impervious_Coverage": 50.0, "F2F_Min_Parking_Spaces_per_1BR": 2.0, "F2F_Min_Parking_Spaces_per_mult_BR": 2.0, "F2F_Elderly_Housing_Only": "No", "F2F_Affordable_Housing_Only": "No", "F3F_Allowance": "Public Hearing", "F3F_Front_Setback": 10.0, "F3F_Side_Setback": 15.0, "F3F_Rear_Setback": 8.0, "F3F_Frontage": 60.0, "F3F_Max_Density": 17.42, "F3F_Max_Height": 35.0, "F3F_Max_Stories": 3.0, "F3F_Min_Lot_Size": 0.17, "F3F_Max_Lot_Building_Coverage": null, "F3F_Max_Lot_Impervious_Coverage": 50.0, "F3F_Min_Parking_Spaces_per_1BR": 2.0, "F3F_Min_Parking_Spaces_per_mult_BR": 2.0, "F3F_Affordable_Housing_Only": "No", "F3F_Proximity_to_Public_Transit_Required": "No", "F3F_Connection_to_Sewage/Water_Required": "No", "F4F_Allowance": "Public Hearing", "F4F_Front_Setback": 10.0, "F4F_Side_Setback": 15.0, "F4F_Rear_Setback": 8.0, "F4F_Frontage": 60.0, "F1F_Max_Density": null, "F4F_Max_Density": 17.42, "F4F_Max_Height": 35.0, "F4F_Max_Stories": 3.0, "F4F_Min_Lot_Size": 0.17, "F4F_Max_Lot_Building_Coverage": null, "F4F_Max_Lot_Impervious_Coverage": 50.0, "F4F_Min_Parking_Spaces_per_1BR": 2.0, "F4F_Min_Parking_Spaces_per_mult_BR": 2.0, "F3F_Elderly_Housing_Only": "No", "F4F_Elderly_Housing_Only": "No", "F4F_Affordable_Housing_Only": "No", "F4F_Proximity_to_Public_Transit_Required": "No", "F4F_Connection_to_Sewage/Water_Required": "No", "ADU_Allowance": "Allowed/Conditional", "ADU_Elderly_Housing_Only": "No", "ADU_Max_Size_as_Percent_of_Primary_Strcture": 30.0, "ADU_Max_Size_in_sq_ft": null, "ADU_Min_Lot_Size": null, "ADU_Max_Bedrooms": 1.0, "ADU_Min_Parking_Spaces": null, "ADU_Owner_Occupancy_Required": "No", "ADU_Renter_Occupancy_Prohibited": "No", "ADU_Employee_or_Family_Occupancy_Required": "No", "ADU_Restricted_to_Primary_Structure": "Yes", "Affordable_Housing_Allowance": "Not Mentioned", "Affordable_Housing_District": "No", "Affordable_Housing_Elderly_Only": null, "Affordable_Housing_Min_Lot_Size": null, "Affordable_Housing_Max_Density": null, "Affordable_Housing_Min_Parking_Spaces_per_mult_BR": null, "Affordable_Housing_Max_Units_per_Building": null, "Affordable_Housing_Min_Parking_Spaces_per_1BR": null, "PRD_Allowance": "Public Hearing", "PRD_Max_Density": null, "PRD_Max_Units": null, "PRD_Min_Lot_Size": 10.0, "PRD_Mobile_or_Manufactured_Home_Park": "No", "PUD_Allowance": "Yes", "PUD_Required_with_Subdivision": "No", "PUD_Requires_Land_Conservation": "Yes", "PUD_Threshold_Number": null, "Notes": "  Accessory Building Height Maximum: 25ft; No Minimum Lot Area Specified, But For Single- And Two-Family Dwellings, The Acreage For Density Are Listed.", "FIPS6": null}, "geometry": {"type": "MultiPolygon", "coordinates": [[[[-72.69362352091328, 43.394964821934714], [-72.69425791848761, 43.395214823345384], [-72.6951273129394, 43.39565265327038], [-72.69502387677647, 43.39601381227432], [-72.69518663363412, 43.39596471668898], [-72.69522104138592, 43.396038384850996], [-72.69505184441859, 43.39607587814233], [-72.69509100369103, 43.39616278077846], [-72.69481602569024, 43.39622446657923], [-72.69476448888624, 43.396087226010664], [-72.69445275463738, 43.39602535038039], [-72.69442766388455, 43.39630694284545], [-72.69351337274912, 43.39630337640709], [-72.69350261907763, 43.396385704118984], [-72.69333177974883, 43.39636190318852], [-72.69334024177421, 43.39642412216036], [-72.69297395274306, 43.39643277257533], [-72.69297049685916, 43.396211950587194], [-72.69245414108714, 43.39616508292547], [-72.69245435999683, 43.39623503345112], [-72.69218594507048, 43.39623083482643], [-72.6921840498423, 43.396334587446304], [-72.6917214529473, 43.39633374278456], [-72.69079316982523, 43.3962333964354], [-72.68953703032983, 43.395846523344105], [-72.68945579473568, 43.39508375627158], [-72.69093877771255, 43.39483505079096], [-72.69175829678062, 43.39461130710713], [-72.69240483762343, 43.394618616593895], [-72.69289325527151, 43.39470704958765], [-72.69362352091328, 43.394964821934714]]], [[[-72.68619966586482, 43.39462962059074], [-72.68660355679131, 43.395020401333035], [-72.68688932962566, 43.39520331132556], [-72.68743765377438, 43.39537584157391], [-72.68801924324022, 43.39536980571365], [-72.68875382526794, 43.395264132406815], [-72.68925754220018, 43.39512948200581], [-72.68904675170747, 43.39562262659464], [-72.68918080863459, 43.39569345935994], [-72.68885373236724, 43.3965520287465], [-72.68926361866694, 43.3965841703521], [-72.68917805606507, 43.39728619529157], [-72.68969633018362, 43.39732174296509], [-72.68963883554079, 43.39773544168879], [-72.69044108710217, 43.39761496532508], [-72.6904602738534, 43.39790709819566], [-72.69074114809642, 43.397859109245964], [-72.69074050544454, 43.397934819246615], [-72.69046291791967, 43.397930333039774], [-72.68959061233824, 43.39808238303332], [-72.68957821780211, 43.398171557569206], [-72.68924141780076, 43.39822776608371], [-72.68815531790635, 43.398222092581925], [-72.68674210724281, 43.39787152487897], [-72.686067051151, 43.39794984991719], [-72.68560915473063, 43.397824343439446], [-72.6848445874149, 43.39746562994623], [-72.68462075055226, 43.397298356214286], [-72.68445679068428, 43.397245813553695], [-72.68390559314207, 43.39675208540777], [-72.68394184178473, 43.396642948080206], [-72.68467957143918, 43.39442153959191], [-72.68505351264747, 43.39451642239995], [-72.68596441136408, 43.39452031042755], [-72.68619966586482, 43.39462962059074]]], [[[-72.70807625621784, 43.39612647574137], [-72.70823372484607, 43.39652732321926], [-72.70865880099852, 43.39884502023338], [-72.70941272737666, 43.40081454704735], [-72.70928914825058, 43.40132753329891], [-72.70932228209146, 43.402365299875235], [-72.70919847510483, 43.4037772053809], [-72.70936083847343, 43.40521321406419], [-72.70782476421712, 43.40518924187857], [-72.7076492931332, 43.404327935414194], [-72.70738537911848, 43.40350170361129], [-72.70670681426932, 43.40212939915862], [-72.70598755709402, 43.401462459705485], [-72.70572616312758, 43.40102548214057], [-72.70538736323756, 43.40064997879864], [-72.70501277459826, 43.39997509645229], [-72.70448208297147, 43.3986472594076], [-72.70367473011298, 43.397767148004014], [-72.7027629404846, 43.39730515702457], [-72.70222837108791, 43.39682720830668], [-72.70185887071469, 43.396655276040775], [-72.70103143802994, 43.39653969566349], [-72.7009924416523, 43.39690619332394], [-72.69994888680668, 43.39698687206957], [-72.69886496225153, 43.396928388422175], [-72.69889054594542, 43.396768241710305], [-72.69756104746956, 43.39660748073464], [-72.69685650017747, 43.396450934647525], [-72.69640151455334, 43.39628719691124], [-72.69572206698147, 43.395931769079816], [-72.6958546155039, 43.39492145627031], [-72.69657532839787, 43.3950027011817], [-72.70104571958659, 43.39505880755968], [-72.70092254413036, 43.39394805181263], [-72.6988363546397, 43.39390202043553], [-72.69883999518177, 43.39380325758727], [-72.69818062866817, 43.39378300179016], [-72.69818136443078, 43.3937110639306], [-72.69694496302992, 43.393692705925965], [-72.69695047115836, 43.393556422069516], [-72.69729287530927, 43.39358543318824], [-72.69773818202192, 43.39354722096342], [-72.69791490523605, 43.39350687798482], [-72.69791825596624, 43.3934160844114], [-72.69937784378175, 43.393345135587786], [-72.70004829154469, 43.3936513724206], [-72.70104594755355, 43.3936521630628], [-72.7017675394827, 43.39292669992216], [-72.70200999791012, 43.39246981174226], [-72.70272415516085, 43.39231321361702], [-72.70314030288841, 43.39230990534248], [-72.70348742639153, 43.39236687873556], [-72.70382818972105, 43.39247822598905], [-72.70428292666736, 43.39271672920798], [-72.70508635761828, 43.391395508977425], [-72.7054611123739, 43.390328640735376], [-72.70627833775333, 43.390396450894386], [-72.70614680009236, 43.3901645671354], [-72.70615197419467, 43.39004077791325], [-72.70677013553082, 43.38926413176137], [-72.7071830392781, 43.3888472889955], [-72.70888428305116, 43.38894646861609], [-72.70922707387973, 43.388878859613584], [-72.70967617138982, 43.38870615661075], [-72.71003861828649, 43.388714540422846], [-72.70768836700309, 43.395459262427224], [-72.70807625621784, 43.39612647574137]], [[-72.70484371584938, 43.393699876340285], [-72.70582428245994, 43.3939732010293], [-72.70668331558738, 43.394425845293725], [-72.70673441574428, 43.394461639757054], [-72.7071799925614, 43.394010173751745], [-72.70719945226267, 43.39375740138866], [-72.70703160653564, 43.39354093158606], [-72.70737424414885, 43.39304878926678], [-72.70637790409388, 43.39260465473416], [-72.70586456749935, 43.392953645981834], [-72.7052775559109, 43.39321530173583], [-72.70484371584938, 43.393699876340285]], [[-72.7040107574028, 43.394854207446016], [-72.70401137176407, 43.39496632870776], [-72.7046507905949, 43.39496518536147], [-72.70463455859043, 43.39582936407219], [-72.70532322742066, 43.395727104947184], [-72.70532201536112, 43.395788552801434], [-72.70531420033201, 43.396184077913226], [-72.70630147743222, 43.39622420620373], [-72.70652169929677, 43.396164432426026], [-72.70673567902885, 43.395678549898975], [-72.70716633533969, 43.39549963355739], [-72.70688258425459, 43.395253375259365], [-72.70568300925123, 43.394667452910696], [-72.705083355627, 43.39442552842589], [-72.70455328181674, 43.39427944159613], [-72.70415809230713, 43.39484645463546], [-72.70408207872671, 43.394795820925125], [-72.7040107574028, 43.394854207446016]], [[-72.70133758364324, 43.39592861767225], [-72.70131514284768, 43.395792569186845], [-72.701308370923, 43.39575150600689], [-72.70111596896425, 43.395761120243336], [-72.70113132004967, 43.39594449595742], [-72.70133758364324, 43.39592861767225]]], [[[-72.69482533404481, 43.39759218841064], [-72.69539876437966, 43.397601400323055], [-72.6954009576043, 43.39741383716859], [-72.6958263967108, 43.39741144694672], [-72.69579436359373, 43.398159319867275], [-72.6932841988276, 43.39804842697195], [-72.69320128889935, 43.39752776506314], [-72.69338032659174, 43.39753561842981], [-72.69338550471716, 43.39740513125371], [-72.69379108676418, 43.397406481665264], [-72.6938072916921, 43.39722704715968], [-72.6941873426225, 43.39723650808945], [-72.69418034693543, 43.397392963198676], [-72.69482756204975, 43.39741685511201], [-72.69482533404481, 43.39759218841064]]], [[[-72.6925835301005, 43.39788122035236], [-72.69260309379244, 43.39800575293997], [-72.69109309659957, 43.397936292798356], [-72.69109828134337, 43.3978837199415], [-72.6925835301005, 43.39788122035236]]]]}}]}