{"type":"FeatureCollection","features":[{"type":"Feature","id":1,"geometry":{"type":"Polygon","coordinates":[[[-72.747839773999942,42.814408674000049],[-72.748856805999935,42.814946587000065],[-72.749653699999953,42.815466979000064],[-72.750584266999965,42.815780013000051],[-72.75108658399995,42.816021971000055],[-72.752300586999979,42.816874505000044],[-72.75299905199995,42.817233053000052],[-72.753978354999958,42.817491945000029],[-72.754516714999966,42.817571766000071],[-72.756522589999975,42.817684321000058],[-72.757012181999983,42.817800239000064],[-72.759142613999984,42.818452596000043],[-72.759620446999975,42.818676560000029],[-72.760540022999976,42.819259616000068],[-72.761052351999979,42.818961379000029],[-72.761968304999982,42.81868021400004],[-72.763346801999944,42.817902880000076],[-72.763699992999989,42.817568988000062],[-72.764137251999955,42.816874816000052],[-72.764685397999983,42.81637844100004],[-72.76499808899996,42.815153433000035],[-72.765398712999968,42.814477350000061],[-72.76551939899997,42.81410797500007],[-72.765559184999972,42.811974389000056],[-72.765456753999956,42.810894376000078],[-72.765613007999946,42.810263866000071],[-72.765658943999938,42.809570592000057],[-72.766215208999938,42.808137974000033],[-72.76688381799994,42.80724520800004],[-72.766943823999952,42.806984009000075],[-72.766927722999981,42.806083837000074],[-72.767047309999953,42.805462402000046],[-72.767387851999956,42.805047517000048],[-72.768399225999985,42.804270971000051],[-72.768848781999964,42.803630764000047],[-72.76895615799998,42.803018362000046],[-72.768891965999956,42.802307356000028],[-72.768938507999962,42.801767110000071],[-72.769724455999949,42.799766799000054],[-72.769930656999975,42.799397226000053],[-72.769954333999976,42.79921712600003],[-72.769780143999981,42.798515363000035],[-72.769423691999975,42.798066108000057],[-72.76931260799995,42.79782330900008],[-72.769444817999954,42.797300867000047],[-72.76940727899995,42.797102912000071],[-72.76864616499995,42.79635752400003],[-72.768572122999956,42.796195664000038],[-72.768546044999937,42.795817630000045],[-72.768459858999961,42.795673798000053],[-72.767553093999936,42.795162806000064],[-72.767147623999961,42.794677628000045],[-72.766839747999938,42.794147222000049],[-72.766807641999947,42.795209548000059],[-72.766686995999976,42.795578915000078],[-72.765483468999946,42.797130077000077],[-72.764862158999961,42.797626630000025],[-72.764508198999977,42.797753484000054],[-72.763420182999937,42.797737986000072],[-72.762247665999951,42.797974735000025],[-72.760868228999982,42.798427994000065],[-72.760416358999976,42.798528048000037],[-72.756775983999944,42.799130408000053],[-72.755615153999941,42.799250031000042],[-72.75460061299998,42.799270295000042],[-72.753756759999987,42.799182141000074],[-72.753193378999981,42.798922324000046],[-72.75265488399998,42.79877048700007],[-72.75102824399994,42.798576016000027],[-72.750562968999986,42.798387987000069],[-72.74752529899996,42.796873236000067],[-72.747145240999942,42.796594996000067],[-72.746948695999947,42.796352353000032],[-72.746701615999939,42.795695735000038],[-72.746267137999951,42.794022276000078],[-72.745946125999978,42.793212768000046],[-72.745749340999964,42.792907118000073],[-72.74538158699994,42.792637847000037],[-72.744548716999986,42.792207532000077],[-72.744549632999963,42.792441580000059],[-72.744306133999942,42.792685153000036],[-72.742855107999958,42.79358845400003],[-72.742513231999965,42.79368820500008],[-72.742158839999945,42.793706954000072],[-72.742393496999966,42.791194873000052],[-72.742343733999974,42.790969920000066],[-72.741616386999965,42.789378075000059],[-72.741578176999951,42.788982066000074],[-72.741636806999963,42.788342786000044],[-72.741684008999982,42.787910588000045],[-72.742303556999957,42.786937051000052],[-72.743103477999966,42.78521594700004],[-72.743355962999942,42.784153146000051],[-72.743899010999939,42.782387580000034],[-72.743980068999974,42.78124413300003],[-72.743941484999937,42.780758095000067],[-72.744083515999989,42.779578509000032],[-72.744474713999978,42.770296445000042],[-72.744107627999938,42.77016220400003],[-72.743814202999943,42.770117820000053],[-72.739842904999989,42.770063187000062],[-72.735040359999971,42.769911104000073],[-72.73469806099996,42.769866797000077],[-72.733939293999981,42.769544267000072],[-72.733338258999936,42.768924352000056],[-72.732860617999961,42.768628247000038],[-72.730915315999937,42.767939014000035],[-72.730487348999986,42.767849856000055],[-72.728410822999933,42.768007064000074],[-72.727909636999982,42.76794503800005],[-72.727493257999981,42.767684806000034],[-72.725459301999933,42.766104442000028],[-72.724639069999967,42.765655944000059],[-72.722632454999939,42.764849665000042],[-72.722154738999961,42.764508520000049],[-72.721370185999945,42.763771861000066],[-72.721050715999979,42.763259352000034],[-72.720828461999986,42.762602620000052],[-72.72033027599997,42.759920926000063],[-72.720206829999938,42.759561080000026],[-72.719986290999941,42.759381458000064],[-72.718493852999984,42.758808167000041],[-72.718138730999954,42.758565794000049],[-72.717831351999962,42.758008238000059],[-72.71755791399994,42.756667437000033],[-72.717421901999955,42.756199576000029],[-72.71726235999995,42.755992832000061],[-72.716834113999937,42.755795598000077],[-72.715782900999955,42.755608539000036],[-72.715354906999949,42.755483304000052],[-72.712577247999945,42.754120164000028],[-72.709200737999936,42.752632012000049],[-72.708968485999947,42.752587430000062],[-72.708704885999964,42.754118284000072],[-72.708523498999966,42.754667745000063],[-72.708316610999987,42.75490218300007],[-72.707183529999952,42.75579545100004],[-72.705965722999963,42.756940932000077],[-72.703423918999988,42.760420321000026],[-72.702985449999971,42.760826196000039],[-72.700912799999969,42.762135163000039],[-72.69876629099997,42.763300191000042],[-72.698363443999938,42.763399914000047],[-72.697471310999958,42.763320438000051],[-72.697007231999976,42.763375255000028],[-72.696861235999961,42.763573550000046],[-72.696535381999979,42.76484342100008],[-72.696255254999983,42.765122965000046],[-72.695621348999964,42.765574153000045],[-72.69532851799994,42.765700688000038],[-72.694840122999949,42.765800541000033],[-72.694290462999959,42.765846492000037],[-72.693043908999982,42.76574056700008],[-72.692531171999974,42.765876461000062],[-72.692006810999942,42.766201427000055],[-72.690727656999968,42.767418856000063],[-72.690544674999956,42.767518186000075],[-72.689995283999963,42.767654128000061],[-72.689690317999975,42.767816674000073],[-72.689056616999949,42.768357848000051],[-72.688752353999973,42.768754448000038],[-72.688339346999953,42.769556322000028],[-72.688366219999978,42.770357468000043],[-72.688538863999952,42.770879315000059],[-72.688907655999969,42.771607881000079],[-72.689741511999955,42.772578741000075],[-72.690171193999959,42.773235188000058],[-72.690269984999986,42.773577102000047],[-72.69020962999997,42.773820258000057],[-72.690112243999977,42.77393745300003],[-72.689856061999933,42.774081907000038],[-72.688732838999954,42.774398846000054],[-72.688330278999956,42.774624562000042],[-72.687830661999953,42.775084489000051],[-72.687014857999941,42.776058057000057],[-72.686515123999982,42.776481979000039],[-72.686185695999939,42.776653551000038],[-72.686063487999945,42.776653752000072],[-72.685818763999976,42.776546120000035],[-72.685524796999971,42.776312537000081],[-72.684518800999967,42.774981847000049],[-72.68440861299996,42.774910008000063],[-72.683659802999955,42.774802444000045],[-72.683655487999943,42.774982505000025],[-72.683652148999954,42.775184698000032],[-72.683633965999945,42.775880432000065],[-72.683618089999982,42.77654276800007],[-72.683559148999962,42.779012698000031],[-72.683296453999958,42.785063957000034],[-72.683274180999945,42.78557722100004],[-72.683274153999946,42.785577699000044],[-72.683110295999938,42.788023366000061],[-72.682809137999982,42.797748199000068],[-72.682809155999962,42.797748957000067],[-72.682985279999968,42.797822748000044],[-72.683438641999942,42.798182108000049],[-72.683880288999944,42.798712530000046],[-72.684113929999967,42.799180260000071],[-72.684469914999966,42.799674808000077],[-72.684837741999957,42.800043300000027],[-72.686625486999958,42.801021627000068],[-72.689320012999985,42.80268260500003],[-72.690250718999948,42.80320318400004],[-72.690483223999934,42.803274811000051],[-72.691290521999974,42.803417496000066],[-72.691486107999935,42.803408172000047],[-72.692316558999948,42.803127720000077],[-72.694492650999962,42.803124042000036],[-72.695055399999944,42.803249114000039],[-72.697210126999948,42.80421765300008],[-72.697626129999946,42.804324960000031],[-72.698237653999968,42.80440492300005],[-72.699068697999962,42.804313455000056],[-72.700424795999936,42.80402302300007],[-72.700840099999937,42.803914273000032],[-72.701950947999933,42.803399192000029],[-72.702244248999989,42.803371669000057],[-72.702635992999944,42.803533015000028],[-72.703592773999958,42.80451254500008],[-72.704070730999945,42.804862779000075],[-72.704682809999952,42.805104749000066],[-72.707655816999988,42.805756552000048],[-72.707948929999986,42.805665991000069],[-72.708339372999944,42.805431225000063],[-72.708961211999963,42.804934985000045],[-72.709485293999933,42.804456909000066],[-72.709984591999955,42.803879858000073],[-72.710398173999977,42.803266959000041],[-72.710593201999984,42.803095565000035],[-72.710996322999961,42.80300479400006],[-72.711644474999957,42.803066609000041],[-72.713762463999956,42.803944887000057],[-72.716185956999936,42.804768529000057],[-72.717202246999989,42.805216716000075],[-72.717582028999971,42.805441051000059],[-72.718096903999935,42.80583615900008],[-72.718355147999944,42.80626776500003],[-72.718308153999942,42.806807982000066],[-72.717713542999945,42.808078412000043],[-72.717678346999946,42.80850158100003],[-72.717888151999944,42.809059311000055],[-72.717928865999966,42.810211507000076],[-72.718186838999941,42.810553091000031],[-72.718493755999987,42.810912599000062],[-72.718861557999958,42.811190956000075],[-72.71909421099997,42.811289542000054],[-72.720427973999961,42.81158404200005],[-72.720856812999955,42.811835280000025],[-72.721408919999988,42.812365334000049],[-72.721960362999937,42.812706353000067],[-72.72248682999998,42.812903378000044],[-72.723172187999978,42.813082081000061],[-72.724897193999936,42.813348765000057],[-72.72612128999998,42.813724451000041],[-72.727882578999981,42.813873989000058],[-72.728237168999954,42.813873288000025],[-72.728517929999953,42.813746696000067],[-72.72915179599994,42.813214310000035],[-72.729505716999938,42.81303355600005],[-72.730287780999959,42.812905956000066],[-72.731253717999948,42.812904005000064],[-72.73168230899995,42.813074180000058],[-72.732135047999975,42.813163290000034],[-72.732672805999982,42.813099176000037],[-72.733186504999935,42.813143142000058],[-72.734250975999942,42.81333002000008],[-72.734899935999977,42.813571739000054],[-72.73577032299994,42.814164090000077],[-72.73621123099997,42.814352228000075],[-72.737337491999938,42.814700987000037],[-72.737974454999971,42.81499672800004],[-72.738231882999969,42.815167233000068],[-72.738600385999973,42.815598567000052],[-72.739616167999941,42.815830508000033],[-72.740032015999986,42.815856637000024],[-72.740520819999972,42.81577459500005],[-72.742807207999988,42.815724750000072],[-72.743576526999959,42.815462062000051],[-72.745126403999961,42.814693577000071],[-72.746531506999986,42.814429500000074],[-72.747668437999948,42.81437303000007],[-72.747839773999942,42.814408674000049]]]},"properties":{"OBJECTID":1,"OBJECTID_1":175,"Jurisdiction_District_Name":"Halifax Conservation","County":"Windham","Jurisdiction":"Halifax ","Abbreviated_District_Name":"C","District_Name":"Conservation","District_Mapped":"Yes","Overlay_District":"No","Extinct_District":null,"District_Type":"Primarily Residential","Affordable_Housing_District":"No","Elderly_Housing_District":"No","F1F_Allowance":"Permitted","F2F_Allowance":"Permitted","F3F_Allowance":"Prohibited","F4F_Allowance":"Prohibited","F5F_Allowance":null,"ADU_Allowance":"Allowed/Conditional","Affordable_Housing_Allowance":"Not Mentioned","PRD_Allowance":"Not Mentioned","NOTES":"None","F1F_Min_Lot":15,"F1F_Front_Setback":50,"F1F_Side_Setback":50,"F1F_Rear_Setback":50,"F1F_Frontage":500,"F1F_Max_Lot_Building_Coverage":10,"F1F_Max_Lot_Impervious_Coverage":null,"F1F_Min_Parking_Spaces":1,"F1F_Max_Stories":null,"F1F_Max_Height":35,"F1F_Floor_to_Area_Ratio":null,"F1F_Min_Unit_Size":null,"F2F_Affordable_Housing_Only":"No","F2F_Elderly_Housing_Only":"No","F2F_Min_Lot_Size":15,"F2F_Max_Density":null,"F2F_Front_Setback":50,"F2F_Side_Setback":50,"F2F_Rear_Setback":50,"F2F_Frontage":500,"F2F_Max_Lot_Building_Coverage":10,"F2F_Max_Lot_Impervious_Coverage":null,"F2F_Min_Parking_Spaces_per_1BR":1,"F2F_Min_Parking_Spaces_per_mult_BR":1,"F2F_Max_Stories":null,"F2F_Max_Height":35,"F2F_Floor_to_Area_Ratio":null,"F2F_Min_Unit_Size":null,"F3F_Affordable_Housing_Only":"No","F3F_Elderly_Housing_Only":"No","F3F_Min_Lot_Size":null,"F3F_Max_Density":null,"F3F_Front_Setback":null,"F3F_Side_Setback":null,"F3F_Rear_Setback":null,"F3F_Frontage":null,"F3F_Max_Lot_Building_Coverage":null,"F3F_Max_Lot_Impervious_Coverage":null,"F3F_Min_Parking_Spaces_per_1BR":null,"F3F_Min_Parking_Spaces_per_mult_BR":null,"F3F_Connection_to_Sewage_Water_Required":"No","F3F_Proximity_to_Public_Transit_Required":"No","F3F_Max_Stories":null,"F3F_Max_Height":null,"F3F_Floor_to_Area_Ratio":null,"F3F_Min_Unit_Size":null,"F3F_Max_Bedrooms":null,"F4F_Affordable_Housing_Only":"No","F4F_Elderly_Housing_Only":"No","F4F_Min_Lot_Size":null,"F4F_Max_Density":null,"F4F_Front_Setback":null,"F4F_Side_Setback":null,"F4F_Rear_Setback":null,"F4F_Frontage":null,"F4F_Max_Lot_Building_Coverage":null,"F4F_Max_Lot_Impervious_Coverage":null,"F4F_Min_Parking_Spaces_per_1BR":null,"F4F_Min_Parking_Spaces_per__mult_BR":null,"F4F_Connection_to_Sewage_Water_Required":"No","F4F_Proximity_to_Public_Transit_Required":"No","F4F_Max_Stories":null,"F4F_Max_Height":null,"F4F_Floor_to_Area_Ratio":null,"F4F_Min_Unit_Size":null,"F4F_Max_Bedrooms":null,"F4F_Max_Units_per_Building":null,"F5F_Affordable_Housing_Only":null,"F5F_Elderly_Housing_Only":null,"F5F_Min_Lot_Size":null,"F5F_Max_Density":null,"F5F_Front_Setback":null,"F5F_Side_Setback":null,"F5F_Rear_Setback":null,"F5F_Frontage":null,"F5F_Max_Lot_Building_Coverage":null,"F5F_Max__Lot_Impervious_Coverage":null,"F5F_Min_Parking_Spaces_per_1BR":null,"F5F_Min_Parking_Spaces_per_mult_BR":null,"F5F_Connection_to_Sewage_Water_Required":null,"F5F_Proximity_to_Public_Transit_Required":null,"F5F_Max_Stories":null,"F5F_Max_Height":null,"F5F_Floor_to_Area_Ratio":null,"F5F_Min_Unit_Size":null,"F5F_Max_Bedrooms":null,"F5F_Max_Units_per_Building":null,"Affordable_Housing_Definition":null,"Affordable_Housing_Elderly_Only":"No","Affordable_Housing_Min_Lot_Size":null,"Affordable_Housing_Max_Density":null,"Affordable_Housing_Min_Parking_Spaces_per_1BR":null,"Affordable_Housing_Min_Parking_Spaces_per_mult_BR":null,"Affordable_Housing_Min_Unit_Size":null,"Affordable_Housing_Max_Bedrooms":null,"Affordable_Housing_Max_Units_per_Building":null,"ADU_Employee_or_Family_Occupancy_Required":"No","ADU_Renter_Occupancy_Prohibited":"No","ADU_Owner_Occupancy_Required":"No","ADU_Elderly_Housing_Only":"No","ADU_Min_Lot_Size":null,"ADU_Min_Parking_Spaces":null,"ADU_Restricted_to_Primary_Structure":"No","ADU_Max_Size_as_Percent_of_Primary_Strcture":50,"ADU_Max_Size_in_sq_ft":null,"ADU_Max_Bedrooms":1,"PRD_Mobile_or_Manufactured_Home_Park":"No","PRD_Min_Lot_Size":null,"PRD_Max_Density":null,"PRD_Max_Units":null,"PUD_Required_with_Subdivision":"F","PUD_Threshold_Number":null,"PUD_Allowance":"Yes","PUD_Requires_Land_Conservation":"T","Base_Density":null,"CONDITIONAL_1F_Min_Lot":null,"CONDITIONAL_1F_Front_Setback":null,"CONDITIONAL_1F_Side_Setback":null,"CONDITIONAL_1F_Rear_Setback":null,"CONDITIONAL_1F_Frontage":null,"CONDITIONAL_1F_Max_Lot_Building_Coverage":null,"CONDITIONAL_1F_Max_Lot_Impervious_Coverage":null,"CONDITIONAL_1F_Min_Parking_Spaces":null,"CONDITIONAL_1F_Max_Stories":null,"CONDITIONAL_1F_Max_Height":null,"CONDITIONAL_1F_Floor_to_Area_Ratio":null,"CONDITIONAL_1F_Min_Unit_Size":null,"CONDITIONAL_2F_Affordable_Housing_Only":null,"CONDITIONAL_2F_Elderly_Housing_Only":null,"CONDITIONAL_2F_Min_Lot_Size":null,"CONDITIONAL_2F_Max_Density":null,"CONDITIONAL_2F_Front_Setback":null,"CONDITIONAL_2F_Side_Setback":null,"CONDITIONAL_2F_Rear_Setback":null,"CONDITIONAL_2F_Frontage":null,"CONDITIONAL_2F_Max_Lot_Building_Coverage":null,"CONDITIONAL_2F_Max_Lot_Impervious_Coverage":null,"CONDITIONAL_2F_Min_Parking_Spaces_per_1BR":null,"CONDITIONAL_2F_Min_Parking_Spaces_per_mult_BR":null,"CONDITIONAL_2F_Max_Stories":null,"CONDITIONAL_2F_Max_Height":null,"CONDITIONAL_2F_Floor_to_Area_Ratio":null,"CONDITIONAL_2F_Min_Unit_Size":null,"CONDITIONAL_3F_Affordable_Housing_Only":null,"CONDITIONAL_3F_Elderly_Housing_Only":null,"CONDITIONAL_3F_Min_Lot_Size":null,"CONDITIONAL_3F_Max_Density":null,"CONDITIONAL_3F_Front_Setback":null,"CONDITIONAL_3F_Side_Setback":null,"CONDITIONAL_3F_Rear_Setback":null,"CONDITIONAL_3F_Frontage":null,"CONDITIONAL_3F_Max_Lot_Building_Coverage":null,"CONDITIONAL_3F_Max_Lot_Impervious_Coverage":null,"CONDITIONAL_3F_Min_Parking_Spaces_per_1BR":null,"CONDITIONAL_3F_Min_Parking_Spaces_per_mult_BR":null,"CONDITIONAL_3F_Connection_to_Sewage_Water_Required":null,"CONDITIONAL_3F_Proximity_to_Public_Transit_Required":null,"CONDITIONAL_3F_Max_Stories":null,"CONDITIONAL_3F_Max_Height":null,"CONDITIONAL_3F_Floor_to_Area_Ratio":null,"CONDITIONAL_3F_Min_Unit_Size":null,"CONDITIONAL_3F_Max_Bedrooms":null,"CONDITIONAL_4F_Affordable_Housing_Only":null,"CONDITIONAL_4F_Elderly_Housing_Only":null,"CONDITIONAL_4F_Min_Lot_Size":null,"CONDITIONAL_4F_Max_Density":null,"CONDITIONAL_4F_Front_Setback":null,"CONDITIONAL_4F_Side_Setback":null,"CONDITIONAL_4F_Rear_Setback":null,"CONDITIONAL_4F_Frontage":null,"CONDITIONAL_4F_Max_Lot_Building_Coverage":null,"CONDITIONAL_4F_Max_Lot_Impervious_Coverage":null,"CONDITIONAL_4F_Min_Parking_Spaces_per_1BR":null,"CONDITIONAL_4F_Min_Parking_Spaces_per__mult_BR":null,"CONDITIONAL_4F_Connection_to_Sewage_Water_Required":null,"CONDITIONAL_4F_Proximity_to_Public_Transit_Required":null,"CONDITIONAL_4F_Max_Stories":null,"CONDITIONAL_4F_Max_Height":null,"CONDITIONAL_4F_Floor_to_Area_Ratio":null,"CONDITIONAL_4F_Min_Unit_Size":null,"CONDITIONAL_4F_Max_Bedrooms":null,"CONDITIONAL_4F_Max_Units_per_Building":null,"CONDITIONAL_5F_Affordable_Housing_Only":null,"CONDITIONAL_5F_Elderly_Housing_Only":null,"CONDITIONAL_5F_Min_Lot_Size":null,"CONDITIONAL_5F_Max_Density":null,"CONDITIONAL_5F_Front_Setback":null,"CONDITIONAL_5F_Side_Setback":null,"CONDITIONAL_5F_Rear_Setback":null,"CONDITIONAL_5F_Frontage":null,"CONDITIONAL_5F_Max_Lot_Building_Coverage":null,"CONDITIONAL_5F_Max__Lot_Impervious_Coverage":null,"CONDITIONAL_5F_Min_Parking_Spaces_per_1BR":null,"CONDITIONAL_5F_Min_Parking_Spaces_per_mult_BR":null,"CONDITIONAL_5F_Connection_to_Sewage_Water_Required":null,"CONDITIONAL_5F_Proximity_to_Public_Transit_Required":null,"CONDITIONAL_5F_Max_Stories":null,"CONDITIONAL_5F_Max_Height":null,"CONDITIONAL_5F_Floor_to_Area_Ratio":null,"CONDITIONAL_5F_Min_Unit_Size":null,"CONDITIONAL_5F_Max_Bedrooms":null,"CONDITIONAL_5F_Max_Units_per_Building":null,"CONDITIONAL_Affordable_Housing_Definition":null,"CONDITIONAL_Affordable_Housing_Elderly_Only":null,"CONDITIONAL_Affordable_Housing_Min_Lot_Size":null,"CONDITIONAL_Affordable_Housing_Max_Density":null,"CONDITIONAL_Affordable_Housing_Min_Parking_Spaces_per_1BR":null,"CONDITIONAL_Affordable_Housing_Min_Parking_Spaces_per_mult_BR":null,"CONDITIONAL_Affordable_Housing_Min_Unit_Size":null,"CONDITIONAL_Affordable_Housing_Max_Bedrooms":null,"CONDITIONAL_Affordable_Housing_Max_Units_per_Building":null,"CONDITIONAL_ADU_Employee_or_Family_Occupancy_Required":null,"CONDITIONAL_ADU_Renter_Occupancy_Prohibited":null,"CONDITIONAL_ADU_Owner_Occupancy_Required":null,"CONDITIONAL_ADU_Elderly_Housing_Only":null,"CONDITIONAL_ADU_Min_Lot_Size":null,"CONDITIONAL_ADU_Min_Parking_Spaces":null,"CONDITIONAL_ADU_Restricted_to_Primary_Structure":null,"CONDITIONAL_ADU_Max_Size_as_Percent_of_Primary_Strcture":null,"CONDITIONAL_ADU_Max_Size_in_sq_ft":null,"CONDITIONAL_ADU_Max_Bedrooms":null,"CONDITIONAL_PRD_Mobile_or_Manufactured_Home_Park":null,"CONDITIONAL_PRD_Min_Lot_Size":null,"CONDITIONAL_PRD_Max_Density":null,"CONDITIONAL_PRD_Max_Units":null,"CONDITIONAL_PUD_Required_with_Subdivision":null,"CONDITIONAL_PUD_Threshold_Number":null,"CONDITIONAL_PUD_Allowance":null,"CONDITIONAL_PUD_Requires_Land_Conservation":null,"Bylaw_Date":"2024-05-27","RPC":"WRC","Version":1,"Acres":6887.6451980924012,"Shape_Length":0.28446817892851872,"Shape_Area":0.0030668419805193145}},{"type":"Feature","id":2,"geometry":{"type":"Polygon","coordinates":[[[-72.680992149999952,42.824038707000057],[-72.680630150999946,42.827287707000039],[-72.681070150999972,42.827291708000075],[-72.687585152999986,42.827347706000069],[-72.687699152999983,42.827348707000056],[-72.688696152999967,42.827356707000035],[-72.689144153999962,42.827360706000036],[-72.69406715599996,42.827400706000049],[-72.697281156999964,42.827428707000081],[-72.704643158999943,42.827489707000041],[-72.71189616199996,42.82754970600007],[-72.718945162999944,42.827608706000035],[-72.719644163999988,42.827613706000079],[-72.730235166999989,42.827702706000025],[-72.731584167999983,42.827713705000065],[-72.740514170999973,42.827787705000048],[-72.74201317099994,42.827800706000062],[-72.743669171999954,42.82781370500004],[-72.744287171999986,42.827818705000027],[-72.748534396999958,42.827854496000043],[-72.749035421999963,42.827858345000038],[-72.754833590999965,42.827997714000048],[-72.758928176999973,42.828095705000067],[-72.759138837999956,42.828101008000033],[-72.778552537999985,42.828564779000033],[-72.797966509999981,42.829025256000079],[-72.802564355999948,42.829143130000034],[-72.802910191999956,42.829151704000026],[-72.803007087999958,42.827488439000035],[-72.803055022999956,42.826662721000048],[-72.803165544999956,42.823777352000036],[-72.804897121999943,42.787760540000079],[-72.804977675999965,42.786209713000062],[-72.805243188999953,42.781092694000051],[-72.805246988999954,42.781024358000025],[-72.80550462399998,42.77606310200008],[-72.805508188999966,42.775989693000042],[-72.805883187999939,42.768483692000075],[-72.806039187999943,42.765321691000054],[-72.806086187999938,42.764339691000032],[-72.806179187999987,42.762489691000042],[-72.806328187999952,42.757563689000051],[-72.806454186999986,42.753403689000038],[-72.806575254999984,42.749426719000041],[-72.80673909799998,42.744020427000066],[-72.806959185999972,42.736522686000058],[-72.793820315999938,42.736117426000078],[-72.786740298999973,42.735950937000041],[-72.786031179999952,42.735937686000057],[-72.779277177999973,42.735776687000055],[-72.778896176999979,42.735766686000034],[-72.778748613999937,42.735762482000041],[-72.778456668999979,42.735755587000028],[-72.778384176999964,42.735754687000053],[-72.77822017699998,42.735750687000063],[-72.778128175999939,42.735748687000068],[-72.778004176999957,42.735745687000076],[-72.777874177999934,42.735742687000027],[-72.777779176999957,42.735739687000034],[-72.777746898999965,42.735738821000041],[-72.771294170999965,42.735586193000074],[-72.749909885999955,42.735012359000052],[-72.728525977999936,42.73443453200008],[-72.707142450999982,42.733852711000054],[-72.685759308999934,42.733266898000068],[-72.684606654999982,42.749750746000075],[-72.684568146999936,42.750368692000052],[-72.684522456999957,42.751965942000027],[-72.684408155999961,42.756756576000043],[-72.684408149999967,42.756756694000046],[-72.684318147999988,42.757999694000034],[-72.684353518999956,42.759275813000045],[-72.684356172999969,42.759370266000076],[-72.684356138999988,42.759370369000067],[-72.684356147999949,42.75937069400004],[-72.683827147999978,42.760990695000032],[-72.683739149999951,42.771483697000065],[-72.683681148999938,42.773926697000036],[-72.683661287999939,42.774679641000034],[-72.683659802999955,42.774802444000045],[-72.68440861299996,42.774910008000063],[-72.684518800999967,42.774981847000049],[-72.685524796999971,42.776312537000081],[-72.685818763999976,42.776546120000035],[-72.686063487999945,42.776653752000072],[-72.686185695999939,42.776653551000038],[-72.686515123999982,42.776481979000039],[-72.687014857999941,42.776058057000057],[-72.687830661999953,42.775084489000051],[-72.688330278999956,42.774624562000042],[-72.688732838999954,42.774398846000054],[-72.689856061999933,42.774081907000038],[-72.690112243999977,42.77393745300003],[-72.69020962999997,42.773820258000057],[-72.690269984999986,42.773577102000047],[-72.690171193999959,42.773235188000058],[-72.689741511999955,42.772578741000075],[-72.688907655999969,42.771607881000079],[-72.688538863999952,42.770879315000059],[-72.688366219999978,42.770357468000043],[-72.688339346999953,42.769556322000028],[-72.688752353999973,42.768754448000038],[-72.689056616999949,42.768357848000051],[-72.689690317999975,42.767816674000073],[-72.689995283999963,42.767654128000061],[-72.690544674999956,42.767518186000075],[-72.690727656999968,42.767418856000063],[-72.692006810999942,42.766201427000055],[-72.692531171999974,42.765876461000062],[-72.693043908999982,42.76574056700008],[-72.694290462999959,42.765846492000037],[-72.694840122999949,42.765800541000033],[-72.69532851799994,42.765700688000038],[-72.695621348999964,42.765574153000045],[-72.696255254999983,42.765122965000046],[-72.696535381999979,42.76484342100008],[-72.696861235999961,42.763573550000046],[-72.697007231999976,42.763375255000028],[-72.697471310999958,42.763320438000051],[-72.698363443999938,42.763399914000047],[-72.69876629099997,42.763300191000042],[-72.700912799999969,42.762135163000039],[-72.702985449999971,42.760826196000039],[-72.703423918999988,42.760420321000026],[-72.705965722999963,42.756940932000077],[-72.707183529999952,42.75579545100004],[-72.708316610999987,42.75490218300007],[-72.708523498999966,42.754667745000063],[-72.708704885999964,42.754118284000072],[-72.708968485999947,42.752587430000062],[-72.709200737999936,42.752632012000049],[-72.712577247999945,42.754120164000028],[-72.715354906999949,42.755483304000052],[-72.715782900999955,42.755608539000036],[-72.716834113999937,42.755795598000077],[-72.71726235999995,42.755992832000061],[-72.717421901999955,42.756199576000029],[-72.71755791399994,42.756667437000033],[-72.717831351999962,42.758008238000059],[-72.718138730999954,42.758565794000049],[-72.718493852999984,42.758808167000041],[-72.719986290999941,42.759381458000064],[-72.720206829999938,42.759561080000026],[-72.72033027599997,42.759920926000063],[-72.720828461999986,42.762602620000052],[-72.721050715999979,42.763259352000034],[-72.721370185999945,42.763771861000066],[-72.722154738999961,42.764508520000049],[-72.722632454999939,42.764849665000042],[-72.724639069999967,42.765655944000059],[-72.725459301999933,42.766104442000028],[-72.727493257999981,42.767684806000034],[-72.727909636999982,42.76794503800005],[-72.728410822999933,42.768007064000074],[-72.730487348999986,42.767849856000055],[-72.730915315999937,42.767939014000035],[-72.732860617999961,42.768628247000038],[-72.733338258999936,42.768924352000056],[-72.733939293999981,42.769544267000072],[-72.73469806099996,42.769866797000077],[-72.735040359999971,42.769911104000073],[-72.739842904999989,42.770063187000062],[-72.743814202999943,42.770117820000053],[-72.744107627999938,42.77016220400003],[-72.744474713999978,42.770296445000042],[-72.744083515999989,42.779578509000032],[-72.743941484999937,42.780758095000067],[-72.743980068999974,42.78124413300003],[-72.743899010999939,42.782387580000034],[-72.743355962999942,42.784153146000051],[-72.743103477999966,42.78521594700004],[-72.742303556999957,42.786937051000052],[-72.741684008999982,42.787910588000045],[-72.741636806999963,42.788342786000044],[-72.741578176999951,42.788982066000074],[-72.741616386999965,42.789378075000059],[-72.742343733999974,42.790969920000066],[-72.742393496999966,42.791194873000052],[-72.742158839999945,42.793706954000072],[-72.742513231999965,42.79368820500008],[-72.742855107999958,42.79358845400003],[-72.744306133999942,42.792685153000036],[-72.744549632999963,42.792441580000059],[-72.744548716999986,42.792207532000077],[-72.74538158699994,42.792637847000037],[-72.745749340999964,42.792907118000073],[-72.745946125999978,42.793212768000046],[-72.746267137999951,42.794022276000078],[-72.746701615999939,42.795695735000038],[-72.746948695999947,42.796352353000032],[-72.747145240999942,42.796594996000067],[-72.74752529899996,42.796873236000067],[-72.750562968999986,42.798387987000069],[-72.75102824399994,42.798576016000027],[-72.75265488399998,42.79877048700007],[-72.753193378999981,42.798922324000046],[-72.753756759999987,42.799182141000074],[-72.75460061299998,42.799270295000042],[-72.755615153999941,42.799250031000042],[-72.756775983999944,42.799130408000053],[-72.760416358999976,42.798528048000037],[-72.760868228999982,42.798427994000065],[-72.762247665999951,42.797974735000025],[-72.763420182999937,42.797737986000072],[-72.764508198999977,42.797753484000054],[-72.764862158999961,42.797626630000025],[-72.765483468999946,42.797130077000077],[-72.766686995999976,42.795578915000078],[-72.766807641999947,42.795209548000059],[-72.766839747999938,42.794147222000049],[-72.767147623999961,42.794677628000045],[-72.767553093999936,42.795162806000064],[-72.768459858999961,42.795673798000053],[-72.768546044999937,42.795817630000045],[-72.768572122999956,42.796195664000038],[-72.76864616499995,42.79635752400003],[-72.76940727899995,42.797102912000071],[-72.769444817999954,42.797300867000047],[-72.76931260799995,42.79782330900008],[-72.769423691999975,42.798066108000057],[-72.769780143999981,42.798515363000035],[-72.769954333999976,42.79921712600003],[-72.769930656999975,42.799397226000053],[-72.769724455999949,42.799766799000054],[-72.768938507999962,42.801767110000071],[-72.768891965999956,42.802307356000028],[-72.76895615799998,42.803018362000046],[-72.768848781999964,42.803630764000047],[-72.768399225999985,42.804270971000051],[-72.767387851999956,42.805047517000048],[-72.767047309999953,42.805462402000046],[-72.766927722999981,42.806083837000074],[-72.766943823999952,42.806984009000075],[-72.76688381799994,42.80724520800004],[-72.766215208999938,42.808137974000033],[-72.765658943999938,42.809570592000057],[-72.765613007999946,42.810263866000071],[-72.765456753999956,42.810894376000078],[-72.765559184999972,42.811974389000056],[-72.76551939899997,42.81410797500007],[-72.765398712999968,42.814477350000061],[-72.76499808899996,42.815153433000035],[-72.764685397999983,42.81637844100004],[-72.764137251999955,42.816874816000052],[-72.763699992999989,42.817568988000062],[-72.763346801999944,42.817902880000076],[-72.761968304999982,42.81868021400004],[-72.761052351999979,42.818961379000029],[-72.760540022999976,42.819259616000068],[-72.759620446999975,42.818676560000029],[-72.759142613999984,42.818452596000043],[-72.757012181999983,42.817800239000064],[-72.756522589999975,42.817684321000058],[-72.754516714999966,42.817571766000071],[-72.753978354999958,42.817491945000029],[-72.75299905199995,42.817233053000052],[-72.752300586999979,42.816874505000044],[-72.75108658399995,42.816021971000055],[-72.750584266999965,42.815780013000051],[-72.749653699999953,42.815466979000064],[-72.748856805999935,42.814946587000065],[-72.747839773999942,42.814408674000049],[-72.747668437999948,42.81437303000007],[-72.746531506999986,42.814429500000074],[-72.745126403999961,42.814693577000071],[-72.743576526999959,42.815462062000051],[-72.742807207999988,42.815724750000072],[-72.740520819999972,42.81577459500005],[-72.740032015999986,42.815856637000024],[-72.739616167999941,42.815830508000033],[-72.738600385999973,42.815598567000052],[-72.738231882999969,42.815167233000068],[-72.737974454999971,42.81499672800004],[-72.737337491999938,42.814700987000037],[-72.73621123099997,42.814352228000075],[-72.73577032299994,42.814164090000077],[-72.734899935999977,42.813571739000054],[-72.734250975999942,42.81333002000008],[-72.733186504999935,42.813143142000058],[-72.732672805999982,42.813099176000037],[-72.732135047999975,42.813163290000034],[-72.73168230899995,42.813074180000058],[-72.731253717999948,42.812904005000064],[-72.730287780999959,42.812905956000066],[-72.729505716999938,42.81303355600005],[-72.72915179599994,42.813214310000035],[-72.728517929999953,42.813746696000067],[-72.728237168999954,42.813873288000025],[-72.727882578999981,42.813873989000058],[-72.72612128999998,42.813724451000041],[-72.724897193999936,42.813348765000057],[-72.723172187999978,42.813082081000061],[-72.72248682999998,42.812903378000044],[-72.721960362999937,42.812706353000067],[-72.721408919999988,42.812365334000049],[-72.720856812999955,42.811835280000025],[-72.720427973999961,42.81158404200005],[-72.71909421099997,42.811289542000054],[-72.718861557999958,42.811190956000075],[-72.718493755999987,42.810912599000062],[-72.718186838999941,42.810553091000031],[-72.717928865999966,42.810211507000076],[-72.717888151999944,42.809059311000055],[-72.717678346999946,42.80850158100003],[-72.717713542999945,42.808078412000043],[-72.718308153999942,42.806807982000066],[-72.718355147999944,42.80626776500003],[-72.718096903999935,42.80583615900008],[-72.717582028999971,42.805441051000059],[-72.717202246999989,42.805216716000075],[-72.716185956999936,42.804768529000057],[-72.713762463999956,42.803944887000057],[-72.711644474999957,42.803066609000041],[-72.710996322999961,42.80300479400006],[-72.710593201999984,42.803095565000035],[-72.710398173999977,42.803266959000041],[-72.709984591999955,42.803879858000073],[-72.709485293999933,42.804456909000066],[-72.708961211999963,42.804934985000045],[-72.708339372999944,42.805431225000063],[-72.707948929999986,42.805665991000069],[-72.707655816999988,42.805756552000048],[-72.704682809999952,42.805104749000066],[-72.704070730999945,42.804862779000075],[-72.703592773999958,42.80451254500008],[-72.702635992999944,42.803533015000028],[-72.702244248999989,42.803371669000057],[-72.701950947999933,42.803399192000029],[-72.700840099999937,42.803914273000032],[-72.700424795999936,42.80402302300007],[-72.699068697999962,42.804313455000056],[-72.698237653999968,42.80440492300005],[-72.697626129999946,42.804324960000031],[-72.697210126999948,42.80421765300008],[-72.695055399999944,42.803249114000039],[-72.694492650999962,42.803124042000036],[-72.692316558999948,42.803127720000077],[-72.691486107999935,42.803408172000047],[-72.691290521999974,42.803417496000066],[-72.690483223999934,42.803274811000051],[-72.690250718999948,42.80320318400004],[-72.689320012999985,42.80268260500003],[-72.686625486999958,42.801021627000068],[-72.684837741999957,42.800043300000027],[-72.684469914999966,42.799674808000077],[-72.684113929999967,42.799180260000071],[-72.683880288999944,42.798712530000046],[-72.683438641999942,42.798182108000049],[-72.682985279999968,42.797822748000044],[-72.682809155999962,42.797748956000078],[-72.682811149999964,42.797830702000056],[-72.682861758999934,42.800142449000077],[-72.682968666999955,42.805002509000076],[-72.682928297999979,42.805387308000036],[-72.681921150999983,42.815130706000048],[-72.681887151999945,42.815447705000054],[-72.680992149999952,42.824038707000057]],[[-72.776124888999959,42.782089352000071],[-72.773755549999976,42.793536764000066],[-72.767551350999952,42.791922040000031],[-72.764383700999986,42.782864240000038],[-72.767845229999978,42.777869001000056],[-72.776124888999959,42.782089352000071]]]},"properties":{"OBJECTID":2,"OBJECTID_1":176,"Jurisdiction_District_Name":"Halifax Rural Residential","County":"Windham","Jurisdiction":"Halifax ","Abbreviated_District_Name":"Rr","District_Name":"Rural Residential","District_Mapped":"Yes","Overlay_District":"No","Extinct_District":null,"District_Type":"Mixed with Residential","Affordable_Housing_District":"No","Elderly_Housing_District":"No","F1F_Allowance":"Permitted","F2F_Allowance":"Permitted","F3F_Allowance":"Public Hearing","F4F_Allowance":"Public Hearing","F5F_Allowance":null,"ADU_Allowance":"Allowed/Conditional","Affordable_Housing_Allowance":"Not Mentioned","PRD_Allowance":"Not Mentioned","NOTES":"None","F1F_Min_Lot":3,"F1F_Front_Setback":35,"F1F_Side_Setback":25,"F1F_Rear_Setback":25,"F1F_Frontage":300,"F1F_Max_Lot_Building_Coverage":15,"F1F_Max_Lot_Impervious_Coverage":null,"F1F_Min_Parking_Spaces":1,"F1F_Max_Stories":null,"F1F_Max_Height":35,"F1F_Floor_to_Area_Ratio":null,"F1F_Min_Unit_Size":null,"F2F_Affordable_Housing_Only":"No","F2F_Elderly_Housing_Only":"No","F2F_Min_Lot_Size":6,"F2F_Max_Density":null,"F2F_Front_Setback":35,"F2F_Side_Setback":25,"F2F_Rear_Setback":25,"F2F_Frontage":300,"F2F_Max_Lot_Building_Coverage":15,"F2F_Max_Lot_Impervious_Coverage":null,"F2F_Min_Parking_Spaces_per_1BR":1,"F2F_Min_Parking_Spaces_per_mult_BR":1,"F2F_Max_Stories":null,"F2F_Max_Height":35,"F2F_Floor_to_Area_Ratio":null,"F2F_Min_Unit_Size":null,"F3F_Affordable_Housing_Only":"No","F3F_Elderly_Housing_Only":"No","F3F_Min_Lot_Size":9,"F3F_Max_Density":null,"F3F_Front_Setback":35,"F3F_Side_Setback":25,"F3F_Rear_Setback":25,"F3F_Frontage":300,"F3F_Max_Lot_Building_Coverage":15,"F3F_Max_Lot_Impervious_Coverage":null,"F3F_Min_Parking_Spaces_per_1BR":1,"F3F_Min_Parking_Spaces_per_mult_BR":1,"F3F_Connection_to_Sewage_Water_Required":"No","F3F_Proximity_to_Public_Transit_Required":"No","F3F_Max_Stories":null,"F3F_Max_Height":35,"F3F_Floor_to_Area_Ratio":null,"F3F_Min_Unit_Size":null,"F3F_Max_Bedrooms":null,"F4F_Affordable_Housing_Only":"No","F4F_Elderly_Housing_Only":"No","F4F_Min_Lot_Size":12,"F4F_Max_Density":null,"F4F_Front_Setback":35,"F4F_Side_Setback":25,"F4F_Rear_Setback":25,"F4F_Frontage":300,"F4F_Max_Lot_Building_Coverage":15,"F4F_Max_Lot_Impervious_Coverage":null,"F4F_Min_Parking_Spaces_per_1BR":1,"F4F_Min_Parking_Spaces_per__mult_BR":1,"F4F_Connection_to_Sewage_Water_Required":"No","F4F_Proximity_to_Public_Transit_Required":"No","F4F_Max_Stories":null,"F4F_Max_Height":35,"F4F_Floor_to_Area_Ratio":null,"F4F_Min_Unit_Size":null,"F4F_Max_Bedrooms":null,"F4F_Max_Units_per_Building":null,"F5F_Affordable_Housing_Only":"F","F5F_Elderly_Housing_Only":"F","F5F_Min_Lot_Size":15,"F5F_Max_Density":null,"F5F_Front_Setback":35,"F5F_Side_Setback":25,"F5F_Rear_Setback":25,"F5F_Frontage":300,"F5F_Max_Lot_Building_Coverage":15,"F5F_Max__Lot_Impervious_Coverage":null,"F5F_Min_Parking_Spaces_per_1BR":1,"F5F_Min_Parking_Spaces_per_mult_BR":1,"F5F_Connection_to_Sewage_Water_Required":"F","F5F_Proximity_to_Public_Transit_Required":"F","F5F_Max_Stories":null,"F5F_Max_Height":35,"F5F_Floor_to_Area_Ratio":null,"F5F_Min_Unit_Size":null,"F5F_Max_Bedrooms":null,"F5F_Max_Units_per_Building":null,"Affordable_Housing_Definition":null,"Affordable_Housing_Elderly_Only":"No","Affordable_Housing_Min_Lot_Size":null,"Affordable_Housing_Max_Density":null,"Affordable_Housing_Min_Parking_Spaces_per_1BR":null,"Affordable_Housing_Min_Parking_Spaces_per_mult_BR":null,"Affordable_Housing_Min_Unit_Size":null,"Affordable_Housing_Max_Bedrooms":null,"Affordable_Housing_Max_Units_per_Building":null,"ADU_Employee_or_Family_Occupancy_Required":"No","ADU_Renter_Occupancy_Prohibited":"No","ADU_Owner_Occupancy_Required":"No","ADU_Elderly_Housing_Only":"No","ADU_Min_Lot_Size":null,"ADU_Min_Parking_Spaces":null,"ADU_Restricted_to_Primary_Structure":"No","ADU_Max_Size_as_Percent_of_Primary_Strcture":50,"ADU_Max_Size_in_sq_ft":null,"ADU_Max_Bedrooms":1,"PRD_Mobile_or_Manufactured_Home_Park":"No","PRD_Min_Lot_Size":null,"PRD_Max_Density":null,"PRD_Max_Units":null,"PUD_Required_with_Subdivision":"F","PUD_Threshold_Number":null,"PUD_Allowance":"Yes","PUD_Requires_Land_Conservation":"T","Base_Density":null,"CONDITIONAL_1F_Min_Lot":null,"CONDITIONAL_1F_Front_Setback":null,"CONDITIONAL_1F_Side_Setback":null,"CONDITIONAL_1F_Rear_Setback":null,"CONDITIONAL_1F_Frontage":null,"CONDITIONAL_1F_Max_Lot_Building_Coverage":null,"CONDITIONAL_1F_Max_Lot_Impervious_Coverage":null,"CONDITIONAL_1F_Min_Parking_Spaces":null,"CONDITIONAL_1F_Max_Stories":null,"CONDITIONAL_1F_Max_Height":null,"CONDITIONAL_1F_Floor_to_Area_Ratio":null,"CONDITIONAL_1F_Min_Unit_Size":null,"CONDITIONAL_2F_Affordable_Housing_Only":null,"CONDITIONAL_2F_Elderly_Housing_Only":null,"CONDITIONAL_2F_Min_Lot_Size":null,"CONDITIONAL_2F_Max_Density":null,"CONDITIONAL_2F_Front_Setback":null,"CONDITIONAL_2F_Side_Setback":null,"CONDITIONAL_2F_Rear_Setback":null,"CONDITIONAL_2F_Frontage":null,"CONDITIONAL_2F_Max_Lot_Building_Coverage":null,"CONDITIONAL_2F_Max_Lot_Impervious_Coverage":null,"CONDITIONAL_2F_Min_Parking_Spaces_per_1BR":null,"CONDITIONAL_2F_Min_Parking_Spaces_per_mult_BR":null,"CONDITIONAL_2F_Max_Stories":null,"CONDITIONAL_2F_Max_Height":null,"CONDITIONAL_2F_Floor_to_Area_Ratio":null,"CONDITIONAL_2F_Min_Unit_Size":null,"CONDITIONAL_3F_Affordable_Housing_Only":null,"CONDITIONAL_3F_Elderly_Housing_Only":null,"CONDITIONAL_3F_Min_Lot_Size":null,"CONDITIONAL_3F_Max_Density":null,"CONDITIONAL_3F_Front_Setback":null,"CONDITIONAL_3F_Side_Setback":null,"CONDITIONAL_3F_Rear_Setback":null,"CONDITIONAL_3F_Frontage":null,"CONDITIONAL_3F_Max_Lot_Building_Coverage":null,"CONDITIONAL_3F_Max_Lot_Impervious_Coverage":null,"CONDITIONAL_3F_Min_Parking_Spaces_per_1BR":null,"CONDITIONAL_3F_Min_Parking_Spaces_per_mult_BR":null,"CONDITIONAL_3F_Connection_to_Sewage_Water_Required":null,"CONDITIONAL_3F_Proximity_to_Public_Transit_Required":null,"CONDITIONAL_3F_Max_Stories":null,"CONDITIONAL_3F_Max_Height":null,"CONDITIONAL_3F_Floor_to_Area_Ratio":null,"CONDITIONAL_3F_Min_Unit_Size":null,"CONDITIONAL_3F_Max_Bedrooms":null,"CONDITIONAL_4F_Affordable_Housing_Only":null,"CONDITIONAL_4F_Elderly_Housing_Only":null,"CONDITIONAL_4F_Min_Lot_Size":null,"CONDITIONAL_4F_Max_Density":null,"CONDITIONAL_4F_Front_Setback":null,"CONDITIONAL_4F_Side_Setback":null,"CONDITIONAL_4F_Rear_Setback":null,"CONDITIONAL_4F_Frontage":null,"CONDITIONAL_4F_Max_Lot_Building_Coverage":null,"CONDITIONAL_4F_Max_Lot_Impervious_Coverage":null,"CONDITIONAL_4F_Min_Parking_Spaces_per_1BR":null,"CONDITIONAL_4F_Min_Parking_Spaces_per__mult_BR":null,"CONDITIONAL_4F_Connection_to_Sewage_Water_Required":null,"CONDITIONAL_4F_Proximity_to_Public_Transit_Required":null,"CONDITIONAL_4F_Max_Stories":null,"CONDITIONAL_4F_Max_Height":null,"CONDITIONAL_4F_Floor_to_Area_Ratio":null,"CONDITIONAL_4F_Min_Unit_Size":null,"CONDITIONAL_4F_Max_Bedrooms":null,"CONDITIONAL_4F_Max_Units_per_Building":null,"CONDITIONAL_5F_Affordable_Housing_Only":null,"CONDITIONAL_5F_Elderly_Housing_Only":null,"CONDITIONAL_5F_Min_Lot_Size":null,"CONDITIONAL_5F_Max_Density":null,"CONDITIONAL_5F_Front_Setback":null,"CONDITIONAL_5F_Side_Setback":null,"CONDITIONAL_5F_Rear_Setback":null,"CONDITIONAL_5F_Frontage":null,"CONDITIONAL_5F_Max_Lot_Building_Coverage":null,"CONDITIONAL_5F_Max__Lot_Impervious_Coverage":null,"CONDITIONAL_5F_Min_Parking_Spaces_per_1BR":null,"CONDITIONAL_5F_Min_Parking_Spaces_per_mult_BR":null,"CONDITIONAL_5F_Connection_to_Sewage_Water_Required":null,"CONDITIONAL_5F_Proximity_to_Public_Transit_Required":null,"CONDITIONAL_5F_Max_Stories":null,"CONDITIONAL_5F_Max_Height":null,"CONDITIONAL_5F_Floor_to_Area_Ratio":null,"CONDITIONAL_5F_Min_Unit_Size":null,"CONDITIONAL_5F_Max_Bedrooms":null,"CONDITIONAL_5F_Max_Units_per_Building":null,"CONDITIONAL_Affordable_Housing_Definition":null,"CONDITIONAL_Affordable_Housing_Elderly_Only":null,"CONDITIONAL_Affordable_Housing_Min_Lot_Size":null,"CONDITIONAL_Affordable_Housing_Max_Density":null,"CONDITIONAL_Affordable_Housing_Min_Parking_Spaces_per_1BR":null,"CONDITIONAL_Affordable_Housing_Min_Parking_Spaces_per_mult_BR":null,"CONDITIONAL_Affordable_Housing_Min_Unit_Size":null,"CONDITIONAL_Affordable_Housing_Max_Bedrooms":null,"CONDITIONAL_Affordable_Housing_Max_Units_per_Building":null,"CONDITIONAL_ADU_Employee_or_Family_Occupancy_Required":null,"CONDITIONAL_ADU_Renter_Occupancy_Prohibited":null,"CONDITIONAL_ADU_Owner_Occupancy_Required":null,"CONDITIONAL_ADU_Elderly_Housing_Only":null,"CONDITIONAL_ADU_Min_Lot_Size":null,"CONDITIONAL_ADU_Min_Parking_Spaces":null,"CONDITIONAL_ADU_Restricted_to_Primary_Structure":null,"CONDITIONAL_ADU_Max_Size_as_Percent_of_Primary_Strcture":null,"CONDITIONAL_ADU_Max_Size_in_sq_ft":null,"CONDITIONAL_ADU_Max_Bedrooms":null,"CONDITIONAL_PRD_Mobile_or_Manufactured_Home_Park":null,"CONDITIONAL_PRD_Min_Lot_Size":null,"CONDITIONAL_PRD_Max_Density":null,"CONDITIONAL_PRD_Max_Units":null,"CONDITIONAL_PUD_Required_with_Subdivision":null,"CONDITIONAL_PUD_Threshold_Number":null,"CONDITIONAL_PUD_Allowance":null,"CONDITIONAL_PUD_Requires_Land_Conservation":null,"Bylaw_Date":"2024-05-27","RPC":"WRC","Version":1,"Acres":18306.88783335367,"Shape_Length":0.71216561755687569,"Shape_Area":0.0081500752620241122}},{"type":"Feature","id":3,"geometry":{"type":"Polygon","coordinates":[[[-72.764383700999986,42.782864240000038],[-72.767551350999952,42.791922040000031],[-72.773755549999976,42.793536764000066],[-72.776124888999959,42.782089352000071],[-72.767845229999978,42.777869001000056],[-72.764383700999986,42.782864240000038]]]},"properties":{"OBJECTID":3,"OBJECTID_1":177,"Jurisdiction_District_Name":"Halifax Village","County":"Windham","Jurisdiction":"Halifax ","Abbreviated_District_Name":"V","District_Name":"Village","District_Mapped":"Yes","Overlay_District":"No","Extinct_District":null,"District_Type":"Mixed with Residential","Affordable_Housing_District":"No","Elderly_Housing_District":"No","F1F_Allowance":"Permitted","F2F_Allowance":"Permitted","F3F_Allowance":"Public Hearing","F4F_Allowance":"Public Hearing","F5F_Allowance":null,"ADU_Allowance":"Allowed/Conditional","Affordable_Housing_Allowance":"Not Mentioned","PRD_Allowance":"Not Mentioned","NOTES":"None","F1F_Min_Lot":2,"F1F_Front_Setback":35,"F1F_Side_Setback":25,"F1F_Rear_Setback":25,"F1F_Frontage":200,"F1F_Max_Lot_Building_Coverage":20,"F1F_Max_Lot_Impervious_Coverage":null,"F1F_Min_Parking_Spaces":1,"F1F_Max_Stories":null,"F1F_Max_Height":35,"F1F_Floor_to_Area_Ratio":null,"F1F_Min_Unit_Size":null,"F2F_Affordable_Housing_Only":"No","F2F_Elderly_Housing_Only":"No","F2F_Min_Lot_Size":4,"F2F_Max_Density":null,"F2F_Front_Setback":35,"F2F_Side_Setback":25,"F2F_Rear_Setback":25,"F2F_Frontage":200,"F2F_Max_Lot_Building_Coverage":20,"F2F_Max_Lot_Impervious_Coverage":null,"F2F_Min_Parking_Spaces_per_1BR":1,"F2F_Min_Parking_Spaces_per_mult_BR":1,"F2F_Max_Stories":null,"F2F_Max_Height":35,"F2F_Floor_to_Area_Ratio":null,"F2F_Min_Unit_Size":null,"F3F_Affordable_Housing_Only":"No","F3F_Elderly_Housing_Only":"No","F3F_Min_Lot_Size":6,"F3F_Max_Density":null,"F3F_Front_Setback":35,"F3F_Side_Setback":25,"F3F_Rear_Setback":25,"F3F_Frontage":200,"F3F_Max_Lot_Building_Coverage":20,"F3F_Max_Lot_Impervious_Coverage":null,"F3F_Min_Parking_Spaces_per_1BR":1,"F3F_Min_Parking_Spaces_per_mult_BR":1,"F3F_Connection_to_Sewage_Water_Required":"No","F3F_Proximity_to_Public_Transit_Required":"No","F3F_Max_Stories":null,"F3F_Max_Height":35,"F3F_Floor_to_Area_Ratio":null,"F3F_Min_Unit_Size":null,"F3F_Max_Bedrooms":null,"F4F_Affordable_Housing_Only":"No","F4F_Elderly_Housing_Only":"No","F4F_Min_Lot_Size":8,"F4F_Max_Density":null,"F4F_Front_Setback":35,"F4F_Side_Setback":25,"F4F_Rear_Setback":25,"F4F_Frontage":200,"F4F_Max_Lot_Building_Coverage":20,"F4F_Max_Lot_Impervious_Coverage":null,"F4F_Min_Parking_Spaces_per_1BR":1,"F4F_Min_Parking_Spaces_per__mult_BR":1,"F4F_Connection_to_Sewage_Water_Required":"No","F4F_Proximity_to_Public_Transit_Required":"No","F4F_Max_Stories":null,"F4F_Max_Height":35,"F4F_Floor_to_Area_Ratio":null,"F4F_Min_Unit_Size":null,"F4F_Max_Bedrooms":null,"F4F_Max_Units_per_Building":null,"F5F_Affordable_Housing_Only":"F","F5F_Elderly_Housing_Only":"F","F5F_Min_Lot_Size":10,"F5F_Max_Density":null,"F5F_Front_Setback":35,"F5F_Side_Setback":25,"F5F_Rear_Setback":25,"F5F_Frontage":200,"F5F_Max_Lot_Building_Coverage":20,"F5F_Max__Lot_Impervious_Coverage":null,"F5F_Min_Parking_Spaces_per_1BR":1,"F5F_Min_Parking_Spaces_per_mult_BR":1,"F5F_Connection_to_Sewage_Water_Required":"F","F5F_Proximity_to_Public_Transit_Required":"F","F5F_Max_Stories":null,"F5F_Max_Height":35,"F5F_Floor_to_Area_Ratio":null,"F5F_Min_Unit_Size":null,"F5F_Max_Bedrooms":null,"F5F_Max_Units_per_Building":null,"Affordable_Housing_Definition":null,"Affordable_Housing_Elderly_Only":"No","Affordable_Housing_Min_Lot_Size":null,"Affordable_Housing_Max_Density":null,"Affordable_Housing_Min_Parking_Spaces_per_1BR":null,"Affordable_Housing_Min_Parking_Spaces_per_mult_BR":null,"Affordable_Housing_Min_Unit_Size":null,"Affordable_Housing_Max_Bedrooms":null,"Affordable_Housing_Max_Units_per_Building":null,"ADU_Employee_or_Family_Occupancy_Required":"No","ADU_Renter_Occupancy_Prohibited":"No","ADU_Owner_Occupancy_Required":"No","ADU_Elderly_Housing_Only":"No","ADU_Min_Lot_Size":null,"ADU_Min_Parking_Spaces":null,"ADU_Restricted_to_Primary_Structure":"No","ADU_Max_Size_as_Percent_of_Primary_Strcture":50,"ADU_Max_Size_in_sq_ft":null,"ADU_Max_Bedrooms":1,"PRD_Mobile_or_Manufactured_Home_Park":"No","PRD_Min_Lot_Size":null,"PRD_Max_Density":null,"PRD_Max_Units":null,"PUD_Required_with_Subdivision":"F","PUD_Threshold_Number":null,"PUD_Allowance":"Yes","PUD_Requires_Land_Conservation":"T","Base_Density":null,"CONDITIONAL_1F_Min_Lot":null,"CONDITIONAL_1F_Front_Setback":null,"CONDITIONAL_1F_Side_Setback":null,"CONDITIONAL_1F_Rear_Setback":null,"CONDITIONAL_1F_Frontage":null,"CONDITIONAL_1F_Max_Lot_Building_Coverage":null,"CONDITIONAL_1F_Max_Lot_Impervious_Coverage":null,"CONDITIONAL_1F_Min_Parking_Spaces":null,"CONDITIONAL_1F_Max_Stories":null,"CONDITIONAL_1F_Max_Height":null,"CONDITIONAL_1F_Floor_to_Area_Ratio":null,"CONDITIONAL_1F_Min_Unit_Size":null,"CONDITIONAL_2F_Affordable_Housing_Only":null,"CONDITIONAL_2F_Elderly_Housing_Only":null,"CONDITIONAL_2F_Min_Lot_Size":null,"CONDITIONAL_2F_Max_Density":null,"CONDITIONAL_2F_Front_Setback":null,"CONDITIONAL_2F_Side_Setback":null,"CONDITIONAL_2F_Rear_Setback":null,"CONDITIONAL_2F_Frontage":null,"CONDITIONAL_2F_Max_Lot_Building_Coverage":null,"CONDITIONAL_2F_Max_Lot_Impervious_Coverage":null,"CONDITIONAL_2F_Min_Parking_Spaces_per_1BR":null,"CONDITIONAL_2F_Min_Parking_Spaces_per_mult_BR":null,"CONDITIONAL_2F_Max_Stories":null,"CONDITIONAL_2F_Max_Height":null,"CONDITIONAL_2F_Floor_to_Area_Ratio":null,"CONDITIONAL_2F_Min_Unit_Size":null,"CONDITIONAL_3F_Affordable_Housing_Only":null,"CONDITIONAL_3F_Elderly_Housing_Only":null,"CONDITIONAL_3F_Min_Lot_Size":null,"CONDITIONAL_3F_Max_Density":null,"CONDITIONAL_3F_Front_Setback":null,"CONDITIONAL_3F_Side_Setback":null,"CONDITIONAL_3F_Rear_Setback":null,"CONDITIONAL_3F_Frontage":null,"CONDITIONAL_3F_Max_Lot_Building_Coverage":null,"CONDITIONAL_3F_Max_Lot_Impervious_Coverage":null,"CONDITIONAL_3F_Min_Parking_Spaces_per_1BR":null,"CONDITIONAL_3F_Min_Parking_Spaces_per_mult_BR":null,"CONDITIONAL_3F_Connection_to_Sewage_Water_Required":null,"CONDITIONAL_3F_Proximity_to_Public_Transit_Required":null,"CONDITIONAL_3F_Max_Stories":null,"CONDITIONAL_3F_Max_Height":null,"CONDITIONAL_3F_Floor_to_Area_Ratio":null,"CONDITIONAL_3F_Min_Unit_Size":null,"CONDITIONAL_3F_Max_Bedrooms":null,"CONDITIONAL_4F_Affordable_Housing_Only":null,"CONDITIONAL_4F_Elderly_Housing_Only":null,"CONDITIONAL_4F_Min_Lot_Size":null,"CONDITIONAL_4F_Max_Density":null,"CONDITIONAL_4F_Front_Setback":null,"CONDITIONAL_4F_Side_Setback":null,"CONDITIONAL_4F_Rear_Setback":null,"CONDITIONAL_4F_Frontage":null,"CONDITIONAL_4F_Max_Lot_Building_Coverage":null,"CONDITIONAL_4F_Max_Lot_Impervious_Coverage":null,"CONDITIONAL_4F_Min_Parking_Spaces_per_1BR":null,"CONDITIONAL_4F_Min_Parking_Spaces_per__mult_BR":null,"CONDITIONAL_4F_Connection_to_Sewage_Water_Required":null,"CONDITIONAL_4F_Proximity_to_Public_Transit_Required":null,"CONDITIONAL_4F_Max_Stories":null,"CONDITIONAL_4F_Max_Height":null,"CONDITIONAL_4F_Floor_to_Area_Ratio":null,"CONDITIONAL_4F_Min_Unit_Size":null,"CONDITIONAL_4F_Max_Bedrooms":null,"CONDITIONAL_4F_Max_Units_per_Building":null,"CONDITIONAL_5F_Affordable_Housing_Only":null,"CONDITIONAL_5F_Elderly_Housing_Only":null,"CONDITIONAL_5F_Min_Lot_Size":null,"CONDITIONAL_5F_Max_Density":null,"CONDITIONAL_5F_Front_Setback":null,"CONDITIONAL_5F_Side_Setback":null,"CONDITIONAL_5F_Rear_Setback":null,"CONDITIONAL_5F_Frontage":null,"CONDITIONAL_5F_Max_Lot_Building_Coverage":null,"CONDITIONAL_5F_Max__Lot_Impervious_Coverage":null,"CONDITIONAL_5F_Min_Parking_Spaces_per_1BR":null,"CONDITIONAL_5F_Min_Parking_Spaces_per_mult_BR":null,"CONDITIONAL_5F_Connection_to_Sewage_Water_Required":null,"CONDITIONAL_5F_Proximity_to_Public_Transit_Required":null,"CONDITIONAL_5F_Max_Stories":null,"CONDITIONAL_5F_Max_Height":null,"CONDITIONAL_5F_Floor_to_Area_Ratio":null,"CONDITIONAL_5F_Min_Unit_Size":null,"CONDITIONAL_5F_Max_Bedrooms":null,"CONDITIONAL_5F_Max_Units_per_Building":null,"CONDITIONAL_Affordable_Housing_Definition":null,"CONDITIONAL_Affordable_Housing_Elderly_Only":null,"CONDITIONAL_Affordable_Housing_Min_Lot_Size":null,"CONDITIONAL_Affordable_Housing_Max_Density":null,"CONDITIONAL_Affordable_Housing_Min_Parking_Spaces_per_1BR":null,"CONDITIONAL_Affordable_Housing_Min_Parking_Spaces_per_mult_BR":null,"CONDITIONAL_Affordable_Housing_Min_Unit_Size":null,"CONDITIONAL_Affordable_Housing_Max_Bedrooms":null,"CONDITIONAL_Affordable_Housing_Max_Units_per_Building":null,"CONDITIONAL_ADU_Employee_or_Family_Occupancy_Required":null,"CONDITIONAL_ADU_Renter_Occupancy_Prohibited":null,"CONDITIONAL_ADU_Owner_Occupancy_Required":null,"CONDITIONAL_ADU_Elderly_Housing_Only":null,"CONDITIONAL_ADU_Min_Lot_Size":null,"CONDITIONAL_ADU_Min_Parking_Spaces":null,"CONDITIONAL_ADU_Restricted_to_Primary_Structure":null,"CONDITIONAL_ADU_Max_Size_as_Percent_of_Primary_Strcture":null,"CONDITIONAL_ADU_Max_Size_in_sq_ft":null,"CONDITIONAL_ADU_Max_Bedrooms":null,"CONDITIONAL_PRD_Mobile_or_Manufactured_Home_Park":null,"CONDITIONAL_PRD_Min_Lot_Size":null,"CONDITIONAL_PRD_Max_Density":null,"CONDITIONAL_PRD_Max_Units":null,"CONDITIONAL_PUD_Required_with_Subdivision":null,"CONDITIONAL_PUD_Threshold_Number":null,"CONDITIONAL_PUD_Allowance":null,"CONDITIONAL_PUD_Requires_Land_Conservation":null,"Bylaw_Date":"2024-05-27","RPC":"WRC","Version":1,"Acres":269.09121007479769,"Shape_Length":0.043067250280011474,"Shape_Area":0.00011980975009491736}}]}