{
  "type": "FeatureCollection",
  "features": [
    {
      "type": "Feature",
      "id": 0,
      "geometry": {
        "type": "Polygon",
        "coordinates": [
          [
            [
              -72.75413349818642,
              43.23686233595301
            ],
            [
              -72.75392085423707,
              43.239008575432834
            ],
            [
              -72.75682319827382,
              43.23969470503404
            ],
            [
              -72.756829730863,
              43.2396964042399
            ],
            [
              -72.78157379710669,
              43.24612779746674
            ],
            [
              -72.78361674139313,
              43.24309080289983
            ],
            [
              -72.78005571344124,
              43.23831996087108
            ],
            [
              -72.77920145384121,
              43.23804061301635
            ],
            [
              -72.7792390100721,
              43.23792364409223
            ],
            [
              -72.77940251075488,
              43.23707830585198
            ],
            [
              -72.7793807196759,
              43.23626647137914
            ],
            [
              -72.77916678136833,
              43.235418186468806
            ],
            [
              -72.77880879839084,
              43.23487116833402
            ],
            [
              -72.77827588901248,
              43.23434939792724
            ],
            [
              -72.77798079517025,
              43.23400827146182
            ],
            [
              -72.77773615077105,
              43.23359276079591
            ],
            [
              -72.77754151327741,
              43.23309055874569
            ],
            [
              -72.77734224058587,
              43.23275320728385
            ],
            [
              -72.77708687830146,
              43.23243258727486
            ],
            [
              -72.77663546465216,
              43.232314551126976
            ],
            [
              -72.7761411332006,
              43.2324891635426
            ],
            [
              -72.7755732821997,
              43.232655723627445
            ],
            [
              -72.77497738109959,
              43.23283064584165
            ],
            [
              -72.77387596115088,
              43.233262685358525
            ],
            [
              -72.77275704653219,
              43.2335710555177
            ],
            [
              -72.77196360660814,
              43.23370951343574
            ],
            [
              -72.77117681147116,
              43.23395913133432
            ],
            [
              -72.77043430929514,
              43.234134518592626
            ],
            [
              -72.76972653242704,
              43.2344210003869
            ],
            [
              -72.76909708791312,
              43.23467431229938
            ],
            [
              -72.7690621412103,
              43.23468852945186
            ],
            [
              -72.76825226307118,
              43.234417856243894
            ],
            [
              -72.76355066518788,
              43.23372491440148
            ],
            [
              -72.75859579866705,
              43.227153144379876
            ],
            [
              -72.75832019561216,
              43.220279329730694
            ],
            [
              -72.75908720907867,
              43.21593185795984
            ],
            [
              -72.75969261101582,
              43.20986651925204
            ],
            [
              -72.76044517017404,
              43.20488586489763
            ],
            [
              -72.76170865237292,
              43.2032421101607
            ],
            [
              -72.76199749234503,
              43.20298673493979
            ],
            [
              -72.7629726648006,
              43.20227499776355
            ],
            [
              -72.76425828419607,
              43.20169010371209
            ],
            [
              -72.76560134714128,
              43.20132341720746
            ],
            [
              -72.76691757172037,
              43.20115459963742
            ],
            [
              -72.76796879803345,
              43.200883434302874
            ],
            [
              -72.76820272805747,
              43.200829087844454
            ],
            [
              -72.76944150834161,
              43.20054108371935
            ],
            [
              -72.7706447005404,
              43.20029428896951
            ],
            [
              -72.77156615389544,
              43.19998647606349
            ],
            [
              -72.77264438147168,
              43.19957103936644
            ],
            [
              -72.77347453646219,
              43.19905744928571
            ],
            [
              -72.7742252695491,
              43.19849882634333
            ],
            [
              -72.77552020495966,
              43.197633470296054
            ],
            [
              -72.77641132566733,
              43.19700838953701
            ],
            [
              -72.77695372487734,
              43.196388505905134
            ],
            [
              -72.77733983338027,
              43.195134464237746
            ],
            [
              -72.77741464163712,
              43.19450375588586
            ],
            [
              -72.77760725168994,
              43.19382311296699
            ],
            [
              -72.77817164743432,
              43.193145504444445
            ],
            [
              -72.77827978831375,
              43.19240747037859
            ],
            [
              -72.77841325473088,
              43.19123659934869
            ],
            [
              -72.77840815765478,
              43.190453550257686
            ],
            [
              -72.77860591282325,
              43.18964103501219
            ],
            [
              -72.77881388149655,
              43.18870894270938
            ],
            [
              -72.77898629714512,
              43.18748438845204
            ],
            [
              -72.77915596978077,
              43.187008863225735
            ],
            [
              -72.77935714082584,
              43.1864447228473
            ],
            [
              -72.77964222894688,
              43.18523212770729
            ],
            [
              -72.77969090998828,
              43.18486491622478
            ],
            [
              -72.77978716041792,
              43.1841395666717
            ],
            [
              -72.77976536686977,
              43.183323646163494
            ],
            [
              -72.77986824462762,
              43.18177787647349
            ],
            [
              -72.77993675491334,
              43.18103993542263
            ],
            [
              -72.78001021045513,
              43.18020718532433
            ],
            [
              -72.78017783880838,
              43.179122795579744
            ],
            [
              -72.7802115195493,
              43.17816651194887
            ],
            [
              -72.78026159425889,
              43.17718135610676
            ],
            [
              -72.78023771041762,
              43.17607689858581
            ],
            [
              -72.78030418428546,
              43.17498044780725
            ],
            [
              -72.780330957721,
              43.173859340752585
            ],
            [
              -72.78026728080269,
              43.172709762692904
            ],
            [
              -72.78011178441182,
              43.17123072621335
            ],
            [
              -72.78011516957012,
              43.16995313361445
            ],
            [
              -72.78028278761195,
              43.168872819502
            ],
            [
              -72.78032622346531,
              43.16769808246409
            ],
            [
              -72.78041199811275,
              43.16704251872653
            ],
            [
              -72.78050183233735,
              43.1660984724753
            ],
            [
              -72.78087854255283,
              43.16427565023392
            ],
            [
              -72.7815311129959,
              43.16244792690176
            ],
            [
              -72.78193257074808,
              43.161004229468766
            ],
            [
              -72.78220514698774,
              43.15961450558018
            ],
            [
              -72.7823274606538,
              43.1584724836997
            ],
            [
              -72.78255206328714,
              43.15751565445998
            ],
            [
              -72.78263259235003,
              43.156897231378096
            ],
            [
              -72.78245247696451,
              43.155999348623155
            ],
            [
              -72.78212628799467,
              43.15508544107987
            ],
            [
              -72.78169255296837,
              43.15409352510788
            ],
            [
              -72.78143799918867,
              43.15296100967949
            ],
            [
              -72.78080378724587,
              43.15139277881598
            ],
            [
              -72.78066824984033,
              43.150404064268024
            ],
            [
              -72.78044147382467,
              43.14920551333964
            ],
            [
              -72.78032821179472,
              43.148212593683276
            ],
            [
              -72.78022215365193,
              43.14745053381752
            ],
            [
              -72.78021772579858,
              43.14673337228813
            ],
            [
              -72.78065850859643,
              43.146175670652774
            ],
            [
              -72.78134615256424,
              43.14550174790178
            ],
            [
              -72.78171981994741,
              43.144430763476116
            ],
            [
              -72.77296642429259,
              43.142137282553286
            ],
            [
              -72.77141953322091,
              43.141722029753936
            ],
            [
              -72.77256292201903,
              43.147906815328355
            ],
            [
              -72.77337094915414,
              43.152311515213704
            ],
            [
              -72.77335077956744,
              43.153910061000154
            ],
            [
              -72.77256169333761,
              43.15479598679386
            ],
            [
              -72.77159628748196,
              43.15690743777319
            ],
            [
              -72.77058482900749,
              43.16202829661238
            ],
            [
              -72.77027577904663,
              43.16556240504229
            ],
            [
              -72.76744139641445,
              43.16782116127114
            ],
            [
              -72.76693536330215,
              43.16906797601702
            ],
            [
              -72.76536369496517,
              43.16963917900639
            ],
            [
              -72.7653316182423,
              43.17163282267719
            ],
            [
              -72.76703047739962,
              43.17342692740412
            ],
            [
              -72.76701661615186,
              43.17447977878442
            ],
            [
              -72.7639817419682,
              43.175460516759955
            ],
            [
              -72.76426722212642,
              43.17837302072931
            ],
            [
              -72.7650012524921,
              43.179931647742386
            ],
            [
              -72.76538295592074,
              43.18093245220545
            ],
            [
              -72.76401008012476,
              43.182837469229476
            ],
            [
              -72.76135909222455,
              43.18368960837017
            ],
            [
              -72.75993565331729,
              43.18676812821116
            ],
            [
              -72.75690513485524,
              43.188666099562525
            ],
            [
              -72.75435066671318,
              43.18944215700334
            ],
            [
              -72.75322709861076,
              43.190865627077116
            ],
            [
              -72.75059578107748,
              43.19354981798743
            ],
            [
              -72.74214007904777,
              43.202561599142555
            ],
            [
              -72.74076609060455,
              43.20330108965731
            ],
            [
              -72.74041496277556,
              43.20419189579593
            ],
            [
              -72.74050801313115,
              43.20523173071218
            ],
            [
              -72.73949394310735,
              43.20642826464994
            ],
            [
              -72.73833733093363,
              43.2068340372834
            ],
            [
              -72.73764501868322,
              43.20759448222844
            ],
            [
              -72.73602339818642,
              43.20862274663206
            ],
            [
              -72.7369431752094,
              43.21028422904224
            ],
            [
              -72.7377531661082,
              43.210979442726426
            ],
            [
              -72.73850179235595,
              43.211744629957956
            ],
            [
              -72.73794996923523,
              43.21256833262586
            ],
            [
              -72.73793646368394,
              43.21352620807824
            ],
            [
              -72.7381884364814,
              43.21442457043058
            ],
            [
              -72.73824886872727,
              43.21534250426076
            ],
            [
              -72.73791239249813,
              43.21623011894333
            ],
            [
              -72.73723109653727,
              43.2170035893766
            ],
            [
              -72.73614524853271,
              43.21755933590552
            ],
            [
              -72.73574732207913,
              43.21841727587574
            ],
            [
              -72.73532561261753,
              43.2197827646898
            ],
            [
              -72.73521522698442,
              43.22029221866532
            ],
            [
              -72.73951408993597,
              43.222481019394436
            ],
            [
              -72.74615108677732,
              43.22714311525871
            ],
            [
              -72.75106487496949,
              43.23190629680626
            ],
            [
              -72.75413349818642,
              43.23686233595301
            ]
          ]
        ]
      },
      "properties": {
        "OBJECTID": 0,
        "Abbreviated_District_Name": "RCO",
        "Shape_Length": 0,
        "Shape_Area": 0,
        "County": "Windham",
        "Jurisdiction_District_Name": "Londonderry"
      }
    },
    {
      "type": "Feature",
      "id": 0,
      "geometry": {
        "type": "MultiPolygon",
        "coordinates": [
          [
            [
              [
                -72.74823720788572,
                43.233486352982375
              ],
              [
                -72.74930953354126,
                43.235075137484365
              ],
              [
                -72.7509327389027,
                43.235607372787555
              ],
              [
                -72.75209272566903,
                43.23688745558649
              ],
              [
                -72.7531843943894,
                43.23774554646147
              ],
              [
                -72.75453899301549,
                43.237742540445666
              ],
              [
                -72.75478110044199,
                43.23722245328868
              ],
              [
                -72.75457935062543,
                43.236768298622714
              ],
              [
                -72.75346749403751,
                43.236397342200554
              ],
              [
                -72.75257589849315,
                43.23558752081898
              ],
              [
                -72.75206175283871,
                43.2347606245374
              ],
              [
                -72.75154762236379,
                43.233933726687965
              ],
              [
                -72.75067882549087,
                43.23325372717044
              ],
              [
                -72.74945351604573,
                43.23226601689501
              ],
              [
                -72.74823720788572,
                43.233486352982375
              ]
            ]
          ],
          [
            [
              [
                -72.84592228510915,
                43.25970552856156
              ],
              [
                -72.84658701174878,
                43.25987301809146
              ],
              [
                -72.84710221770997,
                43.260467634253004
              ],
              [
                -72.84759280988959,
                43.26095126998318
              ],
              [
                -72.84822096057114,
                43.26113680717806
              ],
              [
                -72.84826736356901,
                43.26039446263595
              ],
              [
                -72.84780199505282,
                43.26005161762942
              ],
              [
                -72.8466663409128,
                43.25948427585859
              ],
              [
                -72.84525914408859,
                43.25923167610357
              ],
              [
                -72.84461025960539,
                43.25842025696962
              ],
              [
                -72.84285214681478,
                43.25825430270768
              ],
              [
                -72.84126967874255,
                43.25807352853601
              ],
              [
                -72.83767721916803,
                43.25806991967639
              ],
              [
                -72.83630961052839,
                43.257902711436245
              ],
              [
                -72.83538682430297,
                43.256963617250925
              ],
              [
                -72.83440401396889,
                43.2557535652294
              ],
              [
                -72.83324904039976,
                43.255186146220424
              ],
              [
                -72.83154667796225,
                43.254477604994534
              ],
              [
                -72.82828562422482,
                43.254344311726264
              ],
              [
                -72.82810631912568,
                43.25367414793951
              ],
              [
                -72.82855088579767,
                43.25284522540054
              ],
              [
                -72.82798030282028,
                43.25201921696995
              ],
              [
                -72.82682126149618,
                43.25066690630438
              ],
              [
                -72.82633310041943,
                43.24991371464794
              ],
              [
                -72.82590632256165,
                43.249540492540646
              ],
              [
                -72.82506629475091,
                43.248985790863635
              ],
              [
                -72.82381298854673,
                43.2482404677022
              ],
              [
                -72.82314717694446,
                43.247548268728586
              ],
              [
                -72.82218967484515,
                43.24602809873918
              ],
              [
                -72.82175550350041,
                43.24513032421827
              ],
              [
                -72.82042210502527,
                43.2439782147228
              ],
              [
                -72.82033737371903,
                43.24270844097029
              ],
              [
                -72.82044842945145,
                43.24155227732693
              ],
              [
                -72.82003390900273,
                43.24066871045508
              ],
              [
                -72.81930673885796,
                43.239714666151436
              ],
              [
                -72.81738516279994,
                43.23802190807284
              ],
              [
                -72.81733887037447,
                43.236623595305815
              ],
              [
                -72.81717370590344,
                43.23488313704036
              ],
              [
                -72.81662111363974,
                43.23370027363116
              ],
              [
                -72.81530603311191,
                43.232248385458526
              ],
              [
                -72.81409078903978,
                43.231224301718406
              ],
              [
                -72.81367482126632,
                43.23002677810912
              ],
              [
                -72.81453002808549,
                43.22935374796778
              ],
              [
                -72.81567719634431,
                43.22853720892574
              ],
              [
                -72.81713204898209,
                43.226849345397895
              ],
              [
                -72.81820011656073,
                43.225847491876365
              ],
              [
                -72.81877808697958,
                43.22441889956
              ],
              [
                -72.82025338975033,
                43.222944985505464
              ],
              [
                -72.82047782346503,
                43.22108927832852
              ],
              [
                -72.821098839736,
                43.22044539392514
              ],
              [
                -72.82195278011311,
                43.21957253339186
              ],
              [
                -72.82237399010114,
                43.2180444732656
              ],
              [
                -72.82305054851601,
                43.21684389806752
              ],
              [
                -72.82357047191644,
                43.21554387162718
              ],
              [
                -72.82411161911651,
                43.21457198928868
              ],
              [
                -72.82418368841192,
                43.213444466866704
              ],
              [
                -72.82406028407944,
                43.21224614791564
              ],
              [
                -72.82397711131627,
                43.21127603241714
              ],
              [
                -72.8242290632566,
                43.21096138160384
              ],
              [
                -72.82463723413008,
                43.21067482709203
              ],
              [
                -72.82551687157635,
                43.211000533789694
              ],
              [
                -72.82651600790196,
                43.21178252999224
              ],
              [
                -72.8273592474101,
                43.21259350179917
              ],
              [
                -72.82826165097,
                43.213518457702634
              ],
              [
                -72.82863700812905,
                43.2143878405703
              ],
              [
                -72.83047740972155,
                43.215581207048736
              ],
              [
                -72.83104058190665,
                43.21509440360539
              ],
              [
                -72.83160676183404,
                43.21516411397173
              ],
              [
                -72.8324282794147,
                43.21554701575209
              ],
              [
                -72.83282283101373,
                43.216344980497276
              ],
              [
                -72.83380069106663,
                43.21677022653218
              ],
              [
                -72.83370967457026,
                43.21796915961476
              ],
              [
                -72.83492365334443,
                43.218750453551536
              ],
              [
                -72.8352793118255,
                43.219562793220824
              ],
              [
                -72.83599355908476,
                43.22171544315722
              ],
              [
                -72.83744249822487,
                43.22262444858796
              ],
              [
                -72.83819130959206,
                43.22394933185747
              ],
              [
                -72.84035448028688,
                43.22695385068674
              ],
              [
                -72.84153471308566,
                43.22863417267182
              ],
              [
                -72.84381338187306,
                43.23129580279204
              ],
              [
                -72.84446070764614,
                43.23327187034416
              ],
              [
                -72.84579981202059,
                43.23381883686699
              ],
              [
                -72.84725000343488,
                43.23439893493024
              ],
              [
                -72.8486273438423,
                43.23481557977195
              ],
              [
                -72.8498788295824,
                43.23490632805157
              ],
              [
                -72.84991601982391,
                43.23433192572761
              ],
              [
                -72.8496716048858,
                43.234298040067046
              ],
              [
                -72.84898286796687,
                43.23407803648511
              ],
              [
                -72.84800481799836,
                43.23367589029934
              ],
              [
                -72.84691547340546,
                43.23320430046831
              ],
              [
                -72.84556272045016,
                43.23253257608944
              ],
              [
                -72.84548442703048,
                43.23193918865135
              ],
              [
                -72.84506891113114,
                43.2313468187826
              ],
              [
                -72.8436983413884,
                43.22971619456647
              ],
              [
                -72.84214265255592,
                43.22846967934142
              ],
              [
                -72.84137673512284,
                43.22774135287021
              ],
              [
                -72.84141185707632,
                43.22732114444522
              ],
              [
                -72.84254773745332,
                43.227208156344936
              ],
              [
                -72.8435965511093,
                43.227159347648445
              ],
              [
                -72.84515633250481,
                43.22744982125028
              ],
              [
                -72.84694748099999,
                43.22757299143342
              ],
              [
                -72.84840349671828,
                43.22779651801599
              ],
              [
                -72.84930067966644,
                43.228138632739665
              ],
              [
                -72.8502145637039,
                43.228481399489645
              ],
              [
                -72.85024327219399,
                43.22788467360395
              ],
              [
                -72.8495773960506,
                43.22760589953148
              ],
              [
                -72.84860111717549,
                43.22728576377642
              ],
              [
                -72.84667806351966,
                43.226912565836464
              ],
              [
                -72.84466393950517,
                43.22660649877593
              ],
              [
                -72.8424988831494,
                43.22656840802185
              ],
              [
                -72.84123141050884,
                43.22673719121882
              ],
              [
                -72.83987195616639,
                43.22440098561429
              ],
              [
                -72.83871160106787,
                43.222763396324346
              ],
              [
                -72.83849017387513,
                43.22153684608685
              ],
              [
                -72.83643386601827,
                43.22017300677435
              ],
              [
                -72.83576021006955,
                43.21830563648744
              ],
              [
                -72.83450322924475,
                43.216796714549105
              ],
              [
                -72.83310942963502,
                43.21523109766667
              ],
              [
                -72.8319932481802,
                43.214478039336775
              ],
              [
                -72.82986189988151,
                43.213599473177524
              ],
              [
                -72.82866453247527,
                43.212247283233644
              ],
              [
                -72.82858189959114,
                43.211391327985126
              ],
              [
                -72.82947669902293,
                43.21090357983612
              ],
              [
                -72.82952254922604,
                43.20854891860178
              ],
              [
                -72.82810695759693,
                43.20649812520933
              ],
              [
                -72.82708083267799,
                43.20430350206115
              ],
              [
                -72.82541260260138,
                43.20239609444783
              ],
              [
                -72.82425108941081,
                43.20038733822079
              ],
              [
                -72.82371569055081,
                43.198733546586055
              ],
              [
                -72.82213294085192,
                43.198195758053764
              ],
              [
                -72.82101368981759,
                43.19677191390442
              ],
              [
                -72.81944679698971,
                43.19552054822941
              ],
              [
                -72.81838676196509,
                43.19421067108867
              ],
              [
                -72.8168603226653,
                43.193216015441365
              ],
              [
                -72.81453123784645,
                43.19162421172121
              ],
              [
                -72.81231674177724,
                43.189532600728874
              ],
              [
                -72.81049451961523,
                43.18785370930792
              ],
              [
                -72.80933939369854,
                43.18695783352869
              ],
              [
                -72.8078575907978,
                43.18701890988576
              ],
              [
                -72.80621620796687,
                43.18636689780267
              ],
              [
                -72.80451252795487,
                43.18494445177409
              ],
              [
                -72.80339477738234,
                43.183691667110175
              ],
              [
                -72.80262792757726,
                43.182409403397514
              ],
              [
                -72.80199908271321,
                43.18142643956507
              ],
              [
                -72.80173884343226,
                43.18005721124353
              ],
              [
                -72.80149930833352,
                43.17893051753789
              ],
              [
                -72.80073556960158,
                43.178261839534215
              ],
              [
                -72.79989015385368,
                43.17683706332845
              ],
              [
                -72.8000972943039,
                43.17533817484458
              ],
              [
                -72.8001889103493,
                43.17413925776078
              ],
              [
                -72.79985452690877,
                43.17354079659146
              ],
              [
                -72.7993031772114,
                43.17242918299092
              ],
              [
                -72.79900237529488,
                43.170717573697615
              ],
              [
                -72.79887864966973,
                43.1693337092889
              ],
              [
                -72.79884962275692,
                43.16737879870654
              ],
              [
                -72.79835447058457,
                43.16578185301611
              ],
              [
                -72.79770214496196,
                43.163928454714224
              ],
              [
                -72.7975199130041,
                43.162530469238924
              ],
              [
                -72.7973507105194,
                43.16060160627381
              ],
              [
                -72.79786966446046,
                43.15956825019228
              ],
              [
                -72.79847894919946,
                43.159155686601615
              ],
              [
                -72.79987683118662,
                43.159289023310535
              ],
              [
                -72.80135338543367,
                43.16019842412814
              ],
              [
                -72.80301810883348,
                43.16130822841038
              ],
              [
                -72.80449611767365,
                43.162491567248516
              ],
              [
                -72.80546909238353,
                43.162461575702764
              ],
              [
                -72.80682972901377,
                43.16261319272314
              ],
              [
                -72.80786554192916,
                43.16267433925612
              ],
              [
                -72.80908922958996,
                43.16288109472444
              ],
              [
                -72.80981481400059,
                43.16327184180873
              ],
              [
                -72.8111495533446,
                43.16323168882551
              ],
              [
                -72.81209595677788,
                43.162882064700234
              ],
              [
                -72.81348068371167,
                43.16286001409546
              ],
              [
                -72.81464084255684,
                43.16283856361267
              ],
              [
                -72.8154776167885,
                43.163009783123144
              ],
              [
                -72.81681253509556,
                43.163006094555904
              ],
              [
                -72.81742692690806,
                43.16359802284817
              ],
              [
                -72.81832856504747,
                43.16424394584496
              ],
              [
                -72.81957865206677,
                43.1647153661808
              ],
              [
                -72.82051584793624,
                43.16499586110845
              ],
              [
                -72.82131873364682,
                43.16583382558818
              ],
              [
                -72.82200546527251,
                43.16593235571875
              ],
              [
                -72.82315811376439,
                43.16684238413029
              ],
              [
                -72.82468427885009,
                43.16759608469523
              ],
              [
                -72.82564571988608,
                43.167730343973844
              ],
              [
                -72.82656759433227,
                43.16746286507596
              ],
              [
                -72.82745456661331,
                43.16767038446455
              ],
              [
                -72.82803299589014,
                43.16850894356241
              ],
              [
                -72.82917139209027,
                43.16906277366028
              ],
              [
                -72.82973733142707,
                43.169892226899826
              ],
              [
                -72.83021304210111,
                43.17018310410762
              ],
              [
                -72.83060264667292,
                43.170702547534006
              ],
              [
                -72.83119342699801,
                43.1715045235769
              ],
              [
                -72.83189840398691,
                43.17265321020511
              ],
              [
                -72.83190409148764,
                43.173703462337144
              ],
              [
                -72.83230942883232,
                43.174816484830835
              ],
              [
                -72.83235231229715,
                43.17582096466652
              ],
              [
                -72.83250775150343,
                43.17687078197479
              ],
              [
                -72.83222633743544,
                43.177903601453046
              ],
              [
                -72.83243239098424,
                43.1790811299742
              ],
              [
                -72.8327377414398,
                43.180157908605665
              ],
              [
                -72.83389966422651,
                43.180401108380345
              ],
              [
                -72.83480317066069,
                43.18131174382198
              ],
              [
                -72.83546511484944,
                43.18226075365342
              ],
              [
                -72.83664034595591,
                43.18321338750847
              ],
              [
                -72.83771402228452,
                43.183424272042544
              ],
              [
                -72.83843875389232,
                43.18400719813351
              ],
              [
                -72.83890865330036,
                43.184348285824754
              ],
              [
                -72.83891236345359,
                43.18501896113346
              ],
              [
                -72.83878375075687,
                43.18644633494606
              ],
              [
                -72.83901505643371,
                43.18694338449377
              ],
              [
                -72.84030381734564,
                43.187524054981616
              ],
              [
                -72.8413186828529,
                43.188224253669325
              ],
              [
                -72.84285609185682,
                43.18862149738312
              ],
              [
                -72.84396690612834,
                43.1886181631434
              ],
              [
                -72.8451823027325,
                43.18945471549157
              ],
              [
                -72.84647329264668,
                43.190409752081756
              ],
              [
                -72.84724646614448,
                43.190288681806784
              ],
              [
                -72.84837707917731,
                43.18937197033172
              ],
              [
                -72.84922819500957,
                43.18978948187508
              ],
              [
                -72.85017369202568,
                43.18924775928383
              ],
              [
                -72.8510340037661,
                43.18908986676114
              ],
              [
                -72.85220481572473,
                43.188666162008694
              ],
              [
                -72.85276414865109,
                43.18826259724723
              ],
              [
                -72.85377410469441,
                43.18808595674442
              ],
              [
                -72.85441306269426,
                43.188504085637604
              ],
              [
                -72.85491516044455,
                43.18899569716605
              ],
              [
                -72.85525967220016,
                43.190291478673224
              ],
              [
                -72.8553544057753,
                43.19156063527368
              ],
              [
                -72.85633169288707,
                43.19219688827255
              ],
              [
                -72.8573084674978,
                43.192741806165984
              ],
              [
                -72.85893828233256,
                43.1939604919108
              ],
              [
                -72.86007898874414,
                43.19477885356727
              ],
              [
                -72.86118426923558,
                43.195935227038795
              ],
              [
                -72.86212542734685,
                43.19677246360503
              ],
              [
                -72.8626210303523,
                43.19695605175979
              ],
              [
                -72.8626737979097,
                43.19608766740402
              ],
              [
                -72.86227019442101,
                43.19592266069256
              ],
              [
                -72.86142863869044,
                43.1950394469037
              ],
              [
                -72.8609999317459,
                43.194310181682845
              ],
              [
                -72.8605839336449,
                43.193617405468885
              ],
              [
                -72.85964488313408,
                43.193127192764834
              ],
              [
                -72.8589815740621,
                43.19282789600603
              ],
              [
                -72.85829882100373,
                43.19213766006917
              ],
              [
                -72.85784667292604,
                43.19152546922039
              ],
              [
                -72.85733511046955,
                43.19075649306084
              ],
              [
                -72.85692123858193,
                43.19001574903726
              ],
              [
                -72.85705467566125,
                43.18948734604496
              ],
              [
                -72.85722719634651,
                43.18897309000306
              ],
              [
                -72.85608424467503,
                43.188279710782346
              ],
              [
                -72.85530719320943,
                43.1877250289666
              ],
              [
                -72.85445564103824,
                43.18723450133951
              ],
              [
                -72.85390142322889,
                43.1863594730946
              ],
              [
                -72.85382019222459,
                43.18586582516574
              ],
              [
                -72.85360644467492,
                43.184814392449105
              ],
              [
                -72.85405750246262,
                43.184082377367496
              ],
              [
                -72.8544699657624,
                43.18358427804145
              ],
              [
                -72.85503340033607,
                43.182951274824894
              ],
              [
                -72.85526258662004,
                43.182529725606855
              ],
              [
                -72.85522687591718,
                43.181881045254414
              ],
              [
                -72.85560005952853,
                43.18149996358487
              ],
              [
                -72.8566941333533,
                43.18147317822201
              ],
              [
                -72.85751723128351,
                43.181546593590525
              ],
              [
                -72.85859844360392,
                43.1820517215217
              ],
              [
                -72.85985535623976,
                43.1825504420039
              ],
              [
                -72.86055146896396,
                43.18275866973468
              ],
              [
                -72.8613425703366,
                43.18282046812251
              ],
              [
                -72.86162910638724,
                43.18265005893095
              ],
              [
                -72.86174621995102,
                43.18219378101641
              ],
              [
                -72.8617437698259,
                43.181778796523936
              ],
              [
                -72.8620141874232,
                43.18158505767141
              ],
              [
                -72.86251912859532,
                43.181881552042334
              ],
              [
                -72.86307289742018,
                43.18232985815622
              ],
              [
                -72.86350119703859,
                43.18267199046386
              ],
              [
                -72.86353176200932,
                43.182284141526154
              ],
              [
                -72.86330876127057,
                43.18187605609427
              ],
              [
                -72.8625442294188,
                43.18119352464596
              ],
              [
                -72.86158716542074,
                43.18092542418238
              ],
              [
                -72.86147421244353,
                43.181610737801265
              ],
              [
                -72.86064002182167,
                43.182341137253815
              ],
              [
                -72.86007428241369,
                43.182300109767574
              ],
              [
                -72.8588801260356,
                43.18150474529029
              ],
              [
                -72.85755033932385,
                43.18085249138501
              ],
              [
                -72.85589332581317,
                43.18092900740916
              ],
              [
                -72.854859952766,
                43.180946487323915
              ],
              [
                -72.85418028554544,
                43.181433771412735
              ],
              [
                -72.85389340045285,
                43.18240501509622
              ],
              [
                -72.85347074728513,
                43.18350510649398
              ],
              [
                -72.85228764743086,
                43.18462181029409
              ],
              [
                -72.85262317809982,
                43.185320003029595
              ],
              [
                -72.85301721829337,
                43.186018014172774
              ],
              [
                -72.85321938413358,
                43.187258873395834
              ],
              [
                -72.85117617605006,
                43.18803573881265
              ],
              [
                -72.84987479525357,
                43.18895300139034
              ],
              [
                -72.84868575764472,
                43.18905652109673
              ],
              [
                -72.84716146612736,
                43.18850462963778
              ],
              [
                -72.84581440484293,
                43.18825185041582
              ],
              [
                -72.84493370231117,
                43.18769798204642
              ],
              [
                -72.84414875779315,
                43.18682988051049
              ],
              [
                -72.84281917180967,
                43.18620599554625
              ],
              [
                -72.8429511236526,
                43.185392213931976
              ],
              [
                -72.84204859859341,
                43.18441029105748
              ],
              [
                -72.84075760974727,
                43.183700646766106
              ],
              [
                -72.83926889768648,
                43.182246638780114
              ],
              [
                -72.83678301804102,
                43.18037269272518
              ],
              [
                -72.83634348170634,
                43.178353339260845
              ],
              [
                -72.83543195834619,
                43.17706698128267
              ],
              [
                -72.83423144555022,
                43.175154363709076
              ],
              [
                -72.83345959273184,
                43.17327532294058
              ],
              [
                -72.83156036997426,
                43.17057077517454
              ],
              [
                -72.83118354868292,
                43.169387459176825
              ],
              [
                -72.8300874943978,
                43.1685915081054
              ],
              [
                -72.82826816531488,
                43.16742660479849
              ],
              [
                -72.82565053720468,
                43.166435187119355
              ],
              [
                -72.82219391333658,
                43.16528910527686
              ],
              [
                -72.82115555856099,
                43.16430739539805
              ],
              [
                -72.81850326871484,
                43.16410075997843
              ],
              [
                -72.81740555251749,
                43.162933671817925
              ],
              [
                -72.81629184459791,
                43.162437306126996
              ],
              [
                -72.81439857337095,
                43.1619716146446
              ],
              [
                -72.81330418168946,
                43.16143235712998
              ],
              [
                -72.8131248823284,
                43.16067653785185
              ],
              [
                -72.81380515819056,
                43.160289384376966
              ],
              [
                -72.81557451352808,
                43.15941404820868
              ],
              [
                -72.81689918639893,
                43.159253416968276
              ],
              [
                -72.81925582926118,
                43.158875845837244
              ],
              [
                -72.82165142748407,
                43.1584981166457
              ],
              [
                -72.82369403079404,
                43.15772177555022
              ],
              [
                -72.8262114114193,
                43.156824965495396
              ],
              [
                -72.82907339801537,
                43.157635080476204
              ],
              [
                -72.83097612873748,
                43.15732071650741
              ],
              [
                -72.82573000428296,
                43.15594912015673
              ],
              [
                -72.82528433911833,
                43.1562046459838
              ],
              [
                -72.82404081143883,
                43.15695021413602
              ],
              [
                -72.8228543773974,
                43.157438748268056
              ],
              [
                -72.82117972996058,
                43.15775740142849
              ],
              [
                -72.8194863905933,
                43.158233052240064
              ],
              [
                -72.81718603539402,
                43.15818237268771
              ],
              [
                -72.81529574924485,
                43.15827321741486
              ],
              [
                -72.81358314897881,
                43.15880591365684
              ],
              [
                -72.8121629055932,
                43.159337786957884
              ],
              [
                -72.81095690971677,
                43.15984052109669
              ],
              [
                -72.80906548375935,
                43.15971721631007
              ],
              [
                -72.80654916582955,
                43.15936723544731
              ],
              [
                -72.80416811823089,
                43.158774250543765
              ],
              [
                -72.80170472426715,
                43.15728242273
              ],
              [
                -72.80123271712331,
                43.15642746630071
              ],
              [
                -72.79986286967424,
                43.15531800400229
              ],
              [
                -72.79849258687655,
                43.15410863589095
              ],
              [
                -72.79729521178734,
                43.15237081168856
              ],
              [
                -72.79605617120063,
                43.150062281190976
              ],
              [
                -72.79604830914104,
                43.14818315933218
              ],
              [
                -72.79150793513259,
                43.146994354043464
              ],
              [
                -72.79157844153305,
                43.148329549329354
              ],
              [
                -72.79179655201293,
                43.14943045138181
              ],
              [
                -72.79248092242867,
                43.15009373532282
              ],
              [
                -72.79322411257289,
                43.151182899460665
              ],
              [
                -72.79423768137731,
                43.15241683963148
              ],
              [
                -72.79550835924597,
                43.15398262175208
              ],
              [
                -72.796623583174,
                43.15567348650807
              ],
              [
                -72.7968265107511,
                43.15654581244807
              ],
              [
                -72.7961928814112,
                43.15759695578437
              ],
              [
                -72.79537411019815,
                43.15852388041441
              ],
              [
                -72.79503760969689,
                43.159387209007825
              ],
              [
                -72.79455915781604,
                43.16025090292109
              ],
              [
                -72.79495964369136,
                43.160883727956396
              ],
              [
                -72.79516591680083,
                43.162452250545385
              ],
              [
                -72.795839534726,
                43.16379096164372
              ],
              [
                -72.79604624195197,
                43.165442609060044
              ],
              [
                -72.79616818774619,
                43.16717760428459
              ],
              [
                -72.79473781375695,
                43.16788789179386
              ],
              [
                -72.79526646555418,
                43.16859312158082
              ],
              [
                -72.79513000869622,
                43.169736492397625
              ],
              [
                -72.79437959733814,
                43.17015406883135
              ],
              [
                -72.79395614563536,
                43.17066432038697
              ],
              [
                -72.79469741505133,
                43.17129626909876
              ],
              [
                -72.79537047002043,
                43.17249989812335
              ],
              [
                -72.79572835205927,
                43.17311204632474
              ],
              [
                -72.7959356924533,
                43.17488838326452
              ],
              [
                -72.79625481875381,
                43.1762903507867
              ],
              [
                -72.79631598181781,
                43.177194215534016
              ],
              [
                -72.79658916550078,
                43.177900099379954
              ],
              [
                -72.79655180055622,
                43.178980866773074
              ],
              [
                -72.79753533096516,
                43.17976803376086
              ],
              [
                -72.7983209125601,
                43.18072196563702
              ],
              [
                -72.7990909496233,
                43.18139537330274
              ],
              [
                -72.79959116878483,
                43.18205909210303
              ],
              [
                -72.79976567711759,
                43.182900310923074
              ],
              [
                -72.80060762158554,
                43.18375016808654
              ],
              [
                -72.80039763367925,
                43.18436379107976
              ],
              [
                -72.79947780054697,
                43.18501044794214
              ],
              [
                -72.79824600083212,
                43.18575142950436
              ],
              [
                -72.79751153345609,
                43.18656384402889
              ],
              [
                -72.79679195227918,
                43.18752168848382
              ],
              [
                -72.79618504944015,
                43.188292198808895
              ],
              [
                -72.79555469365755,
                43.19009147905869
              ],
              [
                -72.79616915840165,
                43.19087960902343
              ],
              [
                -72.797366805332,
                43.191853259859926
              ],
              [
                -72.79748556580654,
                43.192912837251434
              ],
              [
                -72.79687892087763,
                43.19374569515157
              ],
              [
                -72.79593045493263,
                43.194382005464426
              ],
              [
                -72.79403027100724,
                43.194989584667965
              ],
              [
                -72.79262648678868,
                43.19546078002448
              ],
              [
                -72.7918366030911,
                43.196605811022465
              ],
              [
                -72.7911732816183,
                43.197490738444706
              ],
              [
                -72.79005495214764,
                43.19827290586255
              ],
              [
                -72.78860913711704,
                43.198889633132275
              ],
              [
                -72.78707783097524,
                43.19945460092987
              ],
              [
                -72.78638507881287,
                43.20014214438677
              ],
              [
                -72.7852848136913,
                43.20177628415137
              ],
              [
                -72.78442538123136,
                43.20328512135234
              ],
              [
                -72.7843035272351,
                43.20457390995328
              ],
              [
                -72.78424965200652,
                43.20520789571709
              ],
              [
                -72.78365541840262,
                43.20571853032756
              ],
              [
                -72.78229291511698,
                43.20597128459609
              ],
              [
                -72.77995197920838,
                43.206600497326576
              ],
              [
                -72.7775266112873,
                43.207416905055254
              ],
              [
                -72.77422221902512,
                43.20863023037653
              ],
              [
                -72.77138408721528,
                43.20930202254731
              ],
              [
                -72.76944098986456,
                43.210002812796425
              ],
              [
                -72.76785267707996,
                43.21063000256622
              ],
              [
                -72.76643484905745,
                43.21126716461046
              ],
              [
                -72.76560084161899,
                43.21222507633481
              ],
              [
                -72.76534954415995,
                43.213243977733626
              ],
              [
                -72.7660067908976,
                43.21410490367831
              ],
              [
                -72.76615477660506,
                43.21546578013974
              ],
              [
                -72.76411260216229,
                43.21631218413403
              ],
              [
                -72.7650969042927,
                43.21723470525156
              ],
              [
                -72.76598056418207,
                43.217876896030155
              ],
              [
                -72.76683913418145,
                43.219277679750405
              ],
              [
                -72.76618995623033,
                43.22028711781251
              ],
              [
                -72.76522763364542,
                43.221172586668466
              ],
              [
                -72.76435282280414,
                43.222587785952015
              ],
              [
                -72.76308860985077,
                43.22267382778292
              ],
              [
                -72.76272056809292,
                43.22299679420516
              ],
              [
                -72.76118637737373,
                43.22308343469483
              ],
              [
                -72.7613543968621,
                43.2225011564775
              ],
              [
                -72.7616061548038,
                43.22156539196598
              ],
              [
                -72.76035519506377,
                43.22142277231635
              ],
              [
                -72.7594557037055,
                43.220396108634525
              ],
              [
                -72.75833194385866,
                43.22008692133656
              ],
              [
                -72.757680647592,
                43.22062872160278
              ],
              [
                -72.75805247184441,
                43.22119938780409
              ],
              [
                -72.75914708495314,
                43.2213319965316
              ],
              [
                -72.76030119034101,
                43.22208791825184
              ],
              [
                -72.75878316157599,
                43.2226316934336
              ],
              [
                -72.75816758491518,
                43.22154203046745
              ],
              [
                -72.75789492323442,
                43.22258693938752
              ],
              [
                -72.75718285180486,
                43.22219888112168
              ],
              [
                -72.75640847488536,
                43.22283381948741
              ],
              [
                -72.75767913534995,
                43.224064893577214
              ],
              [
                -72.75732664159507,
                43.22471512283375
              ],
              [
                -72.75764013365394,
                43.225347617994565
              ],
              [
                -72.75919317506533,
                43.2250843352083
              ],
              [
                -72.75986854291118,
                43.227274649517895
              ],
              [
                -72.76162998832403,
                43.22900787497771
              ],
              [
                -72.76308004923582,
                43.230595667063724
              ],
              [
                -72.76412047968302,
                43.22986265503516
              ],
              [
                -72.76534125793835,
                43.22976241462517
              ],
              [
                -72.76553714371705,
                43.22885275040814
              ],
              [
                -72.76584297900536,
                43.22769929164586
              ],
              [
                -72.76574838506164,
                43.22636816769443
              ],
              [
                -72.76601001199269,
                43.225263518420576
              ],
              [
                -72.76625225553106,
                43.224808349244874
              ],
              [
                -72.7657628276836,
                43.224582184442575
              ],
              [
                -72.76534177013039,
                43.22476175690803
              ],
              [
                -72.76489555441177,
                43.22425947845691
              ],
              [
                -72.7649137488212,
                43.2233339898205
              ],
              [
                -72.76526481648754,
                43.22237525692674
              ],
              [
                -72.7655045883745,
                43.22135183834479
              ],
              [
                -72.76634566499686,
                43.220765390793396
              ],
              [
                -72.76778627178489,
                43.22021000617872
              ],
              [
                -72.76780577167513,
                43.21959299608396
              ],
              [
                -72.76742546339293,
                43.218928212509255
              ],
              [
                -72.76720020639034,
                43.21818188677869
              ],
              [
                -72.7665314654732,
                43.21755024614284
              ],
              [
                -72.76612954971621,
                43.2170153958624
              ],
              [
                -72.76625942361876,
                43.21625200540482
              ],
              [
                -72.76694460979952,
                43.215568499107206
              ],
              [
                -72.76694000660066,
                43.21451317438037
              ],
              [
                -72.76653655178497,
                43.21362113888239
              ],
              [
                -72.7660449541392,
                43.21287543038362
              ],
              [
                -72.76652962275446,
                43.21203003368127
              ],
              [
                -72.7672816321008,
                43.211411312994535
              ],
              [
                -72.76832389341372,
                43.211181569843255
              ],
              [
                -72.76954250460517,
                43.21067539148384
              ],
              [
                -72.77102853216864,
                43.21041210535463
              ],
              [
                -72.77295681177264,
                43.20977431946396
              ],
              [
                -72.77488570602465,
                43.209282622276994
              ],
              [
                -72.77692386105758,
                43.20841720189872
              ],
              [
                -72.77874125958913,
                43.207828293661215
              ],
              [
                -72.77969544891167,
                43.20777725695286
              ],
              [
                -72.78173617549432,
                43.2074962391092
              ],
              [
                -72.7832677407313,
                43.207508693141875
              ],
              [
                -72.78433199370929,
                43.20726251361665
              ],
              [
                -72.78543896451777,
                43.2066590263627
              ],
              [
                -72.78594596477762,
                43.20591090668001
              ],
              [
                -72.78625282227163,
                43.2050821057557
              ],
              [
                -72.78613805485158,
                43.20427059516308
              ],
              [
                -72.7861102458152,
                43.20306920348099
              ],
              [
                -72.78619370895801,
                43.20193247715776
              ],
              [
                -72.7869232794217,
                43.20132991848592
              ],
              [
                -72.78743204690798,
                43.2009714497974
              ],
              [
                -72.78800555591238,
                43.20022315315266
              ],
              [
                -72.78886877910142,
                43.199733898174145
              ],
              [
                -72.7897324506412,
                43.19934205053085
              ],
              [
                -72.79123976706657,
                43.198964795644116
              ],
              [
                -72.79210364363666,
                43.19862163840058
              ],
              [
                -72.79318896573226,
                43.19818049049727
              ],
              [
                -72.79349693194762,
                43.197611441194184
              ],
              [
                -72.79373722703053,
                43.19681526176677
              ],
              [
                -72.79402213246071,
                43.19606767507485
              ],
              [
                -72.79428593215069,
                43.19554744493302
              ],
              [
                -72.79526038555134,
                43.19513903519267
              ],
              [
                -72.79647829673775,
                43.19460009758976
              ],
              [
                -72.79754061664698,
                43.19401284462818
              ],
              [
                -72.79871457959304,
                43.19357141343028
              ],
              [
                -72.79948933858303,
                43.1931797238738
              ],
              [
                -72.79950763846155,
                43.19238411265094
              ],
              [
                -72.79919380700629,
                43.19173549443575
              ],
              [
                -72.7988139668053,
                43.19120069886945
              ],
              [
                -72.79763563175575,
                43.19073292701588
              ],
              [
                -72.79689905238196,
                43.18984186022097
              ],
              [
                -72.79751411736633,
                43.18855761905924
              ],
              [
                -72.79837259266374,
                43.18714285070793
              ],
              [
                -72.7990112139958,
                43.18615078700352
              ],
              [
                -72.80013992481327,
                43.18556333466697
              ],
              [
                -72.801981969753,
                43.18565590360598
              ],
              [
                -72.80362779181402,
                43.18644711189059
              ],
              [
                -72.80511534727127,
                43.186637986702685
              ],
              [
                -72.8065023679358,
                43.1869557528598
              ],
              [
                -72.80754081791407,
                43.18731665226361
              ],
              [
                -72.80897542675558,
                43.187385524512734
              ],
              [
                -72.80995919914501,
                43.188162191438806
              ],
              [
                -72.81122812160187,
                43.189156286222875
              ],
              [
                -72.81214052276582,
                43.18985000027795
              ],
              [
                -72.81321514991829,
                43.191194651220684
              ],
              [
                -72.81433054352503,
                43.19234434769127
              ],
              [
                -72.81568906782783,
                43.1932985304071
              ],
              [
                -72.81620489239586,
                43.19435244500176
              ],
              [
                -72.81651991102245,
                43.19572960285658
              ],
              [
                -72.81827263865745,
                43.19672020912354
              ],
              [
                -72.81977242026302,
                43.198116760711855
              ],
              [
                -72.82069325153395,
                43.198899027579756
              ],
              [
                -72.82132340181421,
                43.200038850634726
              ],
              [
                -72.82128734936302,
                43.20268458994779
              ],
              [
                -72.82178934826105,
                43.20318547888081
              ],
              [
                -72.82259304260779,
                43.204078222854974
              ],
              [
                -72.82298694368663,
                43.205383091097794
              ],
              [
                -72.82303428627407,
                43.20636986231691
              ],
              [
                -72.82418544552621,
                43.20640941622209
              ],
              [
                -72.82533713827303,
                43.20654884550886
              ],
              [
                -72.82614332666765,
                43.20774521983158
              ],
              [
                -72.8272417121127,
                43.20885513347659
              ],
              [
                -72.8274576755102,
                43.20911137254301
              ],
              [
                -72.82746133975432,
                43.20979631643223
              ],
              [
                -72.82716970528428,
                43.20998265852733
              ],
              [
                -72.82642815474543,
                43.20994196760034
              ],
              [
                -72.82531571635302,
                43.20985951701802
              ],
              [
                -72.82377349175054,
                43.20966411339767
              ],
              [
                -72.8228189354643,
                43.20992366878076
              ],
              [
                -72.82247304508364,
                43.21092353563634
              ],
              [
                -72.82265501893843,
                43.212135960546014
              ],
              [
                -72.82303714065225,
                43.21430390152627
              ],
              [
                -72.82204807037581,
                43.21543400813736
              ],
              [
                -72.82143108706471,
                43.216834189647926
              ],
              [
                -72.82090856424227,
                43.217649037463715
              ],
              [
                -72.82072026094102,
                43.21894812215427
              ],
              [
                -72.81910997177972,
                43.22070781634587
              ],
              [
                -72.81830056746753,
                43.222650769158165
              ],
              [
                -72.81756605340762,
                43.223994175076484
              ],
              [
                -72.81665699379403,
                43.225552107354936
              ],
              [
                -72.81587837045029,
                43.22592527524046
              ],
              [
                -72.8145540152413,
                43.22642836777656
              ],
              [
                -72.81208057309422,
                43.227376951493504
              ],
              [
                -72.81100512222261,
                43.226951785046055
              ],
              [
                -72.80969270568643,
                43.22597072677947
              ],
              [
                -72.80731197263512,
                43.22596287779935
              ],
              [
                -72.80583000682456,
                43.22618089639021
              ],
              [
                -72.80428601295326,
                43.2256998392003
              ],
              [
                -72.80196291491126,
                43.22550621745083
              ],
              [
                -72.8003222410595,
                43.225196599992074
              ],
              [
                -72.79818328033008,
                43.2267433365376
              ],
              [
                -72.79771842035406,
                43.22745803871918
              ],
              [
                -72.79844392293488,
                43.22816963972082
              ],
              [
                -72.79874095836874,
                43.229053593761265
              ],
              [
                -72.79856279828684,
                43.230135140085785
              ],
              [
                -72.79825630366174,
                43.23131405610158
              ],
              [
                -72.79764034473014,
                43.23306913585175
              ],
              [
                -72.79733235271829,
                43.2339466738682
              ],
              [
                -72.79641200633185,
                43.234761870128
              ],
              [
                -72.79590449038903,
                43.2357129827773
              ],
              [
                -72.79557033040565,
                43.23635313369879
              ],
              [
                -72.7946614903238,
                43.23697650045847
              ],
              [
                -72.7936386771733,
                43.237280509086084
              ],
              [
                -72.79319267772881,
                43.238048797106735
              ],
              [
                -72.79297138089863,
                43.23878911040194
              ],
              [
                -72.79298842340368,
                43.23973886487371
              ],
              [
                -72.79246736022579,
                43.24048907717994
              ],
              [
                -72.79126915801429,
                43.240702185174946
              ],
              [
                -72.79030620967895,
                43.240476316282376
              ],
              [
                -72.78857568211168,
                43.24171360539492
              ],
              [
                -72.78759289820486,
                43.24258368331676
              ],
              [
                -72.78691024549892,
                43.243526062151346
              ],
              [
                -72.78707526221997,
                43.24408274062419
              ],
              [
                -72.78667704553347,
                43.244412515178325
              ],
              [
                -72.78604193602887,
                43.244843340341404
              ],
              [
                -72.78671786332829,
                43.24512476080908
              ],
              [
                -72.78704408740536,
                43.24542532005978
              ],
              [
                -72.78672107573543,
                43.24580970208499
              ],
              [
                -72.78649800366767,
                43.24619383292331
              ],
              [
                -72.78597518261894,
                43.24659697780391
              ],
              [
                -72.78578264707849,
                43.247221077876716
              ],
              [
                -72.79178263433928,
                43.24877928558019
              ],
              [
                -72.7923154230531,
                43.248391501966154
              ],
              [
                -72.7928400918956,
                43.247890717594046
              ],
              [
                -72.7927783171064,
                43.24722019660146
              ],
              [
                -72.79217120651388,
                43.24680792498249
              ],
              [
                -72.79226539675184,
                43.24609419530184
              ],
              [
                -72.79230088942771,
                43.24535207646048
              ],
              [
                -72.79241138677865,
                43.24396762441381
              ],
              [
                -72.79133210863087,
                43.2427717156942
              ],
              [
                -72.79175880298557,
                43.24219983640084
              ],
              [
                -72.79282796428821,
                43.24128383826009
              ],
              [
                -72.79350734578708,
                43.240497258537
              ],
              [
                -72.79391290809058,
                43.23959721972813
              ],
              [
                -72.79441618555613,
                43.23872546782817
              ],
              [
                -72.79544745216572,
                43.23806639886481
              ],
              [
                -72.79659905332701,
                43.23807768885826
              ],
              [
                -72.79683049285981,
                43.23750629627801
              ],
              [
                -72.79688371110043,
                43.236407383331475
              ],
              [
                -72.79721140787365,
                43.235564613241486
              ],
              [
                -72.79798623425795,
                43.23436393435489
              ],
              [
                -72.79879887870153,
                43.2329205634074
              ],
              [
                -72.79926265006381,
                43.23197754339533
              ],
              [
                -72.79982440423875,
                43.231119883582416
              ],
              [
                -72.80042685525719,
                43.230604589108154
              ],
              [
                -72.80130264411315,
                43.230117111799586
              ],
              [
                -72.80241415006186,
                43.22994294092964
              ],
              [
                -72.80307716169308,
                43.22984129825036
              ],
              [
                -72.80397257639751,
                43.22938228752218
              ],
              [
                -72.80310954499232,
                43.22849984909004
              ],
              [
                -72.8020699238679,
                43.22741809145918
              ],
              [
                -72.80198883874036,
                43.22680470312034
              ],
              [
                -72.80315917708916,
                43.22670171867439
              ],
              [
                -72.80512794635086,
                43.22673872379128
              ],
              [
                -72.80596575042037,
                43.22694653755813
              ],
              [
                -72.80697620793055,
                43.22671551343789
              ],
              [
                -72.8078986367885,
                43.226365992770795
              ],
              [
                -72.8085732627582,
                43.22640983851437
              ],
              [
                -72.80953711753502,
                43.22684560322813
              ],
              [
                -72.81002492561291,
                43.22699040546124
              ],
              [
                -72.81092635605017,
                43.227426328472596
              ],
              [
                -72.81144077671202,
                43.22789069628343
              ],
              [
                -72.81194131859667,
                43.2280811190674
              ],
              [
                -72.81249219326988,
                43.22834446328662
              ],
              [
                -72.81267152431127,
                43.22922071103541
              ],
              [
                -72.8127236759861,
                43.229649804896376
              ],
              [
                -72.81208853074791,
                43.230007713769545
              ],
              [
                -72.8113785331889,
                43.23038408857996
              ],
              [
                -72.81133196838707,
                43.231050901491805
              ],
              [
                -72.81164709698326,
                43.23161626990474
              ],
              [
                -72.81249715335323,
                43.23176007404252
              ],
              [
                -72.81356057398561,
                43.23210420560938
              ],
              [
                -72.81408848241342,
                43.232751177676384
              ],
              [
                -72.81448323157917,
                43.23451123909677
              ],
              [
                -72.81420599796041,
                43.2350088187457
              ],
              [
                -72.8139639763664,
                43.23613755158722
              ],
              [
                -72.81388670555413,
                43.23665796076572
              ],
              [
                -72.81402476824672,
                43.237078415778996
              ],
              [
                -72.81431400193757,
                43.237358177084054
              ],
              [
                -72.81457171241198,
                43.23772569733768
              ],
              [
                -72.81509510659237,
                43.238454871241714
              ],
              [
                -72.81545114216082,
                43.23928386650305
              ],
              [
                -72.81588598604239,
                43.239890537305136
              ],
              [
                -72.81608787534826,
                43.24028158839718
              ],
              [
                -72.8160839298644,
                43.24106481671963
              ],
              [
                -72.81605391502482,
                43.24144481907213
              ],
              [
                -72.8161631363581,
                43.24246737574021
              ],
              [
                -72.81650170667187,
                43.243004170829906
              ],
              [
                -72.81679948935832,
                43.24338326495498
              ],
              [
                -72.81717731873118,
                43.243779672029405
              ],
              [
                -72.81759461311194,
                43.24407660431977
              ],
              [
                -72.81757246657669,
                43.244623164343416
              ],
              [
                -72.81706387315305,
                43.24531865721532
              ],
              [
                -72.81650662118537,
                43.2462699972647
              ],
              [
                -72.8158497843701,
                43.24729467031523
              ],
              [
                -72.81579099899099,
                43.24800717915747
              ],
              [
                -72.81547093580303,
                43.248930461124345
              ],
              [
                -72.81567290547395,
                43.249331740400116
              ],
              [
                -72.81558204254493,
                43.25070444663652
              ],
              [
                -72.81549571435815,
                43.252569206256936
              ],
              [
                -72.81548681275838,
                43.25394278103664
              ],
              [
                -72.81528201028708,
                43.25454536932848
              ],
              [
                -72.81489454878604,
                43.25478592243881
              ],
              [
                -72.81527322099319,
                43.254884362009896
              ],
              [
                -72.81561645331136,
                43.25457974516943
              ],
              [
                -72.8158480714347,
                43.254065394102376
              ],
              [
                -72.81583667228051,
                43.25351247302577
              ],
              [
                -72.81610797786283,
                43.25288742141017
              ],
              [
                -72.8161607957727,
                43.251304223539826
              ],
              [
                -72.81612337418369,
                43.24996653599578
              ],
              [
                -72.81623799933567,
                43.24853924192613
              ],
              [
                -72.81656854762521,
                43.247579577436966
              ],
              [
                -72.81699748837626,
                43.24697185282831
              ],
              [
                -72.81742044896922,
                43.24662363860149
              ],
              [
                -72.81766764971138,
                43.24611152357076
              ],
              [
                -72.81800238955594,
                43.24561743032106
              ],
              [
                -72.81822488214816,
                43.24516017790084
              ],
              [
                -72.81874752504484,
                43.2447660189402
              ],
              [
                -72.81962128629452,
                43.244626591132736
              ],
              [
                -72.82029827369337,
                43.245081330473596
              ],
              [
                -72.82085039341938,
                43.24554554889416
              ],
              [
                -72.82171647403763,
                43.24631939216177
              ],
              [
                -72.82213537999927,
                43.247578520011295
              ],
              [
                -72.82259033707554,
                43.24856356486692
              ],
              [
                -72.82362945802147,
                43.24897159912406
              ],
              [
                -72.82441949766987,
                43.24952645313451
              ],
              [
                -72.8251972047965,
                43.25010873517335
              ],
              [
                -72.8254393971433,
                43.25101217834036
              ],
              [
                -72.82586905647794,
                43.25192422069944
              ],
              [
                -72.82636095451821,
                43.25279041962745
              ],
              [
                -72.82695067239038,
                43.25325450066274
              ],
              [
                -72.82710646949599,
                43.25434997323541
              ],
              [
                -72.82734856047647,
                43.25522601440311
              ],
              [
                -72.82948559089151,
                43.25530207267724
              ],
              [
                -72.83143560351553,
                43.255451694686414
              ],
              [
                -72.83197396668925,
                43.255651052020994
              ],
              [
                -72.83271384245582,
                43.25614206477702
              ],
              [
                -72.83350410835841,
                43.25670598744132
              ],
              [
                -72.83433097419558,
                43.257105409626526
              ],
              [
                -72.83478369770813,
                43.25763377900673
              ],
              [
                -72.83522430446082,
                43.258685298966135
              ],
              [
                -72.8355147646831,
                43.259152039184414
              ],
              [
                -72.83579662229894,
                43.25950775010228
              ],
              [
                -72.83635828821764,
                43.259845103185945
              ],
              [
                -72.83679935722189,
                43.26006591115325
              ],
              [
                -72.83741540053843,
                43.26011085433367
              ],
              [
                -72.83791874065595,
                43.26002169590331
              ],
              [
                -72.8381743600404,
                43.25996833637674
              ],
              [
                -72.83882070774695,
                43.25970924861127
              ],
              [
                -72.83920369547434,
                43.2595503020875
              ],
              [
                -72.83955443319184,
                43.25934469047861
              ],
              [
                -72.84052594418593,
                43.258599501820974
              ],
              [
                -72.8414704413288,
                43.258748653243146
              ],
              [
                -72.8416647891525,
                43.25918059435923
              ],
              [
                -72.84241169550339,
                43.25974531554841
              ],
              [
                -72.8431319008123,
                43.259824985528816
              ],
              [
                -72.84400448108077,
                43.25998017628924
              ],
              [
                -72.84503430332468,
                43.259655606243875
              ],
              [
                -72.84592228510915,
                43.25970552856156
              ]
            ]
          ]
        ]
      },
      "properties": {
        "OBJECTID": 0,
        "Abbreviated_District_Name": "FHO",
        "Shape_Length": 0,
        "Shape_Area": 0,
        "County": "Windham",
        "Jurisdiction_District_Name": "Londonderry"
      }
    }
  ]
}