{"type": "FeatureCollection", "name": "Windham_Wardsboro", "features": [{"type": "Feature", "properties": {"OBJECT_ID": 736, "County": "Windham", "RPC": "WRC", "Municipal_Name": "Wardsboro ", "GEO_ID": "5002576225", "District_Name": "Village-Commercial District", "Abbreviated_District_Name": "V", "District_Type": "Mixed with Residential", "Bylaw_Date": null, "Elderly_Housing_District": "No", "District_Mapped": "Yes", "Overlay_District": "No", "Base_Density": null, "GIS_ID": null, "Last_Update": null, "Shape_Length": 11037.283338135945, "Shape_Area": 1657285.4903052626, "F1F_Allowance": "Permitted", "F1F_Front_Setback": 35.0, "F1F_Side_Setback": 10.0, "F1F_Rear_Setback": 10.0, "F1F_Frontage": 100.0, "F1F_Max_Height": 35.0, "F1F_Max_Stories": 3.0, "F1F_Min_Lot_Size": 0.5, "F1F_Max_Lot_Building_Coverage": 25.0, "F1F_Max_Lot_Impervious_Coverage": null, "F1F_Min_Parking_Spaces": 2.0, "F1F_Elderly_Housing_Only": null, "F1F_Affordable_Housing_Only": null, "F2F_Allowance": "Permitted", "F2F_Front_Setback": 35.0, "F2F_Side_Setback": 10.0, "F2F_Rear_Setback": 10.0, "F2F_Frontage": 100.0, "F2F_Max_Density": 2.0, "F2F_Max_Height": 35.0, "F2F_Max_Stories": 3.0, "F2F_Min_Lot_Size": 0.5, "F2F_Max_Lot_Building_Coverage": 25.0, "F2F_Max_Lot_Impervious_Coverage": null, "F2F_Min_Parking_Spaces_per_1BR": 2.0, "F2F_Min_Parking_Spaces_per_mult_BR": 2.0, "F2F_Elderly_Housing_Only": "No", "F2F_Affordable_Housing_Only": "No", "F3F_Allowance": "Public Hearing", "F3F_Front_Setback": 35.0, "F3F_Side_Setback": 10.0, "F3F_Rear_Setback": 10.0, "F3F_Frontage": 100.0, "F3F_Max_Density": 2.0, "F3F_Max_Height": 35.0, "F3F_Max_Stories": 3.0, "F3F_Min_Lot_Size": 0.5, "F3F_Max_Lot_Building_Coverage": 25.0, "F3F_Max_Lot_Impervious_Coverage": null, "F3F_Min_Parking_Spaces_per_1BR": 2.0, "F3F_Min_Parking_Spaces_per_mult_BR": 2.0, "F3F_Affordable_Housing_Only": "No", "F3F_Proximity_to_Public_Transit_Required": null, "F3F_Connection_to_Sewage/Water_Required": "Yes", "F4F_Allowance": "Public Hearing", "F4F_Front_Setback": 35.0, "F4F_Side_Setback": 10.0, "F4F_Rear_Setback": 10.0, "F4F_Frontage": 100.0, "F1F_Max_Density": null, "F4F_Max_Density": 2.0, "F4F_Max_Height": 35.0, "F4F_Max_Stories": 3.0, "F4F_Min_Lot_Size": 0.5, "F4F_Max_Lot_Building_Coverage": 25.0, "F4F_Max_Lot_Impervious_Coverage": null, "F4F_Min_Parking_Spaces_per_1BR": 2.0, "F4F_Min_Parking_Spaces_per_mult_BR": 2.0, "F3F_Elderly_Housing_Only": "No", "F4F_Elderly_Housing_Only": "No", "F4F_Affordable_Housing_Only": "No", "F4F_Proximity_to_Public_Transit_Required": null, "F4F_Connection_to_Sewage/Water_Required": "Yes", "ADU_Allowance": "Allowed/Conditional", "ADU_Elderly_Housing_Only": null, "ADU_Max_Size_as_Percent_of_Primary_Strcture": 30.0, "ADU_Max_Size_in_sq_ft": 400.0, "ADU_Min_Lot_Size": null, "ADU_Max_Bedrooms": 1.0, "ADU_Min_Parking_Spaces": 2.0, "ADU_Owner_Occupancy_Required": "Yes", "ADU_Renter_Occupancy_Prohibited": null, "ADU_Employee_or_Family_Occupancy_Required": null, "ADU_Restricted_to_Primary_Structure": null, "Affordable_Housing_Allowance": "Not Mentioned", "Affordable_Housing_District": "No", "Affordable_Housing_Elderly_Only": null, "Affordable_Housing_Min_Lot_Size": null, "Affordable_Housing_Max_Density": null, "Affordable_Housing_Min_Parking_Spaces_per_mult_BR": null, "Affordable_Housing_Max_Units_per_Building": null, "Affordable_Housing_Min_Parking_Spaces_per_1BR": null, "PRD_Allowance": "Not Mentioned", "PRD_Max_Density": null, "PRD_Max_Units": null, "PRD_Min_Lot_Size": null, "PRD_Mobile_or_Manufactured_Home_Park": null, "PUD_Allowance": null, "PUD_Required_with_Subdivision": null, "PUD_Requires_Land_Conservation": null, "PUD_Threshold_Number": null, "Notes": "  Re Density: \"There Shall Be Only One Principal\nBuilding Or One Primary Use And Its Structures On A Lot\"", "FIPS6": null}, "geometry": {"type": "MultiPolygon", "coordinates": [[[[-72.7937082680964, 43.03617291343267], [-72.79295225653388, 43.03629806790831], [-72.79219387508404, 43.03657097809653], [-72.79120540195454, 43.03661868085369], [-72.79089255511278, 43.036755363203355], [-72.79068507717794, 43.03694027942016], [-72.79063324860401, 43.03680644077173], [-72.79028474189994, 43.03706700580824], [-72.79002587055365, 43.03748993486991], [-72.78989972299775, 43.03712842934631], [-72.790039164476, 43.0368739882867], [-72.78992658944473, 43.03676773156669], [-72.78934948138726, 43.0367757372585], [-72.78898640306527, 43.03685429558763], [-72.78885878638044, 43.03693356036468], [-72.78807590218713, 43.03697513322825], [-72.78715981387819, 43.03680405643818], [-72.78679705635763, 43.036520781840636], [-72.78642452140915, 43.03656616360527], [-72.78618773414406, 43.036671964770704], [-72.78562131019925, 43.03656543443731], [-72.78519602649638, 43.03623537026878], [-72.78468386589623, 43.03660128094337], [-72.78455123849075, 43.03680985086481], [-72.78451978290401, 43.0374560860528], [-72.78481811066072, 43.038444698691876], [-72.78482009534103, 43.038450605197454], [-72.78496498297997, 43.03968794628421], [-72.78496847241713, 43.04051089292975], [-72.78494446891622, 43.04089379938587], [-72.78514726701847, 43.041486625903076], [-72.78554077370656, 43.04193861764707], [-72.78583762992325, 43.042180313204234], [-72.78629966227719, 43.0424024535976], [-72.78724837251129, 43.04253405459968], [-72.78767457655687, 43.04253298497091], [-72.78822463980838, 43.042458713927154], [-72.78810228288017, 43.04278294229784], [-72.7878810480954, 43.04312247018653], [-72.78706474495488, 43.04407230522108], [-72.78628087868594, 43.04394990165978], [-72.7861763685571, 43.04408803990634], [-72.786110434425, 43.04442450234196], [-72.78617391268106, 43.045350916317474], [-72.78583628181906, 43.04604686120577], [-72.78584096897451, 43.04727997222433], [-72.78567648692272, 43.04809704045214], [-72.78528366165617, 43.0489910511159], [-72.78505407011401, 43.04985198657157], [-72.78503910013798, 43.05013895204373], [-72.7851650403098, 43.050476410012266], [-72.78517500796433, 43.050764333224784], [-72.78528884317824, 43.05099330990773], [-72.78513531839397, 43.05168523007891], [-72.79223537858468, 43.051855411899986], [-72.7921015629178, 43.04941350757909], [-72.79282863942366, 43.047630652428865], [-72.79296897867563, 43.04701905606473], [-72.79228287844415, 43.041494105949134], [-72.79254189480069, 43.04130292956715], [-72.79422178865467, 43.03964325096434], [-72.79493367444788, 43.03924558505045], [-72.79371148879721, 43.03756813067316], [-72.79218845903897, 43.03767936867703], [-72.79349363996569, 43.037281657221726], [-72.79438814256146, 43.036844598941094], [-72.7937082680964, 43.03617291343267]]], [[[-72.85254490984858, 43.02637467241711], [-72.85253065897365, 43.02679814729687], [-72.85268125529781, 43.02708320556169], [-72.8526693874299, 43.027170094683825], [-72.85237358245682, 43.02745589790383], [-72.85228366812558, 43.02770653604736], [-72.85173057828163, 43.02780827998172], [-72.8516004947917, 43.02794138537112], [-72.85168285756168, 43.02828045258422], [-72.8514810768782, 43.02859898292283], [-72.85151294600425, 43.02890849408812], [-72.85129404260041, 43.02903283590739], [-72.85115626356547, 43.02956478257317], [-72.8513340516248, 43.02974346094049], [-72.85172177144221, 43.0298378038641], [-72.85177819314546, 43.03008208204692], [-72.85173844003911, 43.0301542533533], [-72.85100523435372, 43.030580188948285], [-72.85091833367198, 43.03083992281584], [-72.8510115714221, 43.030984683009805], [-72.85103983025397, 43.03119937090894], [-72.8509466905982, 43.031458034694744], [-72.85088176299983, 43.03153714041327], [-72.85053784749047, 43.031662004362566], [-72.85012784139292, 43.03189801064802], [-72.8492146385243, 43.03225155840657], [-72.84879242994252, 43.03233217742559], [-72.84848634001563, 43.03229917956585], [-72.84802452316339, 43.032529674844305], [-72.84811225938753, 43.033260829755726], [-72.84912873786338, 43.03439394290661], [-72.8511724299379, 43.03385439441201], [-72.85210711569324, 43.033299316735494], [-72.8531277052116, 43.03461772491226], [-72.85360199161899, 43.03503902025622], [-72.85689621880918, 43.032263101878556], [-72.85574930855964, 43.03079061435794], [-72.85585540297375, 43.030802766354334], [-72.8560316071347, 43.0290169611238], [-72.85648051516905, 43.02726434343206], [-72.8558319976257, 43.02718992134788], [-72.85341308652066, 43.026477405418035], [-72.85254490984858, 43.02637467241711]]], [[[-72.78287815656581, 43.008064220139616], [-72.78198832294933, 43.00978012808908], [-72.78121789856432, 43.011905522677694], [-72.7813822198387, 43.01204513618143], [-72.78201330560883, 43.01242660706593], [-72.78239743091103, 43.01255709588886], [-72.78344391436595, 43.01273956323004], [-72.78504213603506, 43.01282165922582], [-72.78609964766716, 43.01277639359701], [-72.78897577508681, 43.01323558097563], [-72.78951800450871, 43.01327520566824], [-72.78946892778112, 43.01225588502612], [-72.78952500064709, 43.01164759882274], [-72.7893980887651, 43.00885232289036], [-72.78928831390874, 43.00861721980328], [-72.7891290477867, 43.008494975554626], [-72.78908693937947, 43.008384423811165], [-72.78885873336861, 43.0083552175585], [-72.7886070821569, 43.008190203245995], [-72.78831728597102, 43.008227716742624], [-72.78813329261646, 43.00834903632419], [-72.78804133251036, 43.00835654844024], [-72.78809366726092, 43.00827754483193], [-72.78745827339172, 43.00848991484232], [-72.7872321887776, 43.00848419019077], [-72.78706913701733, 43.00855556037823], [-72.78688474067478, 43.0088174257043], [-72.78671716039676, 43.00894552341349], [-72.78617508797952, 43.00921911758141], [-72.78598263283395, 43.00929477796627], [-72.78520067374488, 43.009378138627646], [-72.78448527310218, 43.009224927143826], [-72.78361586269021, 43.00848624292018], [-72.78333299697968, 43.00828219237569], [-72.78287815656581, 43.008064220139616]]]]}}, {"type": "Feature", "properties": {"OBJECT_ID": 735, "County": "Windham", "RPC": "WRC", "Municipal_Name": "Wardsboro ", "GEO_ID": "5002576225", "District_Name": "Rural Residential District", "Abbreviated_District_Name": "Rr", "District_Type": "Mixed with Residential", "Bylaw_Date": null, "Elderly_Housing_District": "No", "District_Mapped": "Yes", "Overlay_District": "No", "Base_Density": null, "GIS_ID": null, "Last_Update": null, "Shape_Length": 78401.94172894525, "Shape_Area": 29798078.67448512, "F1F_Allowance": "Permitted", "F1F_Front_Setback": 40.0, "F1F_Side_Setback": 15.0, "F1F_Rear_Setback": 15.0, "F1F_Frontage": 100.0, "F1F_Max_Height": 35.0, "F1F_Max_Stories": 3.0, "F1F_Min_Lot_Size": 1.0, "F1F_Max_Lot_Building_Coverage": 15.0, "F1F_Max_Lot_Impervious_Coverage": null, "F1F_Min_Parking_Spaces": 2.0, "F1F_Elderly_Housing_Only": null, "F1F_Affordable_Housing_Only": null, "F2F_Allowance": "Permitted", "F2F_Front_Setback": 40.0, "F2F_Side_Setback": 15.0, "F2F_Rear_Setback": 15.0, "F2F_Frontage": 100.0, "F2F_Max_Density": null, "F2F_Max_Height": 35.0, "F2F_Max_Stories": 3.0, "F2F_Min_Lot_Size": 1.0, "F2F_Max_Lot_Building_Coverage": 15.0, "F2F_Max_Lot_Impervious_Coverage": null, "F2F_Min_Parking_Spaces_per_1BR": 2.0, "F2F_Min_Parking_Spaces_per_mult_BR": 2.0, "F2F_Elderly_Housing_Only": "No", "F2F_Affordable_Housing_Only": "No", "F3F_Allowance": "Public Hearing", "F3F_Front_Setback": 40.0, "F3F_Side_Setback": 15.0, "F3F_Rear_Setback": 15.0, "F3F_Frontage": 100.0, "F3F_Max_Density": 1.0, "F3F_Max_Height": 35.0, "F3F_Max_Stories": 3.0, "F3F_Min_Lot_Size": 1.0, "F3F_Max_Lot_Building_Coverage": 15.0, "F3F_Max_Lot_Impervious_Coverage": null, "F3F_Min_Parking_Spaces_per_1BR": 2.0, "F3F_Min_Parking_Spaces_per_mult_BR": 2.0, "F3F_Affordable_Housing_Only": "No", "F3F_Proximity_to_Public_Transit_Required": null, "F3F_Connection_to_Sewage/Water_Required": "Yes", "F4F_Allowance": "Public Hearing", "F4F_Front_Setback": 40.0, "F4F_Side_Setback": 15.0, "F4F_Rear_Setback": 15.0, "F4F_Frontage": 100.0, "F1F_Max_Density": null, "F4F_Max_Density": 1.0, "F4F_Max_Height": 35.0, "F4F_Max_Stories": 3.0, "F4F_Min_Lot_Size": 1.0, "F4F_Max_Lot_Building_Coverage": 15.0, "F4F_Max_Lot_Impervious_Coverage": null, "F4F_Min_Parking_Spaces_per_1BR": 2.0, "F4F_Min_Parking_Spaces_per_mult_BR": 2.0, "F3F_Elderly_Housing_Only": "No", "F4F_Elderly_Housing_Only": "No", "F4F_Affordable_Housing_Only": "No", "F4F_Proximity_to_Public_Transit_Required": null, "F4F_Connection_to_Sewage/Water_Required": "Yes", "ADU_Allowance": "Allowed/Conditional", "ADU_Elderly_Housing_Only": null, "ADU_Max_Size_as_Percent_of_Primary_Strcture": 30.0, "ADU_Max_Size_in_sq_ft": 400.0, "ADU_Min_Lot_Size": null, "ADU_Max_Bedrooms": 1.0, "ADU_Min_Parking_Spaces": 2.0, "ADU_Owner_Occupancy_Required": "Yes", "ADU_Renter_Occupancy_Prohibited": null, "ADU_Employee_or_Family_Occupancy_Required": null, "ADU_Restricted_to_Primary_Structure": null, "Affordable_Housing_Allowance": "Not Mentioned", "Affordable_Housing_District": "No", "Affordable_Housing_Elderly_Only": null, "Affordable_Housing_Min_Lot_Size": null, "Affordable_Housing_Max_Density": null, "Affordable_Housing_Min_Parking_Spaces_per_mult_BR": null, "Affordable_Housing_Max_Units_per_Building": null, "Affordable_Housing_Min_Parking_Spaces_per_1BR": null, "PRD_Allowance": "Not Mentioned", "PRD_Max_Density": null, "PRD_Max_Units": null, "PRD_Min_Lot_Size": null, "PRD_Mobile_or_Manufactured_Home_Park": null, "PUD_Allowance": null, "PUD_Required_with_Subdivision": null, "PUD_Requires_Land_Conservation": null, "PUD_Threshold_Number": null, "Notes": "  Re Density: \"There Shall Be Only One Principal\nBuilding Or One Primary Use And Its Structures On A Lot\"", "FIPS6": null}, "geometry": {"type": "MultiPolygon", "coordinates": [[[[-72.8285944825959, 43.052753055923944], [-72.84303629231806, 43.05311199128408], [-72.84302115521963, 43.051765872077084], [-72.84315562601323, 43.050568809132415], [-72.8431599370354, 43.04979563656528], [-72.84325278500643, 43.04928549787157], [-72.84333236235082, 43.04727609231598], [-72.84352437623834, 43.04649560383399], [-72.84344690160286, 43.04558684369155], [-72.84348894304465, 43.044977169942094], [-72.84445065134365, 43.04480450595529], [-72.84521747881737, 43.044539311605554], [-72.84590994504666, 43.044180876423226], [-72.84650701102747, 43.0437396354378], [-72.8469904373, 43.04322812992797], [-72.84734565690161, 43.04266455031952], [-72.84753706086894, 43.04216082276458], [-72.84792333843097, 43.04075151584548], [-72.84934186512379, 43.03911872189793], [-72.84969703846257, 43.03855513384811], [-72.84991345504163, 43.03795381869408], [-72.84998383892314, 43.03733333134417], [-72.84989955707634, 43.03608534269057], [-72.85125623779057, 43.03575352880775], [-72.85151586364302, 43.03602341319784], [-72.85211746439808, 43.03646134037584], [-72.85281485274795, 43.03681587942569], [-72.85344139854239, 43.0370371200779], [-72.85671554618443, 43.037983962030815], [-72.86052610009183, 43.03899315536986], [-72.86626877089893, 43.040659736151355], [-72.86885729498563, 43.044641468869564], [-72.86953454105624, 43.04541029285706], [-72.87013636272478, 43.045848124678244], [-72.87083395954026, 43.04620255256842], [-72.87160290937936, 43.04646292943873], [-72.87242235779993, 43.046621480328675], [-72.87293478624943, 43.046652619329784], [-72.87324525428569, 43.04314297775816], [-72.87339418940967, 43.03961237230237], [-72.87397145141628, 43.02978823503823], [-72.87450060356215, 43.02485543515487], [-72.87181317450546, 43.02492073201285], [-72.87107959517863, 43.02502924088115], [-72.8706963095669, 43.02516174931183], [-72.87005209284487, 43.02556188373936], [-72.86834738112962, 43.02712261828562], [-72.86749007879726, 43.02751361456419], [-72.86286238898977, 43.02694475142482], [-72.86209704933545, 43.02703804181232], [-72.86015043865997, 43.02751900502041], [-72.85938759015427, 43.027597888240855], [-72.85648051516905, 43.02726434343206], [-72.8560316071347, 43.0290169611238], [-72.85585540297375, 43.030802766354334], [-72.85574930855964, 43.03079061435794], [-72.85689621880918, 43.032263101878556], [-72.85360199161899, 43.03503902025622], [-72.8531277052116, 43.03461772491226], [-72.85210711569324, 43.033299316735494], [-72.8511724299379, 43.03385439441201], [-72.84912873786338, 43.03439394290661], [-72.84811225938753, 43.033260829755726], [-72.84802452316339, 43.032529674844305], [-72.84848634001563, 43.03229917956585], [-72.84879242994252, 43.03233217742559], [-72.8492146385243, 43.03225155840657], [-72.85012784139292, 43.03189801064802], [-72.85053784749047, 43.031662004362566], [-72.85088176299983, 43.03153714041327], [-72.8509466905982, 43.031458034694744], [-72.85103983025397, 43.03119937090894], [-72.8510115714221, 43.030984683009805], [-72.85091833367198, 43.03083992281584], [-72.85100523435372, 43.030580188948285], [-72.85173844003911, 43.0301542533533], [-72.85177819314546, 43.03008208204692], [-72.85172177144221, 43.0298378038641], [-72.8513340516248, 43.02974346094049], [-72.85115626356547, 43.02956478257317], [-72.85129404260041, 43.02903283590739], [-72.85151294600425, 43.02890849408812], [-72.8514810768782, 43.02859898292283], [-72.85168285756168, 43.02828045258422], [-72.8516004947917, 43.02794138537112], [-72.85173057828163, 43.02780827998172], [-72.85228366812558, 43.02770653604736], [-72.85237358245682, 43.02745589790383], [-72.8526693874299, 43.027170094683825], [-72.85268125529781, 43.02708320556169], [-72.85253065897365, 43.02679814729687], [-72.85254490984858, 43.02637467241711], [-72.85175050261229, 43.02648236527116], [-72.85136716720574, 43.02661480911181], [-72.85072280786324, 43.02701483513947], [-72.84880867476451, 43.02943424814467], [-72.8478840414052, 43.02962610556593], [-72.84675075176072, 43.02970582201796], [-72.84393791486721, 43.029293819723705], [-72.84284734109386, 43.027493104063566], [-72.84248185330678, 43.0270656003734], [-72.8388554847711, 43.02457342284178], [-72.83685396323524, 43.021087317224655], [-72.83673625000634, 43.02012237160599], [-72.83659601705558, 43.01966510445092], [-72.83641563223404, 43.01938387581202], [-72.8359589265187, 43.018961683126726], [-72.83918766125096, 43.01672898867761], [-72.83960687015683, 43.01619147113309], [-72.84038366394621, 43.01394347322764], [-72.84276545764678, 43.01184252844286], [-72.84361591906598, 43.01157568600403], [-72.84406230468177, 43.01190118166923], [-72.84431925295806, 43.012675082412024], [-72.84449994097172, 43.012956298003694], [-72.84495052097155, 43.01336054216166], [-72.8444654613503, 43.01487630194442], [-72.84440117863325, 43.01529134856378], [-72.84455083909127, 43.01590048305967], [-72.8447315377105, 43.01618169809045], [-72.84527645255228, 43.01665461013718], [-72.84600925200887, 43.0169621769328], [-72.84641874577731, 43.01704156260784], [-72.84684155007022, 43.017067390038804], [-72.8476716755053, 43.01695747571522], [-72.84840098033384, 43.01664567798601], [-72.84869942222844, 43.01642503221639], [-72.84911854466826, 43.01588748010635], [-72.85011705566404, 43.0128174002423], [-72.85018139349906, 43.0124022087556], [-72.85014273474452, 43.01209271709116], [-72.84985097296145, 43.011511699052036], [-72.84930587856253, 43.011038773796436], [-72.84869801837823, 43.01076790842963], [-72.84867077247856, 43.010678150039794], [-72.85205356776805, 43.009818648382726], [-72.85224842154855, 43.00994139940435], [-72.85118221479729, 43.01146784141468], [-72.85103898104924, 43.012078570972186], [-72.85118869904488, 43.01268769692676], [-72.85161371609951, 43.013222834143725], [-72.85191435536869, 43.01344178219174], [-72.85264714936592, 43.01374930667819], [-72.85305663138539, 43.01382866959031], [-72.85390064134987, 43.01382605572835], [-72.85469273318768, 43.01361188013595], [-72.85533712064309, 43.013212006345775], [-72.85557867898605, 43.01295621773817], [-72.85709463399883, 43.01076884523749], [-72.85750506814021, 43.01175627462209], [-72.85780466533252, 43.012222089724666], [-72.85906891091834, 43.0136200332689], [-72.85953912500327, 43.01400467755409], [-72.85988766279895, 43.01418192623862], [-72.86089200640882, 43.01457050665478], [-72.86142560421204, 43.01471358312812], [-72.8612596842467, 43.015198725643735], [-72.86095568086856, 43.01586736172461], [-72.86040308185375, 43.016737038847296], [-72.86109162194983, 43.01662659527755], [-72.86181385122808, 43.016726393595256], [-72.86251910549193, 43.016896419838545], [-72.86311822773816, 43.016760541809475], [-72.86369931716389, 43.016516260088494], [-72.86440949669439, 43.01604826557601], [-72.86486114465106, 43.015970266577554], [-72.8653294225037, 43.01576461617237], [-72.86761799456919, 43.01463442034418], [-72.86845204939928, 43.01453603956939], [-72.87132869502025, 43.0143481043189], [-72.87204079402545, 43.01421181384683], [-72.8742093689663, 43.01339449241835], [-72.874928824278, 43.01304124138276], [-72.87578842216197, 43.01285978467714], [-72.87754171361335, 43.012388279697376], [-72.87799064663187, 43.01235031643177], [-72.87841805144744, 43.00497199962884], [-72.87787878980527, 43.00497367957844], [-72.87678421554526, 43.00509212757126], [-72.87183603930379, 43.00621204003435], [-72.87056887670636, 43.006547906135765], [-72.869701653413, 43.00689522707593], [-72.868791641186, 43.00735751870684], [-72.86477739335385, 43.00769575969279], [-72.86390921714552, 43.00788992205034], [-72.86331074675851, 43.008121501207185], [-72.86267962408644, 43.00723669090705], [-72.8612808549031, 43.00589494765413], [-72.86066116112107, 43.00398291960463], [-72.86013606790418, 43.00337847778492], [-72.85980407989666, 43.00309242499313], [-72.85899226662885, 43.00250801841767], [-72.85774644899153, 43.00202704374363], [-72.85705018064405, 43.001876099148745], [-72.85534635217468, 43.001855882441035], [-72.854478189987, 43.00204359201571], [-72.85394044149102, 43.00224941513403], [-72.85115780420787, 43.00359139426758], [-72.85026620950141, 43.00425126080376], [-72.84984004391112, 43.0047197473394], [-72.84410389405839, 43.006251324278544], [-72.84282312199252, 43.00650014242197], [-72.84155330193886, 43.00665277442979], [-72.83959142795445, 43.007024838308574], [-72.8388250398778, 43.007289644129344], [-72.83813294727206, 43.007648390351996], [-72.83753664621612, 43.00808958804607], [-72.83442369058524, 43.01083499807216], [-72.83394165082645, 43.01134528895278], [-72.83358649022526, 43.01190918181451], [-72.83295152683785, 43.013701430901556], [-72.83240326975647, 43.014077339184944], [-72.82872292542811, 43.00994488498109], [-72.82812174898962, 43.009506831390475], [-72.82742529263845, 43.00915213821111], [-72.8254746740272, 43.00845846728222], [-72.82502825931262, 43.00832207603857], [-72.8242094419349, 43.008163183562246], [-72.8233644548498, 43.00811139493127], [-72.82264501265304, 43.0081527433003], [-72.81947183787439, 43.00851052495951], [-72.81483061324224, 43.00858295685805], [-72.81492475171326, 43.0141660895934], [-72.81669308854849, 43.01421538114391], [-72.82322076998786, 43.01350084871777], [-72.82712428592932, 43.01794234227353], [-72.82973641531076, 43.01955952856767], [-72.83002936201449, 43.0198361169621], [-72.82938148276362, 43.02048614944408], [-72.82909562472327, 43.02106870835015], [-72.8289575837834, 43.023805415168034], [-72.82710037042271, 43.02427374478013], [-72.82671699522457, 43.024406105338976], [-72.8263300017655, 43.024615658741496], [-72.82297509538131, 43.023453223151705], [-72.82235044504523, 43.023308430957634], [-72.8219278959466, 43.02328251327548], [-72.82127301688294, 43.023350394904185], [-72.81989515566049, 43.02364298870044], [-72.81916562166452, 43.023954606040945], [-72.81886722985438, 43.024175172630194], [-72.81844778689864, 43.024712614212994], [-72.8168766279654, 43.02821907297134], [-72.81654853187042, 43.03075505169655], [-72.81588307927262, 43.032064567701724], [-72.81542728341394, 43.03252027372295], [-72.81443540575523, 43.03284552503624], [-72.81032711624616, 43.0330010464152], [-72.80622398201876, 43.032771371046785], [-72.80361129112327, 43.03205754993729], [-72.80083700458725, 43.03190487256366], [-72.79856260390517, 43.03144472844453], [-72.79771834791279, 43.031446934950864], [-72.79692592254254, 43.031660715710935], [-72.79657966637899, 43.03183992744561], [-72.79513204836479, 43.03296161433765], [-72.79471233843324, 43.03349896800268], [-72.79404729307336, 43.03525727814598], [-72.79217749202562, 43.036301847912796], [-72.79146103933918, 43.03643771883824], [-72.79037781742943, 43.03608256740408], [-72.78876652012626, 43.03572706589202], [-72.78724949565121, 43.03531684631509], [-72.7862299695166, 43.03511932600702], [-72.78480867364767, 43.03470230829791], [-72.78196257826684, 43.03345327293149], [-72.78110407453046, 43.03206600210691], [-72.78055932088212, 43.03159275104663], [-72.7798233139555, 43.03126307862086], [-72.77969824893133, 43.03084965916364], [-72.77952938181507, 43.03056409315081], [-72.78510975402752, 43.026385555796026], [-72.78566580206318, 43.02621886359126], [-72.78601205946298, 43.02603986023093], [-72.78631077098672, 43.02581937942335], [-72.78664684076158, 43.025429949188144], [-72.78758897304213, 43.02495579693167], [-72.7881295552219, 43.02447966441146], [-72.78841064142941, 43.02391810502967], [-72.7888316281324, 43.02220661038311], [-72.78959532693153, 43.01955718687344], [-72.79214496184488, 43.01592267838499], [-72.79227065394223, 43.01571095701475], [-72.79240104680795, 43.01521809522449], [-72.7968271252539, 43.015435925998936], [-72.7976697495788, 43.01537954418356], [-72.79816293664311, 43.01528145260285], [-72.79763071684157, 43.01468109860883], [-72.79751091679954, 43.014264483625546], [-72.79763121187693, 43.01302172156321], [-72.79758741954727, 43.012844157347466], [-72.79717347335149, 43.01222169105886], [-72.79680990382283, 43.011869144311866], [-72.7964257919504, 43.0067377160477], [-72.79483175054584, 43.006578620937475], [-72.79383937707013, 43.00657545141362], [-72.79287050348825, 43.00683853479644], [-72.79262935629737, 43.0069483352386], [-72.79192433310126, 43.007525726401354], [-72.79158662697891, 43.007684013274734], [-72.79104615414076, 43.00778261996469], [-72.78873798739349, 43.0078443951467], [-72.78815718309401, 43.00796703559668], [-72.78771514030034, 43.00813187042837], [-72.7872321887776, 43.00848419019077], [-72.78745827339172, 43.00848991484232], [-72.78809366726092, 43.00827754483193], [-72.78804133251036, 43.00835654844024], [-72.78813329261646, 43.00834903632419], [-72.78831728597102, 43.008227716742624], [-72.7886070821569, 43.008190203245995], [-72.78885873336861, 43.0083552175585], [-72.78908693937947, 43.008384423811165], [-72.7891290477867, 43.008494975554626], [-72.78928831390874, 43.00861721980328], [-72.7893980887651, 43.00885232289036], [-72.78952500064709, 43.01164759882274], [-72.78946892778112, 43.01225588502612], [-72.78951800450871, 43.01327520566824], [-72.78897577508681, 43.01323558097563], [-72.78609964766716, 43.01277639359701], [-72.78504213603506, 43.01282165922582], [-72.78344391436595, 43.01273956323004], [-72.78239743091103, 43.01255709588886], [-72.78201330560883, 43.01242660706593], [-72.7813822198387, 43.01204513618143], [-72.78121789856432, 43.011905522677694], [-72.78198832294933, 43.00978012808908], [-72.78287815656581, 43.008064220139616], [-72.78110805607892, 43.00745908169148], [-72.78050074710477, 43.00731988895685], [-72.77969426650711, 43.007317193372906], [-72.77827518957922, 43.00748751321457], [-72.77714646882438, 43.00655503132268], [-72.77860968191304, 43.00564025242096], [-72.78011905576032, 43.00411891945213], [-72.78047466342414, 43.00355554242944], [-72.78307581775347, 42.99633890885972], [-72.78374951947835, 42.990725170424874], [-72.78367280293209, 42.9901061353574], [-72.78352118957677, 42.98965673868419], [-72.78263929615674, 42.987619640756115], [-72.77258069379529, 42.987280071411966], [-72.77268266336202, 42.98807543043156], [-72.77283429141777, 42.98852554642481], [-72.77396288152656, 42.99113136129532], [-72.77347067906418, 42.995101460308874], [-72.77144605768451, 43.00075942406603], [-72.77100709281426, 43.00118657542607], [-72.76953302968403, 43.001835802270286], [-72.76742517792628, 43.001489908603745], [-72.76310967709448, 43.00110549003879], [-72.76248521975948, 43.00107739160623], [-72.76164227785257, 43.00113351609376], [-72.76082460374025, 43.0012962607653], [-72.76005785014837, 43.001560538564505], [-72.75936545666089, 43.00191881058964], [-72.75876864632662, 43.00235959880523], [-72.75828480442534, 43.002870383559745], [-72.75792899905558, 43.003434043294625], [-72.75771190038057, 43.00403518909187], [-72.75723493406727, 43.008346090406064], [-72.7524741135447, 43.00854942503823], [-72.74910918876373, 43.00830351389733], [-72.74799911653643, 43.008403561618024], [-72.74500688139446, 43.017391463785074], [-72.74328658930735, 43.02220847155947], [-72.74004870218336, 43.03223400180166], [-72.73416870441807, 43.049693319214526], [-72.73450387290472, 43.049758604783946], [-72.73534983365994, 43.04981104691891], [-72.73619288469214, 43.04975511880421], [-72.73701135967828, 43.04959290156595], [-72.73777880366735, 43.04932842855569], [-72.73847185152918, 43.04897064318445], [-72.73906983094814, 43.04852996266562], [-72.73955418449313, 43.048018910916085], [-72.74004569659039, 43.047133604971485], [-72.74168972947244, 43.04244782641052], [-72.7435967399671, 43.04185880069498], [-72.74428966874603, 43.04150097991537], [-72.7448875328491, 43.04106026780466], [-72.74537178074331, 43.04054919192586], [-72.74572791293724, 43.03998592604711], [-72.74594525126878, 43.03938480616846], [-72.74601658766761, 43.0387643795541], [-72.74560176889293, 43.03659063128915], [-72.74854605102632, 43.03614137820866], [-72.74966662591385, 43.036247232897445], [-72.75050948393637, 43.036191198772315], [-72.75132774551007, 43.03602887929971], [-72.75209496245226, 43.035764308432896], [-72.75291107564196, 43.035315511583235], [-72.75336626616664, 43.03522335935947], [-72.75391052101568, 43.03501634076845], [-72.75645868247062, 43.03372417114219], [-72.75694317710494, 43.03339961727342], [-72.75736331103751, 43.032862401035565], [-72.75747191210489, 43.0325618303591], [-72.75746931411103, 43.031942092414354], [-72.75717832889002, 43.03136083808363], [-72.75693415687755, 43.031106704320266], [-72.75628561928724, 43.03070994412446], [-72.75567713088329, 43.03053591756374], [-72.75594634221375, 43.029807724451906], [-72.75601756843483, 43.0291872917473], [-72.7559585553437, 43.02864384167458], [-72.75543069146394, 43.02618534708678], [-72.75605337139747, 43.02664665894565], [-72.75675000134362, 43.0270017850451], [-72.75751832942876, 43.027262929210714], [-72.75833723249035, 43.02742229895936], [-72.75918291071761, 43.027474565861596], [-72.76002563974481, 43.02741846190368], [-72.76084375949141, 43.027256075416034], [-72.7616107316882, 43.02699144006134], [-72.76230348904971, 43.026633507966956], [-72.76563778927361, 43.024075531207316], [-72.76612173418366, 43.02356436501863], [-72.76647758133723, 43.023001033657906], [-72.76669475602314, 43.02239987305848], [-72.76676596146346, 43.021779432049115], [-72.7665422202145, 43.02055709508673], [-72.76919555424675, 43.01688720216898], [-72.76947424692968, 43.01642555716083], [-72.76974614049695, 43.01550789999601], [-72.7700301789828, 43.01297190796175], [-72.77071963246372, 43.012606899721014], [-72.77433102035275, 43.01318295840989], [-72.77517651608049, 43.0132351086675], [-72.77594373214727, 43.01318392092537], [-72.77894136447959, 43.01282886694499], [-72.7807155135482, 43.013724826442264], [-72.7805734921856, 43.0138520791124], [-72.77884393513608, 43.01484299300605], [-72.77524722160278, 43.017317426045466], [-72.7747830106517, 43.01775583340163], [-72.7740341322525, 43.01875133941768], [-72.77376700945216, 43.01930896167709], [-72.773634212902, 43.01998584984259], [-72.77224288064026, 43.021534097813785], [-72.77195647805951, 43.022116516311876], [-72.77125796949784, 43.025141908122585], [-72.77128991980976, 43.02673340992799], [-72.77143717103782, 43.027279700890645], [-72.77161757143068, 43.02756103162819], [-72.77199720941948, 43.027960420320355], [-72.7725603161684, 43.02967593757418], [-72.77292182793012, 43.03147154486721], [-72.77303254111457, 43.031771429905355], [-72.77321296203677, 43.03205275695047], [-72.77404278924422, 43.03291833943707], [-72.77446378272282, 43.033251198395725], [-72.77481218753395, 43.03342870504498], [-72.77632633384597, 43.033926680950835], [-72.77712291291232, 43.03424958216173], [-72.77795933462328, 43.035600471693904], [-72.77850390992685, 43.03607370101955], [-72.78305833972196, 43.038052494608365], [-72.78481811066072, 43.038444698691876], [-72.78510870007389, 43.0385094628279], [-72.78513845393111, 43.03859919459125], [-72.78518825555219, 43.04028069666817], [-72.78496847241713, 43.04051089292975], [-72.78378689508784, 43.04174836974319], [-72.78147883731623, 43.04520837406084], [-72.77961689739372, 43.0464597556691], [-72.7792073474049, 43.046497749984034], [-72.77712511106213, 43.04627191301494], [-72.77531253459925, 43.0464986008333], [-72.7745552948267, 43.046707430082535], [-72.7742088875838, 43.04688657318103], [-72.7739102246797, 43.04710702242688], [-72.77343731033457, 43.047645935561896], [-72.77332785849568, 43.04767939269615], [-72.77415068857, 43.05142193839176], [-72.78513531839397, 43.05168523007891], [-72.78528884317824, 43.05099330990773], [-72.78517500796433, 43.050764333224784], [-72.7851650403098, 43.050476410012266], [-72.78503910013798, 43.05013895204373], [-72.78505407011401, 43.04985198657157], [-72.78528366165617, 43.0489910511159], [-72.78567648692272, 43.04809704045214], [-72.78584096897451, 43.04727997222433], [-72.78583628181906, 43.04604686120577], [-72.78617391268106, 43.045350916317474], [-72.786110434425, 43.04442450234196], [-72.7861763685571, 43.04408803990634], [-72.78628087868594, 43.04394990165978], [-72.78706474495488, 43.04407230522108], [-72.7878810480954, 43.04312247018653], [-72.78810228288017, 43.04278294229784], [-72.78822463980838, 43.042458713927154], [-72.78849150845362, 43.04089466557884], [-72.78856033336673, 43.04076878457753], [-72.78801851953368, 43.04062380722662], [-72.78796233573112, 43.04036138405781], [-72.78779262832997, 43.04068418934808], [-72.78759100586083, 43.040317210953596], [-72.78758303287212, 43.039863736803426], [-72.78752049223414, 43.03977556525688], [-72.7876478066999, 43.03913897344068], [-72.78811533570727, 43.03900501810886], [-72.78851384791048, 43.038771831331836], [-72.78953880328463, 43.03837709905919], [-72.78942649871182, 43.03765749567736], [-72.79000478948853, 43.03787334467014], [-72.79026382444917, 43.037347552333145], [-72.79047656467529, 43.0370838177592], [-72.79068507717794, 43.03694027942016], [-72.79089255511278, 43.036755363203355], [-72.79120540195454, 43.03661868085369], [-72.79219387508404, 43.03657097809653], [-72.79295225653388, 43.03629806790831], [-72.7937082680964, 43.03617291343267], [-72.79438814256146, 43.036844598941094], [-72.79349363996569, 43.037281657221726], [-72.79218845903897, 43.03767936867703], [-72.79371148879721, 43.03756813067316], [-72.79493367444788, 43.03924558505045], [-72.79422178865467, 43.03964325096434], [-72.79254189480069, 43.04130292956715], [-72.79228287844415, 43.041494105949134], [-72.79296897867563, 43.04701905606473], [-72.79282863942366, 43.047630652428865], [-72.7921015629178, 43.04941350757909], [-72.79223537858468, 43.051855411899986], [-72.79465989860567, 43.05191352500379], [-72.79454900231664, 43.04963591359184], [-72.79532970660938, 43.047633240842806], [-72.79540065249981, 43.047012786423466], [-72.79479718968811, 43.04207056544427], [-72.79597023652619, 43.04090824630442], [-72.79912045665942, 43.03914828961262], [-72.79990977599543, 43.03859430191029], [-72.80039354909815, 43.03808299261505], [-72.80089036683766, 43.03718299123738], [-72.80688419623836, 43.037970709345934], [-72.80707908313789, 43.038253772994075], [-72.80756732449548, 43.038761826384466], [-72.80816864215056, 43.03919998526328], [-72.80886580767978, 43.039554791751], [-72.80963441716366, 43.03981558636697], [-72.81045361758818, 43.039974581939376], [-72.81129951148468, 43.04002646295732], [-72.81202769471938, 43.040007913142375], [-72.81216037982685, 43.04027074325624], [-72.81261825136278, 43.04062147043823], [-72.8128556229054, 43.04089966142963], [-72.81315763908157, 43.041031395911865], [-72.8138785309461, 43.04181681559758], [-72.81469449165476, 43.04199059388262], [-72.81537169512906, 43.04249612337685], [-72.81574844311719, 43.04257736222929], [-72.81598880754345, 43.04285553836071], [-72.81686326893205, 43.04343709728411], [-72.8171114813509, 43.04371067730312], [-72.81730877221662, 43.043815265308076], [-72.81752102691058, 43.04406953457393], [-72.81796639717918, 43.04442027478488], [-72.8181487248768, 43.04465289582104], [-72.81839290037334, 43.045273929426905], [-72.81903324971249, 43.046129232346175], [-72.81951241144348, 43.0466490389826], [-72.81970249143359, 43.04711588956614], [-72.81990670316439, 43.04733132256444], [-72.82033726281438, 43.04753810401126], [-72.82070566024572, 43.0478124989779], [-72.82094642266688, 43.04837864561912], [-72.82144511919282, 43.048795538153165], [-72.82216489015745, 43.04905518985869], [-72.82319058366491, 43.049574562601144], [-72.82327227057313, 43.04966346875253], [-72.8234236338015, 43.04967218234203], [-72.8235454687631, 43.049936963915734], [-72.82380875859847, 43.05009508256446], [-72.8242585523635, 43.050142927823565], [-72.82494239177224, 43.05040269979544], [-72.82507206672969, 43.05040806202828], [-72.8253009191475, 43.05056282918248], [-72.8257768757653, 43.05105860256904], [-72.8267176576079, 43.05146731728451], [-72.82716828063803, 43.052172270659675], [-72.82736320790065, 43.05236486042149], [-72.82827766237827, 43.052561079037794], [-72.8285944825959, 43.052753055923944]]]]}}, {"type": "Feature", "properties": {"OBJECT_ID": 734, "County": "Windham", "RPC": "WRC", "Municipal_Name": "Wardsboro ", "GEO_ID": "5002576225", "District_Name": "Resource Residential District", "Abbreviated_District_Name": "Rsr", "District_Type": "Mixed with Residential", "Bylaw_Date": null, "Elderly_Housing_District": "No", "District_Mapped": "Yes", "Overlay_District": "No", "Base_Density": null, "GIS_ID": null, "Last_Update": null, "Shape_Length": 68649.21866517678, "Shape_Area": 29799156.155607894, "F1F_Allowance": "Permitted", "F1F_Front_Setback": 45.0, "F1F_Side_Setback": 20.0, "F1F_Rear_Setback": 20.0, "F1F_Frontage": 150.0, "F1F_Max_Height": 35.0, "F1F_Max_Stories": 3.0, "F1F_Min_Lot_Size": 2.0, "F1F_Max_Lot_Building_Coverage": 15.0, "F1F_Max_Lot_Impervious_Coverage": null, "F1F_Min_Parking_Spaces": 2.0, "F1F_Elderly_Housing_Only": null, "F1F_Affordable_Housing_Only": null, "F2F_Allowance": "Permitted", "F2F_Front_Setback": 45.0, "F2F_Side_Setback": 20.0, "F2F_Rear_Setback": 20.0, "F2F_Frontage": 150.0, "F2F_Max_Density": null, "F2F_Max_Height": 35.0, "F2F_Max_Stories": 3.0, "F2F_Min_Lot_Size": 2.0, "F2F_Max_Lot_Building_Coverage": 15.0, "F2F_Max_Lot_Impervious_Coverage": null, "F2F_Min_Parking_Spaces_per_1BR": 2.0, "F2F_Min_Parking_Spaces_per_mult_BR": 2.0, "F2F_Elderly_Housing_Only": "No", "F2F_Affordable_Housing_Only": "No", "F3F_Allowance": "Prohibited", "F3F_Front_Setback": null, "F3F_Side_Setback": null, "F3F_Rear_Setback": null, "F3F_Frontage": null, "F3F_Max_Density": null, "F3F_Max_Height": null, "F3F_Max_Stories": null, "F3F_Min_Lot_Size": null, "F3F_Max_Lot_Building_Coverage": null, "F3F_Max_Lot_Impervious_Coverage": null, "F3F_Min_Parking_Spaces_per_1BR": null, "F3F_Min_Parking_Spaces_per_mult_BR": null, "F3F_Affordable_Housing_Only": null, "F3F_Proximity_to_Public_Transit_Required": null, "F3F_Connection_to_Sewage/Water_Required": null, "F4F_Allowance": "Prohibited", "F4F_Front_Setback": null, "F4F_Side_Setback": null, "F4F_Rear_Setback": null, "F4F_Frontage": null, "F1F_Max_Density": null, "F4F_Max_Density": null, "F4F_Max_Height": null, "F4F_Max_Stories": null, "F4F_Min_Lot_Size": null, "F4F_Max_Lot_Building_Coverage": null, "F4F_Max_Lot_Impervious_Coverage": null, "F4F_Min_Parking_Spaces_per_1BR": null, "F4F_Min_Parking_Spaces_per_mult_BR": null, "F3F_Elderly_Housing_Only": null, "F4F_Elderly_Housing_Only": null, "F4F_Affordable_Housing_Only": null, "F4F_Proximity_to_Public_Transit_Required": null, "F4F_Connection_to_Sewage/Water_Required": null, "ADU_Allowance": "Allowed/Conditional", "ADU_Elderly_Housing_Only": null, "ADU_Max_Size_as_Percent_of_Primary_Strcture": 30.0, "ADU_Max_Size_in_sq_ft": 400.0, "ADU_Min_Lot_Size": null, "ADU_Max_Bedrooms": 1.0, "ADU_Min_Parking_Spaces": 2.0, "ADU_Owner_Occupancy_Required": "Yes", "ADU_Renter_Occupancy_Prohibited": null, "ADU_Employee_or_Family_Occupancy_Required": null, "ADU_Restricted_to_Primary_Structure": null, "Affordable_Housing_Allowance": "Not Mentioned", "Affordable_Housing_District": "No", "Affordable_Housing_Elderly_Only": null, "Affordable_Housing_Min_Lot_Size": null, "Affordable_Housing_Max_Density": null, "Affordable_Housing_Min_Parking_Spaces_per_mult_BR": null, "Affordable_Housing_Max_Units_per_Building": null, "Affordable_Housing_Min_Parking_Spaces_per_1BR": null, "PRD_Allowance": "Not Mentioned", "PRD_Max_Density": null, "PRD_Max_Units": null, "PRD_Min_Lot_Size": null, "PRD_Mobile_or_Manufactured_Home_Park": null, "PUD_Allowance": null, "PUD_Required_with_Subdivision": null, "PUD_Requires_Land_Conservation": null, "PUD_Threshold_Number": null, "Notes": "  Re Density: \"There Shall Be Only One Principal\nBuilding Or One Primary Use And Its Structures On A Lot\"", "FIPS6": null}, "geometry": {"type": "MultiPolygon", "coordinates": [[[[-72.80089036683766, 43.03718299123738], [-72.80039354909815, 43.03808299261505], [-72.79990977599543, 43.03859430191029], [-72.79912045665942, 43.03914828961262], [-72.79597023652619, 43.04090824630442], [-72.79479718968811, 43.04207056544427], [-72.79540065249981, 43.047012786423466], [-72.79532970660938, 43.047633240842806], [-72.79454900231664, 43.04963591359184], [-72.79465989860567, 43.05191352500379], [-72.81162708219874, 43.05233454862214], [-72.8285944825959, 43.052753055923944], [-72.82827766237827, 43.052561079037794], [-72.82736320790065, 43.05236486042149], [-72.82716828063803, 43.052172270659675], [-72.8267176576079, 43.05146731728451], [-72.8257768757653, 43.05105860256904], [-72.8253009191475, 43.05056282918248], [-72.82507206672969, 43.05040806202828], [-72.82494239177224, 43.05040269979544], [-72.8242585523635, 43.050142927823565], [-72.82380875859847, 43.05009508256446], [-72.8235454687631, 43.049936963915734], [-72.8234236338015, 43.04967218234203], [-72.82327227057313, 43.04966346875253], [-72.82319058366491, 43.049574562601144], [-72.82216489015745, 43.04905518985869], [-72.82144511919282, 43.048795538153165], [-72.82094642266688, 43.04837864561912], [-72.82070566024572, 43.0478124989779], [-72.82033726281438, 43.04753810401126], [-72.81990670316439, 43.04733132256444], [-72.81970249143359, 43.04711588956614], [-72.81951241144348, 43.0466490389826], [-72.81903324971249, 43.046129232346175], [-72.81839290037334, 43.045273929426905], [-72.8181487248768, 43.04465289582104], [-72.81796639717918, 43.04442027478488], [-72.81752102691058, 43.04406953457393], [-72.81730877221662, 43.043815265308076], [-72.8171114813509, 43.04371067730312], [-72.81686326893205, 43.04343709728411], [-72.81598880754345, 43.04285553836071], [-72.81574844311719, 43.04257736222929], [-72.81537169512906, 43.04249612337685], [-72.81469449165476, 43.04199059388262], [-72.8138785309461, 43.04181681559758], [-72.81315763908157, 43.041031395911865], [-72.8128556229054, 43.04089966142963], [-72.81261825136278, 43.04062147043823], [-72.81216037982685, 43.04027074325624], [-72.81202769471938, 43.040007913142375], [-72.81129951148468, 43.04002646295732], [-72.81045361758818, 43.039974581939376], [-72.80963441716366, 43.03981558636697], [-72.80886580767978, 43.039554791751], [-72.80816864215056, 43.03919998526328], [-72.80756732449548, 43.038761826384466], [-72.80707908313789, 43.038253772994075], [-72.80688419623836, 43.037970709345934], [-72.80089036683766, 43.03718299123738]]], [[[-72.85125623779057, 43.03575352880775], [-72.84989955707634, 43.03608534269057], [-72.84998383892314, 43.03733333134417], [-72.84991345504163, 43.03795381869408], [-72.84969703846257, 43.03855513384811], [-72.84934186512379, 43.03911872189793], [-72.84792333843097, 43.04075151584548], [-72.84753706086894, 43.04216082276458], [-72.84734565690161, 43.04266455031952], [-72.8469904373, 43.04322812992797], [-72.84650701102747, 43.0437396354378], [-72.84590994504666, 43.044180876423226], [-72.84521747881737, 43.044539311605554], [-72.84445065134365, 43.04480450595529], [-72.84348894304465, 43.044977169942094], [-72.84344690160286, 43.04558684369155], [-72.84352437623834, 43.04649560383399], [-72.84333236235082, 43.04727609231598], [-72.84325278500643, 43.04928549787157], [-72.8431599370354, 43.04979563656528], [-72.84315562601323, 43.050568809132415], [-72.84302115521963, 43.051765872077084], [-72.84303629231806, 43.05311199128408], [-72.84813429406896, 43.05323869690024], [-72.87231592038947, 43.053648494055146], [-72.87293478624943, 43.046652619329784], [-72.87242235779993, 43.046621480328675], [-72.87160290937936, 43.04646292943873], [-72.87083395954026, 43.04620255256842], [-72.87013636272478, 43.045848124678244], [-72.86953454105624, 43.04541029285706], [-72.86885729498563, 43.044641468869564], [-72.86626877089893, 43.040659736151355], [-72.86052610009183, 43.03899315536986], [-72.85671554618443, 43.037983962030815], [-72.85344139854239, 43.0370371200779], [-72.85281485274795, 43.03681587942569], [-72.85211746439808, 43.03646134037584], [-72.85151586364302, 43.03602341319784], [-72.85125623779057, 43.03575352880775]]], [[[-72.77071963246372, 43.012606899721014], [-72.7700301789828, 43.01297190796175], [-72.76974614049695, 43.01550789999601], [-72.76947424692968, 43.01642555716083], [-72.76919555424675, 43.01688720216898], [-72.7665422202145, 43.02055709508673], [-72.76676596146346, 43.021779432049115], [-72.76669475602314, 43.02239987305848], [-72.76647758133723, 43.023001033657906], [-72.76612173418366, 43.02356436501863], [-72.76563778927361, 43.024075531207316], [-72.76230348904971, 43.026633507966956], [-72.7616107316882, 43.02699144006134], [-72.76084375949141, 43.027256075416034], [-72.76002563974481, 43.02741846190368], [-72.75918291071761, 43.027474565861596], [-72.75833723249035, 43.02742229895936], [-72.75751832942876, 43.027262929210714], [-72.75675000134362, 43.0270017850451], [-72.75605337139747, 43.02664665894565], [-72.75543069146394, 43.02618534708678], [-72.7559585553437, 43.02864384167458], [-72.75601756843483, 43.0291872917473], [-72.75594634221375, 43.029807724451906], [-72.75567713088329, 43.03053591756374], [-72.75628561928724, 43.03070994412446], [-72.75693415687755, 43.031106704320266], [-72.75717832889002, 43.03136083808363], [-72.75746931411103, 43.031942092414354], [-72.75747191210489, 43.0325618303591], [-72.75736331103751, 43.032862401035565], [-72.75694317710494, 43.03339961727342], [-72.75645868247062, 43.03372417114219], [-72.75391052101568, 43.03501634076845], [-72.75336626616664, 43.03522335935947], [-72.75291107564196, 43.035315511583235], [-72.75209496245226, 43.035764308432896], [-72.75132774551007, 43.03602887929971], [-72.75050948393637, 43.036191198772315], [-72.74966662591385, 43.036247232897445], [-72.74854605102632, 43.03614137820866], [-72.74560176889293, 43.03659063128915], [-72.74601658766761, 43.0387643795541], [-72.74594525126878, 43.03938480616846], [-72.74572791293724, 43.03998592604711], [-72.74537178074331, 43.04054919192586], [-72.7448875328491, 43.04106026780466], [-72.74428966874603, 43.04150097991537], [-72.7435967399671, 43.04185880069498], [-72.74168972947244, 43.04244782641052], [-72.74004569659039, 43.047133604971485], [-72.73955418449313, 43.048018910916085], [-72.73906983094814, 43.04852996266562], [-72.73847185152918, 43.04897064318445], [-72.73777880366735, 43.04932842855569], [-72.73701135967828, 43.04959290156595], [-72.73619288469214, 43.04975511880421], [-72.73534983365994, 43.04981104691891], [-72.73450387290472, 43.049758604783946], [-72.73416870441807, 43.049693319214526], [-72.73392004278024, 43.05042795912873], [-72.75403521164093, 43.0509267169842], [-72.77415068857, 43.05142193839176], [-72.77332785849568, 43.04767939269615], [-72.77343731033457, 43.047645935561896], [-72.7739102246797, 43.04710702242688], [-72.7742088875838, 43.04688657318103], [-72.7745552948267, 43.046707430082535], [-72.77531253459925, 43.0464986008333], [-72.77712511106213, 43.04627191301494], [-72.7792073474049, 43.046497749984034], [-72.77961689739372, 43.0464597556691], [-72.78147883731623, 43.04520837406084], [-72.78378689508784, 43.04174836974319], [-72.78496847241713, 43.04051089292975], [-72.78496498297997, 43.03968794628421], [-72.78482009534103, 43.038450605197454], [-72.78305833972196, 43.038052494608365], [-72.77850390992685, 43.03607370101955], [-72.77795933462328, 43.035600471693904], [-72.77712291291232, 43.03424958216173], [-72.77632633384597, 43.033926680950835], [-72.77481218753395, 43.03342870504498], [-72.77446378272282, 43.033251198395725], [-72.77404278924422, 43.03291833943707], [-72.77321296203677, 43.03205275695047], [-72.77303254111457, 43.031771429905355], [-72.77292182793012, 43.03147154486721], [-72.7725603161684, 43.02967593757418], [-72.77199720941948, 43.027960420320355], [-72.77161757143068, 43.02756103162819], [-72.77143717103782, 43.027279700890645], [-72.77128991980976, 43.02673340992799], [-72.77125796949784, 43.025141908122585], [-72.77195647805951, 43.022116516311876], [-72.77224288064026, 43.021534097813785], [-72.773634212902, 43.01998584984259], [-72.77376700945216, 43.01930896167709], [-72.7740341322525, 43.01875133941768], [-72.7747830106517, 43.01775583340163], [-72.77524722160278, 43.017317426045466], [-72.77884393513608, 43.01484299300605], [-72.7805734921856, 43.0138520791124], [-72.7807155135482, 43.013724826442264], [-72.77894136447959, 43.01282886694499], [-72.77594373214727, 43.01318392092537], [-72.77517651608049, 43.0132351086675], [-72.77433102035275, 43.01318295840989], [-72.77071963246372, 43.012606899721014]]], [[[-72.85205356776805, 43.009818648382726], [-72.84867077247856, 43.010678150039794], [-72.84869801837823, 43.01076790842963], [-72.84930587856253, 43.011038773796436], [-72.84985097296145, 43.011511699052036], [-72.85014273474452, 43.01209271709116], [-72.85018139349906, 43.0124022087556], [-72.85011705566404, 43.0128174002423], [-72.84911854466826, 43.01588748010635], [-72.84869942222844, 43.01642503221639], [-72.84840098033384, 43.01664567798601], [-72.8476716755053, 43.01695747571522], [-72.84684155007022, 43.017067390038804], [-72.84641874577731, 43.01704156260784], [-72.84600925200887, 43.0169621769328], [-72.84527645255228, 43.01665461013718], [-72.8447315377105, 43.01618169809045], [-72.84455083909127, 43.01590048305967], [-72.84440117863325, 43.01529134856378], [-72.8444654613503, 43.01487630194442], [-72.84495052097155, 43.01336054216166], [-72.84449994097172, 43.012956298003694], [-72.84431925295806, 43.012675082412024], [-72.84406230468177, 43.01190118166923], [-72.84361591906598, 43.01157568600403], [-72.84276545764678, 43.01184252844286], [-72.84038366394621, 43.01394347322764], [-72.83960687015683, 43.01619147113309], [-72.83918766125096, 43.01672898867761], [-72.8359589265187, 43.018961683126726], [-72.83641563223404, 43.01938387581202], [-72.83659601705558, 43.01966510445092], [-72.83673625000634, 43.02012237160599], [-72.83685396323524, 43.021087317224655], [-72.8388554847711, 43.02457342284178], [-72.84248185330678, 43.0270656003734], [-72.84284734109386, 43.027493104063566], [-72.84393791486721, 43.029293819723705], [-72.84675075176072, 43.02970582201796], [-72.8478840414052, 43.02962610556593], [-72.84880867476451, 43.02943424814467], [-72.85072280786324, 43.02701483513947], [-72.85136716720574, 43.02661480911181], [-72.85175050261229, 43.02648236527116], [-72.85254490984858, 43.02637467241711], [-72.85341308652066, 43.026477405418035], [-72.8558319976257, 43.02718992134788], [-72.85648051516905, 43.02726434343206], [-72.85938759015427, 43.027597888240855], [-72.86015043865997, 43.02751900502041], [-72.86209704933545, 43.02703804181232], [-72.86286238898977, 43.02694475142482], [-72.86749007879726, 43.02751361456419], [-72.86834738112962, 43.02712261828562], [-72.87005209284487, 43.02556188373936], [-72.8706963095669, 43.02516174931183], [-72.87107959517863, 43.02502924088115], [-72.87181317450546, 43.02492073201285], [-72.87450060356215, 43.02485543515487], [-72.87529252352385, 43.01747310170161], [-72.8777231864852, 43.01754441212584], [-72.87799064663187, 43.01235031643177], [-72.87754171361335, 43.012388279697376], [-72.87578842216197, 43.01285978467714], [-72.874928824278, 43.01304124138276], [-72.8742093689663, 43.01339449241835], [-72.87204079402545, 43.01421181384683], [-72.87132869502025, 43.0143481043189], [-72.86845204939928, 43.01453603956939], [-72.86761799456919, 43.01463442034418], [-72.8653294225037, 43.01576461617237], [-72.86486114465106, 43.015970266577554], [-72.86440949669439, 43.01604826557601], [-72.86369931716389, 43.016516260088494], [-72.86311822773816, 43.016760541809475], [-72.86251910549193, 43.016896419838545], [-72.86181385122808, 43.016726393595256], [-72.86109162194983, 43.01662659527755], [-72.86040308185375, 43.016737038847296], [-72.86095568086856, 43.01586736172461], [-72.8612596842467, 43.015198725643735], [-72.86142560421204, 43.01471358312812], [-72.86089200640882, 43.01457050665478], [-72.85988766279895, 43.01418192623862], [-72.85953912500327, 43.01400467755409], [-72.85906891091834, 43.0136200332689], [-72.85780466533252, 43.012222089724666], [-72.85750506814021, 43.01175627462209], [-72.85709463399883, 43.01076884523749], [-72.85557867898605, 43.01295621773817], [-72.85533712064309, 43.013212006345775], [-72.85469273318768, 43.01361188013595], [-72.85390064134987, 43.01382605572835], [-72.85305663138539, 43.01382866959031], [-72.85264714936592, 43.01374930667819], [-72.85191435536869, 43.01344178219174], [-72.85161371609951, 43.013222834143725], [-72.85118869904488, 43.01268769692676], [-72.85103898104924, 43.012078570972186], [-72.85118221479729, 43.01146784141468], [-72.85224842154855, 43.00994139940435], [-72.85205356776805, 43.009818648382726]]], [[[-72.7938223338, 43.00300866232194], [-72.792979396503, 43.00306501666954], [-72.79216177950164, 43.00322798409256], [-72.7913952330601, 43.00349247296692], [-72.78977069613552, 43.00428324375104], [-72.78685548355772, 43.00462139058518], [-72.7860378307519, 43.00478431612128], [-72.78527123972772, 43.00504876313783], [-72.78457885882527, 43.00540718740143], [-72.78398219458201, 43.00584810640385], [-72.78341654568813, 43.00642928073432], [-72.78250234083023, 43.005982377437576], [-72.78173379119212, 43.00572175067816], [-72.78091511710012, 43.0055625470832], [-72.78007020157625, 43.00551043859117], [-72.77860968191304, 43.00564025242096], [-72.77714646882438, 43.00655503132268], [-72.77827518957922, 43.00748751321457], [-72.77969426650711, 43.007317193372906], [-72.78050074710477, 43.00731988895685], [-72.78110805607892, 43.00745908169148], [-72.78287815656581, 43.008064220139616], [-72.78333299697968, 43.00828219237569], [-72.78361586269021, 43.00848624292018], [-72.78448527310218, 43.009224927143826], [-72.78520067374488, 43.009378138627646], [-72.78598263283395, 43.00929477796627], [-72.78617508797952, 43.00921911758141], [-72.78671716039676, 43.00894552341349], [-72.78688474067478, 43.0088174257043], [-72.78706913701733, 43.00855556037823], [-72.7872321887776, 43.00848419019077], [-72.78771514030034, 43.00813187042837], [-72.78815718309401, 43.00796703559668], [-72.78873798739349, 43.0078443951467], [-72.79104615414076, 43.00778261996469], [-72.79158662697891, 43.007684013274734], [-72.79192433310126, 43.007525726401354], [-72.79262935629737, 43.0069483352386], [-72.79287050348825, 43.00683853479644], [-72.79383937707013, 43.00657545141362], [-72.79483175054584, 43.006578620937475], [-72.7964257919504, 43.0067377160477], [-72.79680990382283, 43.011869144311866], [-72.79717347335149, 43.01222169105886], [-72.79758741954727, 43.012844157347466], [-72.79763121187693, 43.01302172156321], [-72.79751091679954, 43.014264483625546], [-72.79763071684157, 43.01468109860883], [-72.79816293664311, 43.01528145260285], [-72.7976697495788, 43.01537954418356], [-72.7968271252539, 43.015435925998936], [-72.79240104680795, 43.01521809522449], [-72.79227065394223, 43.01571095701475], [-72.79214496184488, 43.01592267838499], [-72.78959532693153, 43.01955718687344], [-72.7888316281324, 43.02220661038311], [-72.78841064142941, 43.02391810502967], [-72.7881295552219, 43.02447966441146], [-72.78758897304213, 43.02495579693167], [-72.78664684076158, 43.025429949188144], [-72.78631077098672, 43.02581937942335], [-72.78601205946298, 43.02603986023093], [-72.78566580206318, 43.02621886359126], [-72.78510975402752, 43.026385555796026], [-72.77952938181507, 43.03056409315081], [-72.77969824893133, 43.03084965916364], [-72.7798233139555, 43.03126307862086], [-72.78055932088212, 43.03159275104663], [-72.78110407453046, 43.03206600210691], [-72.78196257826684, 43.03345327293149], [-72.78480867364767, 43.03470230829791], [-72.7862299695166, 43.03511932600702], [-72.78724949565121, 43.03531684631509], [-72.78876652012626, 43.03572706589202], [-72.79037781742943, 43.03608256740408], [-72.79146103933918, 43.03643771883824], [-72.79217749202562, 43.036301847912796], [-72.79404729307336, 43.03525727814598], [-72.79471233843324, 43.03349896800268], [-72.79513204836479, 43.03296161433765], [-72.79657966637899, 43.03183992744561], [-72.79692592254254, 43.031660715710935], [-72.79771834791279, 43.031446934950864], [-72.79856260390517, 43.03144472844453], [-72.80083700458725, 43.03190487256366], [-72.80361129112327, 43.03205754993729], [-72.80622398201876, 43.032771371046785], [-72.81032711624616, 43.0330010464152], [-72.81443540575523, 43.03284552503624], [-72.81542728341394, 43.03252027372295], [-72.81588307927262, 43.032064567701724], [-72.81654853187042, 43.03075505169655], [-72.8168766279654, 43.02821907297134], [-72.81844778689864, 43.024712614212994], [-72.81886722985438, 43.024175172630194], [-72.81916562166452, 43.023954606040945], [-72.81989515566049, 43.02364298870044], [-72.82127301688294, 43.023350394904185], [-72.8219278959466, 43.02328251327548], [-72.82235044504523, 43.023308430957634], [-72.82297509538131, 43.023453223151705], [-72.8263300017655, 43.024615658741496], [-72.82671699522457, 43.024406105338976], [-72.82710037042271, 43.02427374478013], [-72.8289575837834, 43.023805415168034], [-72.82909562472327, 43.02106870835015], [-72.82938148276362, 43.02048614944408], [-72.83002936201449, 43.0198361169621], [-72.82973641531076, 43.01955952856767], [-72.82712428592932, 43.01794234227353], [-72.82322076998786, 43.01350084871777], [-72.81669308854849, 43.01421538114391], [-72.81492475171326, 43.0141660895934], [-72.81483061324224, 43.00858295685805], [-72.81471428945076, 43.00776102634131], [-72.81449197148771, 43.00716137104589], [-72.81413138262928, 43.00659877173426], [-72.81364286549667, 43.006090779268405], [-72.81304183349651, 43.005652645715564], [-72.81234550581677, 43.005297860127456], [-72.81157683973389, 43.0050374349954], [-72.8107581001396, 43.004878445949565], [-72.79983751564635, 43.003746552618395], [-72.79807511421996, 43.00337447036611], [-72.79684061414906, 43.00318390599168], [-72.7938223338, 43.00300866232194]]], [[[-72.75423496033443, 42.9866584482054], [-72.74973533076478, 43.002737852431416], [-72.74948411534952, 43.003942031023925], [-72.74799911653643, 43.008403561618024], [-72.74910918876373, 43.00830351389733], [-72.7524741135447, 43.00854942503823], [-72.75723493406727, 43.008346090406064], [-72.75771190038057, 43.00403518909187], [-72.75792899905558, 43.003434043294625], [-72.75828480442534, 43.002870383559745], [-72.75876864632662, 43.00235959880523], [-72.75936545666089, 43.00191881058964], [-72.76005785014837, 43.001560538564505], [-72.76082460374025, 43.0012962607653], [-72.76164227785257, 43.00113351609376], [-72.76248521975948, 43.00107739160623], [-72.76310967709448, 43.00110549003879], [-72.76742517792628, 43.001489908603745], [-72.76953302968403, 43.001835802270286], [-72.77100709281426, 43.00118657542607], [-72.77144605768451, 43.00075942406603], [-72.77347067906418, 42.995101460308874], [-72.77396288152656, 42.99113136129532], [-72.77283429141777, 42.98852554642481], [-72.77268266336202, 42.98807543043156], [-72.77258069379529, 42.987280071411966], [-72.75423496033443, 42.9866584482054]]]]}}, {"type": "Feature", "properties": {"OBJECT_ID": 733, "County": "Windham", "RPC": "WRC", "Municipal_Name": "Wardsboro ", "GEO_ID": "5002576225", "District_Name": "Conservation District", "Abbreviated_District_Name": "Cn", "District_Type": "Mixed with Residential", "Bylaw_Date": null, "Elderly_Housing_District": "No", "District_Mapped": "Yes", "Overlay_District": "No", "Base_Density": null, "GIS_ID": null, "Last_Update": null, "Shape_Length": 21431.434273861076, "Shape_Area": 14718843.95359903, "F1F_Allowance": "Permitted", "F1F_Front_Setback": 55.0, "F1F_Side_Setback": 30.0, "F1F_Rear_Setback": 30.0, "F1F_Frontage": 300.0, "F1F_Max_Height": 35.0, "F1F_Max_Stories": 3.0, "F1F_Min_Lot_Size": 25.0, "F1F_Max_Lot_Building_Coverage": 1.0, "F1F_Max_Lot_Impervious_Coverage": null, "F1F_Min_Parking_Spaces": 2.0, "F1F_Elderly_Housing_Only": null, "F1F_Affordable_Housing_Only": null, "F2F_Allowance": "Permitted", "F2F_Front_Setback": 55.0, "F2F_Side_Setback": 30.0, "F2F_Rear_Setback": 30.0, "F2F_Frontage": 300.0, "F2F_Max_Density": null, "F2F_Max_Height": 35.0, "F2F_Max_Stories": 3.0, "F2F_Min_Lot_Size": 25.0, "F2F_Max_Lot_Building_Coverage": 1.0, "F2F_Max_Lot_Impervious_Coverage": null, "F2F_Min_Parking_Spaces_per_1BR": 2.0, "F2F_Min_Parking_Spaces_per_mult_BR": 2.0, "F2F_Elderly_Housing_Only": "No", "F2F_Affordable_Housing_Only": "No", "F3F_Allowance": "Prohibited", "F3F_Front_Setback": null, "F3F_Side_Setback": null, "F3F_Rear_Setback": null, "F3F_Frontage": null, "F3F_Max_Density": null, "F3F_Max_Height": null, "F3F_Max_Stories": null, "F3F_Min_Lot_Size": null, "F3F_Max_Lot_Building_Coverage": null, "F3F_Max_Lot_Impervious_Coverage": null, "F3F_Min_Parking_Spaces_per_1BR": null, "F3F_Min_Parking_Spaces_per_mult_BR": null, "F3F_Affordable_Housing_Only": null, "F3F_Proximity_to_Public_Transit_Required": null, "F3F_Connection_to_Sewage/Water_Required": null, "F4F_Allowance": "Prohibited", "F4F_Front_Setback": null, "F4F_Side_Setback": null, "F4F_Rear_Setback": null, "F4F_Frontage": null, "F1F_Max_Density": null, "F4F_Max_Density": null, "F4F_Max_Height": null, "F4F_Max_Stories": null, "F4F_Min_Lot_Size": null, "F4F_Max_Lot_Building_Coverage": null, "F4F_Max_Lot_Impervious_Coverage": null, "F4F_Min_Parking_Spaces_per_1BR": null, "F4F_Min_Parking_Spaces_per_mult_BR": null, "F3F_Elderly_Housing_Only": null, "F4F_Elderly_Housing_Only": null, "F4F_Affordable_Housing_Only": null, "F4F_Proximity_to_Public_Transit_Required": null, "F4F_Connection_to_Sewage/Water_Required": null, "ADU_Allowance": "Allowed/Conditional", "ADU_Elderly_Housing_Only": null, "ADU_Max_Size_as_Percent_of_Primary_Strcture": 30.0, "ADU_Max_Size_in_sq_ft": 400.0, "ADU_Min_Lot_Size": null, "ADU_Max_Bedrooms": 1.0, "ADU_Min_Parking_Spaces": 2.0, "ADU_Owner_Occupancy_Required": "Yes", "ADU_Renter_Occupancy_Prohibited": null, "ADU_Employee_or_Family_Occupancy_Required": null, "ADU_Restricted_to_Primary_Structure": null, "Affordable_Housing_Allowance": "Not Mentioned", "Affordable_Housing_District": "No", "Affordable_Housing_Elderly_Only": null, "Affordable_Housing_Min_Lot_Size": null, "Affordable_Housing_Max_Density": null, "Affordable_Housing_Min_Parking_Spaces_per_mult_BR": null, "Affordable_Housing_Max_Units_per_Building": null, "Affordable_Housing_Min_Parking_Spaces_per_1BR": null, "PRD_Allowance": "Not Mentioned", "PRD_Max_Density": null, "PRD_Max_Units": null, "PRD_Min_Lot_Size": null, "PRD_Mobile_or_Manufactured_Home_Park": null, "PUD_Allowance": null, "PUD_Required_with_Subdivision": null, "PUD_Requires_Land_Conservation": null, "PUD_Threshold_Number": null, "Notes": "  Re Density: \"There Shall Be Only One Principal\nBuilding Or One Primary Use And Its Structures On A Lot\"", "FIPS6": null}, "geometry": {"type": "MultiPolygon", "coordinates": [[[[-72.81483061324224, 43.00858295685805], [-72.81947183787439, 43.00851052495951], [-72.82264501265304, 43.0081527433003], [-72.8233644548498, 43.00811139493127], [-72.8242094419349, 43.008163183562246], [-72.82502825931262, 43.00832207603857], [-72.8254746740272, 43.00845846728222], [-72.82742529263845, 43.00915213821111], [-72.82812174898962, 43.009506831390475], [-72.82872292542811, 43.00994488498109], [-72.83240326975647, 43.014077339184944], [-72.83295152683785, 43.013701430901556], [-72.83358649022526, 43.01190918181451], [-72.83394165082645, 43.01134528895278], [-72.83442369058524, 43.01083499807216], [-72.83753664621612, 43.00808958804607], [-72.83813294727206, 43.007648390351996], [-72.8388250398778, 43.007289644129344], [-72.83959142795445, 43.007024838308574], [-72.84155330193886, 43.00665277442979], [-72.84282312199252, 43.00650014242197], [-72.84410389405839, 43.006251324278544], [-72.84984004391112, 43.0047197473394], [-72.85026620950141, 43.00425126080376], [-72.85115780420787, 43.00359139426758], [-72.85394044149102, 43.00224941513403], [-72.854478189987, 43.00204359201571], [-72.85534635217468, 43.001855882441035], [-72.85705018064405, 43.001876099148745], [-72.85774644899153, 43.00202704374363], [-72.85899226662885, 43.00250801841767], [-72.85980407989666, 43.00309242499313], [-72.86013606790418, 43.00337847778492], [-72.86066116112107, 43.00398291960463], [-72.8612808549031, 43.00589494765413], [-72.86267962408644, 43.00723669090705], [-72.86331074675851, 43.008121501207185], [-72.86390921714552, 43.00788992205034], [-72.86477739335385, 43.00769575969279], [-72.868791641186, 43.00735751870684], [-72.869701653413, 43.00689522707593], [-72.87056887670636, 43.006547906135765], [-72.87183603930379, 43.00621204003435], [-72.87678421554526, 43.00509212757126], [-72.87787878980527, 43.00497367957844], [-72.87841805144744, 43.00497199962884], [-72.87850113822749, 43.003590700725184], [-72.87944986615663, 42.990960552669925], [-72.86361421501088, 42.99035900852216], [-72.8477788584136, 42.98975527231754], [-72.8232520870327, 42.98896069786607], [-72.79872591783908, 42.988160865697516], [-72.78263929615674, 42.987619640756115], [-72.78352118957677, 42.98965673868419], [-72.78367280293209, 42.9901061353574], [-72.78374951947835, 42.990725170424874], [-72.78307581775347, 42.99633890885972], [-72.78047466342414, 43.00355554242944], [-72.78011905576032, 43.00411891945213], [-72.77860968191304, 43.00564025242096], [-72.78007020157625, 43.00551043859117], [-72.78091511710012, 43.0055625470832], [-72.78173379119212, 43.00572175067816], [-72.78250234083023, 43.005982377437576], [-72.78341654568813, 43.00642928073432], [-72.78398219458201, 43.00584810640385], [-72.78457885882527, 43.00540718740143], [-72.78527123972772, 43.00504876313783], [-72.7860378307519, 43.00478431612128], [-72.78685548355772, 43.00462139058518], [-72.78977069613552, 43.00428324375104], [-72.7913952330601, 43.00349247296692], [-72.79216177950164, 43.00322798409256], [-72.792979396503, 43.00306501666954], [-72.7938223338, 43.00300866232194], [-72.79684061414906, 43.00318390599168], [-72.79807511421996, 43.00337447036611], [-72.79983751564635, 43.003746552618395], [-72.8107581001396, 43.004878445949565], [-72.81157683973389, 43.0050374349954], [-72.81234550581677, 43.005297860127456], [-72.81304183349651, 43.005652645715564], [-72.81364286549667, 43.006090779268405], [-72.81413138262928, 43.00659877173426], [-72.81449197148771, 43.00716137104589], [-72.81471428945076, 43.00776102634131], [-72.81483061324224, 43.00858295685805]]]]}}]}