{"type":"FeatureCollection","name":"Windsor_Stockbridge","features":[{"type":"Feature","properties":{"OBJECT_ID":588,"County":"Windsor","RPC":"TRORC","Municipal_Name":"Stockbridge","GEO_ID":"5002770375","District_Name":"Stockbridge School Hamlet","Abbreviated_District_Name":"Ssh","District_Type":"Mixed with Residential","Bylaw_Date":null,"Elderly_Housing_District":"No","District_Mapped":"Yes","Overlay_District":"No","Base_Density":null,"FIPS6":null,"GIS_ID":null,"Last_Update":null,"Shape_Length":2792.8541672437004,"Shape_Area":271795.51092635526,"F1F_Allowance":"Permitted","F1F_Front_Setback":40.0,"F1F_Side_Setback":15.0,"F1F_Rear_Setback":10.0,"F1F_Frontage":100.0,"F1F_Max_Height":35.0,"F1F_Max_Stories":null,"F1F_Min_Lot_Size":0.5,"F1F_Max_Lot_Building_Coverage":null,"F1F_Max_Lot_Impervious_Coverage":20.0,"F1F_Min_Parking_Spaces":2.0,"F1F_Elderly_Housing_Only":null,"F1F_Affordable_Housing_Only":null,"F2F_Allowance":"Permitted","F2F_Front_Setback":40.0,"F2F_Side_Setback":15.0,"F2F_Rear_Setback":10.0,"F2F_Frontage":100.0,"F2F_Max_Density":4.0,"F2F_Max_Height":35.0,"F2F_Max_Stories":null,"F2F_Min_Lot_Size":0.5,"F2F_Max_Lot_Building_Coverage":null,"F2F_Max_Lot_Impervious_Coverage":20.0,"F2F_Min_Parking_Spaces_per_1BR":2.0,"F2F_Min_Parking_Spaces_per_mult_BR":2.0,"F2F_Elderly_Housing_Only":"No","F2F_Affordable_Housing_Only":"No","F3F_Allowance":"Public Hearing","F3F_Front_Setback":40.0,"F3F_Side_Setback":15.0,"F3F_Rear_Setback":10.0,"F3F_Frontage":100.0,"F3F_Max_Density":6.0,"F3F_Max_Height":35.0,"F3F_Max_Stories":null,"F3F_Min_Lot_Size":0.5,"F3F_Max_Lot_Building_Coverage":null,"F3F_Max_Lot_Impervious_Coverage":20.0,"F3F_Min_Parking_Spaces_per_1BR":2.0,"F3F_Min_Parking_Spaces_per_mult_BR":2.0,"F3F_Affordable_Housing_Only":"No","F3F_Proximity_to_Public_Transit_Required":"No","F3F_Connection_to_Sewage/Water_Required":"No","F4F_Allowance":"Public Hearing","F4F_Front_Setback":40.0,"F4F_Side_Setback":15.0,"F4F_Rear_Setback":10.0,"F4F_Frontage":100.0,"F1F_Max_Density":null,"F4F_Max_Density":8.0,"F4F_Max_Height":35.0,"F4F_Max_Stories":null,"F4F_Min_Lot_Size":0.5,"F4F_Max_Lot_Building_Coverage":null,"F4F_Max_Lot_Impervious_Coverage":20.0,"F4F_Min_Parking_Spaces_per_1BR":2.0,"F4F_Min_Parking_Spaces_per_mult_BR":2.0,"F3F_Elderly_Housing_Only":"No","F4F_Elderly_Housing_Only":"No","F4F_Affordable_Housing_Only":"No","F4F_Proximity_to_Public_Transit_Required":"No","F4F_Connection_to_Sewage/Water_Required":"No","ADU_Allowance":"Allowed/Conditional","ADU_Elderly_Housing_Only":"No","ADU_Max_Size_as_Percent_of_Primary_Strcture":50.0,"ADU_Max_Size_in_sq_ft":1500.0,"ADU_Min_Lot_Size":0.5,"ADU_Max_Bedrooms":null,"ADU_Min_Parking_Spaces":2.0,"ADU_Owner_Occupancy_Required":"No","ADU_Renter_Occupancy_Prohibited":"No","ADU_Employee_or_Family_Occupancy_Required":"No","ADU_Restricted_to_Primary_Structure":"No","Affordable_Housing_Allowance":"Not Mentioned","Affordable_Housing_District":"No","Affordable_Housing_Elderly_Only":null,"Affordable_Housing_Min_Lot_Size":null,"Affordable_Housing_Max_Density":null,"Affordable_Housing_Min_Parking_Spaces_per_mult_BR":null,"Affordable_Housing_Max_Units_per_Building":null,"Affordable_Housing_Min_Parking_Spaces_per_1BR":null,"PRD_Allowance":"Public Hearing","PRD_Max_Density":null,"PRD_Max_Units":null,"PRD_Min_Lot_Size":null,"PRD_Mobile_or_Manufactured_Home_Park":"No","PUD_Allowance":null,"PUD_Required_with_Subdivision":null,"PUD_Requires_Land_Conservation":null,"PUD_Threshold_Number":null,"Notes":"None"},"geometry":{"type":"MultiPolygon","coordinates":[[[[-72.72127261473716,43.7596218570878],[-72.72009957001835,43.75980643117704],[-72.71897738425476,43.759882545572644],[-72.71788992620002,43.76015580497265],[-72.7173304346214,43.76063760075083],[-72.71722986433127,43.76104456356065],[-72.71803390433975,43.762337307021205],[-72.71789958924583,43.76281829262713],[-72.7174602001934,43.76359569429178],[-72.71698558069939,43.764040346713735],[-72.71520176371796,43.76461073471079],[-72.71393740707501,43.76485440634341],[-72.71231223377613,43.765146174263535],[-72.71172023239743,43.765364933035364],[-72.71192353031009,43.76547254815767],[-72.71209635733346,43.76565353114696],[-72.71249102784056,43.76604373458927],[-72.71338995671992,43.76595149217814],[-72.71398113204094,43.76597387307327],[-72.71568397196656,43.76656710237897],[-72.71711113769297,43.766691674119926],[-72.717654923657,43.76659402384489],[-72.71821508422472,43.766410553221135],[-72.71852258101416,43.76622742279246],[-72.71890896293307,43.76575246436648],[-72.71897208415925,43.76550088921376],[-72.71946880814092,43.76484865757534],[-72.71989487820059,43.76387633715609],[-72.72035238229039,43.76343569200986],[-72.72076230988141,43.762829188279476],[-72.72099889486806,43.762577276700426],[-72.72195291923217,43.76207912930927],[-72.72242607184508,43.76157544110154],[-72.72258990743536,43.76128693355559],[-72.7230030513586,43.75987629743093],[-72.72297940676864,43.759779304404695],[-72.7228677897918,43.759819804326845],[-72.72258437577028,43.75979485879035],[-72.72127261473716,43.7596218570878]]]]}},{"type":"Feature","properties":{"OBJECT_ID":586,"County":"Windsor","RPC":"TRORC","Municipal_Name":"Stockbridge","GEO_ID":"5002770375","District_Name":"Rural Residential","Abbreviated_District_Name":"Rr","District_Type":"Primarily Residential","Bylaw_Date":null,"Elderly_Housing_District":"No","District_Mapped":"Yes","Overlay_District":"No","Base_Density":null,"FIPS6":null,"GIS_ID":null,"Last_Update":null,"Shape_Length":83082.81017102212,"Shape_Area":59883090.018768616,"F1F_Allowance":"Permitted","F1F_Front_Setback":50.0,"F1F_Side_Setback":25.0,"F1F_Rear_Setback":25.0,"F1F_Frontage":100.0,"F1F_Max_Height":35.0,"F1F_Max_Stories":null,"F1F_Min_Lot_Size":1.0,"F1F_Max_Lot_Building_Coverage":null,"F1F_Max_Lot_Impervious_Coverage":20.0,"F1F_Min_Parking_Spaces":1.0,"F1F_Elderly_Housing_Only":null,"F1F_Affordable_Housing_Only":null,"F2F_Allowance":"Permitted","F2F_Front_Setback":50.0,"F2F_Side_Setback":25.0,"F2F_Rear_Setback":25.0,"F2F_Frontage":100.0,"F2F_Max_Density":2.0,"F2F_Max_Height":35.0,"F2F_Max_Stories":null,"F2F_Min_Lot_Size":1.0,"F2F_Max_Lot_Building_Coverage":null,"F2F_Max_Lot_Impervious_Coverage":20.0,"F2F_Min_Parking_Spaces_per_1BR":2.0,"F2F_Min_Parking_Spaces_per_mult_BR":2.0,"F2F_Elderly_Housing_Only":"No","F2F_Affordable_Housing_Only":"No","F3F_Allowance":"Public Hearing","F3F_Front_Setback":50.0,"F3F_Side_Setback":25.0,"F3F_Rear_Setback":25.0,"F3F_Frontage":100.0,"F3F_Max_Density":3.0,"F3F_Max_Height":35.0,"F3F_Max_Stories":null,"F3F_Min_Lot_Size":1.0,"F3F_Max_Lot_Building_Coverage":null,"F3F_Max_Lot_Impervious_Coverage":20.0,"F3F_Min_Parking_Spaces_per_1BR":2.0,"F3F_Min_Parking_Spaces_per_mult_BR":2.0,"F3F_Affordable_Housing_Only":"No","F3F_Proximity_to_Public_Transit_Required":"No","F3F_Connection_to_Sewage/Water_Required":"No","F4F_Allowance":"Public Hearing","F4F_Front_Setback":50.0,"F4F_Side_Setback":25.0,"F4F_Rear_Setback":25.0,"F4F_Frontage":100.0,"F1F_Max_Density":null,"F4F_Max_Density":4.0,"F4F_Max_Height":35.0,"F4F_Max_Stories":null,"F4F_Min_Lot_Size":1.0,"F4F_Max_Lot_Building_Coverage":null,"F4F_Max_Lot_Impervious_Coverage":20.0,"F4F_Min_Parking_Spaces_per_1BR":2.0,"F4F_Min_Parking_Spaces_per_mult_BR":2.0,"F3F_Elderly_Housing_Only":"No","F4F_Elderly_Housing_Only":"No","F4F_Affordable_Housing_Only":"No","F4F_Proximity_to_Public_Transit_Required":"No","F4F_Connection_to_Sewage/Water_Required":"No","ADU_Allowance":"Allowed/Conditional","ADU_Elderly_Housing_Only":"No","ADU_Max_Size_as_Percent_of_Primary_Strcture":50.0,"ADU_Max_Size_in_sq_ft":1500.0,"ADU_Min_Lot_Size":1.0,"ADU_Max_Bedrooms":null,"ADU_Min_Parking_Spaces":2.0,"ADU_Owner_Occupancy_Required":"No","ADU_Renter_Occupancy_Prohibited":"No","ADU_Employee_or_Family_Occupancy_Required":"No","ADU_Restricted_to_Primary_Structure":"No","Affordable_Housing_Allowance":"Not Mentioned","Affordable_Housing_District":"No","Affordable_Housing_Elderly_Only":null,"Affordable_Housing_Min_Lot_Size":null,"Affordable_Housing_Max_Density":null,"Affordable_Housing_Min_Parking_Spaces_per_mult_BR":null,"Affordable_Housing_Max_Units_per_Building":null,"Affordable_Housing_Min_Parking_Spaces_per_1BR":null,"PRD_Allowance":"Public Hearing","PRD_Max_Density":null,"PRD_Max_Units":null,"PRD_Min_Lot_Size":null,"PRD_Mobile_or_Manufactured_Home_Park":"Yes","PUD_Allowance":null,"PUD_Required_with_Subdivision":null,"PUD_Requires_Land_Conservation":null,"PUD_Threshold_Number":null,"Notes":"None"},"geometry":{"type":"MultiPolygon","coordinates":[[[[-72.7222833304088,43.7240109966769],[-72.72166042685633,43.72442047559127],[-72.72112351021754,43.72464442780072],[-72.71962543948565,43.7247447924008],[-72.71951690834122,43.72655595843243],[-72.71917026556417,43.72631979825011],[-72.71578737804747,43.7253519509799],[-72.71435200491725,43.72801477727811],[-72.71529785967724,43.72829510360072],[-72.7141927440146,43.730110959823165],[-72.7145313875787,43.731520889247555],[-72.71397713572917,43.73196535614934],[-72.7143128418285,43.732609533892855],[-72.71664957582705,43.733209693324206],[-72.71449426513828,43.73668000673547],[-72.71627526444261,43.73728122030841],[-72.71605502682068,43.737845865569156],[-72.7165001772108,43.73800632557167],[-72.71655686829733,43.73828833161668],[-72.71672426482893,43.73844917983474],[-72.71672528859672,43.73873129131265],[-72.7168930779257,43.73905344621871],[-72.71711687869265,43.73941571563917],[-72.71733975381603,43.73957659793474],[-72.71745177920643,43.73981813485537],[-72.71700763972913,43.7399399295625],[-72.71650734189018,43.73998124530551],[-72.71355736950225,43.73893881727561],[-72.71191790796449,43.74176836195535],[-72.71717413755518,43.747633868024785],[-72.72058815691673,43.74733603919752],[-72.72076174872909,43.74769375711162],[-72.72069508624436,43.749706505887175],[-72.72099650198932,43.7502124857968],[-72.72117541868147,43.75025929128106],[-72.72141832413261,43.74994492512948],[-72.72173792513578,43.74922345003685],[-72.72247827737765,43.7491622903959],[-72.72250941145953,43.749395401776894],[-72.72244587054728,43.74962841661723],[-72.72232726160536,43.749764782734935],[-72.72207478674056,43.74990098767261],[-72.72277534298986,43.750629511012725],[-72.72183592242102,43.75119149640344],[-72.72057364633594,43.7515428655577],[-72.72042386997198,43.75154259466495],[-72.72010054939548,43.75146277828647],[-72.71949908676388,43.751014237770235],[-72.7183463776335,43.750871928067326],[-72.71785445459585,43.750653253361065],[-72.71731044493303,43.75059593163444],[-72.71685567469812,43.750408748059606],[-72.71589146204292,43.75042973482501],[-72.71556793307516,43.75050333782474],[-72.71466818526231,43.75089488061934],[-72.71264389414479,43.749693589170825],[-72.71016395803872,43.75151126338971],[-72.71072434954148,43.75203085542398],[-72.71062379191132,43.75278188961564],[-72.71064870312264,43.75318771493439],[-72.71089057358593,43.753881297597474],[-72.71105313034126,43.75474856973759],[-72.71017661592319,43.75509728016939],[-72.70921953444393,43.75521464813311],[-72.7078633420834,43.755275079373476],[-72.70762432496547,43.75539111771824],[-72.70714709144762,43.755854675569054],[-72.70722844529236,43.75631721458602],[-72.70634967947936,43.756029670552905],[-72.70243619219538,43.754995594771806],[-72.69981907847006,43.759742983874006],[-72.69854271375566,43.759918765120766],[-72.70293455524872,43.76072077604025],[-72.70357610479202,43.76164500190852],[-72.69926916816163,43.76234666923817],[-72.69839093033177,43.76223260587446],[-72.69847396243424,43.76321563462344],[-72.69879413466934,43.76350435938014],[-72.70127234335999,43.76477231391881],[-72.70231426087352,43.766042921565834],[-72.7012811474135,43.76737501509736],[-72.69936267917214,43.76645302613876],[-72.69864389668467,43.76628074340886],[-72.69712773320354,43.76639912605325],[-72.69601741210752,43.768483276957724],[-72.69418214666767,43.768602031407525],[-72.69322387397858,43.768488064427956],[-72.69242532449381,43.768315876578356],[-72.69170578521056,43.76797000925506],[-72.69074864855504,43.76814516375199],[-72.68995231899984,43.76872492676518],[-72.68827949550416,43.76971088631331],[-72.68660569820608,43.77046562009543],[-72.68543853856653,43.771268303289766],[-72.68550202447892,43.771338234766176],[-72.68484930658971,43.77207144081185],[-72.68491496982806,43.77327769341916],[-72.68712469679822,43.774058669121146],[-72.68468355508713,43.77904727680977],[-72.68119302550551,43.784105699256926],[-72.68022418366806,43.78455332189428],[-72.67986996517254,43.784891401280575],[-72.68011607888832,43.78565817178826],[-72.67988870630326,43.78635101108221],[-72.67919404550429,43.78690352837054],[-72.679162724465,43.78705150268254],[-72.678944053796,43.78711346403907],[-72.678810880646,43.78750294694379],[-72.67889001896008,43.78761153283226],[-72.67864761537749,43.78873951441277],[-72.67784237762818,43.78835121413638],[-72.67695375737202,43.782067664240486],[-72.68119618323185,43.77460607069526],[-72.67918425198425,43.774072745591496],[-72.67921569735688,43.774009832589584],[-72.67804003586718,43.77371494497165],[-72.67691223933693,43.773522774077556],[-72.67640698755999,43.77330642215067],[-72.67583833428903,43.77291310686389],[-72.67550702646054,43.77277664243647],[-72.67379532459495,43.77253415134676],[-72.67271437938483,43.7723130172429],[-72.66608443173058,43.783339163133306],[-72.65945205155651,43.79436490681279],[-72.65945183877486,43.794365259031345],[-72.66011011804832,43.7945402158766],[-72.66015605422164,43.79455242377108],[-72.66242391047793,43.795155143293954],[-72.66326017959021,43.79537739680314],[-72.66414488343973,43.79561253992773],[-72.66446535802314,43.79569770866657],[-72.66493228132236,43.79582179156012],[-72.69021637503357,43.80270603608277],[-72.71550625719063,43.80958466692498],[-72.74080192357073,43.81645768008836],[-72.76610336994044,43.82332507157708],[-72.76691291745925,43.823537354401985],[-72.76973915691588,43.82427844029215],[-72.77104724548563,43.8246214229268],[-72.77232441700451,43.82240379689986],[-72.77306952468736,43.82110122223782],[-72.77722975673547,43.81385807779264],[-72.77744392072478,43.813482966279],[-72.77982663240358,43.80932098017977],[-72.78013929302243,43.80877532760782],[-72.78034763990061,43.808411543651545],[-72.78160500868063,43.806215972445685],[-72.78161442257654,43.80619951607598],[-72.7819315965668,43.805644813352025],[-72.78199882642727,43.80552654337677],[-72.78122405319479,43.804996671165235],[-72.77943328667403,43.804007405332044],[-72.77829990633074,43.803312449159],[-72.77707637913761,43.80268169407189],[-72.77580573307306,43.80190586081829],[-72.77493333258617,43.8016231577994],[-72.77336327684885,43.80154127840418],[-72.77247120750384,43.80127465787837],[-72.77206831997128,43.80106410495243],[-72.77089864091568,43.799860670310366],[-72.77054849580254,43.79937835412247],[-72.77058836656548,43.799343451926944],[-72.7711091441265,43.798887566040705],[-72.77069103385539,43.79860375733465],[-72.77142294443901,43.798312734936445],[-72.77163679865944,43.79821870938461],[-72.77218017765466,43.79764588190929],[-72.77278760113443,43.79733824769759],[-72.77303095894727,43.79712955592529],[-72.77338487683014,43.79665435219631],[-72.77401609539557,43.79636130737797],[-72.7750579585743,43.79619848241598],[-72.77593273122378,43.79482997773508],[-72.77496994258755,43.794533312443946],[-72.77363013237046,43.79500328944494],[-72.77307545429893,43.79449186457703],[-72.77295924170224,43.79451847600269],[-72.7721076017415,43.79336924609322],[-72.77162449223994,43.7933658950087],[-72.77124762189251,43.79330828556768],[-72.76875889425716,43.7928127387584],[-72.76806612354868,43.79255833955874],[-72.76649858093359,43.79159289670011],[-72.76587565048317,43.791840205837445],[-72.7656591983792,43.791926138850116],[-72.76551724683436,43.79181640001454],[-72.76507540379288,43.79164500918201],[-72.76423928615287,43.791433885064315],[-72.76388034068817,43.791175539736166],[-72.76363111996137,43.79061047301613],[-72.76364624157894,43.79016406622399],[-72.76351939464932,43.78966060915083],[-72.76223591315615,43.78793144644587],[-72.76302212067985,43.78765503624483],[-72.7632969244507,43.78753909818256],[-72.76346224150022,43.78734450215749],[-72.76371450226323,43.787321279452144],[-72.76386479349529,43.7874182502644],[-72.76386431086388,43.787580514433834],[-72.76393736121659,43.78766450102342],[-72.76429925971608,43.78794304216978],[-72.76527399485262,43.787984976683894],[-72.76569569463096,43.78794778785863],[-72.76998858995081,43.79024531271585],[-72.7726386097404,43.789665376604724],[-72.77339459661543,43.78848041912597],[-72.77551734181002,43.78910240777284],[-72.77636793451835,43.78807175827342],[-72.77729656459374,43.78603960106738],[-72.77785678776215,43.786205172141884],[-72.78487094011014,43.78124982722272],[-72.78487791598364,43.780511622437125],[-72.78897133645734,43.780628057059374],[-72.78643743405468,43.784921801309615],[-72.79316429739546,43.78698005414888],[-72.79782246707144,43.77938827693572],[-72.80019290860548,43.77573814925298],[-72.80019455301957,43.77573562477128],[-72.80114182496627,43.77427866308871],[-72.81020456716239,43.76030049923216],[-72.81926310468323,43.74632159535934],[-72.80392886112465,43.74098192214517],[-72.80886113101224,43.733567353634584],[-72.80761419258201,43.733986132164716],[-72.80573307970347,43.73514889813824],[-72.80457285742968,43.73536253424335],[-72.80384815180281,43.73557499803353],[-72.80254123840142,43.735473280586625],[-72.80080409841665,43.736425052669745],[-72.79324388747412,43.73402401259841],[-72.79150818218207,43.7352915068198],[-72.79063723219238,43.735293731071586],[-72.78991349763703,43.73571649411405],[-72.78948010622044,43.73613865528372],[-72.78875635401543,43.73656155139575],[-72.78803148067934,43.73677391619699],[-72.78730872152148,43.73740718969643],[-72.78672911022248,43.73761918007773],[-72.78571646757264,43.73835850744571],[-72.78484697686781,43.73867640928237],[-72.78297633552053,43.74215446015172],[-72.78341530582215,43.74289001227096],[-72.78298281378413,43.74352267625434],[-72.78574615212666,43.7445682873682],[-72.78329705619443,43.74857404302974],[-72.78315384331131,43.74899531657694],[-72.78113708582862,43.75236836511131],[-72.77982885687338,43.752055861709906],[-72.77809922309486,43.75479670270773],[-72.77622615183448,43.757958782815265],[-72.77739033731602,43.75848220822342],[-72.77407604919222,43.7640686289682],[-72.77407701657245,43.7642791560772],[-72.77189470035744,43.76344240905946],[-72.76534439782507,43.76123006910011],[-72.76470030156216,43.76138724966147],[-72.76405740808654,43.761817254620205],[-72.76368374783738,43.76240217543594],[-72.76389995319,43.76267436409398],[-72.76395473678986,43.76290797062897],[-72.76384827096602,43.763141810875545],[-72.7636873639331,43.76322009502317],[-72.76368960384796,43.76372637277351],[-72.76336729222746,43.76372711862616],[-72.76331405786256,43.76384410868106],[-72.76331663765998,43.76442829659277],[-72.76310214832574,43.76454566062761],[-72.76251416139449,43.765247937889946],[-72.76052367841665,43.764785181257096],[-72.7573472165777,43.76342937615078],[-72.759212689163,43.75988102058038],[-72.75448557741073,43.75837775202979],[-72.75322763778583,43.76060665371729],[-72.74851120628047,43.759456816886924],[-72.74445841157568,43.7585614629328],[-72.74636278684956,43.75587348515063],[-72.74156187025262,43.75443721857742],[-72.74070789301874,43.756045638109846],[-72.73897360067618,43.755583796228976],[-72.7397959937044,43.75397531537552],[-72.73297768015473,43.75190036527052],[-72.73286563724457,43.75187513984514],[-72.73171452202185,43.75390783261923],[-72.72679165908801,43.75378795480582],[-72.72661261623568,43.75384822344158],[-72.72548212609017,43.753860455336365],[-72.72443511442651,43.75409232433693],[-72.7242799019367,43.75419585708904],[-72.72421844387206,43.754156459560576],[-72.72350344874432,43.75326680778978],[-72.72343602870697,43.752516655198434],[-72.72317581206866,43.75214209335825],[-72.72381717990838,43.75068709304665],[-72.72407193017146,43.749608065401915],[-72.7254315699606,43.74993361667943],[-72.72781013888127,43.74598984558534],[-72.72845187705956,43.74467559407787],[-72.72858108473663,43.744628362353275],[-72.73181570565932,43.73875411674626],[-72.73263559471593,43.73880025874565],[-72.73326711952505,43.738294648594284],[-72.73355946772831,43.73790828765609],[-72.73431695433347,43.737476808983665],[-72.73456467324462,43.73713807200374],[-72.73387081464189,43.73682715169184],[-72.73329001559814,43.73670810170177],[-72.73237840608681,43.736810241187804],[-72.73212780063677,43.73630981233428],[-72.73151939035279,43.736170839674685],[-72.73091036254414,43.73587140240952],[-72.72947194778097,43.735513726203926],[-72.72794721106374,43.7342344864251],[-72.72522439889816,43.73338738491244],[-72.72604382153165,43.73051329200709],[-72.7299860990397,43.731578007591935],[-72.72972863616204,43.72958657617755],[-72.73016376735123,43.72785827758171],[-72.72989457094515,43.72780313136457],[-72.73017241870768,43.72617809529935],[-72.7222833304088,43.7240109966769]],[[-72.72127261473716,43.7596218570878],[-72.72258437577028,43.75979485879035],[-72.7228677897918,43.759819804326845],[-72.72297940676864,43.759779304404695],[-72.7230030513586,43.75987629743093],[-72.72258990743536,43.76128693355559],[-72.72242607184508,43.76157544110154],[-72.72195291923217,43.76207912930927],[-72.72099889486806,43.762577276700426],[-72.72076230988141,43.762829188279476],[-72.72035238229039,43.76343569200986],[-72.71989487820059,43.76387633715609],[-72.71946880814092,43.76484865757534],[-72.71897208415925,43.76550088921376],[-72.71890896293307,43.76575246436648],[-72.71852258101416,43.76622742279246],[-72.71821508422472,43.766410553221135],[-72.717654923657,43.76659402384489],[-72.71711113769297,43.766691674119926],[-72.71568397196656,43.76656710237897],[-72.71398113204094,43.76597387307327],[-72.71338995671992,43.76595149217814],[-72.71249102784056,43.76604373458927],[-72.71209635733346,43.76565353114696],[-72.71192353031009,43.76547254815767],[-72.71172023239743,43.765364933035364],[-72.71231223377613,43.765146174263535],[-72.71393740707501,43.76485440634341],[-72.71520176371796,43.76461073471079],[-72.71698558069939,43.764040346713735],[-72.7174602001934,43.76359569429178],[-72.71789958924583,43.76281829262713],[-72.71803390433975,43.762337307021205],[-72.71722986433127,43.76104456356065],[-72.7173304346214,43.76063760075083],[-72.71788992620002,43.76015580497265],[-72.71897738425476,43.759882545572644],[-72.72009957001835,43.75980643117704],[-72.72127261473716,43.7596218570878]],[[-72.75922860459227,43.76732568141456],[-72.75991254889975,43.7675624278786],[-72.76158324769793,43.76843379095176],[-72.76173858893439,43.7689511440293],[-72.76153871918578,43.76992538730166],[-72.76128237708049,43.77076939463217],[-72.75893921330318,43.770982072925186],[-72.75846245638084,43.77051172635753],[-72.75781639841722,43.770587143372296],[-72.75600028297612,43.771515705877206],[-72.75513040536632,43.77096296265217],[-72.75415749487776,43.77017624114125],[-72.7529656666047,43.769907704614525],[-72.74997077507356,43.76963078612312],[-72.74961121468718,43.769064558030756],[-72.74981266046386,43.768423145152816],[-72.74969745872917,43.767794005131094],[-72.75173429822975,43.76832031655728],[-72.7530789125877,43.76852689623307],[-72.75375902492928,43.76846375668311],[-72.75494805311416,43.7680789921625],[-72.75824529126761,43.76747992207622],[-72.75924834435375,43.767366713557934],[-72.75922860459227,43.76732568141456]],[[-72.70316242107471,43.77477731696417],[-72.70307152440172,43.77521288179025],[-72.7024615501482,43.77545220490946],[-72.70269025053447,43.775781598044794],[-72.70277210739292,43.7759009445935],[-72.7035153447659,43.776140571873476],[-72.70613037372873,43.77690904541686],[-72.70575567505485,43.77721602387159],[-72.705146237803,43.777557460157325],[-72.70463003229301,43.77769452472351],[-72.70402081644369,43.77810402057033],[-72.70200712099067,43.77994556505545],[-72.7016802780502,43.780524712831394],[-72.70144760493173,43.781171761421724],[-72.70158910192339,43.781341675904486],[-72.69973078239211,43.78141443196063],[-72.69891238577024,43.78140155280819],[-72.69664723909261,43.78136590517822],[-72.6954115356525,43.781355425611544],[-72.69468315843488,43.78114952220642],[-72.69383508798862,43.780368205169985],[-72.69477219880332,43.77965189959866],[-72.69570995828151,43.77913978757257],[-72.6953803742107,43.77890212145204],[-72.6963637390342,43.77798138340506],[-72.6974457599219,43.77849000786347],[-72.69814813862642,43.77777408325847],[-72.699037959783,43.7769897592773],[-72.69936720481378,43.77712531562575],[-72.7011451602778,43.775080034707706],[-72.70316242107471,43.77477731696417]],[[-72.73138962657556,43.78109863379551],[-72.74778192915495,43.78658597214873],[-72.74750593526912,43.78687796706062],[-72.74614968011421,43.787702618797084],[-72.7431224067249,43.79276389836965],[-72.73909179356944,43.79151028481499],[-72.73857829315682,43.791590885916875],[-72.73785219830243,43.791505059705834],[-72.73786799121397,43.79125905238942],[-72.73859338545783,43.790016725972514],[-72.73889299102846,43.789312541597226],[-72.73875114303107,43.78936415200275],[-72.73822286877694,43.7893870860995],[-72.73743365557966,43.78935282064202],[-72.73703936074136,43.789284178161054],[-72.73655801818832,43.78911233677365],[-72.73513808554469,43.788900795235406],[-72.73418368866157,43.788986718340006],[-72.73254284098371,43.78887235844098],[-72.73188035283218,43.78894686192904],[-72.7314857757176,43.78881529772598],[-72.73072868270343,43.78912453175684],[-72.728661780246,43.7887696487888],[-72.72848837214863,43.78962265930535],[-72.72717870079582,43.790120719444154],[-72.72605886109795,43.791958500365396],[-72.72385759111822,43.7929659685826],[-72.72313210586213,43.794173883758454],[-72.72280886338162,43.79433413380148],[-72.72208291621445,43.794488696556186],[-72.7088875813051,43.790450652899544],[-72.71036121888804,43.78822893800417],[-72.7112369286615,43.78850827542253],[-72.71436924642352,43.78379458060917],[-72.72088372515108,43.78591320030679],[-72.72254006266354,43.78301084531827],[-72.72536393386862,43.78433329666954],[-72.72547449933359,43.78422447862714],[-72.7251115887578,43.784024118573875],[-72.72549796325025,43.783325813594885],[-72.72911862727669,43.784361689617],[-72.73138962657556,43.78109863379551]],[[-72.75321991099025,43.781483813820536],[-72.7540799290372,43.78288880707498],[-72.75441913554197,43.78277399815125],[-72.75457689950115,43.78308247893698],[-72.75476630085744,43.78316221778176],[-72.7549637370313,43.78339635486957],[-72.75489337469213,43.7843794027806],[-72.75511483982845,43.784967883323304],[-72.7554461756428,43.78528160057304],[-72.7558326909156,43.78542404126619],[-72.75712653750503,43.785479360624215],[-72.75823882059451,43.785654894859015],[-72.75901987456486,43.78590528457352],[-72.75960595012492,43.78618293457264],[-72.7600537864836,43.78653803912264],[-72.7602670318834,43.78682922781209],[-72.76034596242106,43.78703479644134],[-72.76033583319234,43.78740120996757],[-72.76027644623551,43.78837238084416],[-72.76063779448516,43.78924200975478],[-72.76084110196321,43.78970782986017],[-72.76110626810627,43.79018297594867],[-72.76076710726058,43.790314962237666],[-72.76007264526827,43.79008154542619],[-72.75911065573881,43.7905632910089],[-72.75877933879663,43.79017504920987],[-72.75765872911332,43.78970800473264],[-72.7565850619108,43.78904648843608],[-72.75478598848527,43.78816325495408],[-72.75309804472244,43.78747283695709],[-72.75335711886382,43.7870393916161],[-72.75346052179202,43.78670234411941],[-72.75188248290003,43.78619097256871],[-72.7524343861129,43.7855950146009],[-72.7516841453128,43.78426078782847],[-72.75237837101592,43.78418514266221],[-72.75244877674194,43.783018147900634],[-72.75229881054861,43.78280682522477],[-72.75282687312394,43.78236547366094],[-72.75264554666374,43.78162135899021],[-72.75321991099025,43.781483813820536]]]]}},{"type":"Feature","properties":{"OBJECT_ID":587,"County":"Windsor","RPC":"TRORC","Municipal_Name":"Stockbridge","GEO_ID":"5002770375","District_Name":"Special Flood Hazard Area Overlay","Abbreviated_District_Name":"Sfha","District_Type":"Mixed with Residential","Bylaw_Date":null,"Elderly_Housing_District":"No","District_Mapped":"Yes","Overlay_District":"Yes","Base_Density":null,"FIPS6":null,"GIS_ID":null,"Last_Update":null,"Shape_Length":38698.281162295236,"Shape_Area":2203067.7924438915,"F1F_Allowance":"Public Hearing","F1F_Front_Setback":null,"F1F_Side_Setback":null,"F1F_Rear_Setback":null,"F1F_Frontage":null,"F1F_Max_Height":null,"F1F_Max_Stories":null,"F1F_Min_Lot_Size":null,"F1F_Max_Lot_Building_Coverage":null,"F1F_Max_Lot_Impervious_Coverage":null,"F1F_Min_Parking_Spaces":null,"F1F_Elderly_Housing_Only":null,"F1F_Affordable_Housing_Only":null,"F2F_Allowance":"Public Hearing","F2F_Front_Setback":null,"F2F_Side_Setback":null,"F2F_Rear_Setback":null,"F2F_Frontage":null,"F2F_Max_Density":null,"F2F_Max_Height":null,"F2F_Max_Stories":null,"F2F_Min_Lot_Size":null,"F2F_Max_Lot_Building_Coverage":null,"F2F_Max_Lot_Impervious_Coverage":null,"F2F_Min_Parking_Spaces_per_1BR":null,"F2F_Min_Parking_Spaces_per_mult_BR":null,"F2F_Elderly_Housing_Only":null,"F2F_Affordable_Housing_Only":null,"F3F_Allowance":"Public Hearing","F3F_Front_Setback":null,"F3F_Side_Setback":null,"F3F_Rear_Setback":null,"F3F_Frontage":null,"F3F_Max_Density":null,"F3F_Max_Height":null,"F3F_Max_Stories":null,"F3F_Min_Lot_Size":null,"F3F_Max_Lot_Building_Coverage":null,"F3F_Max_Lot_Impervious_Coverage":null,"F3F_Min_Parking_Spaces_per_1BR":null,"F3F_Min_Parking_Spaces_per_mult_BR":null,"F3F_Affordable_Housing_Only":null,"F3F_Proximity_to_Public_Transit_Required":null,"F3F_Connection_to_Sewage/Water_Required":null,"F4F_Allowance":"Public Hearing","F4F_Front_Setback":null,"F4F_Side_Setback":null,"F4F_Rear_Setback":null,"F4F_Frontage":null,"F1F_Max_Density":null,"F4F_Max_Density":null,"F4F_Max_Height":null,"F4F_Max_Stories":null,"F4F_Min_Lot_Size":null,"F4F_Max_Lot_Building_Coverage":null,"F4F_Max_Lot_Impervious_Coverage":null,"F4F_Min_Parking_Spaces_per_1BR":null,"F4F_Min_Parking_Spaces_per_mult_BR":null,"F3F_Elderly_Housing_Only":null,"F4F_Elderly_Housing_Only":null,"F4F_Affordable_Housing_Only":null,"F4F_Proximity_to_Public_Transit_Required":null,"F4F_Connection_to_Sewage/Water_Required":null,"ADU_Allowance":"Public Hearing","ADU_Elderly_Housing_Only":"No","ADU_Max_Size_as_Percent_of_Primary_Strcture":50.0,"ADU_Max_Size_in_sq_ft":1500.0,"ADU_Min_Lot_Size":null,"ADU_Max_Bedrooms":null,"ADU_Min_Parking_Spaces":2.0,"ADU_Owner_Occupancy_Required":"No","ADU_Renter_Occupancy_Prohibited":"No","ADU_Employee_or_Family_Occupancy_Required":"No","ADU_Restricted_to_Primary_Structure":"No","Affordable_Housing_Allowance":"Not Mentioned","Affordable_Housing_District":"No","Affordable_Housing_Elderly_Only":null,"Affordable_Housing_Min_Lot_Size":null,"Affordable_Housing_Max_Density":null,"Affordable_Housing_Min_Parking_Spaces_per_mult_BR":null,"Affordable_Housing_Max_Units_per_Building":null,"Affordable_Housing_Min_Parking_Spaces_per_1BR":null,"PRD_Allowance":"Public Hearing","PRD_Max_Density":null,"PRD_Max_Units":null,"PRD_Min_Lot_Size":null,"PRD_Mobile_or_Manufactured_Home_Park":"No","PUD_Allowance":null,"PUD_Required_with_Subdivision":null,"PUD_Requires_Land_Conservation":null,"PUD_Threshold_Number":null,"Notes":"  This District Contains Two Subdistricts: Inside The Floodway And Ouside The Floodway But Inside The Flood Plain. All New Structures Are Prohibitted Inside The Floodway, And Any New Structure Build Outside Of The Floodway But In The Flood Plain Requires A Public Hearing. The Treatments Listed Are The Regulations For Outside The Floodway But Inside The Floodplain."},"geometry":{"type":"MultiPolygon","coordinates":[[[[-72.76084110196321,43.78970782986017],[-72.76228786658699,43.790914517041486],[-72.76375439295268,43.79195193678236],[-72.76608391754046,43.79432027845022],[-72.76777917582086,43.795740562694725],[-72.77016353944383,43.799021666816465],[-72.77058836656548,43.799343451926944],[-72.77112479956882,43.79974977205731],[-72.77294422169045,43.80069493658004],[-72.7741794326935,43.80067371967625],[-72.77564422085754,43.80123624212063],[-72.77579850697019,43.80189321179617],[-72.77865188766528,43.80287230494992],[-72.78244061238956,43.80474934802186],[-72.78285746796037,43.80401599297043],[-72.7833788769596,43.803151999822134],[-72.77946470653744,43.801805561879966],[-72.77649249395664,43.800977728059244],[-72.77318806488601,43.79888209541859],[-72.77142294443901,43.798312734936445],[-72.77046619184989,43.79800412333611],[-72.76852066924232,43.794556517788514],[-72.7672481540897,43.79291012024185],[-72.76587565048317,43.791840205837445],[-72.76519779675549,43.79131179464552],[-72.76404659768802,43.789260259821425],[-72.76302212067985,43.78765503624483],[-72.7627024594438,43.78715416734431],[-72.75890299823958,43.78376562662972],[-72.75735776380314,43.7815722607864],[-72.75663943619135,43.77934848755434],[-72.75497603014932,43.77709829298248],[-72.755802548258,43.77701085419156],[-72.75756770082523,43.77543770515845],[-72.7577595485734,43.7742675172261],[-72.75814604200576,43.77258333739545],[-72.75956369420297,43.772637187671506],[-72.76228126377642,43.77283069768599],[-72.76432107679017,43.77457116063432],[-72.7664518722704,43.77501028643248],[-72.76832397679766,43.775298061055864],[-72.77088795581601,43.775221895629016],[-72.77547654431001,43.77478041032414],[-72.77861538659236,43.775004654973586],[-72.78110612314475,43.77568663616427],[-72.78521652317113,43.77863702561833],[-72.79006840997687,43.776841650853974],[-72.79332392872362,43.775763444105195],[-72.79510785983916,43.77571427197171],[-72.80019290860548,43.77573814925298],[-72.80019455301957,43.77573562477128],[-72.80114182496627,43.77427866308871],[-72.79737932698976,43.77472764411873],[-72.79288848485245,43.77478382143864],[-72.7858879933512,43.77752087039109],[-72.78311161850915,43.77587835499181],[-72.77658056220038,43.77379912764318],[-72.77209158509035,43.7742556942237],[-72.76766067997895,43.77395410292104],[-72.76519866847593,43.773692367267124],[-72.76287072743504,43.77257256842019],[-72.75936325671843,43.771810253785716],[-72.75747438578381,43.77204276956406],[-72.75720575059215,43.773669621107445],[-72.75650496217673,43.77552568712281],[-72.75552327704608,43.77615556056827],[-72.75125933605358,43.773426072362014],[-72.74867328201243,43.77230958366491],[-72.7466400349746,43.77035482393147],[-72.7467933739041,43.76819757472241],[-72.74457079835052,43.76690591913704],[-72.74267940260671,43.76648997932224],[-72.74232069072407,43.76501170989499],[-72.74220372472911,43.76279045733249],[-72.7397885079219,43.76026954274099],[-72.73805240397382,43.75924606569477],[-72.73391754732977,43.75882664195308],[-72.73037396078236,43.758605593784466],[-72.72483634248032,43.75862004510062],[-72.72317458546463,43.75887893727051],[-72.72171469431528,43.759228712441185],[-72.72127261473716,43.7596218570878],[-72.72023314186141,43.76054627134876],[-72.71803390433975,43.762337307021205],[-72.7174602001934,43.76359569429178],[-72.71393740707501,43.76485440634341],[-72.71209635733346,43.76565353114696],[-72.71151015285808,43.76598586111205],[-72.71053014749918,43.76673631594272],[-72.70768856373657,43.76834836340379],[-72.70590517774026,43.7699766959953],[-72.70540679254258,43.7716026990432],[-72.7041522333723,43.77317527417557],[-72.70501347995659,43.77448842393243],[-72.70400712420236,43.77496497492431],[-72.70269025053447,43.775781598044794],[-72.70010925022012,43.777382133890995],[-72.69978717791946,43.77904431956982],[-72.69785114666942,43.77992186675179],[-72.69726245565145,43.7805220266064],[-72.69664723909261,43.78136590517822],[-72.69659602530626,43.7814361545645],[-72.69356628402515,43.78218312176721],[-72.69160171497522,43.7835559007356],[-72.68991371361068,43.785242022734714],[-72.68873677606203,43.78667050204422],[-72.684444946161,43.78693428423532],[-72.6818076481783,43.787366467950946],[-72.67952612295069,43.788254522235945],[-72.67839021354033,43.790339032882144],[-72.67666218003886,43.791996488849584],[-72.67312153472349,43.79339990410178],[-72.6696163170852,43.793462221643196],[-72.6670543782945,43.79280979237742],[-72.66358958639935,43.79324276184719],[-72.66242391047793,43.795155143293954],[-72.66326017959021,43.79537739680314],[-72.66359394487141,43.7948404667265],[-72.66449836440705,43.79429708765275],[-72.66713664832399,43.794065015704604],[-72.672139662594,43.794371425668224],[-72.67584178086206,43.79428019800711],[-72.67953577320068,43.79147846241831],[-72.68039572082506,43.78930878406663],[-72.68299068424521,43.787878130570604],[-72.68692761258492,43.78744379957803],[-72.68984181443587,43.78741046702428],[-72.69145111537225,43.78572447767861],[-72.69227428003533,43.78452481135822],[-72.69396542338892,43.78383722010356],[-72.69742729020929,43.782747130414236],[-72.69891238577024,43.78140155280819],[-72.69919405008228,43.78114634958421],[-72.70074182778104,43.778147927146556],[-72.70177198840064,43.77723313385203],[-72.70295443071336,43.776646732386425],[-72.7035153447659,43.776140571873476],[-72.70411009621742,43.775603877564436],[-72.70584611848494,43.77479734133291],[-72.70485860675306,43.77341138544779],[-72.70636337495823,43.771327081617365],[-72.70666386388,43.77077875010902],[-72.70766993760147,43.770247397398755],[-72.70799351812414,43.769096452202476],[-72.71127269359333,43.7669734615888],[-72.71402912191853,43.76713951814292],[-72.71749389826269,43.767218568594906],[-72.71937975237196,43.76615933020861],[-72.71992662259711,43.76498852084602],[-72.7214964807682,43.7636730765723],[-72.72259430364393,43.76247265569044],[-72.72258990743536,43.76128693355559],[-72.72258437577028,43.75979485879035],[-72.72258266840076,43.75933430097263],[-72.72490438399575,43.75913004058497],[-72.72884118446949,43.75923634937464],[-72.73199028171625,43.75923000089245],[-72.73533653157261,43.75930875206272],[-72.73872487650976,43.76007205389281],[-72.74062224937516,43.76203669394755],[-72.74129892526669,43.763908213570886],[-72.74120899308397,43.76464136011358],[-72.74126269653397,43.76516478734439],[-72.7415335437838,43.76579246338711],[-72.74212414040541,43.766374588420646],[-72.7433348765275,43.767179763992466],[-72.74581619295493,43.76825892967226],[-72.74586145827077,43.769231121416944],[-72.74548382331425,43.77058145034453],[-72.74587310667692,43.7711298628755],[-72.74603648053215,43.77164370236607],[-72.74718542188218,43.77259948710405],[-72.74933302464095,43.773249246801214],[-72.75161047586985,43.774085659332016],[-72.75264374111228,43.77530604268908],[-72.75257183215598,43.776182663014616],[-72.7522030438123,43.778374628941364],[-72.75473358533056,43.78083406137207],[-72.75718966591813,43.783512720429634],[-72.7576965483527,43.78416892264522],[-72.75960595012492,43.78618293457264],[-72.76025395367793,43.786902063159],[-72.76033583319234,43.78740120996757],[-72.76063779448516,43.78924200975478],[-72.7606940927751,43.78958521582963],[-72.76084110196321,43.78970782986017]]]]}},{"type":"Feature","properties":{"OBJECT_ID":590,"County":"Windsor","RPC":"TRORC","Municipal_Name":"Stockbridge","GEO_ID":"5002770375","District_Name":"Village Residential","Abbreviated_District_Name":"Vr","District_Type":"Mixed with Residential","Bylaw_Date":null,"Elderly_Housing_District":"No","District_Mapped":"Yes","Overlay_District":"No","Base_Density":null,"FIPS6":null,"GIS_ID":null,"Last_Update":null,"Shape_Length":5922.948251759625,"Shape_Area":655962.46560344,"F1F_Allowance":"Permitted","F1F_Front_Setback":40.0,"F1F_Side_Setback":15.0,"F1F_Rear_Setback":10.0,"F1F_Frontage":100.0,"F1F_Max_Height":35.0,"F1F_Max_Stories":null,"F1F_Min_Lot_Size":0.5,"F1F_Max_Lot_Building_Coverage":null,"F1F_Max_Lot_Impervious_Coverage":20.0,"F1F_Min_Parking_Spaces":2.0,"F1F_Elderly_Housing_Only":null,"F1F_Affordable_Housing_Only":null,"F2F_Allowance":"Permitted","F2F_Front_Setback":40.0,"F2F_Side_Setback":15.0,"F2F_Rear_Setback":10.0,"F2F_Frontage":100.0,"F2F_Max_Density":4.0,"F2F_Max_Height":35.0,"F2F_Max_Stories":null,"F2F_Min_Lot_Size":0.5,"F2F_Max_Lot_Building_Coverage":null,"F2F_Max_Lot_Impervious_Coverage":20.0,"F2F_Min_Parking_Spaces_per_1BR":2.0,"F2F_Min_Parking_Spaces_per_mult_BR":2.0,"F2F_Elderly_Housing_Only":"No","F2F_Affordable_Housing_Only":"No","F3F_Allowance":"Public Hearing","F3F_Front_Setback":40.0,"F3F_Side_Setback":15.0,"F3F_Rear_Setback":10.0,"F3F_Frontage":100.0,"F3F_Max_Density":6.0,"F3F_Max_Height":35.0,"F3F_Max_Stories":null,"F3F_Min_Lot_Size":0.5,"F3F_Max_Lot_Building_Coverage":null,"F3F_Max_Lot_Impervious_Coverage":20.0,"F3F_Min_Parking_Spaces_per_1BR":2.0,"F3F_Min_Parking_Spaces_per_mult_BR":2.0,"F3F_Affordable_Housing_Only":"No","F3F_Proximity_to_Public_Transit_Required":"No","F3F_Connection_to_Sewage/Water_Required":"No","F4F_Allowance":"Public Hearing","F4F_Front_Setback":40.0,"F4F_Side_Setback":15.0,"F4F_Rear_Setback":10.0,"F4F_Frontage":100.0,"F1F_Max_Density":null,"F4F_Max_Density":8.0,"F4F_Max_Height":35.0,"F4F_Max_Stories":null,"F4F_Min_Lot_Size":0.5,"F4F_Max_Lot_Building_Coverage":null,"F4F_Max_Lot_Impervious_Coverage":20.0,"F4F_Min_Parking_Spaces_per_1BR":2.0,"F4F_Min_Parking_Spaces_per_mult_BR":2.0,"F3F_Elderly_Housing_Only":"No","F4F_Elderly_Housing_Only":"No","F4F_Affordable_Housing_Only":"No","F4F_Proximity_to_Public_Transit_Required":"No","F4F_Connection_to_Sewage/Water_Required":"No","ADU_Allowance":"Allowed/Conditional","ADU_Elderly_Housing_Only":"No","ADU_Max_Size_as_Percent_of_Primary_Strcture":50.0,"ADU_Max_Size_in_sq_ft":1500.0,"ADU_Min_Lot_Size":0.5,"ADU_Max_Bedrooms":null,"ADU_Min_Parking_Spaces":2.0,"ADU_Owner_Occupancy_Required":"No","ADU_Renter_Occupancy_Prohibited":"No","ADU_Employee_or_Family_Occupancy_Required":"No","ADU_Restricted_to_Primary_Structure":"No","Affordable_Housing_Allowance":"Not Mentioned","Affordable_Housing_District":"No","Affordable_Housing_Elderly_Only":null,"Affordable_Housing_Min_Lot_Size":null,"Affordable_Housing_Max_Density":null,"Affordable_Housing_Min_Parking_Spaces_per_mult_BR":null,"Affordable_Housing_Max_Units_per_Building":null,"Affordable_Housing_Min_Parking_Spaces_per_1BR":null,"PRD_Allowance":"Public Hearing","PRD_Max_Density":null,"PRD_Max_Units":null,"PRD_Min_Lot_Size":null,"PRD_Mobile_or_Manufactured_Home_Park":"No","PUD_Allowance":null,"PUD_Required_with_Subdivision":null,"PUD_Requires_Land_Conservation":null,"PUD_Threshold_Number":null,"Notes":"None"},"geometry":{"type":"MultiPolygon","coordinates":[[[[-72.75321991099025,43.781483813820536],[-72.75264554666374,43.78162135899021],[-72.75282687312394,43.78236547366094],[-72.75229881054861,43.78280682522477],[-72.75244877674194,43.783018147900634],[-72.75237837101592,43.78418514266221],[-72.7516841453128,43.78426078782847],[-72.7524343861129,43.7855950146009],[-72.75188248290003,43.78619097256871],[-72.75346052179202,43.78670234411941],[-72.75335711886382,43.7870393916161],[-72.75309804472244,43.78747283695709],[-72.75478598848527,43.78816325495408],[-72.7565850619108,43.78904648843608],[-72.75765872911332,43.78970800473264],[-72.75877933879663,43.79017504920987],[-72.75911065573881,43.7905632910089],[-72.76007264526827,43.79008154542619],[-72.76076710726058,43.790314962237666],[-72.76110626810627,43.79018297594867],[-72.76084110196321,43.78970782986017],[-72.76063779448516,43.78924200975478],[-72.76027644623551,43.78837238084416],[-72.76033583319234,43.78740120996757],[-72.76034596242106,43.78703479644134],[-72.7602670318834,43.78682922781209],[-72.7600537864836,43.78653803912264],[-72.75960595012492,43.78618293457264],[-72.75901987456486,43.78590528457352],[-72.75823882059451,43.785654894859015],[-72.75712653750503,43.785479360624215],[-72.7558326909156,43.78542404126619],[-72.7554461756428,43.78528160057304],[-72.75511483982845,43.784967883323304],[-72.75489337469213,43.7843794027806],[-72.7549637370313,43.78339635486957],[-72.75476630085744,43.78316221778176],[-72.75457689950115,43.78308247893698],[-72.75441913554197,43.78277399815125],[-72.7540799290372,43.78288880707498],[-72.75321991099025,43.781483813820536]]],[[[-72.70316242107471,43.77477731696417],[-72.7011451602778,43.775080034707706],[-72.69936720481378,43.77712531562575],[-72.699037959783,43.7769897592773],[-72.69814813862642,43.77777408325847],[-72.6974457599219,43.77849000786347],[-72.6963637390342,43.77798138340506],[-72.6953803742107,43.77890212145204],[-72.69570995828151,43.77913978757257],[-72.69477219880332,43.77965189959866],[-72.69383508798862,43.780368205169985],[-72.69468315843488,43.78114952220642],[-72.6954115356525,43.781355425611544],[-72.69664723909261,43.78136590517822],[-72.69891238577024,43.78140155280819],[-72.69973078239211,43.78141443196063],[-72.70158910192339,43.781341675904486],[-72.70144760493173,43.781171761421724],[-72.7016802780502,43.780524712831394],[-72.70200712099067,43.77994556505545],[-72.70402081644369,43.77810402057033],[-72.70463003229301,43.77769452472351],[-72.705146237803,43.777557460157325],[-72.70575567505485,43.77721602387159],[-72.70613037372873,43.77690904541686],[-72.7035153447659,43.776140571873476],[-72.70277210739292,43.7759009445935],[-72.70269025053447,43.775781598044794],[-72.7024615501482,43.77545220490946],[-72.70307152440172,43.77521288179025],[-72.70316242107471,43.77477731696417]]]]}},{"type":"Feature","properties":{"OBJECT_ID":589,"County":"Windsor","RPC":"TRORC","Municipal_Name":"Stockbridge","GEO_ID":"5002770375","District_Name":"Upland Conservation","Abbreviated_District_Name":"Uc","District_Type":"Mixed with Residential","Bylaw_Date":null,"Elderly_Housing_District":"No","District_Mapped":"Yes","Overlay_District":"No","Base_Density":null,"FIPS6":null,"GIS_ID":null,"Last_Update":null,"Shape_Length":76499.6458108374,"Shape_Area":58187074.6078238,"F1F_Allowance":"Permitted","F1F_Front_Setback":50.0,"F1F_Side_Setback":25.0,"F1F_Rear_Setback":25.0,"F1F_Frontage":400.0,"F1F_Max_Height":35.0,"F1F_Max_Stories":null,"F1F_Min_Lot_Size":10.0,"F1F_Max_Lot_Building_Coverage":null,"F1F_Max_Lot_Impervious_Coverage":2.5,"F1F_Min_Parking_Spaces":2.0,"F1F_Elderly_Housing_Only":null,"F1F_Affordable_Housing_Only":null,"F2F_Allowance":"Permitted","F2F_Front_Setback":50.0,"F2F_Side_Setback":25.0,"F2F_Rear_Setback":25.0,"F2F_Frontage":400.0,"F2F_Max_Density":0.2,"F2F_Max_Height":35.0,"F2F_Max_Stories":null,"F2F_Min_Lot_Size":10.0,"F2F_Max_Lot_Building_Coverage":null,"F2F_Max_Lot_Impervious_Coverage":2.5,"F2F_Min_Parking_Spaces_per_1BR":2.0,"F2F_Min_Parking_Spaces_per_mult_BR":2.0,"F2F_Elderly_Housing_Only":"No","F2F_Affordable_Housing_Only":"No","F3F_Allowance":"Public Hearing","F3F_Front_Setback":50.0,"F3F_Side_Setback":25.0,"F3F_Rear_Setback":25.0,"F3F_Frontage":400.0,"F3F_Max_Density":0.3,"F3F_Max_Height":35.0,"F3F_Max_Stories":null,"F3F_Min_Lot_Size":10.0,"F3F_Max_Lot_Building_Coverage":null,"F3F_Max_Lot_Impervious_Coverage":2.5,"F3F_Min_Parking_Spaces_per_1BR":2.0,"F3F_Min_Parking_Spaces_per_mult_BR":2.0,"F3F_Affordable_Housing_Only":"No","F3F_Proximity_to_Public_Transit_Required":"No","F3F_Connection_to_Sewage/Water_Required":"No","F4F_Allowance":"Public Hearing","F4F_Front_Setback":50.0,"F4F_Side_Setback":25.0,"F4F_Rear_Setback":25.0,"F4F_Frontage":400.0,"F1F_Max_Density":null,"F4F_Max_Density":0.4,"F4F_Max_Height":35.0,"F4F_Max_Stories":null,"F4F_Min_Lot_Size":10.0,"F4F_Max_Lot_Building_Coverage":null,"F4F_Max_Lot_Impervious_Coverage":2.5,"F4F_Min_Parking_Spaces_per_1BR":2.0,"F4F_Min_Parking_Spaces_per_mult_BR":2.0,"F3F_Elderly_Housing_Only":"No","F4F_Elderly_Housing_Only":"No","F4F_Affordable_Housing_Only":"No","F4F_Proximity_to_Public_Transit_Required":"No","F4F_Connection_to_Sewage/Water_Required":"No","ADU_Allowance":"Allowed/Conditional","ADU_Elderly_Housing_Only":"No","ADU_Max_Size_as_Percent_of_Primary_Strcture":50.0,"ADU_Max_Size_in_sq_ft":1500.0,"ADU_Min_Lot_Size":10.0,"ADU_Max_Bedrooms":null,"ADU_Min_Parking_Spaces":2.0,"ADU_Owner_Occupancy_Required":"No","ADU_Renter_Occupancy_Prohibited":"No","ADU_Employee_or_Family_Occupancy_Required":"No","ADU_Restricted_to_Primary_Structure":"No","Affordable_Housing_Allowance":"Not Mentioned","Affordable_Housing_District":"No","Affordable_Housing_Elderly_Only":null,"Affordable_Housing_Min_Lot_Size":null,"Affordable_Housing_Max_Density":null,"Affordable_Housing_Min_Parking_Spaces_per_mult_BR":null,"Affordable_Housing_Max_Units_per_Building":null,"Affordable_Housing_Min_Parking_Spaces_per_1BR":null,"PRD_Allowance":"Public Hearing","PRD_Max_Density":null,"PRD_Max_Units":null,"PRD_Min_Lot_Size":null,"PRD_Mobile_or_Manufactured_Home_Park":"No","PUD_Allowance":null,"PUD_Required_with_Subdivision":null,"PUD_Requires_Land_Conservation":null,"PUD_Threshold_Number":null,"Notes":"None"},"geometry":{"type":"MultiPolygon","coordinates":[[[[-72.73138962657556,43.78109863379551],[-72.72911862727669,43.784361689617],[-72.72549796325025,43.783325813594885],[-72.7251115887578,43.784024118573875],[-72.72547449933359,43.78422447862714],[-72.72536393386862,43.78433329666954],[-72.72254006266354,43.78301084531827],[-72.72088372515108,43.78591320030679],[-72.71436924642352,43.78379458060917],[-72.7112369286615,43.78850827542253],[-72.71036121888804,43.78822893800417],[-72.7088875813051,43.790450652899544],[-72.72208291621445,43.794488696556186],[-72.72280886338162,43.79433413380148],[-72.72313210586213,43.794173883758454],[-72.72385759111822,43.7929659685826],[-72.72605886109795,43.791958500365396],[-72.72717870079582,43.790120719444154],[-72.72848837214863,43.78962265930535],[-72.728661780246,43.7887696487888],[-72.73072868270343,43.78912453175684],[-72.7314857757176,43.78881529772598],[-72.73188035283218,43.78894686192904],[-72.73254284098371,43.78887235844098],[-72.73418368866157,43.788986718340006],[-72.73513808554469,43.788900795235406],[-72.73655801818832,43.78911233677365],[-72.73703936074136,43.789284178161054],[-72.73743365557966,43.78935282064202],[-72.73822286877694,43.7893870860995],[-72.73875114303107,43.78936415200275],[-72.73889299102846,43.789312541597226],[-72.73859338545783,43.790016725972514],[-72.73786799121397,43.79125905238942],[-72.73785219830243,43.791505059705834],[-72.73857829315682,43.791590885916875],[-72.73909179356944,43.79151028481499],[-72.7431224067249,43.79276389836965],[-72.74614968011421,43.787702618797084],[-72.74750593526912,43.78687796706062],[-72.74778192915495,43.78658597214873],[-72.73138962657556,43.78109863379551]]],[[[-72.78487791598364,43.780511622437125],[-72.78487094011014,43.78124982722272],[-72.77785678776215,43.786205172141884],[-72.77729656459374,43.78603960106738],[-72.77636793451835,43.78807175827342],[-72.77551734181002,43.78910240777284],[-72.77339459661543,43.78848041912597],[-72.7726386097404,43.789665376604724],[-72.76998858995081,43.79024531271585],[-72.76569569463096,43.78794778785863],[-72.76527399485262,43.787984976683894],[-72.76429925971608,43.78794304216978],[-72.76393736121659,43.78766450102342],[-72.76386431086388,43.787580514433834],[-72.76386479349529,43.7874182502644],[-72.76371450226323,43.787321279452144],[-72.76346224150022,43.78734450215749],[-72.7632969244507,43.78753909818256],[-72.76302212067985,43.78765503624483],[-72.76223591315615,43.78793144644587],[-72.76351939464932,43.78966060915083],[-72.76364624157894,43.79016406622399],[-72.76363111996137,43.79061047301613],[-72.76388034068817,43.791175539736166],[-72.76423928615287,43.791433885064315],[-72.76507540379288,43.79164500918201],[-72.76551724683436,43.79181640001454],[-72.7656591983792,43.791926138850116],[-72.76587565048317,43.791840205837445],[-72.76649858093359,43.79159289670011],[-72.76806612354868,43.79255833955874],[-72.76875889425716,43.7928127387584],[-72.77124762189251,43.79330828556768],[-72.77162449223994,43.7933658950087],[-72.7721076017415,43.79336924609322],[-72.77295924170224,43.79451847600269],[-72.77307545429893,43.79449186457703],[-72.77363013237046,43.79500328944494],[-72.77496994258755,43.794533312443946],[-72.77593273122378,43.79482997773508],[-72.7750579585743,43.79619848241598],[-72.77401609539557,43.79636130737797],[-72.77338487683014,43.79665435219631],[-72.77303095894727,43.79712955592529],[-72.77278760113443,43.79733824769759],[-72.77218017765466,43.79764588190929],[-72.77163679865944,43.79821870938461],[-72.77142294443901,43.798312734936445],[-72.77069103385539,43.79860375733465],[-72.7711091441265,43.798887566040705],[-72.77058836656548,43.799343451926944],[-72.77054849580254,43.79937835412247],[-72.77089864091568,43.799860670310366],[-72.77206831997128,43.80106410495243],[-72.77247120750384,43.80127465787837],[-72.77336327684885,43.80154127840418],[-72.77493333258617,43.8016231577994],[-72.77580573307306,43.80190586081829],[-72.77707637913761,43.80268169407189],[-72.77829990633074,43.803312449159],[-72.77943328667403,43.804007405332044],[-72.78122405319479,43.804996671165235],[-72.78199882642727,43.80552654337677],[-72.78244061238956,43.80474934802186],[-72.78285746796037,43.80401599297043],[-72.7833788769596,43.803151999822134],[-72.79316429739546,43.78698005414888],[-72.78643743405468,43.784921801309615],[-72.78897133645734,43.780628057059374],[-72.78487791598364,43.780511622437125]]],[[[-72.69847955815611,43.68423242311006],[-72.6939077368531,43.69326340300379],[-72.6939080385902,43.69326349789951],[-72.70123789330069,43.695556785796356],[-72.715990697388,43.700231668894006],[-72.70518132377718,43.71825360850634],[-72.69436548521215,43.7362744810507],[-72.68354317323694,43.754294284604455],[-72.67271437938483,43.7723130172429],[-72.67379532459495,43.77253415134676],[-72.67550702646054,43.77277664243647],[-72.67583833428903,43.77291310686389],[-72.67640698755999,43.77330642215067],[-72.67691223933693,43.773522774077556],[-72.67804003586718,43.77371494497165],[-72.67921569735688,43.774009832589584],[-72.67918425198425,43.774072745591496],[-72.68119618323185,43.77460607069526],[-72.67695375737202,43.782067664240486],[-72.67784237762818,43.78835121413638],[-72.67864761537749,43.78873951441277],[-72.67889001896008,43.78761153283226],[-72.678810880646,43.78750294694379],[-72.678944053796,43.78711346403907],[-72.679162724465,43.78705150268254],[-72.67919404550429,43.78690352837054],[-72.67988870630326,43.78635101108221],[-72.68011607888832,43.78565817178826],[-72.67986996517254,43.784891401280575],[-72.68022418366806,43.78455332189428],[-72.68119302550551,43.784105699256926],[-72.68468355508713,43.77904727680977],[-72.68712469679822,43.774058669121146],[-72.68491496982806,43.77327769341916],[-72.68484930658971,43.77207144081185],[-72.68550202447892,43.771338234766176],[-72.68543853856653,43.771268303289766],[-72.68660569820608,43.77046562009543],[-72.68827949550416,43.76971088631331],[-72.68995231899984,43.76872492676518],[-72.69074864855504,43.76814516375199],[-72.69170578521056,43.76797000925506],[-72.69242532449381,43.768315876578356],[-72.69322387397858,43.768488064427956],[-72.69418214666767,43.768602031407525],[-72.69601741210752,43.768483276957724],[-72.69712773320354,43.76639912605325],[-72.69864389668467,43.76628074340886],[-72.69936267917214,43.76645302613876],[-72.7012811474135,43.76737501509736],[-72.70231426087352,43.766042921565834],[-72.70127234335999,43.76477231391881],[-72.69879413466934,43.76350435938014],[-72.69847396243424,43.76321563462344],[-72.69839093033177,43.76223260587446],[-72.69926916816163,43.76234666923817],[-72.70357610479202,43.76164500190852],[-72.70293455524872,43.76072077604025],[-72.69854271375566,43.759918765120766],[-72.69981907847006,43.759742983874006],[-72.70243619219538,43.754995594771806],[-72.70634967947936,43.756029670552905],[-72.70722844529236,43.75631721458602],[-72.70714709144762,43.755854675569054],[-72.70762432496547,43.75539111771824],[-72.7078633420834,43.755275079373476],[-72.70921953444393,43.75521464813311],[-72.71017661592319,43.75509728016939],[-72.71105313034126,43.75474856973759],[-72.71089057358593,43.753881297597474],[-72.71064870312264,43.75318771493439],[-72.71062379191132,43.75278188961564],[-72.71072434954148,43.75203085542398],[-72.71016395803872,43.75151126338971],[-72.71264389414479,43.749693589170825],[-72.71466818526231,43.75089488061934],[-72.71556793307516,43.75050333782474],[-72.71589146204292,43.75042973482501],[-72.71685567469812,43.750408748059606],[-72.71731044493303,43.75059593163444],[-72.71785445459585,43.750653253361065],[-72.7183463776335,43.750871928067326],[-72.71949908676388,43.751014237770235],[-72.72010054939548,43.75146277828647],[-72.72042386997198,43.75154259466495],[-72.72057364633594,43.7515428655577],[-72.72183592242102,43.75119149640344],[-72.72277534298986,43.750629511012725],[-72.72207478674056,43.74990098767261],[-72.72232726160536,43.749764782734935],[-72.72244587054728,43.74962841661723],[-72.72250941145953,43.749395401776894],[-72.72247827737765,43.7491622903959],[-72.72173792513578,43.74922345003685],[-72.72141832413261,43.74994492512948],[-72.72117541868147,43.75025929128106],[-72.72099650198932,43.7502124857968],[-72.72069508624436,43.749706505887175],[-72.72076174872909,43.74769375711162],[-72.72058815691673,43.74733603919752],[-72.71717413755518,43.747633868024785],[-72.71191790796449,43.74176836195535],[-72.71355736950225,43.73893881727561],[-72.71650734189018,43.73998124530551],[-72.71700763972913,43.7399399295625],[-72.71745177920643,43.73981813485537],[-72.71733975381603,43.73957659793474],[-72.71711687869265,43.73941571563917],[-72.7168930779257,43.73905344621871],[-72.71672528859672,43.73873129131265],[-72.71672426482893,43.73844917983474],[-72.71655686829733,43.73828833161668],[-72.7165001772108,43.73800632557167],[-72.71605502682068,43.737845865569156],[-72.71627526444261,43.73728122030841],[-72.71449426513828,43.73668000673547],[-72.71664957582705,43.733209693324206],[-72.7143128418285,43.732609533892855],[-72.71397713572917,43.73196535614934],[-72.7145313875787,43.731520889247555],[-72.7141927440146,43.730110959823165],[-72.71529785967724,43.72829510360072],[-72.71435200491725,43.72801477727811],[-72.71578737804747,43.7253519509799],[-72.71917026556417,43.72631979825011],[-72.71951690834122,43.72655595843243],[-72.71962543948565,43.7247447924008],[-72.72112351021754,43.72464442780072],[-72.72166042685633,43.72442047559127],[-72.7222833304088,43.7240109966769],[-72.73017241870768,43.72617809529935],[-72.72989457094515,43.72780313136457],[-72.73016376735123,43.72785827758171],[-72.72972863616204,43.72958657617755],[-72.7299860990397,43.731578007591935],[-72.72604382153165,43.73051329200709],[-72.72522439889816,43.73338738491244],[-72.72794721106374,43.7342344864251],[-72.72947194778097,43.735513726203926],[-72.73091036254414,43.73587140240952],[-72.73151939035279,43.736170839674685],[-72.73212780063677,43.73630981233428],[-72.73237840608681,43.736810241187804],[-72.73329001559814,43.73670810170177],[-72.73387081464189,43.73682715169184],[-72.73456467324462,43.73713807200374],[-72.73431695433347,43.737476808983665],[-72.73355946772831,43.73790828765609],[-72.73326711952505,43.738294648594284],[-72.73263559471593,43.73880025874565],[-72.73181570565932,43.73875411674626],[-72.72858108473663,43.744628362353275],[-72.72845187705956,43.74467559407787],[-72.72781013888127,43.74598984558534],[-72.7254315699606,43.74993361667943],[-72.72407193017146,43.749608065401915],[-72.72381717990838,43.75068709304665],[-72.72317581206866,43.75214209335825],[-72.72343602870697,43.752516655198434],[-72.72350344874432,43.75326680778978],[-72.72421844387206,43.754156459560576],[-72.7242799019367,43.75419585708904],[-72.72443511442651,43.75409232433693],[-72.72548212609017,43.753860455336365],[-72.72661261623568,43.75384822344158],[-72.72679165908801,43.75378795480582],[-72.73171452202185,43.75390783261923],[-72.73286563724457,43.75187513984514],[-72.73297768015473,43.75190036527052],[-72.7397959937044,43.75397531537552],[-72.73897360067618,43.755583796228976],[-72.74070789301874,43.756045638109846],[-72.74156187025262,43.75443721857742],[-72.74636278684956,43.75587348515063],[-72.74445841157568,43.7585614629328],[-72.74851120628047,43.759456816886924],[-72.75322763778583,43.76060665371729],[-72.75448557741073,43.75837775202979],[-72.759212689163,43.75988102058038],[-72.7573472165777,43.76342937615078],[-72.76052367841665,43.764785181257096],[-72.76251416139449,43.765247937889946],[-72.76310214832574,43.76454566062761],[-72.76331663765998,43.76442829659277],[-72.76331405786256,43.76384410868106],[-72.76336729222746,43.76372711862616],[-72.76368960384796,43.76372637277351],[-72.7636873639331,43.76322009502317],[-72.76384827096602,43.763141810875545],[-72.76395473678986,43.76290797062897],[-72.76389995319,43.76267436409398],[-72.76368374783738,43.76240217543594],[-72.76405740808654,43.761817254620205],[-72.76470030156216,43.76138724966147],[-72.76534439782507,43.76123006910011],[-72.77189470035744,43.76344240905946],[-72.77407701657245,43.7642791560772],[-72.77407604919222,43.7640686289682],[-72.77739033731602,43.75848220822342],[-72.77622615183448,43.757958782815265],[-72.77809922309486,43.75479670270773],[-72.77982885687338,43.752055861709906],[-72.78113708582862,43.75236836511131],[-72.78315384331131,43.74899531657694],[-72.78329705619443,43.74857404302974],[-72.78574615212666,43.7445682873682],[-72.78298281378413,43.74352267625434],[-72.78341530582215,43.74289001227096],[-72.78297633552053,43.74215446015172],[-72.78484697686781,43.73867640928237],[-72.78571646757264,43.73835850744571],[-72.78672911022248,43.73761918007773],[-72.78730872152148,43.73740718969643],[-72.78803148067934,43.73677391619699],[-72.78875635401543,43.73656155139575],[-72.78948010622044,43.73613865528372],[-72.78991349763703,43.73571649411405],[-72.79063723219238,43.735293731071586],[-72.79150818218207,43.7352915068198],[-72.79324388747412,43.73402401259841],[-72.80080409841665,43.736425052669745],[-72.80254123840142,43.735473280586625],[-72.80384815180281,43.73557499803353],[-72.80457285742968,43.73536253424335],[-72.80573307970347,43.73514889813824],[-72.80761419258201,43.733986132164716],[-72.80886113101224,43.733567353634584],[-72.81998614127639,43.716705546251085],[-72.81997673150939,43.71670303530346],[-72.80495133715722,43.71269638319434],[-72.78992793570139,43.70868774754524],[-72.77490652805373,43.70467712917745],[-72.7598871151248,43.700664528912725],[-72.74486969782377,43.69664994757304],[-72.72985427705864,43.6926333859808],[-72.71484085373596,43.688614844958664],[-72.69982942876109,43.68459432532965],[-72.69847955815611,43.68423242311006]]]]}},{"type":"Feature","properties":{"OBJECT_ID":585,"County":"Windsor","RPC":"TRORC","Municipal_Name":"Stockbridge","GEO_ID":"5002770375","District_Name":"Mixed Use Light Industrial","Abbreviated_District_Name":"Muli","District_Type":"Mixed with Residential","Bylaw_Date":null,"Elderly_Housing_District":"No","District_Mapped":"Yes","Overlay_District":"No","Base_Density":null,"FIPS6":null,"GIS_ID":null,"Last_Update":null,"Shape_Length":2549.670925088062,"Shape_Area":266094.26376177435,"F1F_Allowance":"Permitted","F1F_Front_Setback":50.0,"F1F_Side_Setback":25.0,"F1F_Rear_Setback":25.0,"F1F_Frontage":100.0,"F1F_Max_Height":35.0,"F1F_Max_Stories":null,"F1F_Min_Lot_Size":1.0,"F1F_Max_Lot_Building_Coverage":null,"F1F_Max_Lot_Impervious_Coverage":20.0,"F1F_Min_Parking_Spaces":2.0,"F1F_Elderly_Housing_Only":null,"F1F_Affordable_Housing_Only":null,"F2F_Allowance":"Permitted","F2F_Front_Setback":50.0,"F2F_Side_Setback":25.0,"F2F_Rear_Setback":25.0,"F2F_Frontage":100.0,"F2F_Max_Density":2.0,"F2F_Max_Height":35.0,"F2F_Max_Stories":null,"F2F_Min_Lot_Size":1.0,"F2F_Max_Lot_Building_Coverage":null,"F2F_Max_Lot_Impervious_Coverage":20.0,"F2F_Min_Parking_Spaces_per_1BR":2.0,"F2F_Min_Parking_Spaces_per_mult_BR":2.0,"F2F_Elderly_Housing_Only":"No","F2F_Affordable_Housing_Only":"No","F3F_Allowance":"Prohibited","F3F_Front_Setback":null,"F3F_Side_Setback":null,"F3F_Rear_Setback":null,"F3F_Frontage":null,"F3F_Max_Density":null,"F3F_Max_Height":null,"F3F_Max_Stories":null,"F3F_Min_Lot_Size":null,"F3F_Max_Lot_Building_Coverage":null,"F3F_Max_Lot_Impervious_Coverage":null,"F3F_Min_Parking_Spaces_per_1BR":null,"F3F_Min_Parking_Spaces_per_mult_BR":null,"F3F_Affordable_Housing_Only":null,"F3F_Proximity_to_Public_Transit_Required":null,"F3F_Connection_to_Sewage/Water_Required":null,"F4F_Allowance":"Prohibited","F4F_Front_Setback":null,"F4F_Side_Setback":null,"F4F_Rear_Setback":null,"F4F_Frontage":null,"F1F_Max_Density":null,"F4F_Max_Density":null,"F4F_Max_Height":null,"F4F_Max_Stories":null,"F4F_Min_Lot_Size":null,"F4F_Max_Lot_Building_Coverage":null,"F4F_Max_Lot_Impervious_Coverage":null,"F4F_Min_Parking_Spaces_per_1BR":null,"F4F_Min_Parking_Spaces_per_mult_BR":null,"F3F_Elderly_Housing_Only":null,"F4F_Elderly_Housing_Only":null,"F4F_Affordable_Housing_Only":null,"F4F_Proximity_to_Public_Transit_Required":null,"F4F_Connection_to_Sewage/Water_Required":null,"ADU_Allowance":"Allowed/Conditional","ADU_Elderly_Housing_Only":"No","ADU_Max_Size_as_Percent_of_Primary_Strcture":50.0,"ADU_Max_Size_in_sq_ft":1500.0,"ADU_Min_Lot_Size":1.0,"ADU_Max_Bedrooms":null,"ADU_Min_Parking_Spaces":2.0,"ADU_Owner_Occupancy_Required":"No","ADU_Renter_Occupancy_Prohibited":"No","ADU_Employee_or_Family_Occupancy_Required":"No","ADU_Restricted_to_Primary_Structure":"No","Affordable_Housing_Allowance":"Not Mentioned","Affordable_Housing_District":"No","Affordable_Housing_Elderly_Only":null,"Affordable_Housing_Min_Lot_Size":null,"Affordable_Housing_Max_Density":null,"Affordable_Housing_Min_Parking_Spaces_per_mult_BR":null,"Affordable_Housing_Max_Units_per_Building":null,"Affordable_Housing_Min_Parking_Spaces_per_1BR":null,"PRD_Allowance":"Public Hearing","PRD_Max_Density":null,"PRD_Max_Units":null,"PRD_Min_Lot_Size":null,"PRD_Mobile_or_Manufactured_Home_Park":"No","PUD_Allowance":null,"PUD_Required_with_Subdivision":null,"PUD_Requires_Land_Conservation":null,"PUD_Threshold_Number":null,"Notes":"None"},"geometry":{"type":"MultiPolygon","coordinates":[[[[-72.75513040536632,43.77096296265217],[-72.75600028297612,43.771515705877206],[-72.75781639841722,43.770587143372296],[-72.75846245638084,43.77051172635753],[-72.75893921330318,43.770982072925186],[-72.76128237708049,43.77076939463217],[-72.76153871918578,43.76992538730166],[-72.76173858893439,43.7689511440293],[-72.76158324769793,43.76843379095176],[-72.75991254889975,43.7675624278786],[-72.75922860459227,43.76732568141456],[-72.75924834435375,43.767366713557934],[-72.75824529126761,43.76747992207622],[-72.75494805311416,43.7680789921625],[-72.75375902492928,43.76846375668311],[-72.7530789125877,43.76852689623307],[-72.75173429822975,43.76832031655728],[-72.74969745872917,43.767794005131094],[-72.74981266046386,43.768423145152816],[-72.74961121468718,43.769064558030756],[-72.74997077507356,43.76963078612312],[-72.7529656666047,43.769907704614525],[-72.75415749487776,43.77017624114125],[-72.75513040536632,43.77096296265217]]]]}}]}