{"type":"FeatureCollection","features":[{"type":"Feature","id":1,"geometry":{"type":"Polygon","coordinates":[[[-72.53890872555677,43.37788041669037],[-72.53868188443622,43.38149791961735],[-72.54285901564617,43.38045634061665],[-72.56161771805104,43.37420398879651],[-72.56801055466234,43.37216113980243],[-72.57998311121452,43.36818349228914],[-72.59528516634717,43.35686405113811],[-72.60305720341292,43.35122864915529],[-72.60708018584116,43.34815246377432],[-72.58428413586839,43.347024864000915],[-72.57034005708276,43.34645937918209],[-72.54859817783307,43.34538225408766],[-72.54611813138305,43.34530068541749],[-72.54548164407791,43.34527974682384],[-72.54331506563216,43.35914283440641],[-72.54267458062257,43.36143973864307],[-72.53914350609733,43.37413620171769],[-72.53890872555677,43.37788041669037]]]},"properties":{"OBJECT_ID":1487,"County":"Windsor","RPC":"MARC","Municipal_Name":"Baltimore","GEO_ID":"5002702575","District_Name":"Rural Residential","Abbreviated_District_Name":"Rr","District_Type":"Primarily Residential","Bylaw_Date":"2024-06-01","Elderly_Housing_District":"No","District_Mapped":"No","Overlay_District":"No","Base_Density":null,"FIPS6":27011,"GIS_ID":null,"Last_Update":"20240609","Shape_Length":15860.938471016623,"Shape_Area":12339650.150291732,"F1F_Allowance":"Permitted","F1F_Front_Setback":100,"F1F_Side_Setback":50,"F1F_Rear_Setback":50,"F1F_Frontage":null,"F1F_Max_Height":35,"F1F_Max_Stories":null,"F1F_Min_Lot_Size":3,"F1F_Max_Lot_Building_Coverage":null,"F1F_Max_Lot_Impervious_Coverage":null,"F1F_Min_Parking_Spaces":null,"F1F_Elderly_Housing_Only":null,"F1F_Affordable_Housing_Only":null,"F2F_Allowance":"Permitted","F2F_Front_Setback":100,"F2F_Side_Setback":50,"F2F_Rear_Setback":50,"F2F_Frontage":null,"F2F_Max_Density":null,"F2F_Max_Height":35,"F2F_Max_Stories":null,"F2F_Min_Lot_Size":3,"F2F_Max_Lot_Building_Coverage":null,"F2F_Max_Lot_Impervious_Coverage":null,"F2F_Min_Parking_Spaces_per_1BR":null,"F2F_Min_Parking_Spaces_per_mult_BR":null,"F2F_Elderly_Housing_Only":"No","F2F_Affordable_Housing_Only":"No","F3F_Allowance":"Public Hearing","F3F_Front_Setback":100,"F3F_Side_Setback":50,"F3F_Rear_Setback":50,"F3F_Frontage":null,"F3F_Max_Density":null,"F3F_Max_Height":35,"F3F_Max_Stories":null,"F3F_Min_Lot_Size":3,"F3F_Max_Lot_Building_Coverage":null,"F3F_Max_Lot_Impervious_Coverage":null,"F3F_Min_Parking_Spaces_per_1BR":null,"F3F_Min_Parking_Spaces_per_mult_BR":null,"F3F_Affordable_Housing_Only":"No","F3F_Proximity_to_Public_Transit_Required":"No","F3F_Connection_to_Sewage/Water_Required":"No","F4F_Allowance":"Public Hearing","F4F_Front_Setback":100,"F4F_Side_Setback":50,"F4F_Rear_Setback":50,"F4F_Frontage":null,"F1F_Max_Density":null,"F4F_Max_Density":null,"F4F_Max_Height":35,"F4F_Max_Stories":null,"F4F_Min_Lot_Size":3,"F4F_Max_Lot_Building_Coverage":null,"F4F_Max_Lot_Impervious_Coverage":null,"F4F_Min_Parking_Spaces_per_1BR":null,"F4F_Min_Parking_Spaces_per_mult_BR":null,"F3F_Elderly_Housing_Only":"No","F4F_Elderly_Housing_Only":"No","F4F_Affordable_Housing_Only":"No","F4F_Proximity_to_Public_Transit_Required":"No","F4F_Connection_to_Sewage/Water_Required":"No","ADU_Allowance":"Allowed/Conditional","ADU_Elderly_Housing_Only":"No","ADU_Max_Size_as_Percent_of_Primary_Strcture":30,"ADU_Max_Size_in_sq_ft":null,"ADU_Min_Lot_Size":null,"ADU_Max_Bedrooms":null,"ADU_Min_Parking_Spaces":null,"ADU_Owner_Occupancy_Required":"Yes","ADU_Renter_Occupancy_Prohibited":"No","ADU_Employee_or_Family_Occupancy_Required":"No","ADU_Restricted_to_Primary_Structure":"No","Affordable_Housing_Allowance":"Allowed/Conditional","Affordable_Housing_District":"No","Affordable_Housing_Elderly_Only":"No","Affordable_Housing_Min_Lot_Size":null,"Affordable_Housing_Max_Density":null,"Affordable_Housing_Min_Parking_Spaces_per_mult_BR":null,"Affordable_Housing_Max_Units_per_Building":null,"Affordable_Housing_Min_Parking_Spaces_per_1BR":null,"PRD_Allowance":"Not Mentioned","PRD_Max_Density":null,"PRD_Max_Units":null,"PRD_Min_Lot_Size":null,"PRD_Mobile_or_Manufactured_Home_Park":"No","PUD_Allowance":null,"PUD_Required_with_Subdivision":null,"PUD_Requires_Land_Conservation":null,"PUD_Threshold_Number":null,"Notes":"Baltimore Has Just One Zoning District And Therefore No Zoning Map.  "}}]}