{
  "type": "FeatureCollection",
  "crs": {
    "type": "name",
    "properties": {
      "name": "urn:ogc:def:crs:OGC:1.3:CRS84"
    }
  },
  "features": [
    {
      "type": "Feature",
      "properties": {
        "ABB_DIST_NAME": "FH",
        "Jurisdiction_County": "Windsor",
        "Jurisdiction_District_Name": "Plymouth"
      },
      "geometry": {
        "type": "MultiPolygon",
        "coordinates": [
          [
            [
              [
                -72.74954988373443,
                43.54846901178999
              ],
              [
                -72.75034945146551,
                43.54918760904819
              ],
              [
                -72.75121805126017,
                43.55097090849659
              ],
              [
                -72.75284506220537,
                43.55389568326481
              ],
              [
                -72.75434107990397,
                43.553898002290474
              ],
              [
                -72.75541253538024,
                43.55309383761945
              ],
              [
                -72.75512163135905,
                43.55252823297205
              ],
              [
                -72.75412726610803,
                43.55159086689118
              ],
              [
                -72.75319837492546,
                43.55085692211641
              ],
              [
                -72.75181639898868,
                43.54988907372626
              ],
              [
                -72.75110188241437,
                43.548919744494995
              ],
              [
                -72.75191901154352,
                43.548255285102165
              ],
              [
                -72.75375562345948,
                43.547524821468826
              ],
              [
                -72.75615737117833,
                43.54699528586984
              ],
              [
                -72.75701652302087,
                43.548014549733175
              ],
              [
                -72.76091382326292,
                43.54980261046014
              ],
              [
                -72.76460092895908,
                43.55155279289856
              ],
              [
                -72.7671252092997,
                43.551814545112975
              ],
              [
                -72.7713802090358,
                43.55119281823736
              ],
              [
                -72.77552999372516,
                43.55057118566868
              ],
              [
                -72.77871050612022,
                43.54996859212422
              ],
              [
                -72.77910086752358,
                43.54708038413422
              ],
              [
                -72.77691781919286,
                43.54784420895324
              ],
              [
                -72.77039869996622,
                43.54940131367597
              ],
              [
                -72.76794481559133,
                43.54982305123044
              ],
              [
                -72.76511816837727,
                43.54963389463771
              ],
              [
                -72.76329690857922,
                43.54856150009789
              ],
              [
                -72.7615421459924,
                43.54729317714139
              ],
              [
                -72.75935120836462,
                43.54627050066891
              ],
              [
                -72.75662141618382,
                43.54571291137188
              ],
              [
                -72.75410134575152,
                43.54542100559426
              ],
              [
                -72.75283248732443,
                43.54573701185337
              ],
              [
                -72.75109421174419,
                43.54707191753879
              ],
              [
                -72.75012806867637,
                43.54771608241495
              ],
              [
                -72.74993236518863,
                43.54724671970493
              ],
              [
                -72.74994897667219,
                43.546056546204824
              ],
              [
                -72.7496208791546,
                43.54480448708424
              ],
              [
                -72.74912894308243,
                43.5430754752355
              ],
              [
                -72.74878161839113,
                43.54237467677615
              ],
              [
                -72.74800733179988,
                43.54170487089885
              ],
              [
                -72.74745369984686,
                43.54108469244527
              ],
              [
                -72.74724348041016,
                43.540213214984725
              ],
              [
                -72.74634459428489,
                43.53938331044001
              ],
              [
                -72.74567797051579,
                43.53870573970043
              ],
              [
                -72.744277016552,
                43.538270268844
              ],
              [
                -72.74352172532838,
                43.537802088566885
              ],
              [
                -72.74265618028181,
                43.53667642911706
              ],
              [
                -72.74196399313128,
                43.53583227024709
              ],
              [
                -72.74150865914638,
                43.53500326777261
              ],
              [
                -72.74124530771047,
                43.533735384576254
              ],
              [
                -72.7412313767673,
                43.53226535646638
              ],
              [
                -72.74075587542482,
                43.53109187825152
              ],
              [
                -72.73923662553173,
                43.529602497618924
              ],
              [
                -72.73866058830633,
                43.528502626079565
              ],
              [
                -72.73774761893851,
                43.527232172979026
              ],
              [
                -72.7366192456787,
                43.525573170248904
              ],
              [
                -72.7357374240808,
                43.5254948137712
              ],
              [
                -72.73479961577578,
                43.525186054032716
              ],
              [
                -72.73405266818789,
                43.52436576104317
              ],
              [
                -72.73354277031692,
                43.52340028293394
              ],
              [
                -72.7331720976294,
                43.52214825848548
              ],
              [
                -72.73260740261203,
                43.520802668857286
              ],
              [
                -72.73163476897604,
                43.51969279934185
              ],
              [
                -72.73193189857005,
                43.51861167252849
              ],
              [
                -72.73126266352135,
                43.518049276352045
              ],
              [
                -72.73061710653361,
                43.51805058025002
              ],
              [
                -72.73016366838088,
                43.517644339549804
              ],
              [
                -72.72957999858558,
                43.51694082272646
              ],
              [
                -72.7292609713612,
                43.515088714700354
              ],
              [
                -72.72888558938797,
                43.51362136120526
              ],
              [
                -72.7288470689124,
                43.512324612376844
              ],
              [
                -72.72827147808773,
                43.51124915160979
              ],
              [
                -72.72732435967637,
                43.50970952701928
              ],
              [
                -72.72674698900273,
                43.508144693175744
              ],
              [
                -72.72683011267053,
                43.506642164908705
              ],
              [
                -72.72693487037188,
                43.50589028644015
              ],
              [
                -72.72675730452521,
                43.50443427620282
              ],
              [
                -72.72578603411492,
                43.503590567615284
              ],
              [
                -72.72464152395254,
                43.50243399544823
              ],
              [
                -72.7237775906047,
                43.50151176052239
              ],
              [
                -72.72276626220119,
                43.50145109545719
              ],
              [
                -72.72175396266185,
                43.50112420746965
              ],
              [
                -72.72134345018331,
                43.50063954743603
              ],
              [
                -72.72030812074868,
                43.499889875546216
              ],
              [
                -72.71912325426132,
                43.49942235767547
              ],
              [
                -72.71738033469391,
                43.49930040562323
              ],
              [
                -72.71657514496498,
                43.4999918850884
              ],
              [
                -72.71635027836598,
                43.50000705175758
              ],
              [
                -72.71540262861538,
                43.49969564417201
              ],
              [
                -72.7130353630406,
                43.49943386240624
              ],
              [
                -72.71368000449363,
                43.49922908166295
              ],
              [
                -72.7130973649458,
                43.49871339433415
              ],
              [
                -72.71184667405959,
                43.497854427764224
              ],
              [
                -72.71116171854142,
                43.496859102415485
              ],
              [
                -72.71051316823439,
                43.49642934006372
              ],
              [
                -72.71071824391667,
                43.496018047541334
              ],
              [
                -72.71054929252456,
                43.4953891069835
              ],
              [
                -72.70995714063967,
                43.4948869277491
              ],
              [
                -72.70919810700929,
                43.49434711511544
              ],
              [
                -72.70835586916283,
                43.49362704771788
              ],
              [
                -72.7074582500515,
                43.493398038375496
              ],
              [
                -72.7070763847868,
                43.49385988478934
              ],
              [
                -72.7070500506861,
                43.4942107124484
              ],
              [
                -72.70644459840524,
                43.4942919856481
              ],
              [
                -72.70567370731473,
                43.49430339753359
              ],
              [
                -72.70545218580263,
                43.49393297052445
              ],
              [
                -72.7057528360532,
                43.493280980447906
              ],
              [
                -72.70606785861345,
                43.492809364956784
              ],
              [
                -72.70574919541146,
                43.49220860064997
              ],
              [
                -72.70567847523574,
                43.49168565273624
              ],
              [
                -72.70561077318524,
                43.491185018264254
              ],
              [
                -72.70614411542952,
                43.49094507874385
              ],
              [
                -72.70659640329828,
                43.490362968491034
              ],
              [
                -72.70684220054407,
                43.48978123011082
              ],
              [
                -72.70711638090191,
                43.489449997964336
              ],
              [
                -72.70731110877108,
                43.489072003922566
              ],
              [
                -72.7073092221222,
                43.48852037972303
              ],
              [
                -72.70693601590895,
                43.487584570691254
              ],
              [
                -72.70610568925342,
                43.48693181366099
              ],
              [
                -72.70562899776048,
                43.48664402926684
              ],
              [
                -72.70539322828347,
                43.485184323935236
              ],
              [
                -72.70528059986876,
                43.484486996681
              ],
              [
                -72.70464540821207,
                43.483840228427546
              ],
              [
                -72.70417305863855,
                43.48327829600215
              ],
              [
                -72.70366538861965,
                43.48220258443876
              ],
              [
                -72.70319093010785,
                43.481004469147486
              ],
              [
                -72.70304997988912,
                43.479207830852665
              ],
              [
                -72.70247490453136,
                43.47789823070884
              ],
              [
                -72.70239554035436,
                43.47622910663536
              ],
              [
                -72.70193945345363,
                43.47491498902549
              ],
              [
                -72.70165449491833,
                43.47328686175225
              ],
              [
                -72.70143494306166,
                43.47192483715267
              ],
              [
                -72.7019898293424,
                43.470671065885114
              ],
              [
                -72.7019757266182,
                43.47020086252694
              ],
              [
                -72.70170551472042,
                43.469230855276365
              ],
              [
                -72.70114331326647,
                43.468276591027
              ],
              [
                -72.7006892540867,
                43.46751005305079
              ],
              [
                -72.70062019502876,
                43.46613210120741
              ],
              [
                -72.70151961324066,
                43.46504998492551
              ],
              [
                -72.70263097022467,
                43.46426893922268
              ],
              [
                -72.70259203175159,
                43.46319445614239
              ],
              [
                -72.70165181662692,
                43.46297902288018
              ],
              [
                -72.7011222319385,
                43.46348639846494
              ],
              [
                -72.69958262063633,
                43.464442644828026
              ],
              [
                -72.69834127687804,
                43.46616739692563
              ],
              [
                -72.69834537313068,
                43.467420183251086
              ],
              [
                -72.6973382042014,
                43.46845547996036
              ],
              [
                -72.69832791715054,
                43.46865734662509
              ],
              [
                -72.69820141800118,
                43.46942490249992
              ],
              [
                -72.69755836656799,
                43.470036751199025
              ],
              [
                -72.69741030184377,
                43.47078868321933
              ],
              [
                -72.69747822289942,
                43.47183777950775
              ],
              [
                -72.69496704633798,
                43.47414198966616
              ],
              [
                -72.69593906913936,
                43.47462789037427
              ],
              [
                -72.69641401576807,
                43.475206491690194
              ],
              [
                -72.69625347923959,
                43.47609938150846
              ],
              [
                -72.69560987870155,
                43.477102717707034
              ],
              [
                -72.6947588178986,
                43.4777957106749
              ],
              [
                -72.69524345208424,
                43.47870691684051
              ],
              [
                -72.69631722390565,
                43.47878525702356
              ],
              [
                -72.69760990034122,
                43.47846231563547
              ],
              [
                -72.69818784490403,
                43.47843124826354
              ],
              [
                -72.69901480394543,
                43.47879061555868
              ],
              [
                -72.70011610896387,
                43.47886887214176
              ],
              [
                -72.70024249083995,
                43.47963034779374
              ],
              [
                -72.70017718236325,
                43.48069282910987
              ],
              [
                -72.70035882266521,
                43.48151434094053
              ],
              [
                -72.70129587971338,
                43.48185345413006
              ],
              [
                -72.70179207275582,
                43.48206304833319
              ],
              [
                -72.70178261276084,
                43.48335594470715
              ],
              [
                -72.70167470087571,
                43.48401760836129
              ],
              [
                -72.70148496643766,
                43.484909929155315
              ],
              [
                -72.70128506164481,
                43.486388773425844
              ],
              [
                -72.70103199278134,
                43.487114032772745
              ],
              [
                -72.70135949972634,
                43.48758169864855
              ],
              [
                -72.70193592801375,
                43.48872242412622
              ],
              [
                -72.70244946485928,
                43.489491228846695
              ],
              [
                -72.702873862386,
                43.4899458903206
              ],
              [
                -72.70344585868273,
                43.490899800024174
              ],
              [
                -72.70401507916921,
                43.49233197515699
              ],
              [
                -72.70408681183211,
                43.49319376510634
              ],
              [
                -72.70426982689128,
                43.494396115248726
              ],
              [
                -72.7048490716523,
                43.494705770140534
              ],
              [
                -72.70582639866386,
                43.494673948010146
              ],
              [
                -72.70633668428651,
                43.49494363068747
              ],
              [
                -72.70675043560898,
                43.495163373350834
              ],
              [
                -72.70662930394718,
                43.495975398431135
              ],
              [
                -72.70631474587526,
                43.49658732683916
              ],
              [
                -72.70655121151957,
                43.49729848304863
              ],
              [
                -72.70766937665626,
                43.49817841926173
              ],
              [
                -72.70875914161672,
                43.49879781761131
              ],
              [
                -72.70866456401865,
                43.49931914931882
              ],
              [
                -72.70888695296617,
                43.49993010329366
              ],
              [
                -72.70899865102213,
                43.5003809015133
              ],
              [
                -72.7095779771889,
                43.50069053285849
              ],
              [
                -72.71032064769358,
                43.50045865582718
              ],
              [
                -72.71067861321733,
                43.50045799682061
              ],
              [
                -72.71142351361532,
                43.500867536339335
              ],
              [
                -72.71187789340597,
                43.500876716994064
              ],
              [
                -72.71171337707568,
                43.50107746808019
              ],
              [
                -72.71282887044404,
                43.50115557555507
              ],
              [
                -72.71303348939526,
                43.500613990342266
              ],
              [
                -72.71377656875148,
                43.50050235810286
              ],
              [
                -72.7148366986703,
                43.5005003711301
              ],
              [
                -72.71517172285904,
                43.50130904151039
              ],
              [
                -72.715883928411,
                43.50194975140327
              ],
              [
                -72.71704573548493,
                43.50197887185835
              ],
              [
                -72.71814379496024,
                43.50222733897064
              ],
              [
                -72.71898591429854,
                43.503087020092494
              ],
              [
                -72.7201692580271,
                43.50311606664973
              ],
              [
                -72.72079131783374,
                43.50261375280398
              ],
              [
                -72.72010096398179,
                43.50208265036771
              ],
              [
                -72.71953969856779,
                43.501551295028584
              ],
              [
                -72.71863379079186,
                43.50089531844554
              ],
              [
                -72.71762062152945,
                43.50031783775737
              ],
              [
                -72.71745825042677,
                43.49993231622738
              ],
              [
                -72.71709042580646,
                43.49995712800583
              ],
              [
                -72.71726012228721,
                43.49964991145522
              ],
              [
                -72.71811449883317,
                43.49955848439492
              ],
              [
                -72.71952568213636,
                43.49993422618748
              ],
              [
                -72.72066459254938,
                43.50054780344528
              ],
              [
                -72.7218223910367,
                43.50156279416972
              ],
              [
                -72.7230752575316,
                43.501937826923275
              ],
              [
                -72.72420677498816,
                43.50261712919792
              ],
              [
                -72.72506398872194,
                43.503577584122645
              ],
              [
                -72.72537114883333,
                43.50471951982227
              ],
              [
                -72.72529334342664,
                43.506012547590586
              ],
              [
                -72.72496623322847,
                43.50691519616885
              ],
              [
                -72.72472538114124,
                43.507965530091504
              ],
              [
                -72.72564821299615,
                43.50886819659896
              ],
              [
                -72.72556152537499,
                43.50940275543798
              ],
              [
                -72.72559581924433,
                43.510164263524
              ],
              [
                -72.7261787627623,
                43.5108214919326
              ],
              [
                -72.72715885622397,
                43.511460973773936
              ],
              [
                -72.7275200112633,
                43.51229210375402
              ],
              [
                -72.72767472806284,
                43.51315371155409
              ],
              [
                -72.72754120023332,
                43.51426644832249
              ],
              [
                -72.72767630602942,
                43.51465676586355
              ],
              [
                -72.72804024034144,
                43.51513739129014
              ],
              [
                -72.7282088194092,
                43.51601901369706
              ],
              [
                -72.72794923688473,
                43.51657075588135
              ],
              [
                -72.72745827990853,
                43.51785458365688
              ],
              [
                -72.72758512631309,
                43.51862604456791
              ],
              [
                -72.7286743274362,
                43.51894458378354
              ],
              [
                -72.72946077972398,
                43.51932385347959
              ],
              [
                -72.73026086213929,
                43.519663002594456
              ],
              [
                -72.7309371930966,
                43.52005250639854
              ],
              [
                -72.73141107540833,
                43.51977542140973
              ],
              [
                -72.7319857727843,
                43.520541473876996
              ],
              [
                -72.73221348203987,
                43.5221935662451
              ],
              [
                -72.73287719445977,
                43.52313542477144
              ],
              [
                -72.73343927424362,
                43.52446535884636
              ],
              [
                -72.73473265255537,
                43.525677281274106
              ],
              [
                -72.73635556713857,
                43.526032294709914
              ],
              [
                -72.73699623389983,
                43.526875280788815
              ],
              [
                -72.73772869064648,
                43.52749513980586
              ],
              [
                -72.73833356606973,
                43.52867325559145
              ],
              [
                -72.7392370796701,
                43.529863559926234
              ],
              [
                -72.7404181835802,
                43.53141948600002
              ],
              [
                -72.74055255160003,
                43.53273462180938
              ],
              [
                -72.74066428020268,
                43.533767928817944
              ],
              [
                -72.7407103809077,
                43.53453515853405
              ],
              [
                -72.73991528114257,
                43.53486568438641
              ],
              [
                -72.73963831453827,
                43.535586613126995
              ],
              [
                -72.74106132087763,
                43.53617869147105
              ],
              [
                -72.74234784396967,
                43.53686816896779
              ],
              [
                -72.74292351872542,
                43.53769127670078
              ],
              [
                -72.74332988375704,
                43.538272288491264
              ],
              [
                -72.74464529768711,
                43.53884889099506
              ],
              [
                -72.74600474312979,
                43.539660279694544
              ],
              [
                -72.74635368926594,
                43.54077136850259
              ],
              [
                -72.74655081155532,
                43.54160090792236
              ],
              [
                -72.74771730430571,
                43.54258494835993
              ],
              [
                -72.74822242387728,
                43.5438088415284
              ],
              [
                -72.74893191664383,
                43.544790329362854
              ],
              [
                -72.74910826840517,
                43.545792166388594
              ],
              [
                -72.74900436523149,
                43.54670065552542
              ],
              [
                -72.74954988373443,
                43.54846901178999
              ]
            ]
          ],
          [
            [
              [
                -72.67982092222702,
                43.564729409609924
              ],
              [
                -72.67919844157592,
                43.56541941166298
              ],
              [
                -72.67909410469001,
                43.566547070321676
              ],
              [
                -72.67944184081266,
                43.56761138086119
              ],
              [
                -72.6795524989912,
                43.56861342447843
              ],
              [
                -72.68034462975989,
                43.568761257081576
              ],
              [
                -72.68023146314191,
                43.56778928486206
              ],
              [
                -72.67975862997496,
                43.566376902933946
              ],
              [
                -72.67974246380155,
                43.56557515470904
              ],
              [
                -72.68077347260986,
                43.564671532886415
              ],
              [
                -72.68187499160871,
                43.5643089877038
              ],
              [
                -72.68318341371292,
                43.56400623300083
              ],
              [
                -72.68409317404053,
                43.564044860909235
              ],
              [
                -72.685443849937,
                43.56404267806426
              ],
              [
                -72.686794865078,
                43.564150721954405
              ],
              [
                -72.68831012419835,
                43.56426611404871
              ],
              [
                -72.68871037175919,
                43.56406739880378
              ],
              [
                -72.68853085674951,
                43.56395745172162
              ],
              [
                -72.687331385704,
                43.56382913508685
              ],
              [
                -72.6858421840574,
                43.56360105465744
              ],
              [
                -72.68530938586765,
                43.563734087174055
              ],
              [
                -72.68414569127361,
                43.563469753536225
              ],
              [
                -72.68289676732914,
                43.563503077910156
              ],
              [
                -72.68130445937922,
                43.5639284241672
              ],
              [
                -72.67982092222702,
                43.564729409609924
              ]
            ]
          ]
        ]
      }
    },
    {
      "type": "Feature",
      "properties": {
        "ABB_DIST_NAME": "CHH",
        "Jurisdiction_County": "Windsor",
        "Jurisdiction_District_Name": "Plymouth"
      },
      "geometry": {
        "type": "Polygon",
        "coordinates": [
          [
            [
              -72.70529730556771,
              43.533055812735434
            ],
            [
              -72.70409369408569,
              43.539217152052125
            ],
            [
              -72.70316328159406,
              43.543979108160926
            ],
            [
              -72.70240615977958,
              43.54785358978344
            ],
            [
              -72.70842845419226,
              43.54808745312849
            ],
            [
              -72.70896085414212,
              43.54639816971963
            ],
            [
              -72.70966811149286,
              43.54664155750205
            ],
            [
              -72.7101355688253,
              43.54563749977794
            ],
            [
              -72.71110398452622,
              43.54398948921911
            ],
            [
              -72.71211595773713,
              43.54403459578865
            ],
            [
              -72.71409674148401,
              43.54369071560106
            ],
            [
              -72.71564473733503,
              43.54352688380643
            ],
            [
              -72.71665328394742,
              43.54261671371137
            ],
            [
              -72.71680167465088,
              43.54197438373629
            ],
            [
              -72.7172724597068,
              43.54119050436429
            ],
            [
              -72.71705415709056,
              43.54034529466542
            ],
            [
              -72.71730366221945,
              43.54006826728235
            ],
            [
              -72.71707579160856,
              43.53854779323651
            ],
            [
              -72.71749635782392,
              43.53716383194484
            ],
            [
              -72.72591821271759,
              43.538866386070225
            ],
            [
              -72.72565886631556,
              43.53978446020191
            ],
            [
              -72.73222993308146,
              43.540230082612666
            ],
            [
              -72.7361206317189,
              43.5406426626527
            ],
            [
              -72.73689503868671,
              43.53708550919672
            ],
            [
              -72.73647208161313,
              43.53643644525462
            ],
            [
              -72.73351709844326,
              43.53330751304095
            ],
            [
              -72.73114422429867,
              43.53117135482137
            ],
            [
              -72.72888528316474,
              43.53132882661997
            ],
            [
              -72.72662904886715,
              43.5322126526343
            ],
            [
              -72.72465081728205,
              43.53212785843416
            ],
            [
              -72.72383617183499,
              43.530098583714405
            ],
            [
              -72.71915981151389,
              43.529593807308515
            ],
            [
              -72.71906299797294,
              43.53071953723966
            ],
            [
              -72.71843109597692,
              43.53267821380114
            ],
            [
              -72.71762007354602,
              43.533471311615095
            ],
            [
              -72.71706944142691,
              43.53337815513171
            ],
            [
              -72.71594144580132,
              43.532413791622844
            ],
            [
              -72.7160632325558,
              43.53120084848017
            ],
            [
              -72.71422395014783,
              43.53116607782305
            ],
            [
              -72.7136524099459,
              43.53300227360633
            ],
            [
              -72.71231240980062,
              43.53330144790078
            ],
            [
              -72.7087127069527,
              43.53297316498949
            ],
            [
              -72.70629742529408,
              43.53355102522193
            ],
            [
              -72.70529730556771,
              43.533055812735434
            ]
          ]
        ]
      }
    },
    {
      "type": "Feature",
      "properties": {
        "ABB_DIST_NAME": "SL",
        "Jurisdiction_County": "Windsor",
        "Jurisdiction_District_Name": "Plymouth"
      },
      "geometry": {
        "type": "MultiPolygon",
        "coordinates": [
          [
            [
              [
                -72.66061709716683,
                43.468515219956004
              ],
              [
                -72.65957820325468,
                43.472683985587295
              ],
              [
                -72.66179244035298,
                43.47619823460525
              ],
              [
                -72.66368376478425,
                43.47669256052756
              ],
              [
                -72.66761967581175,
                43.47611337604839
              ],
              [
                -72.6687178027315,
                43.47454424193728
              ],
              [
                -72.66944689965564,
                43.47244039340101
              ],
              [
                -72.67096530380016,
                43.47102354215338
              ],
              [
                -72.67011819897338,
                43.46846324753834
              ],
              [
                -72.66638544080186,
                43.466365967268366
              ],
              [
                -72.66360290081045,
                43.466178821046455
              ],
              [
                -72.66061709716683,
                43.468515219956004
              ]
            ]
          ],
          [
            [
              [
                -72.6983434255056,
                43.4635622788086
              ],
              [
                -72.69561920049821,
                43.465172725712065
              ],
              [
                -72.69531681733964,
                43.46907292963621
              ],
              [
                -72.6944845256854,
                43.47144474480344
              ],
              [
                -72.69507254943409,
                43.47473171126557
              ],
              [
                -72.69350162995636,
                43.475996042544274
              ],
              [
                -72.69129702275758,
                43.47611444890109
              ],
              [
                -72.69125103490873,
                43.47817906188738
              ],
              [
                -72.69288465158634,
                43.48008792533164
              ],
              [
                -72.69609202115159,
                43.48153529153763
              ],
              [
                -72.69740985088352,
                43.48313877294987
              ],
              [
                -72.69799040706086,
                43.48405534020066
              ],
              [
                -72.6972105245566,
                43.48642707823769
              ],
              [
                -72.69769095454612,
                43.488834870748256
              ],
              [
                -72.69937857995468,
                43.4910494003768
              ],
              [
                -72.70174608680053,
                43.49238336989926
              ],
              [
                -72.70427072657931,
                43.49356408108024
              ],
              [
                -72.70694909353658,
                43.493597496731496
              ],
              [
                -72.70920417937486,
                43.49271405632563
              ],
              [
                -72.71024662828884,
                43.49045645236629
              ],
              [
                -72.7101311344321,
                43.48743633008699
              ],
              [
                -72.70839097255116,
                43.48529851742552
              ],
              [
                -72.70676444105068,
                43.481780905947524
              ],
              [
                -72.70547715628678,
                43.477657365251986
              ],
              [
                -72.70584011939982,
                43.476318586774966
              ],
              [
                -72.70483859373998,
                43.47461474158153
              ],
              [
                -72.70524929698419,
                43.47238173396508
              ],
              [
                -72.70524218116928,
                43.470278975748606
              ],
              [
                -72.70470898025167,
                43.46783307050275
              ],
              [
                -72.70496536944711,
                43.46603569590133
              ],
              [
                -72.70553810257742,
                43.464658307404726
              ],
              [
                -72.70416841471469,
                43.46363215877966
              ],
              [
                -72.70071517810445,
                43.46349751803273
              ],
              [
                -72.6983434255056,
                43.4635622788086
              ]
            ]
          ],
          [
            [
              [
                -72.73439614926058,
                43.54657690578653
              ],
              [
                -72.73612591476203,
                43.54788755979105
              ],
              [
                -72.73800967217396,
                43.54656944049366
              ],
              [
                -72.73775742534657,
                43.545076539252726
              ],
              [
                -72.73586811991537,
                43.544960978429934
              ],
              [
                -72.73439614926058,
                43.54657690578653
              ]
            ]
          ],
          [
            [
              [
                -72.75038437603301,
                43.56004355835386
              ],
              [
                -72.74990509370616,
                43.563330133616894
              ],
              [
                -72.75131552016265,
                43.56667230393
              ],
              [
                -72.7533813568179,
                43.5695351099982
              ],
              [
                -72.75429538455838,
                43.57198228732633
              ],
              [
                -72.75430317662149,
                43.57383410930667
              ],
              [
                -72.75611707936027,
                43.575323477712615
              ],
              [
                -72.75858405644904,
                43.575795818205464
              ],
              [
                -72.76031235428584,
                43.57644900026209
              ],
              [
                -72.76269179035717,
                43.57566698014411
              ],
              [
                -72.7647336134374,
                43.57285464493514
              ],
              [
                -72.76430661077201,
                43.56915195408473
              ],
              [
                -72.76330226352991,
                43.56491295942593
              ],
              [
                -72.7636222682528,
                43.56294090618441
              ],
              [
                -72.76196922165461,
                43.56061496907242
              ],
              [
                -72.7620412698949,
                43.55828506532873
              ],
              [
                -72.75997977550003,
                43.55643792821237
              ],
              [
                -72.75727735392029,
                43.556177660725375
              ],
              [
                -72.75513157112279,
                43.55597095460765
              ],
              [
                -72.75038437603301,
                43.56004355835386
              ]
            ]
          ]
        ]
      }
    }
  ]
}