{"type":"FeatureCollection","features":[{"type":"Feature","id":1,"geometry":{"type":"MultiPolygon","coordinates":[[[[-72.652991266999948,42.991350533000059],[-72.65279191999997,42.991619988000025],[-72.652299942999946,42.991510521000066],[-72.652122232999943,42.991684273000033],[-72.651027960999954,42.992784735000043],[-72.649938822999957,42.993693268000072],[-72.650652853999986,42.994056501000046],[-72.653196501999957,42.99450833700007],[-72.653135279999958,42.994827068000063],[-72.652392581999948,42.995419835000064],[-72.65034905999994,42.996628850000036],[-72.650473312999964,42.996719730000052],[-72.649049601999934,42.997814101000074],[-72.648492056999942,42.99806519200007],[-72.648460774999933,42.997951429000068],[-72.647438045999934,42.99818035800007],[-72.647812000999977,42.998953736000033],[-72.647781974999987,42.999363465000044],[-72.652347604999989,43.002316355000062],[-72.650562003999937,43.007644692000042],[-72.657667038999989,43.008818674000054],[-72.658725139999945,43.010228366000035],[-72.662170137999965,43.011133958000073],[-72.663474391999955,43.01174663900008],[-72.664064225999937,43.011950639000077],[-72.663442228999941,43.011314233000064],[-72.660459577999973,43.00931552600008],[-72.665486039999962,43.010127748000059],[-72.666698985999972,43.011377817000039],[-72.666282275999947,43.012494501000049],[-72.667477073999976,43.012450854000065],[-72.668301852999946,43.012253117000057],[-72.668939010999964,43.012414386000046],[-72.669635934999974,43.012144216000081],[-72.669913503999965,43.012157306000063],[-72.670756530999938,43.012324731000035],[-72.671579582999982,43.009170481000069],[-72.672057172999985,43.007652962000066],[-72.672178287999941,43.007512549000069],[-72.672960798999952,43.007033429000046],[-72.674118064999959,43.006471033000025],[-72.672854693999966,43.005564745000072],[-72.671694126999967,43.000855052000077],[-72.668049703999941,43.000200108000058],[-72.667731628999945,43.000343097000041],[-72.667499061999933,43.000369072000069],[-72.667238898999983,43.00025306200007],[-72.667020169999944,43.000011387000029],[-72.666261971999973,42.999541831000045],[-72.665607373999933,42.99882854100008],[-72.665513350999959,42.998495680000076],[-72.665570941999988,42.998247978000052],[-72.665709832999937,42.998021501000039],[-72.665715100999989,42.997842195000032],[-72.665408671999955,42.99733248900003],[-72.665140519999966,42.997089545000051],[-72.664674395999953,42.99690662900008],[-72.664378018999969,42.996855822000043],[-72.663772900999959,42.996860980000065],[-72.663557745999981,42.996801510000068],[-72.663312677999954,42.996588417000055],[-72.662993354999969,42.995685949000062],[-72.662806972999988,42.995489827000029],[-72.662288457999978,42.995196000000078],[-72.66205931099995,42.99432968900004],[-72.661671449999972,42.993875575000061],[-72.661321903999976,42.993709570000078],[-72.66103093199996,42.993667291000065],[-72.660833307999951,42.993565103000037],[-72.660536221999962,42.993381968000051],[-72.660286466999935,42.993025835000026],[-72.656891452999957,42.991568406000056],[-72.656456391999939,42.991928372000075],[-72.656126257999972,42.991920466000067],[-72.652991266999948,42.991350533000059]]],[[[-72.64144867899995,42.94813676900003],[-72.640984344999936,42.950194105000037],[-72.639492737999944,42.956803016000038],[-72.635545587999957,42.969207112000049],[-72.647119370999974,42.969541193000055],[-72.647247857999957,42.96915752700005],[-72.647926092999967,42.967965779000053],[-72.648150374999943,42.966822250000064],[-72.647953558999973,42.965893624000046],[-72.647563247999983,42.965417778000074],[-72.646524385999953,42.964966580000066],[-72.645842949999974,42.964800728000057],[-72.64529794799995,42.964449657000046],[-72.64498176099994,42.964056447000075],[-72.644488635999949,42.96214690000005],[-72.644264767999971,42.960781122000071],[-72.644341901999951,42.960063263000052],[-72.645552659999964,42.958823013000028],[-72.645724235999978,42.958058727000036],[-72.645777509999959,42.957140972000047],[-72.645299792999936,42.954488439000045],[-72.644712345999949,42.952869591000081],[-72.64357162899995,42.950346369000044],[-72.642303621999986,42.948823630000049],[-72.64144867899995,42.94813676900003]]],[[[-72.718161291999934,42.938064466000071],[-72.717822190999982,42.939552180000078],[-72.715488932999961,42.938958161000073],[-72.714152528999989,42.942344920000039],[-72.707519681999941,42.941118996000057],[-72.706406537999953,42.944216359000052],[-72.705141867999941,42.944012275000034],[-72.704417304999936,42.945746967000048],[-72.709841956999981,42.946748298000045],[-72.708817008999972,42.951001116000043],[-72.707664975999933,42.950920669000027],[-72.706935078999948,42.95106644100008],[-72.705953454999985,42.95154283100004],[-72.70511275399997,42.952163409000036],[-72.70421530699997,42.952618997000059],[-72.703465446999985,42.95524105700008],[-72.704561708999961,42.955424824000033],[-72.703671833999977,42.95819158300003],[-72.703056867999976,42.959141914000043],[-72.704071844999987,42.96021316000008],[-72.703518235999979,42.962050923000049],[-72.70508532599996,42.962118832000044],[-72.705410387999962,42.962197015000072],[-72.705676525999934,42.962293413000054],[-72.706874985999946,42.962974024000061],[-72.708501197999965,42.963619488000063],[-72.710153098999967,42.964149863000046],[-72.710363050999945,42.964276769000037],[-72.710643006999987,42.964488783000036],[-72.711179758999947,42.965083535000076],[-72.711528581999971,42.966052489000049],[-72.711571873999958,42.966390647000026],[-72.712622838999948,42.96702305000008],[-72.713761570999964,42.967885107000029],[-72.714554867999937,42.968762464000065],[-72.715195930999982,42.970028518000049],[-72.715344337999966,42.970834724000042],[-72.712291238999967,42.972102644000074],[-72.712063171999944,42.971809911000037],[-72.711815663999971,42.971575371000029],[-72.711533508999935,42.971403169000041],[-72.711417305999987,42.971253342000068],[-72.711186003999956,42.97014660800005],[-72.71093190299996,42.969796272000053],[-72.707081073999973,42.969473135000044],[-72.70772098599997,42.96757350300004],[-72.702037528999938,42.965313761000061],[-72.696322866999935,42.96282705200008],[-72.696400864999987,42.962290856000038],[-72.696125628999937,42.96209912300003],[-72.695321171999979,42.961215889000073],[-72.692240352999988,42.959053131000076],[-72.691930307999939,42.958102439000072],[-72.69187913199994,42.957735025000034],[-72.688152188999936,42.957382120000034],[-72.687147299999936,42.960860324000066],[-72.687461454999948,42.961834207000038],[-72.688415437999936,42.963143867000042],[-72.689647065999964,42.964176379000037],[-72.689194002999955,42.965993596000033],[-72.687833942999987,42.965827421000029],[-72.688142100999983,42.968839981000031],[-72.688643765999984,42.969268882000051],[-72.689886447999982,42.97064372400007],[-72.690935256999978,42.971619033000025],[-72.691119895999975,42.971864412000059],[-72.692057591999969,42.97380604600005],[-72.692575752999971,42.974489493000078],[-72.693016599999964,42.974945913000056],[-72.695608163999964,42.975131765000071],[-72.695838074999983,42.974634506000029],[-72.704811929999948,42.976198368000041],[-72.703111558999979,42.981067591000055],[-72.701608458999942,42.980720163000058],[-72.701492343999973,42.981665599000053],[-72.700619794999966,42.984607851000078],[-72.69693456899995,42.984099624000066],[-72.694281996999962,42.983670052000036],[-72.692722492999962,42.985115040000039],[-72.691253902999961,42.985145511000042],[-72.690284294999969,42.986169376000078],[-72.689293689999943,42.986577118000071],[-72.688817863999986,42.986913986000047],[-72.68820829799995,42.987181054000075],[-72.68767442799998,42.987251948000051],[-72.686834942999951,42.987183304000041],[-72.685633425999981,42.987241273000052],[-72.683497841999952,42.987496778000036],[-72.678459586999963,42.986608526000055],[-72.679007537999951,42.984815233000063],[-72.663417416999948,42.982219911000072],[-72.664165395999987,42.983773221000035],[-72.663593417999948,42.983858061000035],[-72.663098508999951,42.984236860000067],[-72.66298476999998,42.984503087000064],[-72.662680110999986,42.984699569000043],[-72.661116839999977,42.984995852000054],[-72.660907467999948,42.985164187000066],[-72.661558652999986,42.98618551900006],[-72.658527066999966,42.985636887000055],[-72.658420106999984,42.986220729000081],[-72.658541970999977,42.986823120000054],[-72.658071750999966,42.98724640000006],[-72.657921314999953,42.987455794000027],[-72.657799997999973,42.987814557000036],[-72.657805434999943,42.988418382000077],[-72.659598715999948,42.988263177000078],[-72.659540947999972,42.98990202400006],[-72.662177622999934,42.990399052000043],[-72.662490903999981,42.991627682000058],[-72.661685964999947,42.992084034000072],[-72.661437564999972,42.991947821000053],[-72.660982612999987,42.992208609000045],[-72.661266458999933,42.99243712100008],[-72.662309883999967,42.993726739000067],[-72.662844159999963,42.994217956000057],[-72.663272054999936,42.993902632000072],[-72.664514185999963,42.994606433000058],[-72.665599720999978,42.994718670000054],[-72.666469933999963,42.995468508000044],[-72.665788993999968,42.996030560000065],[-72.667238960999953,42.997590952000053],[-72.668092484999988,42.998029877000079],[-72.669056812999941,42.998200475000033],[-72.670889733999957,42.998426314000028],[-72.671702122999989,42.998667690000048],[-72.672162211999989,42.99873584900007],[-72.673390143999939,42.998737124000058],[-72.674822590999952,42.998823874000038],[-72.675218421999944,42.998800693000078],[-72.676042282999958,42.99862298000005],[-72.676365354999973,42.998486822000075],[-72.676875809999956,42.99807525600005],[-72.678021008999963,42.996770188000028],[-72.678474679999965,42.99634495500004],[-72.678762417999963,42.996188240000038],[-72.679224586999965,42.996053122000035],[-72.679646471999945,42.996034457000064],[-72.680428868999968,42.996110305000059],[-72.681258285999945,42.996276543000079],[-72.68182530699994,42.996089459000075],[-72.682116065999935,42.995921161000069],[-72.682666540999946,42.995843979000028],[-72.683608945999936,42.995600232000072],[-72.684461164999959,42.995572173000028],[-72.684585970999933,42.995529986000065],[-72.684814522999943,42.99557919800003],[-72.685148721999951,42.996097493000036],[-72.685353146999944,42.99666174400005],[-72.685700425999983,42.997193307000032],[-72.685832249999976,42.997596350000038],[-72.686003906999986,42.997686825000073],[-72.686389890999976,42.997198798000056],[-72.686734715999933,42.996916401000078],[-72.687911630999963,42.996410620000063],[-72.688761872999976,42.996109454000077],[-72.689440221999973,42.995744498000079],[-72.689866867999967,42.995282800000041],[-72.690271235999944,42.994433882000067],[-72.690452347999951,42.994260121000025],[-72.691926781999939,42.99358034100004],[-72.692310936999945,42.993301677000034],[-72.691864568999961,42.995405996000045],[-72.691339357999937,42.996021411000072],[-72.691216811999936,42.996499589000052],[-72.691159523999943,42.998024645000044],[-72.691036477999944,42.998343498000054],[-72.691038802999969,42.999094594000042],[-72.690809224999953,42.999997944000029],[-72.690628770999979,43.000431001000038],[-72.690289825999969,43.002047192000077],[-72.695454097999971,43.002888157000029],[-72.694255994999935,43.006576014000075],[-72.693701877999956,43.006280380000078],[-72.690960557999972,43.004303746000062],[-72.690632308999966,43.004128652000077],[-72.690402917999961,43.004067920000068],[-72.689498598999933,43.003517780000038],[-72.688568959999941,43.002649341000051],[-72.688044140999978,43.003424064000058],[-72.687766773999954,43.003993534000074],[-72.687521107999942,43.004790557000035],[-72.687310318999948,43.006862114000057],[-72.688488940999946,43.006905699000072],[-72.688539652999964,43.013346852000041],[-72.682022940999957,43.01221937300005],[-72.680486834999954,43.01722912300005],[-72.679152466999938,43.017026375000057],[-72.678569130999961,43.019098494000048],[-72.674505207999971,43.018945439000049],[-72.674443348999944,43.019905046000076],[-72.700742781999963,43.020698856000081],[-72.72201443299997,43.021455641000045],[-72.743286588999979,43.022208472000045],[-72.744561494999971,43.018638593000048],[-72.740698479999935,43.018550057000027],[-72.740297833999989,43.020269581000036],[-72.738112899999976,43.01971420600006],[-72.738586791999978,43.018661087000055],[-72.738713621999977,43.017752163000068],[-72.737192997999955,43.017787208000072],[-72.736541003999946,43.017724790000045],[-72.735627701999988,43.017503495000028],[-72.73499628199994,43.017138141000032],[-72.734516517999964,43.016660884000032],[-72.734210857999983,43.016262974000028],[-72.726451643999951,43.015424878000033],[-72.72608282799996,43.015097888000071],[-72.725615966999953,43.014485984000032],[-72.72422004799995,43.013495227000078],[-72.723963659999981,43.014251842000078],[-72.723893161999968,43.014684418000058],[-72.723734060999959,43.015057807000062],[-72.714280981999934,43.01384704600008],[-72.715027739999982,43.009955940000054],[-72.712029080999969,43.009674588000053],[-72.711810215999947,43.009196751000047],[-72.711327884999946,43.008757251000077],[-72.712395525999966,43.005595430000028],[-72.712441685999977,43.005087305000075],[-72.712246581999977,43.004801543000042],[-72.708468367999956,43.003766858000063],[-72.70941186999994,43.000178310000081],[-72.720646709999983,43.001894822000054],[-72.721655200999976,42.99846546200007],[-72.725023730999965,42.999064664000059],[-72.724186681999981,43.001808236000045],[-72.722667764999983,43.002209737000044],[-72.721873091999953,43.004698144000031],[-72.720506703999945,43.005258735000041],[-72.720964549999962,43.005736096000078],[-72.721290303999979,43.005719524000028],[-72.722982965999961,43.00528582100003],[-72.724741577999964,43.005075142000067],[-72.72717556899994,43.005421048000073],[-72.727260688999934,43.004942637000056],[-72.727608921999945,43.005133241000067],[-72.727891288999956,43.005132680000031],[-72.728369731999976,43.005291141000043],[-72.728716727999938,43.00514697400007],[-72.729217011999935,43.005337272000077],[-72.729911834999939,43.005272112000057],[-72.730368263999935,43.005350902000032],[-72.730714779999971,43.005079199000079],[-72.731365437999955,43.00482282300004],[-72.731603703999951,43.004646985000079],[-72.731929448999949,43.004630385000041],[-72.732299115999979,43.004741225000032],[-72.732537798999942,43.004676974000063],[-72.733014381999965,43.004341235000027],[-72.733405104999974,43.004276673000049],[-72.734035293999966,43.004355093000072],[-72.734463515999948,43.002728190000028],[-72.738175685999977,43.003166885000041],[-72.738433034999957,43.002316140000062],[-72.74214208799998,43.00288224500008],[-72.741571055999941,43.004966466000042],[-72.745106953999937,43.005639116000054],[-72.744240230999935,43.006172350000043],[-72.748053611999978,43.008239203000073],[-72.749484114999973,43.003942031000065],[-72.749735330999954,43.002737852000052],[-72.754234959999962,42.986658448000071],[-72.756142792999981,42.980470387000025],[-72.759355331999984,42.96834851400007],[-72.752156291999938,42.967641879000041],[-72.751757916999964,42.968759121000062],[-72.738187752999977,42.967061133000072],[-72.737864523999974,42.968354629000032],[-72.733177401999967,42.967684993000034],[-72.730847773999983,42.967076172000077],[-72.734298161999959,42.956375957000034],[-72.740536660999965,42.957283336000046],[-72.741623662999984,42.952986231000068],[-72.752100689999963,42.95456323600007],[-72.753277494999963,42.950550681000038],[-72.745337731999939,42.949266927000053],[-72.746487674999969,42.945911867000063],[-72.745414878999952,42.946160686000042],[-72.744095935999951,42.946393586000056],[-72.743066699999986,42.946346474000052],[-72.741611976999934,42.946185210000067],[-72.739820876999943,42.945810988000062],[-72.740358417999971,42.946494037000036],[-72.739774262999958,42.946428536000042],[-72.73930973399996,42.946683075000067],[-72.740088525999965,42.947161865000055],[-72.73821860299995,42.946794011000065],[-72.737245874999985,42.946910419000062],[-72.736624946999939,42.94740738400003],[-72.736367146999953,42.947855935000064],[-72.734044359999984,42.94664133100008],[-72.732442504999938,42.947027609000031],[-72.732101439999951,42.947061179000059],[-72.731570200999954,42.947029377000035],[-72.731072061999953,42.946940013000074],[-72.730643437999959,42.946700570000075],[-72.729824142999973,42.945921725000062],[-72.727245797999956,42.944947143000036],[-72.726640176999979,42.944570405000036],[-72.726032903999965,42.94436825400004],[-72.725595795999936,42.944102119000036],[-72.725466554999969,42.943942168000035],[-72.725248351999937,42.943852227000036],[-72.725074356999983,42.943704671000035],[-72.724469621999958,42.942722014000026],[-72.723516935999953,42.94207894300007],[-72.722713053999939,42.940753923000045],[-72.722050300999967,42.940122335000069],[-72.721249078999961,42.939630962000081],[-72.720056699999986,42.939177259000076],[-72.719717422999963,42.938944854000056],[-72.719035719999965,42.938654431000032],[-72.718161291999934,42.938064466000071]]],[[[-72.714246481999965,42.923197972000025],[-72.713889218999952,42.923830321000025],[-72.713711444999944,42.925138454000034],[-72.713297119999936,42.925821833000043],[-72.712996583999939,42.926779319000048],[-72.715841347999969,42.927277691000029],[-72.715452604999939,42.92853720200003],[-72.717475479999962,42.928822277000052],[-72.715502051999977,42.93466591400005],[-72.714291427999967,42.933801487000039],[-72.713339722999933,42.93439879500005],[-72.71594037899996,42.93631423000005],[-72.71718574099998,42.937018532000025],[-72.718178516999956,42.937418895000064],[-72.718878897999957,42.937871185000063],[-72.721356781999987,42.937203748000059],[-72.725251068999967,42.937853523000058],[-72.724514578999958,42.939712993000057],[-72.725280505999933,42.939792713000031],[-72.725922556999933,42.939765073000046],[-72.726455289999933,42.939622977000056],[-72.726844705999952,42.939362331000041],[-72.727114630999949,42.93977265400008],[-72.724746360999973,42.940533306000077],[-72.726137951999988,42.941828873000077],[-72.725893755999948,42.942338818000053],[-72.726274632999946,42.942502408000053],[-72.726208066999959,42.942650448000052],[-72.726432360999979,42.94281434800007],[-72.726300070999969,42.943340507000073],[-72.729271908999976,42.942447141000059],[-72.728648612999962,42.944858665000027],[-72.730555404999961,42.945685362000063],[-72.731400884999971,42.945990670000072],[-72.732071712999982,42.946180777000052],[-72.73299491399996,42.946275953000054],[-72.733688165999979,42.946217294000064],[-72.734280887999944,42.946105000000045],[-72.735066510999957,42.945869235000032],[-72.735992492999969,42.945388893000029],[-72.736648499999944,42.944907099000034],[-72.737136497999984,42.944650589000048],[-72.737661509999953,42.944461727000032],[-72.738503994999974,42.944288847000053],[-72.738816563999933,42.944015733000072],[-72.739271355999961,42.943791354000041],[-72.739610364999976,42.94372756100006],[-72.741269363999947,42.943594499000028],[-72.741576982999959,42.943631510000046],[-72.742269326999974,42.94383930500004],[-72.743196813999987,42.944346719000066],[-72.743641578999984,42.944517416000053],[-72.744326476999959,42.942465302000073],[-72.746250935999967,42.942641956000045],[-72.746339364999983,42.942378817000076],[-72.751440502999969,42.942614241000058],[-72.752169762999984,42.94042687700005],[-72.756106787999954,42.940467440000077],[-72.758426013999951,42.938769496000077],[-72.758963732999973,42.938981926000054],[-72.759564900999976,42.938323193000031],[-72.759856093999986,42.938421137000034],[-72.759478673999979,42.939095800000075],[-72.758988166999984,42.939474899000061],[-72.758743632999938,42.939837007000051],[-72.759556615999941,42.941675806000035],[-72.759589409999933,42.944157307000069],[-72.756546455999967,42.943999824000059],[-72.754691135999963,42.94433265400005],[-72.754246666999961,42.944625615000064],[-72.754366782999966,42.944771685000035],[-72.754468442999951,42.944735688000037],[-72.755138123999984,42.945046382000044],[-72.755856869999946,42.94651465000004],[-72.75823894399997,42.947529387000031],[-72.758375231999935,42.948022107000043],[-72.75974228299998,42.948594213000035],[-72.759616340999969,42.94943466400008],[-72.760176662999982,42.949539519000041],[-72.760531540999978,42.949694979000071],[-72.760865756999976,42.949763665000035],[-72.761109419999968,42.949699078000037],[-72.761297547999959,42.949542381000072],[-72.764227869999957,42.949461882000037],[-72.765252902999976,42.949794796000049],[-72.766034543999979,42.950157423000064],[-72.772105637999971,42.93188329700007],[-72.77658757599994,42.924633844000027],[-72.749429607999957,42.923984637000046],[-72.731837938999945,42.923592656000039],[-72.714246481999965,42.923197972000025]]],[[[-72.651421564999964,42.921575374000042],[-72.650770082999941,42.92271035300007],[-72.648073281999984,42.927408593000052],[-72.646608324999988,42.932107771000062],[-72.644490898999948,42.937553469000079],[-72.641877292999936,42.946609701000057],[-72.643845889999966,42.94614025900006],[-72.645163149999973,42.945653900000025],[-72.645627455999943,42.945580029000041],[-72.646678511999937,42.945555831000036],[-72.647292148999952,42.945479899000077],[-72.647587744999953,42.945385269000042],[-72.646924918999957,42.942482319000078],[-72.656742857999973,42.940516255000034],[-72.658255574999941,42.936250825000059],[-72.659582273999945,42.935343914000043],[-72.659260210999946,42.936154162000037],[-72.660006258999942,42.93634366200007],[-72.658750250999958,42.939536968000027],[-72.662220457999979,42.940127543000074],[-72.661347733999946,42.941105297000036],[-72.663001871999938,42.941412582000055],[-72.663578589999986,42.938839460000054],[-72.664454034999949,42.938909659000046],[-72.664775474999942,42.937885040000026],[-72.667207859999962,42.938310229000081],[-72.664188161999959,42.94604023900007],[-72.666760842999963,42.945909935000032],[-72.666933741999969,42.944836646000056],[-72.66813204999994,42.944382359000031],[-72.668422075999956,42.943738858000074],[-72.669330015999947,42.943808971000067],[-72.669231059999959,42.943189861000064],[-72.670495603999939,42.943259437000052],[-72.670518752999953,42.943923604000076],[-72.670776610999951,42.943923220000045],[-72.67146536599995,42.944332641000074],[-72.673113520999948,42.944489688000033],[-72.672970261999978,42.943292525000061],[-72.673402353999961,42.941853994000041],[-72.673478802999966,42.941125602000056],[-72.673704476999944,42.940645197000038],[-72.677084227999956,42.940472164000028],[-72.678974152999956,42.940153494000072],[-72.679242341999952,42.943720838000047],[-72.679071902999965,42.944226275000062],[-72.678857569999934,42.944416048000051],[-72.679468210999971,42.944530006000036],[-72.679758223999954,42.944058877000032],[-72.680628982999963,42.943393464000053],[-72.681521083999939,42.942926460000081],[-72.682174944999986,42.942704075000051],[-72.683670242999938,42.942457441000045],[-72.684324683999989,42.942433491000031],[-72.685582350999937,42.942629908000072],[-72.686432662999948,42.942842971000061],[-72.686760018999962,42.941807183000037],[-72.687378409999951,42.941925662000074],[-72.689567290999946,42.934418072000028],[-72.695617207999987,42.93455128100004],[-72.696552652999969,42.932112076000067],[-72.697410475999959,42.932187011000053],[-72.699964430999955,42.932354650000036],[-72.704339007999977,42.932446784000035],[-72.707511328999942,42.923046144000068],[-72.700422713999956,42.922885920000056],[-72.69420049699994,42.922747651000066],[-72.676181702999941,42.922347239000032],[-72.664254916999937,42.92225109900005],[-72.659515513999963,42.922001551000051],[-72.651421564999964,42.921575374000042]]]]},"properties":{"OBJECTID":1,"OBJECTID_1":1466,"Jurisdiction_District_Name":"Newfane Resource","County":"Windham","Jurisdiction":"Newfane ","Abbreviated_District_Name":"Re","District_Name":"Resource","District_Mapped":"Yes","Overlay_District":"No","Extinct_District":null,"District_Type":"Mixed with Residential","Affordable_Housing_District":"No","Elderly_Housing_District":"No","F1F_Allowance":"Permitted","F2F_Allowance":"Permitted","F3F_Allowance":"Prohibited","F4F_Allowance":"Prohibited","F5F_Allowance":null,"ADU_Allowance":"Allowed/Conditional","Affordable_Housing_Allowance":"Not Mentioned","PRD_Allowance":"Not Mentioned","NOTES":"None","F1F_Min_Lot":5,"F1F_Front_Setback":65,"F1F_Side_Setback":25,"F1F_Rear_Setback":25,"F1F_Frontage":90,"F1F_Max_Lot_Building_Coverage":null,"F1F_Max_Lot_Impervious_Coverage":null,"F1F_Min_Parking_Spaces":2,"F1F_Max_Stories":null,"F1F_Max_Height":35,"F1F_Floor_to_Area_Ratio":null,"F1F_Min_Unit_Size":null,"F2F_Affordable_Housing_Only":"No","F2F_Elderly_Housing_Only":"No","F2F_Min_Lot_Size":5,"F2F_Max_Density":null,"F2F_Front_Setback":65,"F2F_Side_Setback":25,"F2F_Rear_Setback":25,"F2F_Frontage":90,"F2F_Max_Lot_Building_Coverage":null,"F2F_Max_Lot_Impervious_Coverage":null,"F2F_Min_Parking_Spaces_per_1BR":2,"F2F_Min_Parking_Spaces_per_mult_BR":2,"F2F_Max_Stories":null,"F2F_Max_Height":35,"F2F_Floor_to_Area_Ratio":null,"F2F_Min_Unit_Size":null,"F3F_Affordable_Housing_Only":"No","F3F_Elderly_Housing_Only":"No","F3F_Min_Lot_Size":null,"F3F_Max_Density":null,"F3F_Front_Setback":null,"F3F_Side_Setback":null,"F3F_Rear_Setback":null,"F3F_Frontage":null,"F3F_Max_Lot_Building_Coverage":null,"F3F_Max_Lot_Impervious_Coverage":null,"F3F_Min_Parking_Spaces_per_1BR":null,"F3F_Min_Parking_Spaces_per_mult_BR":null,"F3F_Connection_to_Sewage_Water_Required":"No","F3F_Proximity_to_Public_Transit_Required":"No","F3F_Max_Stories":null,"F3F_Max_Height":null,"F3F_Floor_to_Area_Ratio":null,"F3F_Min_Unit_Size":null,"F3F_Max_Bedrooms":null,"F4F_Affordable_Housing_Only":"No","F4F_Elderly_Housing_Only":"No","F4F_Min_Lot_Size":null,"F4F_Max_Density":null,"F4F_Front_Setback":null,"F4F_Side_Setback":null,"F4F_Rear_Setback":null,"F4F_Frontage":null,"F4F_Max_Lot_Building_Coverage":null,"F4F_Max_Lot_Impervious_Coverage":null,"F4F_Min_Parking_Spaces_per_1BR":null,"F4F_Min_Parking_Spaces_per__mult_BR":null,"F4F_Connection_to_Sewage_Water_Required":"No","F4F_Proximity_to_Public_Transit_Required":"No","F4F_Max_Stories":null,"F4F_Max_Height":null,"F4F_Floor_to_Area_Ratio":null,"F4F_Min_Unit_Size":null,"F4F_Max_Bedrooms":null,"F4F_Max_Units_per_Building":null,"F5F_Affordable_Housing_Only":null,"F5F_Elderly_Housing_Only":null,"F5F_Min_Lot_Size":null,"F5F_Max_Density":null,"F5F_Front_Setback":null,"F5F_Side_Setback":null,"F5F_Rear_Setback":null,"F5F_Frontage":null,"F5F_Max_Lot_Building_Coverage":null,"F5F_Max__Lot_Impervious_Coverage":null,"F5F_Min_Parking_Spaces_per_1BR":null,"F5F_Min_Parking_Spaces_per_mult_BR":null,"F5F_Connection_to_Sewage_Water_Required":null,"F5F_Proximity_to_Public_Transit_Required":null,"F5F_Max_Stories":null,"F5F_Max_Height":null,"F5F_Floor_to_Area_Ratio":null,"F5F_Min_Unit_Size":null,"F5F_Max_Bedrooms":null,"F5F_Max_Units_per_Building":null,"Affordable_Housing_Definition":null,"Affordable_Housing_Elderly_Only":"No","Affordable_Housing_Min_Lot_Size":null,"Affordable_Housing_Max_Density":null,"Affordable_Housing_Min_Parking_Spaces_per_1BR":null,"Affordable_Housing_Min_Parking_Spaces_per_mult_BR":null,"Affordable_Housing_Min_Unit_Size":null,"Affordable_Housing_Max_Bedrooms":null,"Affordable_Housing_Max_Units_per_Building":null,"ADU_Employee_or_Family_Occupancy_Required":"No","ADU_Renter_Occupancy_Prohibited":"No","ADU_Owner_Occupancy_Required":"No","ADU_Elderly_Housing_Only":"No","ADU_Min_Lot_Size":null,"ADU_Min_Parking_Spaces":1,"ADU_Restricted_to_Primary_Structure":"No","ADU_Max_Size_as_Percent_of_Primary_Strcture":30,"ADU_Max_Size_in_sq_ft":null,"ADU_Max_Bedrooms":null,"PRD_Mobile_or_Manufactured_Home_Park":"No","PRD_Min_Lot_Size":null,"PRD_Max_Density":null,"PRD_Max_Units":null,"PUD_Required_with_Subdivision":null,"PUD_Threshold_Number":null,"PUD_Allowance":null,"PUD_Requires_Land_Conservation":null,"Base_Density":null,"CONDITIONAL_1F_Min_Lot":null,"CONDITIONAL_1F_Front_Setback":null,"CONDITIONAL_1F_Side_Setback":null,"CONDITIONAL_1F_Rear_Setback":null,"CONDITIONAL_1F_Frontage":null,"CONDITIONAL_1F_Max_Lot_Building_Coverage":null,"CONDITIONAL_1F_Max_Lot_Impervious_Coverage":null,"CONDITIONAL_1F_Min_Parking_Spaces":null,"CONDITIONAL_1F_Max_Stories":null,"CONDITIONAL_1F_Max_Height":null,"CONDITIONAL_1F_Floor_to_Area_Ratio":null,"CONDITIONAL_1F_Min_Unit_Size":null,"CONDITIONAL_2F_Affordable_Housing_Only":null,"CONDITIONAL_2F_Elderly_Housing_Only":null,"CONDITIONAL_2F_Min_Lot_Size":null,"CONDITIONAL_2F_Max_Density":null,"CONDITIONAL_2F_Front_Setback":null,"CONDITIONAL_2F_Side_Setback":null,"CONDITIONAL_2F_Rear_Setback":null,"CONDITIONAL_2F_Frontage":null,"CONDITIONAL_2F_Max_Lot_Building_Coverage":null,"CONDITIONAL_2F_Max_Lot_Impervious_Coverage":null,"CONDITIONAL_2F_Min_Parking_Spaces_per_1BR":null,"CONDITIONAL_2F_Min_Parking_Spaces_per_mult_BR":null,"CONDITIONAL_2F_Max_Stories":null,"CONDITIONAL_2F_Max_Height":null,"CONDITIONAL_2F_Floor_to_Area_Ratio":null,"CONDITIONAL_2F_Min_Unit_Size":null,"CONDITIONAL_3F_Affordable_Housing_Only":null,"CONDITIONAL_3F_Elderly_Housing_Only":null,"CONDITIONAL_3F_Min_Lot_Size":null,"CONDITIONAL_3F_Max_Density":null,"CONDITIONAL_3F_Front_Setback":null,"CONDITIONAL_3F_Side_Setback":null,"CONDITIONAL_3F_Rear_Setback":null,"CONDITIONAL_3F_Frontage":null,"CONDITIONAL_3F_Max_Lot_Building_Coverage":null,"CONDITIONAL_3F_Max_Lot_Impervious_Coverage":null,"CONDITIONAL_3F_Min_Parking_Spaces_per_1BR":null,"CONDITIONAL_3F_Min_Parking_Spaces_per_mult_BR":null,"CONDITIONAL_3F_Connection_to_Sewage_Water_Required":null,"CONDITIONAL_3F_Proximity_to_Public_Transit_Required":null,"CONDITIONAL_3F_Max_Stories":null,"CONDITIONAL_3F_Max_Height":null,"CONDITIONAL_3F_Floor_to_Area_Ratio":null,"CONDITIONAL_3F_Min_Unit_Size":null,"CONDITIONAL_3F_Max_Bedrooms":null,"CONDITIONAL_4F_Affordable_Housing_Only":null,"CONDITIONAL_4F_Elderly_Housing_Only":null,"CONDITIONAL_4F_Min_Lot_Size":null,"CONDITIONAL_4F_Max_Density":null,"CONDITIONAL_4F_Front_Setback":null,"CONDITIONAL_4F_Side_Setback":null,"CONDITIONAL_4F_Rear_Setback":null,"CONDITIONAL_4F_Frontage":null,"CONDITIONAL_4F_Max_Lot_Building_Coverage":null,"CONDITIONAL_4F_Max_Lot_Impervious_Coverage":null,"CONDITIONAL_4F_Min_Parking_Spaces_per_1BR":null,"CONDITIONAL_4F_Min_Parking_Spaces_per__mult_BR":null,"CONDITIONAL_4F_Connection_to_Sewage_Water_Required":null,"CONDITIONAL_4F_Proximity_to_Public_Transit_Required":null,"CONDITIONAL_4F_Max_Stories":null,"CONDITIONAL_4F_Max_Height":null,"CONDITIONAL_4F_Floor_to_Area_Ratio":null,"CONDITIONAL_4F_Min_Unit_Size":null,"CONDITIONAL_4F_Max_Bedrooms":null,"CONDITIONAL_4F_Max_Units_per_Building":null,"CONDITIONAL_5F_Affordable_Housing_Only":null,"CONDITIONAL_5F_Elderly_Housing_Only":null,"CONDITIONAL_5F_Min_Lot_Size":null,"CONDITIONAL_5F_Max_Density":null,"CONDITIONAL_5F_Front_Setback":null,"CONDITIONAL_5F_Side_Setback":null,"CONDITIONAL_5F_Rear_Setback":null,"CONDITIONAL_5F_Frontage":null,"CONDITIONAL_5F_Max_Lot_Building_Coverage":null,"CONDITIONAL_5F_Max__Lot_Impervious_Coverage":null,"CONDITIONAL_5F_Min_Parking_Spaces_per_1BR":null,"CONDITIONAL_5F_Min_Parking_Spaces_per_mult_BR":null,"CONDITIONAL_5F_Connection_to_Sewage_Water_Required":null,"CONDITIONAL_5F_Proximity_to_Public_Transit_Required":null,"CONDITIONAL_5F_Max_Stories":null,"CONDITIONAL_5F_Max_Height":null,"CONDITIONAL_5F_Floor_to_Area_Ratio":null,"CONDITIONAL_5F_Min_Unit_Size":null,"CONDITIONAL_5F_Max_Bedrooms":null,"CONDITIONAL_5F_Max_Units_per_Building":null,"CONDITIONAL_Affordable_Housing_Definition":null,"CONDITIONAL_Affordable_Housing_Elderly_Only":null,"CONDITIONAL_Affordable_Housing_Min_Lot_Size":null,"CONDITIONAL_Affordable_Housing_Max_Density":null,"CONDITIONAL_Affordable_Housing_Min_Parking_Spaces_per_1BR":null,"CONDITIONAL_Affordable_Housing_Min_Parking_Spaces_per_mult_BR":null,"CONDITIONAL_Affordable_Housing_Min_Unit_Size":null,"CONDITIONAL_Affordable_Housing_Max_Bedrooms":null,"CONDITIONAL_Affordable_Housing_Max_Units_per_Building":null,"CONDITIONAL_ADU_Employee_or_Family_Occupancy_Required":null,"CONDITIONAL_ADU_Renter_Occupancy_Prohibited":null,"CONDITIONAL_ADU_Owner_Occupancy_Required":null,"CONDITIONAL_ADU_Elderly_Housing_Only":null,"CONDITIONAL_ADU_Min_Lot_Size":null,"CONDITIONAL_ADU_Min_Parking_Spaces":null,"CONDITIONAL_ADU_Restricted_to_Primary_Structure":null,"CONDITIONAL_ADU_Max_Size_as_Percent_of_Primary_Strcture":null,"CONDITIONAL_ADU_Max_Size_in_sq_ft":null,"CONDITIONAL_ADU_Max_Bedrooms":null,"CONDITIONAL_PRD_Mobile_or_Manufactured_Home_Park":null,"CONDITIONAL_PRD_Min_Lot_Size":null,"CONDITIONAL_PRD_Max_Density":null,"CONDITIONAL_PRD_Max_Units":null,"CONDITIONAL_PUD_Required_with_Subdivision":null,"CONDITIONAL_PUD_Threshold_Number":null,"CONDITIONAL_PUD_Allowance":null,"CONDITIONAL_PUD_Requires_Land_Conservation":null,"Bylaw_Date":"2024-05-27","RPC":"WRC","Version":1,"Acres":14790.710013962418,"Shape_Length":1.2130181326562943,"Shape_Area":0.0066046627219374021}},{"type":"Feature","id":2,"geometry":{"type":"MultiPolygon","coordinates":[[[[-72.721655200999976,42.99846546200007],[-72.720646709999983,43.001894822000054],[-72.70941186999994,43.000178310000081],[-72.708468367999956,43.003766858000063],[-72.712246581999977,43.004801543000042],[-72.712441685999977,43.005087305000075],[-72.712395525999966,43.005595430000028],[-72.711327884999946,43.008757251000077],[-72.711810215999947,43.009196751000047],[-72.712029080999969,43.009674588000053],[-72.715027739999982,43.009955940000054],[-72.714280981999934,43.01384704600008],[-72.723734060999959,43.015057807000062],[-72.723893161999968,43.014684418000058],[-72.723963659999981,43.014251842000078],[-72.72422004799995,43.013495227000078],[-72.725615966999953,43.014485984000032],[-72.72608282799996,43.015097888000071],[-72.726451643999951,43.015424878000033],[-72.734210857999983,43.016262974000028],[-72.734516517999964,43.016660884000032],[-72.73499628199994,43.017138141000032],[-72.735627701999988,43.017503495000028],[-72.736541003999946,43.017724790000045],[-72.737192997999955,43.017787208000072],[-72.738713621999977,43.017752163000068],[-72.738586791999978,43.018661087000055],[-72.738112899999976,43.01971420600006],[-72.740297833999989,43.020269581000036],[-72.740698479999935,43.018550057000027],[-72.744561494999971,43.018638593000048],[-72.745006880999938,43.01739146400007],[-72.748053611999978,43.008239203000073],[-72.744240230999935,43.006172350000043],[-72.745106953999937,43.005639116000054],[-72.741571055999941,43.004966466000042],[-72.74214208799998,43.00288224500008],[-72.738433034999957,43.002316140000062],[-72.738175685999977,43.003166885000041],[-72.734463515999948,43.002728190000028],[-72.734035293999966,43.004355093000072],[-72.733405104999974,43.004276673000049],[-72.733014381999965,43.004341235000027],[-72.732537798999942,43.004676974000063],[-72.732299115999979,43.004741225000032],[-72.731929448999949,43.004630385000041],[-72.731603703999951,43.004646985000079],[-72.731365437999955,43.00482282300004],[-72.730714779999971,43.005079199000079],[-72.730368263999935,43.005350902000032],[-72.729911834999939,43.005272112000057],[-72.729217011999935,43.005337272000077],[-72.728716727999938,43.00514697400007],[-72.728369731999976,43.005291141000043],[-72.727891288999956,43.005132680000031],[-72.727608921999945,43.005133241000067],[-72.727260688999934,43.004942637000056],[-72.72717556899994,43.005421048000073],[-72.724741577999964,43.005075142000067],[-72.722982965999961,43.00528582100003],[-72.721290303999979,43.005719524000028],[-72.720964549999962,43.005736096000078],[-72.720506703999945,43.005258735000041],[-72.721873091999953,43.004698144000031],[-72.722667764999983,43.002209737000044],[-72.724186681999981,43.001808236000045],[-72.725023730999965,42.999064664000059],[-72.721655200999976,42.99846546200007]]],[[[-72.707511328999942,42.923046144000068],[-72.704339007999977,42.932446784000035],[-72.708263338999984,42.93264243200008],[-72.70831508699996,42.932837549000055],[-72.708202642999936,42.932978054000046],[-72.708236470999964,42.933149025000034],[-72.709606170999962,42.933394930000077],[-72.709639154999934,42.933315462000053],[-72.710662171999957,42.933468327000071],[-72.71051797399997,42.934250457000076],[-72.711242716999948,42.933981983000081],[-72.711830895999981,42.933868776000054],[-72.712002808999955,42.934552429000064],[-72.711245296999948,42.935189721000029],[-72.71080376599997,42.935475390000079],[-72.710134782999944,42.935666524000055],[-72.709449369999959,42.935633252000059],[-72.708482970999967,42.935885344000042],[-72.708174333999978,42.936101706000045],[-72.707866121999984,42.936444669000025],[-72.706789775999937,42.937784578000048],[-72.706454077999979,42.938110322000057],[-72.706239122999989,42.938240190000045],[-72.706039551999936,42.938286586000061],[-72.705820200999938,42.938272594000068],[-72.705561418999935,42.938178108000045],[-72.705165164999983,42.937960141000076],[-72.70367525599994,42.937421863000054],[-72.70239791399996,42.937211206000029],[-72.700079002999985,42.937031133000062],[-72.699636190999968,42.936939832000064],[-72.698417003999964,42.936539125000081],[-72.698056636999979,42.936510975000033],[-72.697669161999954,42.93657782400004],[-72.696715188999974,42.937062859000036],[-72.695443449999971,42.937375789000043],[-72.694692331999988,42.937621643000057],[-72.694274023999981,42.937849662000076],[-72.693042038999977,42.938361035000071],[-72.692760613999951,42.938534148000031],[-72.692651472999955,42.93869834000003],[-72.692150866999953,42.938421646000052],[-72.691801877999978,42.938768823000032],[-72.691726101999961,42.938462941000068],[-72.691904896999972,42.937726247000057],[-72.692718516999946,42.936481535000041],[-72.693182733999947,42.935922147000042],[-72.694791168999984,42.935288739000043],[-72.697505054999965,42.935254057000066],[-72.697446719999959,42.934905780000065],[-72.697348298999941,42.93480383900004],[-72.698087567999949,42.934335234000059],[-72.697909681999988,42.933972509000057],[-72.697410475999959,42.932187011000053],[-72.696552652999969,42.932112076000067],[-72.695617207999987,42.93455128100004],[-72.689567290999946,42.934418072000028],[-72.687378409999951,42.941925662000074],[-72.686760018999962,42.941807183000037],[-72.686432662999948,42.942842971000061],[-72.686798666999948,42.94294603600008],[-72.687896574999968,42.94304500800007],[-72.686110460999942,42.943691343000069],[-72.685792876999983,42.944261552000057],[-72.68565784599997,42.944864974000041],[-72.685989965999966,42.946090948000062],[-72.685770504999937,42.945923749000031],[-72.685459957999967,42.945803612000077],[-72.68491236899996,42.945737474000055],[-72.68461992899995,42.945570390000057],[-72.684117898999943,42.945484069000031],[-72.683982230999959,42.94587972100004],[-72.683799747999956,42.945873311000071],[-72.683691387999943,42.946248812000078],[-72.682988661999957,42.946169510000061],[-72.682486273999984,42.945962542000075],[-72.682404403999954,42.946043100000054],[-72.683108277999963,42.946511134000048],[-72.683922698999936,42.94733420600005],[-72.684585647999938,42.949363922000032],[-72.684725288999971,42.950295310000058],[-72.681548871999951,42.949844639000048],[-72.680303674999948,42.948117428000046],[-72.679480888999933,42.948413514000038],[-72.67916906399995,42.948038710000048],[-72.678301144999978,42.948415358000034],[-72.678686923999976,42.948867429000074],[-72.677694947999953,42.95006449300007],[-72.676431100999935,42.950136091000047],[-72.675930165999944,42.948082423000074],[-72.675714375999974,42.94813305100007],[-72.675434142999961,42.947746582000036],[-72.674711460999958,42.947341441000049],[-72.674500293999984,42.947163790000047],[-72.675341292999974,42.946578285000044],[-72.67569485599995,42.946825359000059],[-72.677089810999973,42.946583333000035],[-72.677303718999951,42.946805793000067],[-72.677639819999968,42.94633907900004],[-72.678277531999981,42.945786174000034],[-72.678682283999933,42.94563288900008],[-72.679419919999987,42.945624103000057],[-72.679637678999939,42.945478741000045],[-72.679927341999985,42.945050857000069],[-72.679864537999947,42.944890670000063],[-72.679500286999939,42.944677527000067],[-72.679468210999971,42.944530006000036],[-72.678857569999934,42.944416048000051],[-72.679071902999965,42.944226275000062],[-72.679242341999952,42.943720838000047],[-72.678974152999956,42.940153494000072],[-72.677084227999956,42.940472164000028],[-72.673704476999944,42.940645197000038],[-72.673478802999966,42.941125602000056],[-72.673402353999961,42.941853994000041],[-72.672970261999978,42.943292525000061],[-72.673113520999948,42.944489688000033],[-72.67146536599995,42.944332641000074],[-72.670776610999951,42.943923220000045],[-72.670518752999953,42.943923604000076],[-72.670495603999939,42.943259437000052],[-72.669231059999959,42.943189861000064],[-72.669330015999947,42.943808971000067],[-72.668422075999956,42.943738858000074],[-72.66813204999994,42.944382359000031],[-72.666933741999969,42.944836646000056],[-72.666760842999963,42.945909935000032],[-72.664188161999959,42.94604023900007],[-72.667207859999962,42.938310229000081],[-72.664775474999942,42.937885040000026],[-72.664454034999949,42.938909659000046],[-72.663578589999986,42.938839460000054],[-72.663001871999938,42.941412582000055],[-72.661347733999946,42.941105297000036],[-72.662220457999979,42.940127543000074],[-72.658750250999958,42.939536968000027],[-72.660006258999942,42.93634366200007],[-72.659260210999946,42.936154162000037],[-72.659582273999945,42.935343914000043],[-72.658255574999941,42.936250825000059],[-72.656742857999973,42.940516255000034],[-72.646924918999957,42.942482319000078],[-72.647587744999953,42.945385269000042],[-72.647292148999952,42.945479899000077],[-72.646678511999937,42.945555831000036],[-72.645627455999943,42.945580029000041],[-72.645163149999973,42.945653900000025],[-72.643845889999966,42.94614025900006],[-72.641877292999936,42.946609701000057],[-72.641492290999963,42.947943518000045],[-72.64144867899995,42.94813676900003],[-72.642303621999986,42.948823630000049],[-72.64357162899995,42.950346369000044],[-72.644712345999949,42.952869591000081],[-72.645299792999936,42.954488439000045],[-72.645777509999959,42.957140972000047],[-72.645724235999978,42.958058727000036],[-72.645552659999964,42.958823013000028],[-72.644341901999951,42.960063263000052],[-72.644264767999971,42.960781122000071],[-72.644488635999949,42.96214690000005],[-72.64498176099994,42.964056447000075],[-72.64529794799995,42.964449657000046],[-72.645842949999974,42.964800728000057],[-72.646524385999953,42.964966580000066],[-72.647563247999983,42.965417778000074],[-72.647953558999973,42.965893624000046],[-72.648150374999943,42.966822250000064],[-72.647926092999967,42.967965779000053],[-72.647247857999957,42.96915752700005],[-72.647119370999974,42.969541193000055],[-72.647028380999984,42.970452928000043],[-72.647156724999945,42.972406616000058],[-72.647088786999973,42.974247762000061],[-72.64689776299997,42.975266476000058],[-72.646207090999951,42.977240026000061],[-72.645633013999941,42.978141752000056],[-72.644694382999944,42.978814930000055],[-72.643556300999933,42.979242600000077],[-72.640584459999957,42.979567115000066],[-72.639230219999945,42.979791566000074],[-72.63672433399995,42.980388708000078],[-72.634306647999949,42.981086692000076],[-72.632123116999935,42.982143259000054],[-72.631765786999949,42.983093995000047],[-72.632090405999975,42.984045025000057],[-72.632615991999955,42.985050642000033],[-72.632989620999979,42.985974517000045],[-72.63364721399995,42.987961265000081],[-72.634636022999985,42.989766413000041],[-72.634647994999966,42.990869392000036],[-72.633838277999985,42.991702831000055],[-72.633207550999941,42.992638766000027],[-72.632742218999965,42.993568384000071],[-72.632564442999978,42.994555190000028],[-72.633536856999967,42.995154481000043],[-72.636353807999967,42.995302750000064],[-72.637763641999982,42.995612340000037],[-72.638841171999957,42.99606671500004],[-72.639448938999976,42.996930960000043],[-72.638743530999989,42.997800313000027],[-72.638400931999968,42.998697308000033],[-72.638811486999941,42.99955045300004],[-72.63978084699994,43.000471958000048],[-72.641458203999946,43.001901365000037],[-72.642132343999947,43.002680086000055],[-72.641188301999989,43.003365572000064],[-72.639379856999938,43.004130061000069],[-72.639716588999988,43.005075200000078],[-72.639951897999936,43.006075463000059],[-72.640528126999982,43.006989790000034],[-72.641390712999964,43.007714992000047],[-72.643511684999964,43.008759802000043],[-72.644483184999956,43.009350807000033],[-72.645675113999971,43.009780843000044],[-72.646611220999944,43.010432187000049],[-72.647389554999961,43.011166004000074],[-72.648105256999941,43.011964529000068],[-72.648903163999989,43.01266077300005],[-72.650714323999978,43.013905870000031],[-72.650915114999975,43.014799483000047],[-72.649599981999984,43.015165332000038],[-72.648344350999935,43.015437830000053],[-72.648734181999941,43.016342903000066],[-72.649233123999977,43.01721434600006],[-72.649366848999989,43.018128213000068],[-72.650698033999959,43.019283647000066],[-72.674443348999944,43.019905046000076],[-72.674505207999971,43.018945439000049],[-72.678569130999961,43.019098494000048],[-72.679152466999938,43.017026375000057],[-72.680486834999954,43.01722912300005],[-72.682022940999957,43.01221937300005],[-72.688539652999964,43.013346852000041],[-72.688488940999946,43.006905699000072],[-72.687310318999948,43.006862114000057],[-72.687521107999942,43.004790557000035],[-72.687766773999954,43.003993534000074],[-72.688044140999978,43.003424064000058],[-72.688568959999941,43.002649341000051],[-72.689498598999933,43.003517780000038],[-72.690402917999961,43.004067920000068],[-72.690632308999966,43.004128652000077],[-72.690960557999972,43.004303746000062],[-72.693701877999956,43.006280380000078],[-72.694255994999935,43.006576014000075],[-72.695454097999971,43.002888157000029],[-72.690289825999969,43.002047192000077],[-72.690628770999979,43.000431001000038],[-72.690809224999953,42.999997944000029],[-72.691038802999969,42.999094594000042],[-72.691036477999944,42.998343498000054],[-72.691159523999943,42.998024645000044],[-72.691216811999936,42.996499589000052],[-72.691339357999937,42.996021411000072],[-72.691864568999961,42.995405996000045],[-72.692310936999945,42.993301677000034],[-72.691926781999939,42.99358034100004],[-72.690452347999951,42.994260121000025],[-72.690271235999944,42.994433882000067],[-72.689866867999967,42.995282800000041],[-72.689440221999973,42.995744498000079],[-72.688761872999976,42.996109454000077],[-72.687911630999963,42.996410620000063],[-72.686734715999933,42.996916401000078],[-72.686389890999976,42.997198798000056],[-72.686003906999986,42.997686825000073],[-72.685832249999976,42.997596350000038],[-72.685700425999983,42.997193307000032],[-72.685353146999944,42.99666174400005],[-72.685148721999951,42.996097493000036],[-72.684814522999943,42.99557919800003],[-72.684585970999933,42.995529986000065],[-72.684461164999959,42.995572173000028],[-72.683608945999936,42.995600232000072],[-72.682666540999946,42.995843979000028],[-72.682116065999935,42.995921161000069],[-72.68182530699994,42.996089459000075],[-72.681258285999945,42.996276543000079],[-72.680428868999968,42.996110305000059],[-72.679646471999945,42.996034457000064],[-72.679224586999965,42.996053122000035],[-72.678762417999963,42.996188240000038],[-72.678474679999965,42.99634495500004],[-72.678021008999963,42.996770188000028],[-72.676875809999956,42.99807525600005],[-72.676365354999973,42.998486822000075],[-72.676042282999958,42.99862298000005],[-72.675218421999944,42.998800693000078],[-72.674822590999952,42.998823874000038],[-72.673390143999939,42.998737124000058],[-72.672162211999989,42.99873584900007],[-72.671702122999989,42.998667690000048],[-72.670889733999957,42.998426314000028],[-72.669056812999941,42.998200475000033],[-72.668092484999988,42.998029877000079],[-72.667238960999953,42.997590952000053],[-72.665788993999968,42.996030560000065],[-72.666469933999963,42.995468508000044],[-72.665599720999978,42.994718670000054],[-72.664514185999963,42.994606433000058],[-72.663272054999936,42.993902632000072],[-72.662844159999963,42.994217956000057],[-72.662309883999967,42.993726739000067],[-72.661266458999933,42.99243712100008],[-72.660982612999987,42.992208609000045],[-72.661437564999972,42.991947821000053],[-72.661685964999947,42.992084034000072],[-72.662490903999981,42.991627682000058],[-72.662177622999934,42.990399052000043],[-72.659540947999972,42.98990202400006],[-72.659598715999948,42.988263177000078],[-72.657805434999943,42.988418382000077],[-72.657851651999977,42.988683269000035],[-72.658207793999964,42.98919507200003],[-72.657880718999934,42.989859373000058],[-72.657951454999989,42.990098351000029],[-72.658089748999942,42.990287040000055],[-72.657970783999986,42.990316333000067],[-72.658133167999949,42.990435093000031],[-72.656891452999957,42.991568406000056],[-72.660286466999935,42.993025835000026],[-72.660536221999962,42.993381968000051],[-72.660833307999951,42.993565103000037],[-72.66103093199996,42.993667291000065],[-72.661321903999976,42.993709570000078],[-72.661671449999972,42.993875575000061],[-72.66205931099995,42.99432968900004],[-72.662288457999978,42.995196000000078],[-72.662806972999988,42.995489827000029],[-72.662993354999969,42.995685949000062],[-72.663312677999954,42.996588417000055],[-72.663557745999981,42.996801510000068],[-72.663772900999959,42.996860980000065],[-72.664378018999969,42.996855822000043],[-72.664674395999953,42.99690662900008],[-72.665140519999966,42.997089545000051],[-72.665408671999955,42.99733248900003],[-72.665715100999989,42.997842195000032],[-72.665709832999937,42.998021501000039],[-72.665570941999988,42.998247978000052],[-72.665513350999959,42.998495680000076],[-72.665607373999933,42.99882854100008],[-72.666261971999973,42.999541831000045],[-72.667020169999944,43.000011387000029],[-72.667238898999983,43.00025306200007],[-72.667499061999933,43.000369072000069],[-72.667731628999945,43.000343097000041],[-72.668049703999941,43.000200108000058],[-72.671694126999967,43.000855052000077],[-72.672854693999966,43.005564745000072],[-72.674118064999959,43.006471033000025],[-72.672960798999952,43.007033429000046],[-72.672178287999941,43.007512549000069],[-72.672057172999985,43.007652962000066],[-72.671579582999982,43.009170481000069],[-72.670756530999938,43.012324731000035],[-72.669913503999965,43.012157306000063],[-72.669635934999974,43.012144216000081],[-72.668939010999964,43.012414386000046],[-72.668301852999946,43.012253117000057],[-72.667477073999976,43.012450854000065],[-72.666282275999947,43.012494501000049],[-72.666698985999972,43.011377817000039],[-72.665486039999962,43.010127748000059],[-72.660459577999973,43.00931552600008],[-72.663442228999941,43.011314233000064],[-72.664064225999937,43.011950639000077],[-72.663474391999955,43.01174663900008],[-72.662170137999965,43.011133958000073],[-72.658725139999945,43.010228366000035],[-72.657667038999989,43.008818674000054],[-72.650562003999937,43.007644692000042],[-72.652347604999989,43.002316355000062],[-72.647781974999987,42.999363465000044],[-72.647812000999977,42.998953736000033],[-72.647438045999934,42.99818035800007],[-72.648460774999933,42.997951429000068],[-72.648492056999942,42.99806519200007],[-72.649049601999934,42.997814101000074],[-72.650473312999964,42.996719730000052],[-72.65034905999994,42.996628850000036],[-72.652392581999948,42.995419835000064],[-72.653135279999958,42.994827068000063],[-72.653196501999957,42.99450833700007],[-72.650652853999986,42.994056501000046],[-72.649938822999957,42.993693268000072],[-72.651027960999954,42.992784735000043],[-72.652122232999943,42.991684273000033],[-72.651725631999966,42.991512748000048],[-72.651804943999934,42.99136222900006],[-72.651508766999939,42.991274880000049],[-72.652412570999957,42.989867178000054],[-72.652846163999982,42.988929162000034],[-72.652987244999963,42.988444307000066],[-72.652907514999981,42.988423523000051],[-72.65302599499995,42.988005550000025],[-72.652018078999959,42.98777709400008],[-72.652072372999953,42.98772748500005],[-72.651960569999972,42.98770319700003],[-72.652422899999976,42.987307343000055],[-72.652197611999952,42.987191402000064],[-72.651954751999938,42.986708409000073],[-72.651862889999961,42.986628997000025],[-72.651650862999986,42.986565918000053],[-72.653593063999949,42.980321168000046],[-72.656109483999956,42.980794073000027],[-72.656610323999985,42.981157002000032],[-72.656745036999951,42.980866619000039],[-72.65707830499997,42.98094278700006],[-72.657027887999959,42.981486380000035],[-72.657577124999989,42.981417585000031],[-72.657781085999943,42.981468537000069],[-72.657903547999979,42.981711734000044],[-72.657011328999943,42.982963795000046],[-72.656991982999955,42.983341653000025],[-72.657242691999954,42.983541950000074],[-72.657406272999935,42.983832035000034],[-72.657477336999989,42.984352742000056],[-72.657545297999945,42.984463789000074],[-72.657453273999977,42.984495708000054],[-72.658329025999933,42.985592674000031],[-72.658527066999966,42.985636887000055],[-72.661558652999986,42.98618551900006],[-72.660907467999948,42.985164187000066],[-72.661116839999977,42.984995852000054],[-72.662680110999986,42.984699569000043],[-72.66298476999998,42.984503087000064],[-72.663098508999951,42.984236860000067],[-72.663593417999948,42.983858061000035],[-72.664165395999987,42.983773221000035],[-72.663417416999948,42.982219911000072],[-72.679007537999951,42.984815233000063],[-72.678459586999963,42.986608526000055],[-72.683497841999952,42.987496778000036],[-72.685633425999981,42.987241273000052],[-72.686834942999951,42.987183304000041],[-72.68767442799998,42.987251948000051],[-72.68820829799995,42.987181054000075],[-72.688817863999986,42.986913986000047],[-72.689293689999943,42.986577118000071],[-72.690284294999969,42.986169376000078],[-72.691253902999961,42.985145511000042],[-72.692722492999962,42.985115040000039],[-72.694281996999962,42.983670052000036],[-72.69693456899995,42.984099624000066],[-72.700619794999966,42.984607851000078],[-72.701492343999973,42.981665599000053],[-72.701608458999942,42.980720163000058],[-72.703111558999979,42.981067591000055],[-72.704811929999948,42.976198368000041],[-72.695838074999983,42.974634506000029],[-72.695608163999964,42.975131765000071],[-72.693016599999964,42.974945913000056],[-72.692575752999971,42.974489493000078],[-72.692057591999969,42.97380604600005],[-72.691119895999975,42.971864412000059],[-72.690935256999978,42.971619033000025],[-72.689886447999982,42.97064372400007],[-72.688643765999984,42.969268882000051],[-72.688142100999983,42.968839981000031],[-72.687833942999987,42.965827421000029],[-72.689194002999955,42.965993596000033],[-72.689647065999964,42.964176379000037],[-72.688415437999936,42.963143867000042],[-72.687461454999948,42.961834207000038],[-72.687147299999936,42.960860324000066],[-72.688152188999936,42.957382120000034],[-72.69187913199994,42.957735025000034],[-72.691930307999939,42.958102439000072],[-72.692240352999988,42.959053131000076],[-72.695321171999979,42.961215889000073],[-72.696125628999937,42.96209912300003],[-72.696400864999987,42.962290856000038],[-72.696322866999935,42.96282705200008],[-72.702037528999938,42.965313761000061],[-72.70772098599997,42.96757350300004],[-72.707081073999973,42.969473135000044],[-72.71093190299996,42.969796272000053],[-72.711186003999956,42.97014660800005],[-72.711417305999987,42.971253342000068],[-72.711533508999935,42.971403169000041],[-72.711815663999971,42.971575371000029],[-72.712063171999944,42.971809911000037],[-72.712291238999967,42.972102644000074],[-72.715344337999966,42.970834724000042],[-72.715195930999982,42.970028518000049],[-72.714554867999937,42.968762464000065],[-72.713761570999964,42.967885107000029],[-72.712622838999948,42.96702305000008],[-72.711571873999958,42.966390647000026],[-72.711528581999971,42.966052489000049],[-72.711179758999947,42.965083535000076],[-72.710643006999987,42.964488783000036],[-72.710363050999945,42.964276769000037],[-72.710153098999967,42.964149863000046],[-72.708501197999965,42.963619488000063],[-72.706874985999946,42.962974024000061],[-72.705676525999934,42.962293413000054],[-72.705410387999962,42.962197015000072],[-72.70508532599996,42.962118832000044],[-72.703518235999979,42.962050923000049],[-72.704071844999987,42.96021316000008],[-72.703056867999976,42.959141914000043],[-72.703671833999977,42.95819158300003],[-72.704561708999961,42.955424824000033],[-72.703465446999985,42.95524105700008],[-72.70421530699997,42.952618997000059],[-72.70511275399997,42.952163409000036],[-72.705953454999985,42.95154283100004],[-72.706935078999948,42.95106644100008],[-72.707664975999933,42.950920669000027],[-72.708817008999972,42.951001116000043],[-72.709841956999981,42.946748298000045],[-72.704417304999936,42.945746967000048],[-72.705141867999941,42.944012275000034],[-72.706406537999953,42.944216359000052],[-72.707519681999941,42.941118996000057],[-72.714152528999989,42.942344920000039],[-72.715488932999961,42.938958161000073],[-72.717822190999982,42.939552180000078],[-72.718161291999934,42.938064466000071],[-72.719035719999965,42.938654431000032],[-72.719717422999963,42.938944854000056],[-72.720056699999986,42.939177259000076],[-72.721249078999961,42.939630962000081],[-72.722050300999967,42.940122335000069],[-72.722713053999939,42.940753923000045],[-72.723516935999953,42.94207894300007],[-72.724469621999958,42.942722014000026],[-72.725074356999983,42.943704671000035],[-72.725248351999937,42.943852227000036],[-72.725466554999969,42.943942168000035],[-72.725595795999936,42.944102119000036],[-72.726032903999965,42.94436825400004],[-72.726640176999979,42.944570405000036],[-72.727245797999956,42.944947143000036],[-72.729824142999973,42.945921725000062],[-72.730643437999959,42.946700570000075],[-72.731072061999953,42.946940013000074],[-72.731570200999954,42.947029377000035],[-72.732101439999951,42.947061179000059],[-72.732442504999938,42.947027609000031],[-72.734044359999984,42.94664133100008],[-72.736367146999953,42.947855935000064],[-72.736624946999939,42.94740738400003],[-72.737245874999985,42.946910419000062],[-72.73821860299995,42.946794011000065],[-72.740088525999965,42.947161865000055],[-72.73930973399996,42.946683075000067],[-72.739774262999958,42.946428536000042],[-72.740358417999971,42.946494037000036],[-72.739820876999943,42.945810988000062],[-72.741611976999934,42.946185210000067],[-72.743066699999986,42.946346474000052],[-72.744095935999951,42.946393586000056],[-72.745414878999952,42.946160686000042],[-72.746487674999969,42.945911867000063],[-72.745337731999939,42.949266927000053],[-72.753277494999963,42.950550681000038],[-72.752100689999963,42.95456323600007],[-72.741623662999984,42.952986231000068],[-72.740536660999965,42.957283336000046],[-72.734298161999959,42.956375957000034],[-72.730847773999983,42.967076172000077],[-72.733177401999967,42.967684993000034],[-72.737864523999974,42.968354629000032],[-72.738187752999977,42.967061133000072],[-72.751757916999964,42.968759121000062],[-72.752156291999938,42.967641879000041],[-72.759355331999984,42.96834851400007],[-72.759469209999963,42.967918822000058],[-72.763597168999979,42.956724754000049],[-72.765836425999964,42.950753761000044],[-72.766034543999979,42.950157423000064],[-72.765252902999976,42.949794796000049],[-72.764227869999957,42.949461882000037],[-72.761297547999959,42.949542381000072],[-72.761109419999968,42.949699078000037],[-72.760865756999976,42.949763665000035],[-72.760531540999978,42.949694979000071],[-72.760176662999982,42.949539519000041],[-72.759616340999969,42.94943466400008],[-72.75974228299998,42.948594213000035],[-72.758375231999935,42.948022107000043],[-72.75823894399997,42.947529387000031],[-72.755856869999946,42.94651465000004],[-72.755138123999984,42.945046382000044],[-72.754468442999951,42.944735688000037],[-72.754366782999966,42.944771685000035],[-72.754246666999961,42.944625615000064],[-72.754691135999963,42.94433265400005],[-72.756546455999967,42.943999824000059],[-72.759589409999933,42.944157307000069],[-72.759556615999941,42.941675806000035],[-72.758743632999938,42.939837007000051],[-72.758988166999984,42.939474899000061],[-72.759478673999979,42.939095800000075],[-72.759856093999986,42.938421137000034],[-72.759564900999976,42.938323193000031],[-72.758963732999973,42.938981926000054],[-72.758426013999951,42.938769496000077],[-72.756106787999954,42.940467440000077],[-72.752169762999984,42.94042687700005],[-72.751440502999969,42.942614241000058],[-72.746339364999983,42.942378817000076],[-72.746250935999967,42.942641956000045],[-72.744326476999959,42.942465302000073],[-72.743641578999984,42.944517416000053],[-72.743196813999987,42.944346719000066],[-72.742269326999974,42.94383930500004],[-72.741576982999959,42.943631510000046],[-72.741269363999947,42.943594499000028],[-72.739610364999976,42.94372756100006],[-72.739271355999961,42.943791354000041],[-72.738816563999933,42.944015733000072],[-72.738503994999974,42.944288847000053],[-72.737661509999953,42.944461727000032],[-72.737136497999984,42.944650589000048],[-72.736648499999944,42.944907099000034],[-72.735992492999969,42.945388893000029],[-72.735066510999957,42.945869235000032],[-72.734280887999944,42.946105000000045],[-72.733688165999979,42.946217294000064],[-72.73299491399996,42.946275953000054],[-72.732071712999982,42.946180777000052],[-72.731400884999971,42.945990670000072],[-72.730555404999961,42.945685362000063],[-72.728648612999962,42.944858665000027],[-72.729271908999976,42.942447141000059],[-72.726300070999969,42.943340507000073],[-72.726432360999979,42.94281434800007],[-72.726208066999959,42.942650448000052],[-72.726274632999946,42.942502408000053],[-72.725893755999948,42.942338818000053],[-72.726137951999988,42.941828873000077],[-72.724746360999973,42.940533306000077],[-72.727114630999949,42.93977265400008],[-72.726844705999952,42.939362331000041],[-72.726455289999933,42.939622977000056],[-72.725922556999933,42.939765073000046],[-72.725280505999933,42.939792713000031],[-72.724514578999958,42.939712993000057],[-72.725251068999967,42.937853523000058],[-72.721356781999987,42.937203748000059],[-72.718878897999957,42.937871185000063],[-72.718178516999956,42.937418895000064],[-72.71718574099998,42.937018532000025],[-72.71594037899996,42.93631423000005],[-72.713339722999933,42.93439879500005],[-72.714291427999967,42.933801487000039],[-72.715502051999977,42.93466591400005],[-72.717475479999962,42.928822277000052],[-72.715452604999939,42.92853720200003],[-72.715841347999969,42.927277691000029],[-72.712996583999939,42.926779319000048],[-72.713297119999936,42.925821833000043],[-72.713711444999944,42.925138454000034],[-72.713889218999952,42.923830321000025],[-72.714246481999965,42.923197972000025],[-72.707511328999942,42.923046144000068]]]]},"properties":{"OBJECTID":2,"OBJECTID_1":1467,"Jurisdiction_District_Name":"Newfane Rural","County":"Windham","Jurisdiction":"Newfane ","Abbreviated_District_Name":"Ru","District_Name":"Rural","District_Mapped":"Yes","Overlay_District":"No","Extinct_District":null,"District_Type":"Primarily Residential","Affordable_Housing_District":"No","Elderly_Housing_District":"No","F1F_Allowance":"Permitted","F2F_Allowance":"Permitted","F3F_Allowance":"Public Hearing","F4F_Allowance":"Public Hearing","F5F_Allowance":null,"ADU_Allowance":"Allowed/Conditional","Affordable_Housing_Allowance":"Not Mentioned","PRD_Allowance":"Not Mentioned","NOTES":"None","F1F_Min_Lot":2,"F1F_Front_Setback":65,"F1F_Side_Setback":25,"F1F_Rear_Setback":25,"F1F_Frontage":90,"F1F_Max_Lot_Building_Coverage":null,"F1F_Max_Lot_Impervious_Coverage":null,"F1F_Min_Parking_Spaces":2,"F1F_Max_Stories":null,"F1F_Max_Height":35,"F1F_Floor_to_Area_Ratio":null,"F1F_Min_Unit_Size":null,"F2F_Affordable_Housing_Only":"No","F2F_Elderly_Housing_Only":"No","F2F_Min_Lot_Size":3,"F2F_Max_Density":null,"F2F_Front_Setback":65,"F2F_Side_Setback":25,"F2F_Rear_Setback":25,"F2F_Frontage":90,"F2F_Max_Lot_Building_Coverage":null,"F2F_Max_Lot_Impervious_Coverage":null,"F2F_Min_Parking_Spaces_per_1BR":2,"F2F_Min_Parking_Spaces_per_mult_BR":2,"F2F_Max_Stories":null,"F2F_Max_Height":35,"F2F_Floor_to_Area_Ratio":null,"F2F_Min_Unit_Size":null,"F3F_Affordable_Housing_Only":"No","F3F_Elderly_Housing_Only":"No","F3F_Min_Lot_Size":4,"F3F_Max_Density":null,"F3F_Front_Setback":65,"F3F_Side_Setback":25,"F3F_Rear_Setback":25,"F3F_Frontage":90,"F3F_Max_Lot_Building_Coverage":null,"F3F_Max_Lot_Impervious_Coverage":null,"F3F_Min_Parking_Spaces_per_1BR":2,"F3F_Min_Parking_Spaces_per_mult_BR":2,"F3F_Connection_to_Sewage_Water_Required":"No","F3F_Proximity_to_Public_Transit_Required":"No","F3F_Max_Stories":null,"F3F_Max_Height":35,"F3F_Floor_to_Area_Ratio":null,"F3F_Min_Unit_Size":null,"F3F_Max_Bedrooms":null,"F4F_Affordable_Housing_Only":"No","F4F_Elderly_Housing_Only":"No","F4F_Min_Lot_Size":5,"F4F_Max_Density":null,"F4F_Front_Setback":65,"F4F_Side_Setback":25,"F4F_Rear_Setback":25,"F4F_Frontage":90,"F4F_Max_Lot_Building_Coverage":null,"F4F_Max_Lot_Impervious_Coverage":null,"F4F_Min_Parking_Spaces_per_1BR":2,"F4F_Min_Parking_Spaces_per__mult_BR":2,"F4F_Connection_to_Sewage_Water_Required":"No","F4F_Proximity_to_Public_Transit_Required":"No","F4F_Max_Stories":null,"F4F_Max_Height":35,"F4F_Floor_to_Area_Ratio":null,"F4F_Min_Unit_Size":null,"F4F_Max_Bedrooms":null,"F4F_Max_Units_per_Building":null,"F5F_Affordable_Housing_Only":"F","F5F_Elderly_Housing_Only":"F","F5F_Min_Lot_Size":6,"F5F_Max_Density":null,"F5F_Front_Setback":65,"F5F_Side_Setback":25,"F5F_Rear_Setback":25,"F5F_Frontage":90,"F5F_Max_Lot_Building_Coverage":null,"F5F_Max__Lot_Impervious_Coverage":null,"F5F_Min_Parking_Spaces_per_1BR":2,"F5F_Min_Parking_Spaces_per_mult_BR":2,"F5F_Connection_to_Sewage_Water_Required":"F","F5F_Proximity_to_Public_Transit_Required":"F","F5F_Max_Stories":null,"F5F_Max_Height":35,"F5F_Floor_to_Area_Ratio":null,"F5F_Min_Unit_Size":null,"F5F_Max_Bedrooms":null,"F5F_Max_Units_per_Building":null,"Affordable_Housing_Definition":null,"Affordable_Housing_Elderly_Only":"No","Affordable_Housing_Min_Lot_Size":null,"Affordable_Housing_Max_Density":null,"Affordable_Housing_Min_Parking_Spaces_per_1BR":null,"Affordable_Housing_Min_Parking_Spaces_per_mult_BR":null,"Affordable_Housing_Min_Unit_Size":null,"Affordable_Housing_Max_Bedrooms":null,"Affordable_Housing_Max_Units_per_Building":null,"ADU_Employee_or_Family_Occupancy_Required":"No","ADU_Renter_Occupancy_Prohibited":"No","ADU_Owner_Occupancy_Required":"No","ADU_Elderly_Housing_Only":"No","ADU_Min_Lot_Size":null,"ADU_Min_Parking_Spaces":1,"ADU_Restricted_to_Primary_Structure":"No","ADU_Max_Size_as_Percent_of_Primary_Strcture":30,"ADU_Max_Size_in_sq_ft":null,"ADU_Max_Bedrooms":null,"PRD_Mobile_or_Manufactured_Home_Park":"No","PRD_Min_Lot_Size":null,"PRD_Max_Density":null,"PRD_Max_Units":null,"PUD_Required_with_Subdivision":null,"PUD_Threshold_Number":null,"PUD_Allowance":null,"PUD_Requires_Land_Conservation":null,"Base_Density":null,"CONDITIONAL_1F_Min_Lot":null,"CONDITIONAL_1F_Front_Setback":null,"CONDITIONAL_1F_Side_Setback":null,"CONDITIONAL_1F_Rear_Setback":null,"CONDITIONAL_1F_Frontage":null,"CONDITIONAL_1F_Max_Lot_Building_Coverage":null,"CONDITIONAL_1F_Max_Lot_Impervious_Coverage":null,"CONDITIONAL_1F_Min_Parking_Spaces":null,"CONDITIONAL_1F_Max_Stories":null,"CONDITIONAL_1F_Max_Height":null,"CONDITIONAL_1F_Floor_to_Area_Ratio":null,"CONDITIONAL_1F_Min_Unit_Size":null,"CONDITIONAL_2F_Affordable_Housing_Only":null,"CONDITIONAL_2F_Elderly_Housing_Only":null,"CONDITIONAL_2F_Min_Lot_Size":null,"CONDITIONAL_2F_Max_Density":null,"CONDITIONAL_2F_Front_Setback":null,"CONDITIONAL_2F_Side_Setback":null,"CONDITIONAL_2F_Rear_Setback":null,"CONDITIONAL_2F_Frontage":null,"CONDITIONAL_2F_Max_Lot_Building_Coverage":null,"CONDITIONAL_2F_Max_Lot_Impervious_Coverage":null,"CONDITIONAL_2F_Min_Parking_Spaces_per_1BR":null,"CONDITIONAL_2F_Min_Parking_Spaces_per_mult_BR":null,"CONDITIONAL_2F_Max_Stories":null,"CONDITIONAL_2F_Max_Height":null,"CONDITIONAL_2F_Floor_to_Area_Ratio":null,"CONDITIONAL_2F_Min_Unit_Size":null,"CONDITIONAL_3F_Affordable_Housing_Only":null,"CONDITIONAL_3F_Elderly_Housing_Only":null,"CONDITIONAL_3F_Min_Lot_Size":null,"CONDITIONAL_3F_Max_Density":null,"CONDITIONAL_3F_Front_Setback":null,"CONDITIONAL_3F_Side_Setback":null,"CONDITIONAL_3F_Rear_Setback":null,"CONDITIONAL_3F_Frontage":null,"CONDITIONAL_3F_Max_Lot_Building_Coverage":null,"CONDITIONAL_3F_Max_Lot_Impervious_Coverage":null,"CONDITIONAL_3F_Min_Parking_Spaces_per_1BR":null,"CONDITIONAL_3F_Min_Parking_Spaces_per_mult_BR":null,"CONDITIONAL_3F_Connection_to_Sewage_Water_Required":null,"CONDITIONAL_3F_Proximity_to_Public_Transit_Required":null,"CONDITIONAL_3F_Max_Stories":null,"CONDITIONAL_3F_Max_Height":null,"CONDITIONAL_3F_Floor_to_Area_Ratio":null,"CONDITIONAL_3F_Min_Unit_Size":null,"CONDITIONAL_3F_Max_Bedrooms":null,"CONDITIONAL_4F_Affordable_Housing_Only":null,"CONDITIONAL_4F_Elderly_Housing_Only":null,"CONDITIONAL_4F_Min_Lot_Size":null,"CONDITIONAL_4F_Max_Density":null,"CONDITIONAL_4F_Front_Setback":null,"CONDITIONAL_4F_Side_Setback":null,"CONDITIONAL_4F_Rear_Setback":null,"CONDITIONAL_4F_Frontage":null,"CONDITIONAL_4F_Max_Lot_Building_Coverage":null,"CONDITIONAL_4F_Max_Lot_Impervious_Coverage":null,"CONDITIONAL_4F_Min_Parking_Spaces_per_1BR":null,"CONDITIONAL_4F_Min_Parking_Spaces_per__mult_BR":null,"CONDITIONAL_4F_Connection_to_Sewage_Water_Required":null,"CONDITIONAL_4F_Proximity_to_Public_Transit_Required":null,"CONDITIONAL_4F_Max_Stories":null,"CONDITIONAL_4F_Max_Height":null,"CONDITIONAL_4F_Floor_to_Area_Ratio":null,"CONDITIONAL_4F_Min_Unit_Size":null,"CONDITIONAL_4F_Max_Bedrooms":null,"CONDITIONAL_4F_Max_Units_per_Building":null,"CONDITIONAL_5F_Affordable_Housing_Only":null,"CONDITIONAL_5F_Elderly_Housing_Only":null,"CONDITIONAL_5F_Min_Lot_Size":null,"CONDITIONAL_5F_Max_Density":null,"CONDITIONAL_5F_Front_Setback":null,"CONDITIONAL_5F_Side_Setback":null,"CONDITIONAL_5F_Rear_Setback":null,"CONDITIONAL_5F_Frontage":null,"CONDITIONAL_5F_Max_Lot_Building_Coverage":null,"CONDITIONAL_5F_Max__Lot_Impervious_Coverage":null,"CONDITIONAL_5F_Min_Parking_Spaces_per_1BR":null,"CONDITIONAL_5F_Min_Parking_Spaces_per_mult_BR":null,"CONDITIONAL_5F_Connection_to_Sewage_Water_Required":null,"CONDITIONAL_5F_Proximity_to_Public_Transit_Required":null,"CONDITIONAL_5F_Max_Stories":null,"CONDITIONAL_5F_Max_Height":null,"CONDITIONAL_5F_Floor_to_Area_Ratio":null,"CONDITIONAL_5F_Min_Unit_Size":null,"CONDITIONAL_5F_Max_Bedrooms":null,"CONDITIONAL_5F_Max_Units_per_Building":null,"CONDITIONAL_Affordable_Housing_Definition":null,"CONDITIONAL_Affordable_Housing_Elderly_Only":null,"CONDITIONAL_Affordable_Housing_Min_Lot_Size":null,"CONDITIONAL_Affordable_Housing_Max_Density":null,"CONDITIONAL_Affordable_Housing_Min_Parking_Spaces_per_1BR":null,"CONDITIONAL_Affordable_Housing_Min_Parking_Spaces_per_mult_BR":null,"CONDITIONAL_Affordable_Housing_Min_Unit_Size":null,"CONDITIONAL_Affordable_Housing_Max_Bedrooms":null,"CONDITIONAL_Affordable_Housing_Max_Units_per_Building":null,"CONDITIONAL_ADU_Employee_or_Family_Occupancy_Required":null,"CONDITIONAL_ADU_Renter_Occupancy_Prohibited":null,"CONDITIONAL_ADU_Owner_Occupancy_Required":null,"CONDITIONAL_ADU_Elderly_Housing_Only":null,"CONDITIONAL_ADU_Min_Lot_Size":null,"CONDITIONAL_ADU_Min_Parking_Spaces":null,"CONDITIONAL_ADU_Restricted_to_Primary_Structure":null,"CONDITIONAL_ADU_Max_Size_as_Percent_of_Primary_Strcture":null,"CONDITIONAL_ADU_Max_Size_in_sq_ft":null,"CONDITIONAL_ADU_Max_Bedrooms":null,"CONDITIONAL_PRD_Mobile_or_Manufactured_Home_Park":null,"CONDITIONAL_PRD_Min_Lot_Size":null,"CONDITIONAL_PRD_Max_Density":null,"CONDITIONAL_PRD_Max_Units":null,"CONDITIONAL_PUD_Required_with_Subdivision":null,"CONDITIONAL_PUD_Threshold_Number":null,"CONDITIONAL_PUD_Allowance":null,"CONDITIONAL_PUD_Requires_Land_Conservation":null,"Bylaw_Date":"2024-05-27","RPC":"WRC","Version":1,"Acres":10431.525993570562,"Shape_Length":1.1209283883352246,"Shape_Area":0.0046584992028202484}},{"type":"Feature","id":3,"geometry":{"type":"MultiPolygon","coordinates":[[[[-72.653593063999949,42.980321168000046],[-72.651650862999986,42.986565918000053],[-72.651862889999961,42.986628997000025],[-72.651954751999938,42.986708409000073],[-72.652197611999952,42.987191402000064],[-72.652422899999976,42.987307343000055],[-72.651960569999972,42.98770319700003],[-72.652072372999953,42.98772748500005],[-72.652018078999959,42.98777709400008],[-72.65302599499995,42.988005550000025],[-72.652907514999981,42.988423523000051],[-72.652987244999963,42.988444307000066],[-72.652846163999982,42.988929162000034],[-72.652412570999957,42.989867178000054],[-72.651508766999939,42.991274880000049],[-72.651804943999934,42.99136222900006],[-72.651725631999966,42.991512748000048],[-72.652122232999943,42.991684273000033],[-72.652299942999946,42.991510521000066],[-72.65279191999997,42.991619988000025],[-72.652991266999948,42.991350533000059],[-72.656126257999972,42.991920466000067],[-72.656456391999939,42.991928372000075],[-72.656891452999957,42.991568406000056],[-72.658133167999949,42.990435093000031],[-72.657970783999986,42.990316333000067],[-72.658089748999942,42.990287040000055],[-72.657951454999989,42.990098351000029],[-72.657880718999934,42.989859373000058],[-72.658207793999964,42.98919507200003],[-72.657851651999977,42.988683269000035],[-72.657805434999943,42.988418382000077],[-72.657799997999973,42.987814557000036],[-72.657921314999953,42.987455794000027],[-72.658071750999966,42.98724640000006],[-72.658541970999977,42.986823120000054],[-72.658420106999984,42.986220729000081],[-72.658527066999966,42.985636887000055],[-72.658329025999933,42.985592674000031],[-72.657453273999977,42.984495708000054],[-72.657545297999945,42.984463789000074],[-72.657477336999989,42.984352742000056],[-72.657406272999935,42.983832035000034],[-72.657242691999954,42.983541950000074],[-72.656991982999955,42.983341653000025],[-72.657011328999943,42.982963795000046],[-72.657903547999979,42.981711734000044],[-72.657781085999943,42.981468537000069],[-72.657577124999989,42.981417585000031],[-72.657027887999959,42.981486380000035],[-72.65707830499997,42.98094278700006],[-72.656745036999951,42.980866619000039],[-72.656610323999985,42.981157002000032],[-72.656109483999956,42.980794073000027],[-72.653593063999949,42.980321168000046]]],[[[-72.684324683999989,42.942433491000031],[-72.683670242999938,42.942457441000045],[-72.682174944999986,42.942704075000051],[-72.681521083999939,42.942926460000081],[-72.680628982999963,42.943393464000053],[-72.679758223999954,42.944058877000032],[-72.679468210999971,42.944530006000036],[-72.679500286999939,42.944677527000067],[-72.679864537999947,42.944890670000063],[-72.679927341999985,42.945050857000069],[-72.679637678999939,42.945478741000045],[-72.679419919999987,42.945624103000057],[-72.678682283999933,42.94563288900008],[-72.678277531999981,42.945786174000034],[-72.677639819999968,42.94633907900004],[-72.677303718999951,42.946805793000067],[-72.677089810999973,42.946583333000035],[-72.67569485599995,42.946825359000059],[-72.675341292999974,42.946578285000044],[-72.674500293999984,42.947163790000047],[-72.674711460999958,42.947341441000049],[-72.675434142999961,42.947746582000036],[-72.675714375999974,42.94813305100007],[-72.675930165999944,42.948082423000074],[-72.676431100999935,42.950136091000047],[-72.677694947999953,42.95006449300007],[-72.678686923999976,42.948867429000074],[-72.678301144999978,42.948415358000034],[-72.67916906399995,42.948038710000048],[-72.679480888999933,42.948413514000038],[-72.680303674999948,42.948117428000046],[-72.681548871999951,42.949844639000048],[-72.684725288999971,42.950295310000058],[-72.684585647999938,42.949363922000032],[-72.683922698999936,42.94733420600005],[-72.683108277999963,42.946511134000048],[-72.682404403999954,42.946043100000054],[-72.682486273999984,42.945962542000075],[-72.682988661999957,42.946169510000061],[-72.683691387999943,42.946248812000078],[-72.683799747999956,42.945873311000071],[-72.683982230999959,42.94587972100004],[-72.684117898999943,42.945484069000031],[-72.68461992899995,42.945570390000057],[-72.68491236899996,42.945737474000055],[-72.685459957999967,42.945803612000077],[-72.685770504999937,42.945923749000031],[-72.685989965999966,42.946090948000062],[-72.68565784599997,42.944864974000041],[-72.685792876999983,42.944261552000057],[-72.686110460999942,42.943691343000069],[-72.687896574999968,42.94304500800007],[-72.686798666999948,42.94294603600008],[-72.686432662999948,42.942842971000061],[-72.685582350999937,42.942629908000072],[-72.684324683999989,42.942433491000031]]],[[[-72.697410475999959,42.932187011000053],[-72.697909681999988,42.933972509000057],[-72.698087567999949,42.934335234000059],[-72.697348298999941,42.93480383900004],[-72.697446719999959,42.934905780000065],[-72.697505054999965,42.935254057000066],[-72.694791168999984,42.935288739000043],[-72.693182733999947,42.935922147000042],[-72.692718516999946,42.936481535000041],[-72.691904896999972,42.937726247000057],[-72.691726101999961,42.938462941000068],[-72.691801877999978,42.938768823000032],[-72.692150866999953,42.938421646000052],[-72.692651472999955,42.93869834000003],[-72.692760613999951,42.938534148000031],[-72.693042038999977,42.938361035000071],[-72.694274023999981,42.937849662000076],[-72.694692331999988,42.937621643000057],[-72.695443449999971,42.937375789000043],[-72.696715188999974,42.937062859000036],[-72.697669161999954,42.93657782400004],[-72.698056636999979,42.936510975000033],[-72.698417003999964,42.936539125000081],[-72.699636190999968,42.936939832000064],[-72.700079002999985,42.937031133000062],[-72.70239791399996,42.937211206000029],[-72.70367525599994,42.937421863000054],[-72.705165164999983,42.937960141000076],[-72.705561418999935,42.938178108000045],[-72.705820200999938,42.938272594000068],[-72.706039551999936,42.938286586000061],[-72.706239122999989,42.938240190000045],[-72.706454077999979,42.938110322000057],[-72.706789775999937,42.937784578000048],[-72.707866121999984,42.936444669000025],[-72.708174333999978,42.936101706000045],[-72.708482970999967,42.935885344000042],[-72.709449369999959,42.935633252000059],[-72.710134782999944,42.935666524000055],[-72.71080376599997,42.935475390000079],[-72.711245296999948,42.935189721000029],[-72.712002808999955,42.934552429000064],[-72.711830895999981,42.933868776000054],[-72.711242716999948,42.933981983000081],[-72.71051797399997,42.934250457000076],[-72.710662171999957,42.933468327000071],[-72.709639154999934,42.933315462000053],[-72.709606170999962,42.933394930000077],[-72.708236470999964,42.933149025000034],[-72.708202642999936,42.932978054000046],[-72.70831508699996,42.932837549000055],[-72.708263338999984,42.93264243200008],[-72.704339007999977,42.932446784000035],[-72.699964430999955,42.932354650000036],[-72.697410475999959,42.932187011000053]]]]},"properties":{"OBJECTID":3,"OBJECTID_1":1468,"Jurisdiction_District_Name":"Newfane Village","County":"Windham","Jurisdiction":"Newfane ","Abbreviated_District_Name":"V","District_Name":"Village","District_Mapped":"Yes","Overlay_District":"No","Extinct_District":null,"District_Type":"Mixed with Residential","Affordable_Housing_District":"No","Elderly_Housing_District":"No","F1F_Allowance":"Permitted","F2F_Allowance":"Permitted","F3F_Allowance":"Public Hearing","F4F_Allowance":"Public Hearing","F5F_Allowance":null,"ADU_Allowance":"Allowed/Conditional","Affordable_Housing_Allowance":"Not Mentioned","PRD_Allowance":"Not Mentioned","NOTES":"None","F1F_Min_Lot":1,"F1F_Front_Setback":35,"F1F_Side_Setback":15,"F1F_Rear_Setback":15,"F1F_Frontage":90,"F1F_Max_Lot_Building_Coverage":null,"F1F_Max_Lot_Impervious_Coverage":null,"F1F_Min_Parking_Spaces":2,"F1F_Max_Stories":null,"F1F_Max_Height":35,"F1F_Floor_to_Area_Ratio":null,"F1F_Min_Unit_Size":null,"F2F_Affordable_Housing_Only":"No","F2F_Elderly_Housing_Only":"No","F2F_Min_Lot_Size":1.5,"F2F_Max_Density":null,"F2F_Front_Setback":35,"F2F_Side_Setback":15,"F2F_Rear_Setback":15,"F2F_Frontage":90,"F2F_Max_Lot_Building_Coverage":null,"F2F_Max_Lot_Impervious_Coverage":null,"F2F_Min_Parking_Spaces_per_1BR":2,"F2F_Min_Parking_Spaces_per_mult_BR":2,"F2F_Max_Stories":null,"F2F_Max_Height":35,"F2F_Floor_to_Area_Ratio":null,"F2F_Min_Unit_Size":null,"F3F_Affordable_Housing_Only":"No","F3F_Elderly_Housing_Only":"No","F3F_Min_Lot_Size":2,"F3F_Max_Density":null,"F3F_Front_Setback":35,"F3F_Side_Setback":15,"F3F_Rear_Setback":15,"F3F_Frontage":90,"F3F_Max_Lot_Building_Coverage":null,"F3F_Max_Lot_Impervious_Coverage":null,"F3F_Min_Parking_Spaces_per_1BR":2,"F3F_Min_Parking_Spaces_per_mult_BR":2,"F3F_Connection_to_Sewage_Water_Required":"No","F3F_Proximity_to_Public_Transit_Required":"No","F3F_Max_Stories":null,"F3F_Max_Height":35,"F3F_Floor_to_Area_Ratio":null,"F3F_Min_Unit_Size":null,"F3F_Max_Bedrooms":null,"F4F_Affordable_Housing_Only":"No","F4F_Elderly_Housing_Only":"No","F4F_Min_Lot_Size":2.5,"F4F_Max_Density":null,"F4F_Front_Setback":35,"F4F_Side_Setback":15,"F4F_Rear_Setback":15,"F4F_Frontage":90,"F4F_Max_Lot_Building_Coverage":null,"F4F_Max_Lot_Impervious_Coverage":null,"F4F_Min_Parking_Spaces_per_1BR":2,"F4F_Min_Parking_Spaces_per__mult_BR":2,"F4F_Connection_to_Sewage_Water_Required":"No","F4F_Proximity_to_Public_Transit_Required":"No","F4F_Max_Stories":null,"F4F_Max_Height":35,"F4F_Floor_to_Area_Ratio":null,"F4F_Min_Unit_Size":null,"F4F_Max_Bedrooms":null,"F4F_Max_Units_per_Building":null,"F5F_Affordable_Housing_Only":"F","F5F_Elderly_Housing_Only":"F","F5F_Min_Lot_Size":3,"F5F_Max_Density":null,"F5F_Front_Setback":35,"F5F_Side_Setback":15,"F5F_Rear_Setback":15,"F5F_Frontage":90,"F5F_Max_Lot_Building_Coverage":null,"F5F_Max__Lot_Impervious_Coverage":null,"F5F_Min_Parking_Spaces_per_1BR":2,"F5F_Min_Parking_Spaces_per_mult_BR":2,"F5F_Connection_to_Sewage_Water_Required":"F","F5F_Proximity_to_Public_Transit_Required":"F","F5F_Max_Stories":null,"F5F_Max_Height":35,"F5F_Floor_to_Area_Ratio":null,"F5F_Min_Unit_Size":null,"F5F_Max_Bedrooms":null,"F5F_Max_Units_per_Building":null,"Affordable_Housing_Definition":null,"Affordable_Housing_Elderly_Only":"No","Affordable_Housing_Min_Lot_Size":null,"Affordable_Housing_Max_Density":null,"Affordable_Housing_Min_Parking_Spaces_per_1BR":null,"Affordable_Housing_Min_Parking_Spaces_per_mult_BR":null,"Affordable_Housing_Min_Unit_Size":null,"Affordable_Housing_Max_Bedrooms":null,"Affordable_Housing_Max_Units_per_Building":null,"ADU_Employee_or_Family_Occupancy_Required":"No","ADU_Renter_Occupancy_Prohibited":"No","ADU_Owner_Occupancy_Required":"No","ADU_Elderly_Housing_Only":"No","ADU_Min_Lot_Size":null,"ADU_Min_Parking_Spaces":1,"ADU_Restricted_to_Primary_Structure":"No","ADU_Max_Size_as_Percent_of_Primary_Strcture":30,"ADU_Max_Size_in_sq_ft":null,"ADU_Max_Bedrooms":null,"PRD_Mobile_or_Manufactured_Home_Park":"No","PRD_Min_Lot_Size":null,"PRD_Max_Density":null,"PRD_Max_Units":null,"PUD_Required_with_Subdivision":null,"PUD_Threshold_Number":null,"PUD_Allowance":null,"PUD_Requires_Land_Conservation":null,"Base_Density":null,"CONDITIONAL_1F_Min_Lot":null,"CONDITIONAL_1F_Front_Setback":null,"CONDITIONAL_1F_Side_Setback":null,"CONDITIONAL_1F_Rear_Setback":null,"CONDITIONAL_1F_Frontage":null,"CONDITIONAL_1F_Max_Lot_Building_Coverage":null,"CONDITIONAL_1F_Max_Lot_Impervious_Coverage":null,"CONDITIONAL_1F_Min_Parking_Spaces":null,"CONDITIONAL_1F_Max_Stories":null,"CONDITIONAL_1F_Max_Height":null,"CONDITIONAL_1F_Floor_to_Area_Ratio":null,"CONDITIONAL_1F_Min_Unit_Size":null,"CONDITIONAL_2F_Affordable_Housing_Only":null,"CONDITIONAL_2F_Elderly_Housing_Only":null,"CONDITIONAL_2F_Min_Lot_Size":null,"CONDITIONAL_2F_Max_Density":null,"CONDITIONAL_2F_Front_Setback":null,"CONDITIONAL_2F_Side_Setback":null,"CONDITIONAL_2F_Rear_Setback":null,"CONDITIONAL_2F_Frontage":null,"CONDITIONAL_2F_Max_Lot_Building_Coverage":null,"CONDITIONAL_2F_Max_Lot_Impervious_Coverage":null,"CONDITIONAL_2F_Min_Parking_Spaces_per_1BR":null,"CONDITIONAL_2F_Min_Parking_Spaces_per_mult_BR":null,"CONDITIONAL_2F_Max_Stories":null,"CONDITIONAL_2F_Max_Height":null,"CONDITIONAL_2F_Floor_to_Area_Ratio":null,"CONDITIONAL_2F_Min_Unit_Size":null,"CONDITIONAL_3F_Affordable_Housing_Only":null,"CONDITIONAL_3F_Elderly_Housing_Only":null,"CONDITIONAL_3F_Min_Lot_Size":null,"CONDITIONAL_3F_Max_Density":null,"CONDITIONAL_3F_Front_Setback":null,"CONDITIONAL_3F_Side_Setback":null,"CONDITIONAL_3F_Rear_Setback":null,"CONDITIONAL_3F_Frontage":null,"CONDITIONAL_3F_Max_Lot_Building_Coverage":null,"CONDITIONAL_3F_Max_Lot_Impervious_Coverage":null,"CONDITIONAL_3F_Min_Parking_Spaces_per_1BR":null,"CONDITIONAL_3F_Min_Parking_Spaces_per_mult_BR":null,"CONDITIONAL_3F_Connection_to_Sewage_Water_Required":null,"CONDITIONAL_3F_Proximity_to_Public_Transit_Required":null,"CONDITIONAL_3F_Max_Stories":null,"CONDITIONAL_3F_Max_Height":null,"CONDITIONAL_3F_Floor_to_Area_Ratio":null,"CONDITIONAL_3F_Min_Unit_Size":null,"CONDITIONAL_3F_Max_Bedrooms":null,"CONDITIONAL_4F_Affordable_Housing_Only":null,"CONDITIONAL_4F_Elderly_Housing_Only":null,"CONDITIONAL_4F_Min_Lot_Size":null,"CONDITIONAL_4F_Max_Density":null,"CONDITIONAL_4F_Front_Setback":null,"CONDITIONAL_4F_Side_Setback":null,"CONDITIONAL_4F_Rear_Setback":null,"CONDITIONAL_4F_Frontage":null,"CONDITIONAL_4F_Max_Lot_Building_Coverage":null,"CONDITIONAL_4F_Max_Lot_Impervious_Coverage":null,"CONDITIONAL_4F_Min_Parking_Spaces_per_1BR":null,"CONDITIONAL_4F_Min_Parking_Spaces_per__mult_BR":null,"CONDITIONAL_4F_Connection_to_Sewage_Water_Required":null,"CONDITIONAL_4F_Proximity_to_Public_Transit_Required":null,"CONDITIONAL_4F_Max_Stories":null,"CONDITIONAL_4F_Max_Height":null,"CONDITIONAL_4F_Floor_to_Area_Ratio":null,"CONDITIONAL_4F_Min_Unit_Size":null,"CONDITIONAL_4F_Max_Bedrooms":null,"CONDITIONAL_4F_Max_Units_per_Building":null,"CONDITIONAL_5F_Affordable_Housing_Only":null,"CONDITIONAL_5F_Elderly_Housing_Only":null,"CONDITIONAL_5F_Min_Lot_Size":null,"CONDITIONAL_5F_Max_Density":null,"CONDITIONAL_5F_Front_Setback":null,"CONDITIONAL_5F_Side_Setback":null,"CONDITIONAL_5F_Rear_Setback":null,"CONDITIONAL_5F_Frontage":null,"CONDITIONAL_5F_Max_Lot_Building_Coverage":null,"CONDITIONAL_5F_Max__Lot_Impervious_Coverage":null,"CONDITIONAL_5F_Min_Parking_Spaces_per_1BR":null,"CONDITIONAL_5F_Min_Parking_Spaces_per_mult_BR":null,"CONDITIONAL_5F_Connection_to_Sewage_Water_Required":null,"CONDITIONAL_5F_Proximity_to_Public_Transit_Required":null,"CONDITIONAL_5F_Max_Stories":null,"CONDITIONAL_5F_Max_Height":null,"CONDITIONAL_5F_Floor_to_Area_Ratio":null,"CONDITIONAL_5F_Min_Unit_Size":null,"CONDITIONAL_5F_Max_Bedrooms":null,"CONDITIONAL_5F_Max_Units_per_Building":null,"CONDITIONAL_Affordable_Housing_Definition":null,"CONDITIONAL_Affordable_Housing_Elderly_Only":null,"CONDITIONAL_Affordable_Housing_Min_Lot_Size":null,"CONDITIONAL_Affordable_Housing_Max_Density":null,"CONDITIONAL_Affordable_Housing_Min_Parking_Spaces_per_1BR":null,"CONDITIONAL_Affordable_Housing_Min_Parking_Spaces_per_mult_BR":null,"CONDITIONAL_Affordable_Housing_Min_Unit_Size":null,"CONDITIONAL_Affordable_Housing_Max_Bedrooms":null,"CONDITIONAL_Affordable_Housing_Max_Units_per_Building":null,"CONDITIONAL_ADU_Employee_or_Family_Occupancy_Required":null,"CONDITIONAL_ADU_Renter_Occupancy_Prohibited":null,"CONDITIONAL_ADU_Owner_Occupancy_Required":null,"CONDITIONAL_ADU_Elderly_Housing_Only":null,"CONDITIONAL_ADU_Min_Lot_Size":null,"CONDITIONAL_ADU_Min_Parking_Spaces":null,"CONDITIONAL_ADU_Restricted_to_Primary_Structure":null,"CONDITIONAL_ADU_Max_Size_as_Percent_of_Primary_Strcture":null,"CONDITIONAL_ADU_Max_Size_in_sq_ft":null,"CONDITIONAL_ADU_Max_Bedrooms":null,"CONDITIONAL_PRD_Mobile_or_Manufactured_Home_Park":null,"CONDITIONAL_PRD_Min_Lot_Size":null,"CONDITIONAL_PRD_Max_Density":null,"CONDITIONAL_PRD_Max_Units":null,"CONDITIONAL_PUD_Required_with_Subdivision":null,"CONDITIONAL_PUD_Threshold_Number":null,"CONDITIONAL_PUD_Allowance":null,"CONDITIONAL_PUD_Requires_Land_Conservation":null,"Bylaw_Date":"2024-05-27","RPC":"WRC","Version":1,"Acres":393.52090021952955,"Shape_Length":0.13292851894947108,"Shape_Area":0.00017568810778614797}}]}