{"type": "FeatureCollection", "crs": {"type": "name", "properties": {"name": "urn:ogc:def:crs:OGC:1.3:CRS84"}}, "features": [{"type": "Feature", "properties": {"LAST_UPDATE": "2024-06-09", "PARENT_JXTN": "", "ABB_DIST_NAME": "R-1", "BYLAW_EFF": "2024-06-09", "DIST_MAP": "No", "OVER": "No", "DIST_TYPE": "Primarily Residential", "AFF_DIST": "No", "ELD_DIST": "No", "1F_MIN_LOT": 2.0, "1F_MIN_LOT_COND_ALT": null, "1F_FSET": 75.0, "1F_FSET_COND_ALT": null, "1F_SSET": 75.0, "1F_SSET_COND_ALT": null, "1F_RSET": 75.0, "1F_RSET_COND_ALT": null, "1F_MAX_LOT_BLDG": 5.0, "1F_MAX_LOT_BLDG_COND_ALT": null, "1F_MAX_LOT_IMP": "", "1F_MAX_LOT_IMP_COND_ALT": "", "1F_PARK": "", "1F_PARK_COND_ALT": "", "1F_STORIES": "", "1F_STORIES_COND_ALT": "", "1F_HEIGHT": 30.0, "1F_HEIGHT_COND_ALT": null, "1F_FTA": "", "1F_FTA_COND_ALT": "", "1F_MIN_UNIT": "", "1F_MIN_UNIT_COND_ALT": "", "2F_AFF": "No", "2F_ELD": "No", "2F_MIN_LOT": 2.0, "2F_MIN_LOT_COND_ALT": null, "2F_MAX_DENS": "", "2F_MAX_DENS_COND_ALT": "", "2F_FSET": 75.0, "2F_FSET_COND_ALT": null, "2F_SSET": 75.0, "2F_SSET_COND_ALT": null, "2F_RSET": 75.0, "2F_RSET_COND_ALT": null, "2F_MAX_LOT_BLDG": 5.0, "2F_MAX_LOT_BLDG_COND_ALT": null, "2F_MAX_LOT_IMP": "", "2F_MAX_LOT_IMP_COND_ALT": "", "2F_PARK_1BR": "", "2F_PARK_1BR_COND_ALT": "", "2F_PARK_2BR": "", "2F_PARK_2BR_COND_ALT": "", "2F_STORIES": "", "2F_STORIES_COND_ALT": "", "2F_HEIGHT": 30.0, "2F_HEIGHT_COND_ALT": null, "2F_FTA": "", "2F_FTA_COND_ALT": "", "2F_MIN_UNIT": "", "2F_MIN_UNIT_COND_ALT": "", "3F_AFF": "No", "3F_ELD": "No", "3F_MIN_LOT": "", "3F_MIN_LOT_COND_ALT": "", "3F_MAX_DENS": "", "3F_MAX_DENS_COND_ALT": "", "3F_FSET": "", "3F_FSET_COND_ALT": "", "3F_SSET": "", "3F_SSET_COND_ALT": "", "3F_RSET": "", "3F_RSET_COND_ALT": "", "3F_MAX_LOT_BLDG": "", "3F_MAX_LOT_BLDG_COND_ALT": "", "3F_MAX_LOT_IMP": "", "3F_MAX_LOT_IMP_COND_ALT": "", "3F_PARK_1BR": "", "3F_PARK_1BR_COND_ALT": "", "3F_PARK_2BR": "", "3F_PARK_2BR_COND_ALT": "", "3F_CNXN_H2O": "No", "3F_CNXN_TRANSIT": "No", "3F_STORIES": "", "3F_STORIES_COND_ALT": "", "3F_HEIGHT": "", "3F_HEIGHT_COND_ALT": "", "3F_FTA": "", "3F_FTA_COND_ALT": "", "3F_MIN_UNIT": "", "3F_MIN_UNIT_COND_ALT": "", "3F_BEDROOMS": "", "3F_BEDROOMS_COND_ALT": "", "4F_AFF": "No", "4F_ELD": "No", "4F_MIN_LOT": "", "4F_MIN_LOT_COND_ALT": "", "4F_MAX_DENS": "", "4F_MAX_DENS_COND_ALT": "", "4F_FSET": "", "4F_FSET_COND_ALT": "", "4F_SSET": "", "4F_SSET_COND_ALT": "", "4F_RSET": "", "4F_RSET_COND_ALT": "", "4F_MAX_LOT_BLDG": "", "4F_MAX_LOT_BLDG_COND_ALT": "", "4F_MAX_LOT_IMP": "", "4F_MAX_LOT_IMP_COND_ALT": "", "4F_PARK_1BR": "", "4F_PARK_1BR_COND_ALT": "", "4F_PARK_2BR": "", "4F_PARK_2BR_COND_ALT": "", "4F_CNXN_H2O": "No", "4F_CNXN_TRANSIT": "No", "4F_STORIES": "", "4F_STORIES_COND_ALT": "", "4F_HEIGHT": "", "4F_HEIGHT_COND_ALT": "", "4F_FTA": "", "4F_FTA_COND_ALT": "", "4F_MIN_UNIT": "", "4F_MIN_UNIT_COND_ALT": "", "4F_BEDROOMS": "", "4F_BEDROOMS_COND_ALT": "", "4F_MAX_UNIT": "", "4F_MAX_UNIT_COND_ALT": "", "AFFDP": "Allowed/Conditional", "AFF_DEF": "\u201cAffordable housing\u201d means either of the following:\r\n\r\n(1) Housing that is owned by its inhabitants whose gross annual household income does not\r\nexceed 80 percent of the county median income, or 80 percent of the standard metropolitan\r\nstatistical area income if the municipality is located in such an area, as defined by the\r\nUnited States Department of Housing and Urban Development, and the total annual cost of\r\nthe housing, including principal, interest, taxes, insurance, and condominium association\r\nfees is not more than 30 percent of the household\u2019s gross annual income.\r\n\r\n(2) Housing that is rented by its inhabitants whose gross annual household income does not\r\nexceed 80 percent of the county median income, or 80 percent of the standard metropolitan\r\nstatistical area income if the municipality is located in such an area, as defined by the\r\nUnited States Department of Housing and Urban Development, and the total annual cost of\r\nthe housing, including rent, utilities, and condominium association fees, is not more than\r\n30 percent of the household\u2019s gross annual income.\r\n\r\nAdditionally, \"affordable housing development\" is defined as: \"A housing development of which at least 20\r\npercent of the units or a minimum of five units, whichever is greater, are affordable housing\r\nunits. Affordable units shall be subject to covenants or restrictions that preserve their\r\naffordability for a minimum of 30 years or longer as provided in municipal bylaws\"", "AFF_ELD_ONLY": "No", "AFF_MIN_LOT": "", "AFF_MIN_LOT_COND_ALT": "", "AFF_MAX_DENS": "", "AFF_MAX_DENS_COND_ALT": "", "AFF_PARK_1BR": "", "AFF_PARK_1BR_COND_ALT": "", "AFF_PARK_2BR": "", "AFF_PARK_2BR_COND_ALT": "", "AFF_CNXN_H2O": "No", "AFF_CNXN_TRANSIT": "No", "AFF_MIN_UNIT": "", "AFF_MIN_UNIT_COND_ALT": "", "AFF_BEDROOMS": "", "AFF_BEDROOMS_COND_ALT": "", "AFF_MAX_UNIT": "", "AFF_MAX_UNIT_COND_ALT": "", "ADUDP": "Allowed/Conditional", "ADU_EMP_REQD": "No", "ADU_RENTER_PROH": "No", "ADU_OWNER_REQD": "Yes", "ADU_ELD": "No", "ADU_MIN_LOT": "", "ADU_MIN_LOT_COND_ALT": "", "ADU_PARK": "", "ADU_PARK_COND_ALT": "", "ADU_PRIM_STRUC": "No", "ADU_MAX_PCT": 30.0, "ADU_MAX_PCT_COND_ALT": null, "ADU_MAX_SIZE": "", "ADU_MAX_SIZE_COND_ALT": "", "ADU_BEDROOMS": 1.0, "ADU_BEDROOMS_COND_ALT": null, "PRDDP": "Public Hearing", "PRD_MHP": "Yes", "PRD_MIN_LOT": "", "PRD_MIN_LOT_COND_ALT": "", "PRD_MAX_DENS": "", "PRD_MAX_DENS_COND_ALT": "", "PRD_MAX_UNIT": "", "PRD_MAX_UNIT_COND_ALT": "", "SPNOTES": "Andover is zoned entirely as one district and therefore does not have a zoning map.", "TTIPNOTES": "", "5F_AFF": "", "5F_ELD": "", "5F_MIN_LOT": "", "5F_MAX_DENS": "", "5F_FSET": "", "5F_SSET": "", "5F_RSET": "", "5F_MAX_LOT_BLDG": "", "5F_MAX_LOT_IMP": "", "5F_PARK_1BR": "", "5F_PARK_2BR": "", "5F_CNXN_H2O": "", "5F_CNXN_TRANSIT": "", "5F_STORIES": "", "5F_FEET": "", "5F_FTA": "", "5F_MIN_UNIT": "", "5F_BEDROOMS": "", "5F_MAX_UNIT": "", "BASE_DENS": "", "1F_FRONT": "", "2F_FRONT": "", "3F_FRONT": "", "4F_FRONT": "", "5F_FRONT": "", "PUD_SUBDV": "", "PUD_THRESH": "", "PUD_ALLOW": "", "PUD_CONSERVE": "", "GIS_ID": "", "F1F_Allowance": "Allowed/Conditional", "F2F_Allowance": "Allowed/Conditional", "F3F_Allowance": "Prohibited", "F4F_Allowance": "Prohibited", "Jurisdiction_County": "Windsor", "Jurisdiction_District_Name": "Andover", "District_Name": "Residential"}, "geometry": {"type": "MultiPolygon", "coordinates": [[[[-72.68544184702928, 43.222588981333395], [-72.70141356951034, 43.226337546325276], [-72.73021319921217, 43.23330002230116], [-72.75070809293409, 43.23824895823016], [-72.75682319819956, 43.239694704822796], [-72.75682973078874, 43.239696404028656], [-72.75682972174063, 43.23969659487922], [-72.75604967541778, 43.25596615028368], [-72.755131016735, 43.2706632093831], [-72.75513098094332, 43.27066378285076], [-72.76519882356284, 43.27268295879806], [-72.7652053767195, 43.27268427220809], [-72.76435655087494, 43.29196345958007], [-72.76432848970718, 43.293109575535134], [-72.76430197792858, 43.294129938935654], [-72.76428194860621, 43.295196103989916], [-72.76405976942293, 43.29628091839329], [-72.76385448516014, 43.29725614692641], [-72.76375688574218, 43.298312228694456], [-72.7637767010543, 43.29921843731898], [-72.76154489402815, 43.3277964497532], [-72.7615448239035, 43.327797348242136], [-72.76153067924469, 43.327978462202715], [-72.76153009201624, 43.32798643418612], [-72.76128906703306, 43.33125529783459], [-72.76128904485915, 43.33125559042692], [-72.76128480785198, 43.33131307239768], [-72.76127639654084, 43.331427136065464], [-72.76127632894776, 43.33142805165032], [-72.75967837765411, 43.353091313147516], [-72.75963626617924, 43.35366200867724], [-72.75963619853844, 43.35366292425769], [-72.7596320703657, 43.35371886558197], [-72.75962785383028, 43.3537760717814], [-72.75947688765837, 43.35371487915205], [-72.75849143784241, 43.353315428123686], [-72.75333631359138, 43.3512638297103], [-72.75330086047741, 43.35124971956096], [-72.75120177759017, 43.350408910113394], [-72.7512003036476, 43.350408320168114], [-72.75116342662686, 43.3503935481887], [-72.74236808983568, 43.34684374349754], [-72.70175228768024, 43.330436982613165], [-72.69602701847252, 43.32810579315677], [-72.68144285662306, 43.322438055197], [-72.68263009068541, 43.29212474815152], [-72.68407834997632, 43.25610594093376], [-72.68544184702928, 43.222588981333395]]]]}}]}