{
  "type": "FeatureCollection",
  "features": [
    {
      "type": "Feature",
      "id": 1,
      "geometry": {
        "type": "MultiPolygon",
        "coordinates": [
          [
            [
              [
                -73.09972586399994,
                42.74268618600007
              ],
              [
                -73.09961127599996,
                42.74517081600004
              ],
              [
                -73.10149224099996,
                42.745214614000076
              ],
              [
                -73.10156860499995,
                42.75070347700006
              ],
              [
                -73.09565852799994,
                42.75062562100004
              ],
              [
                -73.09544271799996,
                42.75140820800004
              ],
              [
                -73.09517241599997,
                42.751842314000044
              ],
              [
                -73.09480362499994,
                42.752236597000035
              ],
              [
                -73.09441058299996,
                42.752530223000065
              ],
              [
                -73.09438234899994,
                42.75337033100004
              ],
              [
                -73.09422884099996,
                42.75408395000005
              ],
              [
                -73.09259990299995,
                42.75812229400003
              ],
              [
                -73.09383150099995,
                42.76152392900008
              ],
              [
                -73.09477531999994,
                42.76260718300006
              ],
              [
                -73.09505357999996,
                42.76303926400004
              ],
              [
                -73.09522597999995,
                42.76350013200005
              ],
              [
                -73.09528704399997,
                42.76397615500008
              ],
              [
                -73.09537936399994,
                42.771263058000045
              ],
              [
                -73.09831070799999,
                42.77101973900005
              ],
              [
                -73.10243327699999,
                42.770885460000045
              ],
              [
                -73.10320148099999,
                42.77091907700003
              ],
              [
                -73.10531286799994,
                42.771174607000034
              ],
              [
                -73.10757488399997,
                42.770197292000034
              ],
              [
                -73.11153977399994,
                42.774845740000046
              ],
              [
                -73.10830008399995,
                42.78350913600008
              ],
              [
                -73.10502997899994,
                42.78294619300004
              ],
              [
                -73.10418957799999,
                42.78265138000006
              ],
              [
                -73.10238072399994,
                42.78275692500006
              ],
              [
                -73.10173301299994,
                42.78271867800004
              ],
              [
                -73.09624778699998,
                42.78142347800008
              ],
              [
                -73.09533075399997,
                42.776791510000066
              ],
              [
                -73.09260943499999,
                42.77702382000007
              ],
              [
                -73.09031167999996,
                42.777706855000076
              ],
              [
                -73.08968583399997,
                42.77783357700008
              ],
              [
                -73.08904049899996,
                42.77787860300003
              ],
              [
                -73.08839208199998,
                42.777840249000064
              ],
              [
                -73.08718215699997,
                42.777625098000044
              ],
              [
                -73.08408592099994,
                42.77771177000005
              ],
              [
                -73.08343788999997,
                42.77767336800008
              ],
              [
                -73.08259374499994,
                42.77749025700007
              ],
              [
                -73.08103854599995,
                42.77698053600005
              ],
              [
                -73.07626146399997,
                42.77457190300004
              ],
              [
                -73.07208114599996,
                42.77360945000004
              ],
              [
                -73.07068969199997,
                42.77369579400005
              ],
              [
                -73.07004171099999,
                42.773657333000074
              ],
              [
                -73.06941397799994,
                42.773536431000025
              ],
              [
                -73.06882447799995,
                42.77333714700006
              ],
              [
                -73.06828930599994,
                42.77306543200007
              ],
              [
                -73.06782724899995,
                42.77272940600005
              ],
              [
                -73.06674588599998,
                42.77147722500007
              ],
              [
                -73.06424799599995,
                42.772542685000076
              ],
              [
                -73.06427333299996,
                42.77381908600006
              ],
              [
                -73.06440033399997,
                42.77468468600006
              ],
              [
                -73.06420858099995,
                42.77535127800007
              ],
              [
                -73.06389970099997,
                42.77577748200008
              ],
              [
                -73.06185498999997,
                42.777826652000044
              ],
              [
                -73.05653760299998,
                42.777307918000076
              ],
              [
                -73.05171534599998,
                42.78252364300005
              ],
              [
                -73.04919208299998,
                42.78529092700006
              ],
              [
                -73.04751050399994,
                42.78854622500006
              ],
              [
                -73.04690050999994,
                42.78949785900005
              ],
              [
                -73.04597720899994,
                42.79048384500004
              ],
              [
                -73.03734338299995,
                42.79758997300007
              ],
              [
                -73.03646992099993,
                42.79849501500007
              ],
              [
                -73.03352185799997,
                42.80155075500005
              ],
              [
                -73.03215071299996,
                42.80297158700006
              ],
              [
                -73.03065387199996,
                42.80502495800005
              ],
              [
                -73.02973008499998,
                42.80601081400005
              ],
              [
                -73.02752369199999,
                42.80762639200003
              ],
              [
                -73.02403818999994,
                42.81270388000007
              ],
              [
                -73.02305342999995,
                42.81373497000004
              ],
              [
                -73.02299809899995,
                42.81410648700006
              ],
              [
                -73.02303731999996,
                42.81440766600008
              ],
              [
                -73.02318082899995,
                42.814705626000034
              ],
              [
                -73.02484517599999,
                42.81469143400005
              ],
              [
                -73.02541084299997,
                42.814799116000074
              ],
              [
                -73.02824139999996,
                42.81640203400008
              ],
              [
                -73.02857642299995,
                42.81674956400008
              ],
              [
                -73.02863047699998,
                42.81717388900006
              ],
              [
                -73.02824833399995,
                42.81833867600005
              ],
              [
                -73.02834532099996,
                42.819451635000064
              ],
              [
                -73.02810041499998,
                42.82039973900004
              ],
              [
                -73.02800812399994,
                42.821364826000035
              ],
              [
                -73.02757180499998,
                42.82249954800005
              ],
              [
                -73.02756749599996,
                42.82316125400007
              ],
              [
                -73.02742393599993,
                42.823446500000045
              ],
              [
                -73.02684757699996,
                42.82406962600004
              ],
              [
                -73.02651249599995,
                42.82421404000007
              ],
              [
                -73.02613076399996,
                42.82426537600003
              ],
              [
                -73.02225197199994,
                42.82397259600003
              ],
              [
                -73.01914525799998,
                42.82336860500004
              ],
              [
                -73.01807184199998,
                42.82333204300005
              ],
              [
                -73.01684714899994,
                42.823577819000036
              ],
              [
                -73.01645888499996,
                42.82357957100004
              ],
              [
                -73.01540221599998,
                42.82323157800005
              ],
              [
                -73.01517210399999,
                42.83208916600006
              ],
              [
                -73.02525315599996,
                42.832416410000064
              ],
              [
                -73.04153175399995,
                42.832894113000066
              ],
              [
                -73.06674973299994,
                42.83366453000008
              ],
              [
                -73.08724866799997,
                42.83424732100008
              ],
              [
                -73.10774794699995,
                42.83482643900004
              ],
              [
                -73.12445744899998,
                42.83522731900007
              ],
              [
                -73.13711254599997,
                42.835596000000066
              ],
              [
                -73.13965009599997,
                42.79283623900005
              ],
              [
                -73.14218450799996,
                42.75007612700006
              ],
              [
                -73.14266611299996,
                42.743590761000064
              ],
              [
                -73.14266968499999,
                42.74354462300005
              ],
              [
                -73.12119764999994,
                42.743117418000054
              ],
              [
                -73.09972586399994,
                42.74268618600007
              ]
            ]
          ],
          [
            [
              [
                -73.01865495599998,
                42.74104936400005
              ],
              [
                -73.01849777599995,
                42.743357564000064
              ],
              [
                -73.01837009299999,
                42.74695739600003
              ],
              [
                -73.01809595499998,
                42.75010444800006
              ],
              [
                -73.01704351999996,
                42.77933006600006
              ],
              [
                -73.01693009899998,
                42.78236675800008
              ],
              [
                -73.01642923799994,
                42.795580951000034
              ],
              [
                -73.02287532599996,
                42.78891833500006
              ],
              [
                -73.03070714199998,
                42.78247250900006
              ],
              [
                -73.03203819199996,
                42.77989670300008
              ],
              [
                -73.03264869799995,
                42.77894454600005
              ],
              [
                -73.03379279199999,
                42.77756136700003
              ],
              [
                -73.04275115899998,
                42.767836242000044
              ],
              [
                -73.04327360499997,
                42.767325320000054
              ],
              [
                -73.04482769899994,
                42.766203817000076
              ],
              [
                -73.04493485899997,
                42.76440338900005
              ],
              [
                -73.04513163099995,
                42.76067558300008
              ],
              [
                -73.04451681899997,
                42.76044028500007
              ],
              [
                -73.04503965899994,
                42.76011340400004
              ],
              [
                -73.04701870899999,
                42.759585800000025
              ],
              [
                -73.04744590799999,
                42.759282116000065
              ],
              [
                -73.04766083799996,
                42.75906484400008
              ],
              [
                -73.04788168799996,
                42.758523043000025
              ],
              [
                -73.04818502799998,
                42.757508779000034
              ],
              [
                -73.04821749099995,
                42.75699075400007
              ],
              [
                -73.04889126699999,
                42.756469657000025
              ],
              [
                -73.05022842299996,
                42.75563651900006
              ],
              [
                -73.05055002999995,
                42.75535485200004
              ],
              [
                -73.05089382599994,
                42.75490644900003
              ],
              [
                -73.05108735199997,
                42.75438766600007
              ],
              [
                -73.05098579899999,
                42.75335244900003
              ],
              [
                -73.05104418599996,
                42.752316445000076
              ],
              [
                -73.05163046399997,
                42.75037393900004
              ],
              [
                -73.05189529199998,
                42.74989164500005
              ],
              [
                -73.05189466899998,
                42.74964931000005
              ],
              [
                -73.05165855799999,
                42.74906564100007
              ],
              [
                -73.05128711999998,
                42.74863056000004
              ],
              [
                -73.05135760999997,
                42.74848718800007
              ],
              [
                -73.05155151099996,
                42.74835771000005
              ],
              [
                -73.05174761999996,
                42.748262014000034
              ],
              [
                -73.05234786999995,
                42.748114576000035
              ],
              [
                -73.05265671599994,
                42.74790549100004
              ],
              [
                -73.05336859899995,
                42.746577099000035
              ],
              [
                -73.05377327199994,
                42.74504259300005
              ],
              [
                -73.05387794399996,
                42.74350953600003
              ],
              [
                -73.05421913399994,
                42.74177651700006
              ],
              [
                -73.03643695499994,
                42.741414322000026
              ],
              [
                -73.01865495599998,
                42.74104936400005
              ]
            ]
          ]
        ]
      },
      "properties": {
        "OBJECTID": 571,
        "Jurisdiction_District_Name": "Stamford Forest District",
        "County": "Bennington",
        "Jurisdiction": "Stamford ",
        "Abbreviated_District_Name": "For",
        "District_Name": "Forest District",
        "District_Mapped": "Yes",
        "Overlay_District": "No",
        "District_Type": "Primarily Residential",
        "Affordable_Housing_District": "No",
        "Elderly_Housing_District": "No",
        "F1F_Allowance": "Permitted",
        "F2F_Allowance": "Permitted",
        "F3F_Allowance": "Prohibited",
        "F4F_Allowance": "Prohibited",
        "ADU_Allowance": "Allowed/Conditional",
        "Affordable_Housing_Allowance": "Not Mentioned",
        "PRD_Allowance": "Public Hearing",
        "Notes": " Mobile Homes Are Permitted As One-Family Dwellings, But Mobile Home Parks Are not Permitted In The Forest District.\r\nSpecial Limitation - Elevation And Slope: All Buildings And Structures Must Be Located Below 2,500 Feet In Elevation And On Slopes Less Than 25 Percent.  ",
        "F1F_Min_Lot": 5,
        "F1F_Front_Setback": 50,
        "F1F_Side_Setback": 25,
        "F1F_Rear_Setback": 25,
        "F1F_Frontage": 150,
        "F1F_Max_Lot_Building_Coverage": 5,
        "F1F_Max_Lot_Impervious_Coverage": null,
        "F1F_Min_Parking_Spaces": null,
        "F1F_Max_Stories": null,
        "F1F_Max_Height": 35,
        "F2F_Affordable_Housing_Only": "No",
        "F2F_Elderly_Housing_Only": "No",
        "F2F_Min_Lot_Size": 5,
        "F2F_Max_Density": null,
        "F2F_Front_Setback": 50,
        "F2F_Side_Setback": 25,
        "F2F_Rear_Setback": 25,
        "F2F_Frontage": 150,
        "F2F_Max_Lot_Building_Coverage": 5,
        "F2F_Max_Lot_Impervious_Coverage": null,
        "F2F_Min_Parking_Spaces_per_1BR": null,
        "F2F_Min_Parking_Spaces_per_mult_BR": null,
        "F2F_Max_Stories": null,
        "F2F_Max_Height": 35,
        "F3F_Affordable_Housing_Only": "No",
        "F3F_Elderly_Housing_Only": "No",
        "F3F_Min_Lot_Size": null,
        "F3F_Max_Density": null,
        "F3F_Front_Setback": null,
        "F3F_Side_Setback": null,
        "F3F_Rear_Setback": null,
        "F3F_Frontage": null,
        "F3F_Max_Lot_Building_Coverage": null,
        "F3F_Max_Lot_Impervious_Coverage": null,
        "F3F_Min_Parking_Spaces_per_1BR": null,
        "F3F_Min_Parking_Spaces_per_mult_BR": null,
        "F3F_Connection_to_Sewage/Water_Required": "No",
        "F3F_Proximity_to_Public_Transit_Required": "No",
        "F3F_Max_Stories": null,
        "F3F_Max_Height": null,
        "F4F_Affordable_Housing_Only": "No",
        "F4F_Elderly_Housing_Only": "No",
        "F4F_Min_Lot_Size": null,
        "F4F_Max_Density": null,
        "F4F_Front_Setback": null,
        "F4F_Side_Setback": null,
        "F4F_Rear_Setback": null,
        "F4F_Frontage": null,
        "F4F_Max_Lot_Building_Coverage": null,
        "F4F_Max_Lot_Impervious_Coverage": null,
        "F4F_Min_Parking_Spaces_per_1BR": null,
        "F4F_Min_Parking_Spaces_per_mult_BR": null,
        "F4F_Connection_to_Sewage/Water_Required": "No",
        "F4F_Proximity_to_Public_Transit_Required": "No",
        "F4F_Max_Stories": null,
        "F4F_Max_Height": null,
        "Affordable_Housing_Elderly_Only": "No",
        "Affordable_Housing_Min_Lot_Size": null,
        "Affordable_Housing_Max_Density": null,
        "Affordable_Housing_Min_Parking_Spaces_per_1BR": null,
        "Affordable_Housing_Min_Parking_Spaces_per_mult_BR": null,
        "Affordable_Housing_Max_Units_per_Building": null,
        "ADU_Employee_or_Family_Occupancy_Required": "No",
        "ADU_Renter_Occupancy_Prohibited": "No",
        "ADU_Owner_Occupancy_Required": "Yes",
        "ADU_Elderly_Housing_Only": "No",
        "ADU_Min_Lot_Size": null,
        "ADU_Min_Parking_Spaces": null,
        "ADU_Restricted_to_Primary_Structure": "No",
        "ADU_Max_Size_as_Percent_of_Primary_Strcture": 30,
        "ADU_Max_Size_in_sq_ft": null,
        "ADU_Max_Bedrooms": 1,
        "PRD_Mobile_or_Manufactured_Home_Park": "No",
        "PRD_Min_Lot_Size": null,
        "PRD_Max_Density": null,
        "PRD_Max_Units": null,
        "PUD_Required_with_Subdivision": "F",
        "PUD_Threshold_Number": null,
        "PUD_Allowance": "Yes",
        "PUD_Requires_Land_Conservation": "F",
        "Base_Density": null,
        "Bylaw_Date": "2023-09-05",
        "RPC": "BCRC",
        "Zoning_Version": 1,
        "Shape_Length": 0.6307789109115531,
        "Shape_Area": 0.00861857881983159
      }
    },
    {
      "type": "Feature",
      "id": 2,
      "geometry": {
        "type": "Polygon",
        "coordinates": [
          [
            [
              -73.01540221599998,
              42.82323157800005
            ],
            [
              -73.01645888499996,
              42.82357957100004
            ],
            [
              -73.01684714899994,
              42.823577819000036
            ],
            [
              -73.01807184199998,
              42.82333204300005
            ],
            [
              -73.01914525799998,
              42.82336860500004
            ],
            [
              -73.02225197199994,
              42.82397259600003
            ],
            [
              -73.02613076399996,
              42.82426537600003
            ],
            [
              -73.02651249599995,
              42.82421404000007
            ],
            [
              -73.02684757699996,
              42.82406962600004
            ],
            [
              -73.02742393599993,
              42.823446500000045
            ],
            [
              -73.02756749599996,
              42.82316125400007
            ],
            [
              -73.02757180499998,
              42.82249954800005
            ],
            [
              -73.02800812399994,
              42.821364826000035
            ],
            [
              -73.02810041499998,
              42.82039973900004
            ],
            [
              -73.02834532099996,
              42.819451635000064
            ],
            [
              -73.02824833399995,
              42.81833867600005
            ],
            [
              -73.02863047699998,
              42.81717388900006
            ],
            [
              -73.02857642299995,
              42.81674956400008
            ],
            [
              -73.02824139999996,
              42.81640203400008
            ],
            [
              -73.02541084299997,
              42.814799116000074
            ],
            [
              -73.02484517599999,
              42.81469143400005
            ],
            [
              -73.02318082899995,
              42.814705626000034
            ],
            [
              -73.02303731999996,
              42.81440766600008
            ],
            [
              -73.02299809899995,
              42.81410648700006
            ],
            [
              -73.02305342999995,
              42.81373497000004
            ],
            [
              -73.02309674499998,
              42.81284458700003
            ],
            [
              -73.02337907299994,
              42.81238661800006
            ],
            [
              -73.02339307999995,
              42.81223534700007
            ],
            [
              -73.02329997199996,
              42.81206860200007
            ],
            [
              -73.02337744899995,
              42.81174100800007
            ],
            [
              -73.02331326299998,
              42.81128849000004
            ],
            [
              -73.02304972799993,
              42.810485064000034
            ],
            [
              -73.02341041699998,
              42.81030418300003
            ],
            [
              -73.02390607999996,
              42.80986369900006
            ],
            [
              -73.02416746299997,
              42.809325614000045
            ],
            [
              -73.02419904799996,
              42.809039161000044
            ],
            [
              -73.02380865699996,
              42.80665033400004
            ],
            [
              -73.02279068499996,
              42.80449846000005
            ],
            [
              -73.02484820499996,
              42.803031169000064
            ],
            [
              -73.02514390999994,
              42.80271593600003
            ],
            [
              -73.02685998299995,
              42.80037180200003
            ],
            [
              -73.02991697299996,
              42.797604007000075
            ],
            [
              -73.03188459699999,
              42.79888823200008
            ],
            [
              -73.03222067899998,
              42.79959101400004
            ],
            [
              -73.03352185799997,
              42.80155075500005
            ],
            [
              -73.03646992099993,
              42.79849501500007
            ],
            [
              -73.03588559499997,
              42.79736137800006
            ],
            [
              -73.03549128699996,
              42.79686462600006
            ],
            [
              -73.03358454299996,
              42.795598218000066
            ],
            [
              -73.03342238799996,
              42.79504235600007
            ],
            [
              -73.03292996699997,
              42.794147569000074
            ],
            [
              -73.03489946199994,
              42.79228442900006
            ],
            [
              -73.03758902899995,
              42.790796897000064
            ],
            [
              -73.04109655299999,
              42.78750533600004
            ],
            [
              -73.04158192899996,
              42.78688381300003
            ],
            [
              -73.04304295599997,
              42.78401364300004
            ],
            [
              -73.04506501599997,
              42.78464315200006
            ],
            [
              -73.04610571999996,
              42.78277059000004
            ],
            [
              -73.04830762099994,
              42.78127610900003
            ],
            [
              -73.04852149899995,
              42.78097467500004
            ],
            [
              -73.05171534599998,
              42.78252364300005
            ],
            [
              -73.05653760299998,
              42.777307918000076
            ],
            [
              -73.06185498999997,
              42.777826652000044
            ],
            [
              -73.06389970099997,
              42.77577748200008
            ],
            [
              -73.06420858099995,
              42.77535127800007
            ],
            [
              -73.06440033399997,
              42.77468468600006
            ],
            [
              -73.06427333299996,
              42.77381908600006
            ],
            [
              -73.06424799599995,
              42.772542685000076
            ],
            [
              -73.06417265899995,
              42.76874447400007
            ],
            [
              -73.06454284999995,
              42.76796793900007
            ],
            [
              -73.06590331099994,
              42.76641978400005
            ],
            [
              -73.06686389799995,
              42.76595346300007
            ],
            [
              -73.06722871299996,
              42.76568122400005
            ],
            [
              -73.06869539199994,
              42.764154259000065
            ],
            [
              -73.06891666099995,
              42.76380154900005
            ],
            [
              -73.07073483499994,
              42.75698784800005
            ],
            [
              -73.07174609899994,
              42.757112333000066
            ],
            [
              -73.07283386599994,
              42.75708685400008
            ],
            [
              -73.07423722199997,
              42.75742046600004
            ],
            [
              -73.07536536299995,
              42.75738472000006
            ],
            [
              -73.07570679099996,
              42.75752325900004
            ],
            [
              -73.07598109499997,
              42.757792401000074
            ],
            [
              -73.07616062599999,
              42.758092085000044
            ],
            [
              -73.07615412499996,
              42.75887363500004
            ],
            [
              -73.07631964799998,
              42.759103253000035
            ],
            [
              -73.07696241499997,
              42.759500771000035
            ],
            [
              -73.07703203999995,
              42.759680779000064
            ],
            [
              -73.07698070399994,
              42.76003171700006
            ],
            [
              -73.07716676799998,
              42.76021131500005
            ],
            [
              -73.07894726299998,
              42.759585980000054
            ],
            [
              -73.07950627199995,
              42.75214139800005
            ],
            [
              -73.07537520899996,
              42.750898584000026
            ],
            [
              -73.07457875199998,
              42.75079464400005
            ],
            [
              -73.07370224599998,
              42.75078525400005
            ],
            [
              -73.07421693299995,
              42.75042772200004
            ],
            [
              -73.07461198999994,
              42.74997143000007
            ],
            [
              -73.07564323599996,
              42.74834813000007
            ],
            [
              -73.07577454799997,
              42.74797781800004
            ],
            [
              -73.07582216299994,
              42.747596129000044
            ],
            [
              -73.07597844599997,
              42.74559450500004
            ],
            [
              -73.07593430099996,
              42.74507260100006
            ],
            [
              -73.07465955699996,
              42.74218511600003
            ],
            [
              -73.05421913399994,
              42.74177651700006
            ],
            [
              -73.05387794399996,
              42.74350953600003
            ],
            [
              -73.05377327199994,
              42.74504259300005
            ],
            [
              -73.05336859899995,
              42.746577099000035
            ],
            [
              -73.05265671599994,
              42.74790549100004
            ],
            [
              -73.05234786999995,
              42.748114576000035
            ],
            [
              -73.05174761999996,
              42.748262014000034
            ],
            [
              -73.05155151099996,
              42.74835771000005
            ],
            [
              -73.05135760999997,
              42.74848718800007
            ],
            [
              -73.05128711999998,
              42.74863056000004
            ],
            [
              -73.05165855799999,
              42.74906564100007
            ],
            [
              -73.05189466899998,
              42.74964931000005
            ],
            [
              -73.05189529199998,
              42.74989164500005
            ],
            [
              -73.05163046399997,
              42.75037393900004
            ],
            [
              -73.05104418599996,
              42.752316445000076
            ],
            [
              -73.05098579899999,
              42.75335244900003
            ],
            [
              -73.05108735199997,
              42.75438766600007
            ],
            [
              -73.05089382599994,
              42.75490644900003
            ],
            [
              -73.05055002999995,
              42.75535485200004
            ],
            [
              -73.05022842299996,
              42.75563651900006
            ],
            [
              -73.04889126699999,
              42.756469657000025
            ],
            [
              -73.04821749099995,
              42.75699075400007
            ],
            [
              -73.04818502799998,
              42.757508779000034
            ],
            [
              -73.04788168799996,
              42.758523043000025
            ],
            [
              -73.04766083799996,
              42.75906484400008
            ],
            [
              -73.04744590799999,
              42.759282116000065
            ],
            [
              -73.04701870899999,
              42.759585800000025
            ],
            [
              -73.04503965899994,
              42.76011340400004
            ],
            [
              -73.04451681899997,
              42.76044028500007
            ],
            [
              -73.04513163099995,
              42.76067558300008
            ],
            [
              -73.04493485899997,
              42.76440338900005
            ],
            [
              -73.04903475099997,
              42.765152999000065
            ],
            [
              -73.04981054399997,
              42.765149259000054
            ],
            [
              -73.05018633099996,
              42.76507338000005
            ],
            [
              -73.05073490299998,
              42.76484892500008
            ],
            [
              -73.05219956899998,
              42.764986030000046
            ],
            [
              -73.05252852099994,
              42.76522569000008
            ],
            [
              -73.05295654999998,
              42.76544312200008
            ],
            [
              -73.05344365399998,
              42.76560558500006
            ],
            [
              -73.05389252999998,
              42.76614823800003
            ],
            [
              -73.05420074199998,
              42.76637257400006
            ],
            [
              -73.05063467499997,
              42.76805930200004
            ],
            [
              -73.04995438399999,
              42.768504062000034
            ],
            [
              -73.04799003799997,
              42.77046894600005
            ],
            [
              -73.04232722299997,
              42.77657439500007
            ],
            [
              -73.03785078599998,
              42.776473819000046
            ],
            [
              -73.03738665399999,
              42.776500068000075
            ],
            [
              -73.03665861099995,
              42.77669889100008
            ],
            [
              -73.03555925599994,
              42.777326678000065
            ],
            [
              -73.03560500299994,
              42.77997561900003
            ],
            [
              -73.03615184899996,
              42.780193524000026
            ],
            [
              -73.03691761599998,
              42.780289382000035
            ],
            [
              -73.03768052199996,
              42.78018667400005
            ],
            [
              -73.03803271199996,
              42.78006368500007
            ],
            [
              -73.03854697599996,
              42.77978206100005
            ],
            [
              -73.03939568899995,
              42.779799007000065
            ],
            [
              -73.03815720299997,
              42.78125324300004
            ],
            [
              -73.03793984999999,
              42.78160045900006
            ],
            [
              -73.03617700899997,
              42.785011524000026
            ],
            [
              -73.03338395599997,
              42.78763269900003
            ],
            [
              -73.03068453899994,
              42.789125435000074
            ],
            [
              -73.02752239299997,
              42.79214187700006
            ],
            [
              -73.02509708399998,
              42.79501152300003
            ],
            [
              -73.02195528699997,
              42.79788049800004
            ],
            [
              -73.02170691399994,
              42.79814511700005
            ],
            [
              -73.02015020999994,
              42.80028509600004
            ],
            [
              -73.01762627299996,
              42.802080527000044
            ],
            [
              -73.01612085899995,
              42.80358689700006
            ],
            [
              -73.01591084699999,
              42.80969149600003
            ],
            [
              -73.01540221599998,
              42.82323157800005
            ]
          ]
        ]
      },
      "properties": {
        "OBJECTID": 572,
        "Jurisdiction_District_Name": "Stamford Residential District",
        "County": "Bennington",
        "Jurisdiction": "Stamford ",
        "Abbreviated_District_Name": "Res",
        "District_Name": "Residential District",
        "District_Mapped": "Yes",
        "Overlay_District": "No",
        "District_Type": "Mixed with Residential",
        "Affordable_Housing_District": "No",
        "Elderly_Housing_District": "No",
        "F1F_Allowance": "Permitted",
        "F2F_Allowance": "Permitted",
        "F3F_Allowance": "Public Hearing",
        "F4F_Allowance": "Prohibited",
        "ADU_Allowance": "Allowed/Conditional",
        "Affordable_Housing_Allowance": "Not Mentioned",
        "PRD_Allowance": "Public Hearing",
        "Notes": " Mobile Homes Are Permitted As One-Family Dwellings, But Mobile Home Parks Are not Permitted In The Residential District. ",
        "F1F_Min_Lot": 2,
        "F1F_Front_Setback": 50,
        "F1F_Side_Setback": 25,
        "F1F_Rear_Setback": 25,
        "F1F_Frontage": 150,
        "F1F_Max_Lot_Building_Coverage": 30,
        "F1F_Max_Lot_Impervious_Coverage": null,
        "F1F_Min_Parking_Spaces": null,
        "F1F_Max_Stories": null,
        "F1F_Max_Height": 35,
        "F2F_Affordable_Housing_Only": "No",
        "F2F_Elderly_Housing_Only": "No",
        "F2F_Min_Lot_Size": 2,
        "F2F_Max_Density": null,
        "F2F_Front_Setback": 50,
        "F2F_Side_Setback": 25,
        "F2F_Rear_Setback": 25,
        "F2F_Frontage": 150,
        "F2F_Max_Lot_Building_Coverage": 30,
        "F2F_Max_Lot_Impervious_Coverage": null,
        "F2F_Min_Parking_Spaces_per_1BR": null,
        "F2F_Min_Parking_Spaces_per_mult_BR": null,
        "F2F_Max_Stories": null,
        "F2F_Max_Height": 35,
        "F3F_Affordable_Housing_Only": "No",
        "F3F_Elderly_Housing_Only": "No",
        "F3F_Min_Lot_Size": 2,
        "F3F_Max_Density": null,
        "F3F_Front_Setback": 50,
        "F3F_Side_Setback": 25,
        "F3F_Rear_Setback": 25,
        "F3F_Frontage": 150,
        "F3F_Max_Lot_Building_Coverage": 30,
        "F3F_Max_Lot_Impervious_Coverage": null,
        "F3F_Min_Parking_Spaces_per_1BR": null,
        "F3F_Min_Parking_Spaces_per_mult_BR": null,
        "F3F_Connection_to_Sewage/Water_Required": "No",
        "F3F_Proximity_to_Public_Transit_Required": "No",
        "F3F_Max_Stories": null,
        "F3F_Max_Height": 35,
        "F4F_Affordable_Housing_Only": "No",
        "F4F_Elderly_Housing_Only": "No",
        "F4F_Min_Lot_Size": null,
        "F4F_Max_Density": null,
        "F4F_Front_Setback": null,
        "F4F_Side_Setback": null,
        "F4F_Rear_Setback": null,
        "F4F_Frontage": null,
        "F4F_Max_Lot_Building_Coverage": null,
        "F4F_Max_Lot_Impervious_Coverage": null,
        "F4F_Min_Parking_Spaces_per_1BR": null,
        "F4F_Min_Parking_Spaces_per_mult_BR": null,
        "F4F_Connection_to_Sewage/Water_Required": "No",
        "F4F_Proximity_to_Public_Transit_Required": "No",
        "F4F_Max_Stories": null,
        "F4F_Max_Height": null,
        "Affordable_Housing_Elderly_Only": "No",
        "Affordable_Housing_Min_Lot_Size": null,
        "Affordable_Housing_Max_Density": null,
        "Affordable_Housing_Min_Parking_Spaces_per_1BR": null,
        "Affordable_Housing_Min_Parking_Spaces_per_mult_BR": null,
        "Affordable_Housing_Max_Units_per_Building": null,
        "ADU_Employee_or_Family_Occupancy_Required": "No",
        "ADU_Renter_Occupancy_Prohibited": "No",
        "ADU_Owner_Occupancy_Required": "Yes",
        "ADU_Elderly_Housing_Only": "No",
        "ADU_Min_Lot_Size": null,
        "ADU_Min_Parking_Spaces": null,
        "ADU_Restricted_to_Primary_Structure": "No",
        "ADU_Max_Size_as_Percent_of_Primary_Strcture": 30,
        "ADU_Max_Size_in_sq_ft": null,
        "ADU_Max_Bedrooms": 1,
        "PRD_Mobile_or_Manufactured_Home_Park": "No",
        "PRD_Min_Lot_Size": null,
        "PRD_Max_Density": null,
        "PRD_Max_Units": null,
        "PUD_Required_with_Subdivision": "F",
        "PUD_Threshold_Number": null,
        "PUD_Allowance": "Yes",
        "PUD_Requires_Land_Conservation": "F",
        "Base_Density": null,
        "Bylaw_Date": "2023-09-05",
        "RPC": "BCRC",
        "Zoning_Version": 1,
        "Shape_Length": 0.2986259521320755,
        "Shape_Area": 0.0012490406228471307
      }
    },
    {
      "type": "Feature",
      "id": 3,
      "geometry": {
        "type": "MultiPolygon",
        "coordinates": [
          [
            [
              [
                -73.02991697299996,
                42.797604007000075
              ],
              [
                -73.02685998299995,
                42.80037180200003
              ],
              [
                -73.02514390999994,
                42.80271593600003
              ],
              [
                -73.02484820499996,
                42.803031169000064
              ],
              [
                -73.02279068499996,
                42.80449846000005
              ],
              [
                -73.02380865699996,
                42.80665033400004
              ],
              [
                -73.02419904799996,
                42.809039161000044
              ],
              [
                -73.02416746299997,
                42.809325614000045
              ],
              [
                -73.02390607999996,
                42.80986369900006
              ],
              [
                -73.02341041699998,
                42.81030418300003
              ],
              [
                -73.02304972799993,
                42.810485064000034
              ],
              [
                -73.02331326299998,
                42.81128849000004
              ],
              [
                -73.02337744899995,
                42.81174100800007
              ],
              [
                -73.02329997199996,
                42.81206860200007
              ],
              [
                -73.02339307999995,
                42.81223534700007
              ],
              [
                -73.02337907299994,
                42.81238661800006
              ],
              [
                -73.02309674499998,
                42.81284458700003
              ],
              [
                -73.02305342999995,
                42.81373497000004
              ],
              [
                -73.02403818999994,
                42.81270388000007
              ],
              [
                -73.02752369199999,
                42.80762639200003
              ],
              [
                -73.02973008499998,
                42.80601081400005
              ],
              [
                -73.03065387199996,
                42.80502495800005
              ],
              [
                -73.03215071299996,
                42.80297158700006
              ],
              [
                -73.03352185799997,
                42.80155075500005
              ],
              [
                -73.03222067899998,
                42.79959101400004
              ],
              [
                -73.03188459699999,
                42.79888823200008
              ],
              [
                -73.02991697299996,
                42.797604007000075
              ]
            ]
          ],
          [
            [
              [
                -73.04852149899995,
                42.78097467500004
              ],
              [
                -73.04830762099994,
                42.78127610900003
              ],
              [
                -73.04610571999996,
                42.78277059000004
              ],
              [
                -73.04506501599997,
                42.78464315200006
              ],
              [
                -73.04304295599997,
                42.78401364300004
              ],
              [
                -73.04158192899996,
                42.78688381300003
              ],
              [
                -73.04109655299999,
                42.78750533600004
              ],
              [
                -73.03758902899995,
                42.790796897000064
              ],
              [
                -73.03489946199994,
                42.79228442900006
              ],
              [
                -73.03292996699997,
                42.794147569000074
              ],
              [
                -73.03342238799996,
                42.79504235600007
              ],
              [
                -73.03358454299996,
                42.795598218000066
              ],
              [
                -73.03549128699996,
                42.79686462600006
              ],
              [
                -73.03588559499997,
                42.79736137800006
              ],
              [
                -73.03646992099993,
                42.79849501500007
              ],
              [
                -73.03734338299995,
                42.79758997300007
              ],
              [
                -73.04597720899994,
                42.79048384500004
              ],
              [
                -73.04690050999994,
                42.78949785900005
              ],
              [
                -73.04751050399994,
                42.78854622500006
              ],
              [
                -73.04919208299998,
                42.78529092700006
              ],
              [
                -73.05171534599998,
                42.78252364300005
              ],
              [
                -73.04852149899995,
                42.78097467500004
              ]
            ]
          ],
          [
            [
              [
                -73.04493485899997,
                42.76440338900005
              ],
              [
                -73.04482769899994,
                42.766203817000076
              ],
              [
                -73.04327360499997,
                42.767325320000054
              ],
              [
                -73.04275115899998,
                42.767836242000044
              ],
              [
                -73.03379279199999,
                42.77756136700003
              ],
              [
                -73.03264869799995,
                42.77894454600005
              ],
              [
                -73.03203819199996,
                42.77989670300008
              ],
              [
                -73.03070714199998,
                42.78247250900006
              ],
              [
                -73.02287532599996,
                42.78891833500006
              ],
              [
                -73.01642923799994,
                42.795580951000034
              ],
              [
                -73.01612085899995,
                42.80358689700006
              ],
              [
                -73.01762627299996,
                42.802080527000044
              ],
              [
                -73.02015020999994,
                42.80028509600004
              ],
              [
                -73.02170691399994,
                42.79814511700005
              ],
              [
                -73.02195528699997,
                42.79788049800004
              ],
              [
                -73.02509708399998,
                42.79501152300003
              ],
              [
                -73.02752239299997,
                42.79214187700006
              ],
              [
                -73.03068453899994,
                42.789125435000074
              ],
              [
                -73.03338395599997,
                42.78763269900003
              ],
              [
                -73.03617700899997,
                42.785011524000026
              ],
              [
                -73.03793984999999,
                42.78160045900006
              ],
              [
                -73.03815720299997,
                42.78125324300004
              ],
              [
                -73.03939568899995,
                42.779799007000065
              ],
              [
                -73.03854697599996,
                42.77978206100005
              ],
              [
                -73.03803271199996,
                42.78006368500007
              ],
              [
                -73.03768052199996,
                42.78018667400005
              ],
              [
                -73.03691761599998,
                42.780289382000035
              ],
              [
                -73.03615184899996,
                42.780193524000026
              ],
              [
                -73.03560500299994,
                42.77997561900003
              ],
              [
                -73.03555925599994,
                42.777326678000065
              ],
              [
                -73.03665861099995,
                42.77669889100008
              ],
              [
                -73.03738665399999,
                42.776500068000075
              ],
              [
                -73.03785078599998,
                42.776473819000046
              ],
              [
                -73.04232722299997,
                42.77657439500007
              ],
              [
                -73.04799003799997,
                42.77046894600005
              ],
              [
                -73.04995438399999,
                42.768504062000034
              ],
              [
                -73.05063467499997,
                42.76805930200004
              ],
              [
                -73.05420074199998,
                42.76637257400006
              ],
              [
                -73.05389252999998,
                42.76614823800003
              ],
              [
                -73.05344365399998,
                42.76560558500006
              ],
              [
                -73.05295654999998,
                42.76544312200008
              ],
              [
                -73.05252852099994,
                42.76522569000008
              ],
              [
                -73.05219956899998,
                42.764986030000046
              ],
              [
                -73.05073490299998,
                42.76484892500008
              ],
              [
                -73.05018633099996,
                42.76507338000005
              ],
              [
                -73.04981054399997,
                42.765149259000054
              ],
              [
                -73.04903475099997,
                42.765152999000065
              ],
              [
                -73.04493485899997,
                42.76440338900005
              ]
            ]
          ],
          [
            [
              [
                -73.07465955699996,
                42.74218511600003
              ],
              [
                -73.07593430099996,
                42.74507260100006
              ],
              [
                -73.07597844599997,
                42.74559450500004
              ],
              [
                -73.07582216299994,
                42.747596129000044
              ],
              [
                -73.07577454799997,
                42.74797781800004
              ],
              [
                -73.07564323599996,
                42.74834813000007
              ],
              [
                -73.07461198999994,
                42.74997143000007
              ],
              [
                -73.07421693299995,
                42.75042772200004
              ],
              [
                -73.07370224599998,
                42.75078525400005
              ],
              [
                -73.07457875199998,
                42.75079464400005
              ],
              [
                -73.07537520899996,
                42.750898584000026
              ],
              [
                -73.07950627199995,
                42.75214139800005
              ],
              [
                -73.07894726299998,
                42.759585980000054
              ],
              [
                -73.07716676799998,
                42.76021131500005
              ],
              [
                -73.07698070399994,
                42.76003171700006
              ],
              [
                -73.07703203999995,
                42.759680779000064
              ],
              [
                -73.07696241499997,
                42.759500771000035
              ],
              [
                -73.07631964799998,
                42.759103253000035
              ],
              [
                -73.07615412499996,
                42.75887363500004
              ],
              [
                -73.07616062599999,
                42.758092085000044
              ],
              [
                -73.07598109499997,
                42.757792401000074
              ],
              [
                -73.07570679099996,
                42.75752325900004
              ],
              [
                -73.07536536299995,
                42.75738472000006
              ],
              [
                -73.07423722199997,
                42.75742046600004
              ],
              [
                -73.07283386599994,
                42.75708685400008
              ],
              [
                -73.07174609899994,
                42.757112333000066
              ],
              [
                -73.07073483499994,
                42.75698784800005
              ],
              [
                -73.06891666099995,
                42.76380154900005
              ],
              [
                -73.06869539199994,
                42.764154259000065
              ],
              [
                -73.06722871299996,
                42.76568122400005
              ],
              [
                -73.06686389799995,
                42.76595346300007
              ],
              [
                -73.06590331099994,
                42.76641978400005
              ],
              [
                -73.06454284999995,
                42.76796793900007
              ],
              [
                -73.06417265899995,
                42.76874447400007
              ],
              [
                -73.06424799599995,
                42.772542685000076
              ],
              [
                -73.06674588599998,
                42.77147722500007
              ],
              [
                -73.06782724899995,
                42.77272940600005
              ],
              [
                -73.06828930599994,
                42.77306543200007
              ],
              [
                -73.06882447799995,
                42.77333714700006
              ],
              [
                -73.06941397799994,
                42.773536431000025
              ],
              [
                -73.07004171099999,
                42.773657333000074
              ],
              [
                -73.07068969199997,
                42.77369579400005
              ],
              [
                -73.07208114599996,
                42.77360945000004
              ],
              [
                -73.07626146399997,
                42.77457190300004
              ],
              [
                -73.08103854599995,
                42.77698053600005
              ],
              [
                -73.08259374499994,
                42.77749025700007
              ],
              [
                -73.08343788999997,
                42.77767336800008
              ],
              [
                -73.08408592099994,
                42.77771177000005
              ],
              [
                -73.08718215699997,
                42.777625098000044
              ],
              [
                -73.08839208199998,
                42.777840249000064
              ],
              [
                -73.08904049899996,
                42.77787860300003
              ],
              [
                -73.08968583399997,
                42.77783357700008
              ],
              [
                -73.09031167999996,
                42.777706855000076
              ],
              [
                -73.09260943499999,
                42.77702382000007
              ],
              [
                -73.09533075399997,
                42.776791510000066
              ],
              [
                -73.09624778699998,
                42.78142347800008
              ],
              [
                -73.10173301299994,
                42.78271867800004
              ],
              [
                -73.10238072399994,
                42.78275692500006
              ],
              [
                -73.10418957799999,
                42.78265138000006
              ],
              [
                -73.10502997899994,
                42.78294619300004
              ],
              [
                -73.10830008399995,
                42.78350913600008
              ],
              [
                -73.11153977399994,
                42.774845740000046
              ],
              [
                -73.10757488399997,
                42.770197292000034
              ],
              [
                -73.10531286799994,
                42.771174607000034
              ],
              [
                -73.10320148099999,
                42.77091907700003
              ],
              [
                -73.10243327699999,
                42.770885460000045
              ],
              [
                -73.09831070799999,
                42.77101973900005
              ],
              [
                -73.09537936399994,
                42.771263058000045
              ],
              [
                -73.09528704399997,
                42.76397615500008
              ],
              [
                -73.09522597999995,
                42.76350013200005
              ],
              [
                -73.09505357999996,
                42.76303926400004
              ],
              [
                -73.09477531999994,
                42.76260718300006
              ],
              [
                -73.09383150099995,
                42.76152392900008
              ],
              [
                -73.09259990299995,
                42.75812229400003
              ],
              [
                -73.09422884099996,
                42.75408395000005
              ],
              [
                -73.09438234899994,
                42.75337033100004
              ],
              [
                -73.09441058299996,
                42.752530223000065
              ],
              [
                -73.09480362499994,
                42.752236597000035
              ],
              [
                -73.09517241599997,
                42.751842314000044
              ],
              [
                -73.09544271799996,
                42.75140820800004
              ],
              [
                -73.09565852799994,
                42.75062562100004
              ],
              [
                -73.10156860499995,
                42.75070347700006
              ],
              [
                -73.10149224099996,
                42.745214614000076
              ],
              [
                -73.09961127599996,
                42.74517081600004
              ],
              [
                -73.09972586399994,
                42.74268618600007
              ],
              [
                -73.07465955699996,
                42.74218511600003
              ]
            ]
          ]
        ]
      },
      "properties": {
        "OBJECTID": 573,
        "Jurisdiction_District_Name": "Stamford Rural District",
        "County": "Bennington",
        "Jurisdiction": "Stamford ",
        "Abbreviated_District_Name": "Rur",
        "District_Name": "Rural District",
        "District_Mapped": "Yes",
        "Overlay_District": "No",
        "District_Type": "Mixed with Residential",
        "Affordable_Housing_District": "No",
        "Elderly_Housing_District": "No",
        "F1F_Allowance": "Permitted",
        "F2F_Allowance": "Permitted",
        "F3F_Allowance": "Public Hearing",
        "F4F_Allowance": "Prohibited",
        "ADU_Allowance": "Allowed/Conditional",
        "Affordable_Housing_Allowance": "Not Mentioned",
        "PRD_Allowance": "Public Hearing",
        "Notes": "None",
        "F1F_Min_Lot": 2,
        "F1F_Front_Setback": 50,
        "F1F_Side_Setback": 25,
        "F1F_Rear_Setback": 25,
        "F1F_Frontage": null,
        "F1F_Max_Lot_Building_Coverage": 20,
        "F1F_Max_Lot_Impervious_Coverage": null,
        "F1F_Min_Parking_Spaces": null,
        "F1F_Max_Stories": null,
        "F1F_Max_Height": 35,
        "F2F_Affordable_Housing_Only": "No",
        "F2F_Elderly_Housing_Only": "No",
        "F2F_Min_Lot_Size": 2,
        "F2F_Max_Density": null,
        "F2F_Front_Setback": 50,
        "F2F_Side_Setback": 25,
        "F2F_Rear_Setback": 25,
        "F2F_Frontage": null,
        "F2F_Max_Lot_Building_Coverage": 20,
        "F2F_Max_Lot_Impervious_Coverage": null,
        "F2F_Min_Parking_Spaces_per_1BR": null,
        "F2F_Min_Parking_Spaces_per_mult_BR": null,
        "F2F_Max_Stories": null,
        "F2F_Max_Height": 35,
        "F3F_Affordable_Housing_Only": "No",
        "F3F_Elderly_Housing_Only": "No",
        "F3F_Min_Lot_Size": 2,
        "F3F_Max_Density": null,
        "F3F_Front_Setback": 50,
        "F3F_Side_Setback": 25,
        "F3F_Rear_Setback": 25,
        "F3F_Frontage": null,
        "F3F_Max_Lot_Building_Coverage": 20,
        "F3F_Max_Lot_Impervious_Coverage": null,
        "F3F_Min_Parking_Spaces_per_1BR": null,
        "F3F_Min_Parking_Spaces_per_mult_BR": null,
        "F3F_Connection_to_Sewage/Water_Required": "No",
        "F3F_Proximity_to_Public_Transit_Required": "No",
        "F3F_Max_Stories": null,
        "F3F_Max_Height": 35,
        "F4F_Affordable_Housing_Only": "No",
        "F4F_Elderly_Housing_Only": "No",
        "F4F_Min_Lot_Size": null,
        "F4F_Max_Density": null,
        "F4F_Front_Setback": null,
        "F4F_Side_Setback": null,
        "F4F_Rear_Setback": null,
        "F4F_Frontage": null,
        "F4F_Max_Lot_Building_Coverage": null,
        "F4F_Max_Lot_Impervious_Coverage": null,
        "F4F_Min_Parking_Spaces_per_1BR": null,
        "F4F_Min_Parking_Spaces_per_mult_BR": null,
        "F4F_Connection_to_Sewage/Water_Required": "No",
        "F4F_Proximity_to_Public_Transit_Required": "No",
        "F4F_Max_Stories": null,
        "F4F_Max_Height": null,
        "Affordable_Housing_Elderly_Only": "No",
        "Affordable_Housing_Min_Lot_Size": null,
        "Affordable_Housing_Max_Density": null,
        "Affordable_Housing_Min_Parking_Spaces_per_1BR": null,
        "Affordable_Housing_Min_Parking_Spaces_per_mult_BR": null,
        "Affordable_Housing_Max_Units_per_Building": null,
        "ADU_Employee_or_Family_Occupancy_Required": "No",
        "ADU_Renter_Occupancy_Prohibited": "No",
        "ADU_Owner_Occupancy_Required": "Yes",
        "ADU_Elderly_Housing_Only": "No",
        "ADU_Min_Lot_Size": null,
        "ADU_Min_Parking_Spaces": null,
        "ADU_Restricted_to_Primary_Structure": "No",
        "ADU_Max_Size_as_Percent_of_Primary_Strcture": 30,
        "ADU_Max_Size_in_sq_ft": null,
        "ADU_Max_Bedrooms": 1,
        "PRD_Mobile_or_Manufactured_Home_Park": "Yes",
        "PRD_Min_Lot_Size": null,
        "PRD_Max_Density": null,
        "PRD_Max_Units": null,
        "PUD_Required_with_Subdivision": "F",
        "PUD_Threshold_Number": null,
        "PUD_Allowance": "Yes",
        "PUD_Requires_Land_Conservation": "F",
        "Base_Density": null,
        "Bylaw_Date": "2023-09-05",
        "RPC": "BCRC",
        "Zoning_Version": 1,
        "Shape_Length": 0.4112877850796066,
        "Shape_Area": 0.001417985477652972
      }
    }
  ]
}