{
  "type": "FeatureCollection",
  "crs": {
    "type": "name",
    "properties": {
      "name": "urn:ogc:def:crs:OGC:1.3:CRS84"
    }
  },
  "features": [
    {
      "type": "Feature",
      "properties": {
        "Abbreviated_Jurisdiction_District_Name": "FASF",
        "County": "Essex",
        "Jurisdiction_District_Name": "Warners Grant"
      },
      "geometry": {
        "type": "Polygon",
        "coordinates": [
          [
            [
              -71.90181778571298,
              44.89689800786296
            ],
            [
              -71.90040983062477,
              44.90361975055936
            ],
            [
              -71.89884701042807,
              44.91104903843941
            ],
            [
              -71.89714741339145,
              44.91917695730872
            ],
            [
              -71.89514785250711,
              44.92868258027274
            ],
            [
              -71.89314100153241,
              44.93828683087744
            ],
            [
              -71.89166208580671,
              44.9450161390043
            ],
            [
              -71.90155131072248,
              44.94484342072807
            ],
            [
              -71.9119344847594,
              44.944612279047746
            ],
            [
              -71.9125696280878,
              44.9415863027846
            ],
            [
              -71.91415823102285,
              44.933015327957364
            ],
            [
              -71.9145460690399,
              44.9309276259445
            ],
            [
              -71.9163421025593,
              44.92142539624597
            ],
            [
              -71.91822176532976,
              44.91174519086801
            ],
            [
              -71.91961334567074,
              44.904653214179355
            ],
            [
              -71.92014649911405,
              44.901534959428105
            ],
            [
              -71.91667320921493,
              44.89964020983355
            ],
            [
              -71.90722861220803,
              44.89458653004257
            ],
            [
              -71.90276908279735,
              44.89221532475199
            ],
            [
              -71.90181778571298,
              44.89689800786296
            ]
          ]
        ]
      }
    }
  ]
}