{
  "type": "FeatureCollection",
  "crs": {
    "type": "name",
    "properties": {
      "name": "urn:ogc:def:crs:OGC:1.3:CRS84"
    }
  },
  "features": [
    {
      "type": "Feature",
      "properties": {
        "Abbreviated_Jurisdiction_District_Name": "VIL",
        "County": "Orange",
        "Jurisdiction_District_Name": "Washington"
      },
      "geometry": {
        "type": "Polygon",
        "coordinates": [
          [
            [
              -72.42871506897453,
              44.11659129181992
            ],
            [
              -72.42910064058981,
              44.11676264332208
            ],
            [
              -72.4291659596967,
              44.11679167478665
            ],
            [
              -72.42939779315846,
              44.11699628313471
            ],
            [
              -72.42950585389642,
              44.11716462462019
            ],
            [
              -72.42960747204789,
              44.11732293147849
            ],
            [
              -72.42965181045501,
              44.117549624033146
            ],
            [
              -72.4296961318176,
              44.11777622565067
            ],
            [
              -72.42965193789654,
              44.118020315662726
            ],
            [
              -72.43798433877318,
              44.123304101548705
            ],
            [
              -72.43888508582978,
              44.122809394995635
            ],
            [
              -72.43988645067392,
              44.122259403847735
            ],
            [
              -72.439929471822,
              44.12219348859642
            ],
            [
              -72.43982618655548,
              44.121790963330774
            ],
            [
              -72.43940719959906,
              44.121061463315336
            ],
            [
              -72.43929268273052,
              44.12092646762706
            ],
            [
              -72.43825039351498,
              44.119697787771045
            ],
            [
              -72.43759976133809,
              44.118733052699206
            ],
            [
              -72.43739207909823,
              44.11855972424438
            ],
            [
              -72.43702362841677,
              44.11825221434728
            ],
            [
              -72.43613521839232,
              44.117907219301415
            ],
            [
              -72.43535256181276,
              44.11763918440008
            ],
            [
              -72.43535252809535,
              44.117639171780965
            ],
            [
              -72.43471799586771,
              44.117381883090225
            ],
            [
              -72.43516762975648,
              44.11331107142084
            ],
            [
              -72.43580654726182,
              44.10752560356668
            ],
            [
              -72.43506679817719,
              44.10718641873535
            ],
            [
              -72.43457460357011,
              44.10682291974915
            ],
            [
              -72.4348250698334,
              44.10640174566463
            ],
            [
              -72.43545123590052,
              44.10580418191768
            ],
            [
              -72.43589252677822,
              44.10538884790558
            ],
            [
              -72.43646794632717,
              44.1049691506875
            ],
            [
              -72.4373183266293,
              44.104657561106556
            ],
            [
              -72.43731836036352,
              44.104657551225
            ],
            [
              -72.43801915119232,
              44.104497902463656
            ],
            [
              -72.4383816482828,
              44.10420939440881
            ],
            [
              -72.43884989892965,
              44.10394694123087
            ],
            [
              -72.43911261304238,
              44.10390287050534
            ],
            [
              -72.43952917391206,
              44.10383298571049
            ],
            [
              -72.44032255488005,
              44.103582083179546
            ],
            [
              -72.44122845042502,
              44.103408048637796
            ],
            [
              -72.4419079369673,
              44.10326860527977
            ],
            [
              -72.440936146417,
              44.10175822664848
            ],
            [
              -72.44131940594818,
              44.101535973884694
            ],
            [
              -72.4413194421859,
              44.10153595590316
            ],
            [
              -72.44219155503104,
              44.101127745053816
            ],
            [
              -72.4432208020916,
              44.10049627252099
            ],
            [
              -72.44459117551699,
              44.09955602365617
            ],
            [
              -72.44470006769022,
              44.099364445935336
            ],
            [
              -72.44551429985812,
              44.09793182262783
            ],
            [
              -72.44481084685704,
              44.09746559603171
            ],
            [
              -72.44411989921686,
              44.097238730950316
            ],
            [
              -72.44315139397872,
              44.09729028982379
            ],
            [
              -72.44226005522764,
              44.09741866096847
            ],
            [
              -72.44119286241973,
              44.0974290949711
            ],
            [
              -72.43983718882494,
              44.097275533660145
            ],
            [
              -72.4387726907813,
              44.096909506524796
            ],
            [
              -72.43775190408203,
              44.09634521613596
            ],
            [
              -72.43689541447317,
              44.09606512014386
            ],
            [
              -72.43642646149318,
              44.09591176612439
            ],
            [
              -72.43540364630469,
              44.09566286854035
            ],
            [
              -72.4345633019333,
              44.0955826712421
            ],
            [
              -72.43444761058029,
              44.09580562060551
            ],
            [
              -72.43420503291804,
              44.09627304069743
            ],
            [
              -72.43387582065475,
              44.09685674604062
            ],
            [
              -72.43341682815075,
              44.097785878770296
            ],
            [
              -72.43300922825576,
              44.09844543519074
            ],
            [
              -72.4328118870308,
              44.09936557606664
            ],
            [
              -72.43289152851892,
              44.10006298817125
            ],
            [
              -72.43323238668692,
              44.10083801669896
            ],
            [
              -72.43311758392959,
              44.100815336873666
            ],
            [
              -72.43273134086819,
              44.100739015416444
            ],
            [
              -72.4320483746601,
              44.10037465735517
            ],
            [
              -72.43172966164431,
              44.10011748918573
            ],
            [
              -72.43152834747023,
              44.099955034401425
            ],
            [
              -72.43112107361529,
              44.09959705018357
            ],
            [
              -72.41592081204632,
              44.10135338097034
            ],
            [
              -72.41479216140023,
              44.10860903811883
            ],
            [
              -72.41529248416288,
              44.10882007003778
            ],
            [
              -72.41626680981923,
              44.108946765670574
            ],
            [
              -72.41708627250084,
              44.109011631810596
            ],
            [
              -72.41766642170363,
              44.10894313429978
            ],
            [
              -72.41836051773674,
              44.108753095720715
            ],
            [
              -72.41918190397979,
              44.10854821192976
            ],
            [
              -72.41974193853417,
              44.108347358165865
            ],
            [
              -72.42011812266743,
              44.10812516821503
            ],
            [
              -72.42038787762522,
              44.10796870054874
            ],
            [
              -72.42804638497829,
              44.11716824723463
            ],
            [
              -72.42804641243212,
              44.117168272452055
            ],
            [
              -72.42858804926487,
              44.116539747531455
            ],
            [
              -72.42871506897453,
              44.11659129181992
            ]
          ]
        ]
      }
    },
    {
      "type": "Feature",
      "properties": {
        "Abbreviated_Jurisdiction_District_Name": "RR",
        "County": "Orange",
        "Jurisdiction_District_Name": "Washington"
      },
      "geometry": {
        "type": "Polygon",
        "coordinates": [
          [
            [
              -72.43259169095231,
              44.12511610493149
            ],
            [
              -72.43840587643686,
              44.12708940517495
            ],
            [
              -72.44337724805287,
              44.12881080171439
            ],
            [
              -72.44456152089077,
              44.12925337382602
            ],
            [
              -72.45365207038688,
              44.13264845314018
            ],
            [
              -72.45553959075023,
              44.13335300397379
            ],
            [
              -72.4581304820293,
              44.12907087234452
            ],
            [
              -72.46081513659504,
              44.124328898265645
            ],
            [
              -72.46316270528266,
              44.12032385237283
            ],
            [
              -72.46547753270406,
              44.116220555010344
            ],
            [
              -72.46815078626331,
              44.11145580423772
            ],
            [
              -72.4717587749114,
              44.105148699919106
            ],
            [
              -72.47580818064557,
              44.09805307413049
            ],
            [
              -72.4792862717722,
              44.09180500110853
            ],
            [
              -72.4817436887164,
              44.08738655608032
            ],
            [
              -72.4835273822035,
              44.084326793700654
            ],
            [
              -72.48946872299909,
              44.073780180945086
            ],
            [
              -72.49392749644997,
              44.065845368986125
            ],
            [
              -72.49758066098468,
              44.05919440576874
            ],
            [
              -72.50040289313795,
              44.05408766099307
            ],
            [
              -72.50242519408432,
              44.050367064373155
            ],
            [
              -72.49627211400248,
              44.04832498374043
            ],
            [
              -72.49038723192001,
              44.04630158602031
            ],
            [
              -72.48693731812311,
              44.04512312203825
            ],
            [
              -72.48352659504116,
              44.0439472611506
            ],
            [
              -72.47893542706642,
              44.04236166834155
            ],
            [
              -72.47461732498903,
              44.04088836277484
            ],
            [
              -72.4697023259419,
              44.03913501257145
            ],
            [
              -72.4641054584413,
              44.03711285400386
            ],
            [
              -72.45927062945766,
              44.03542820041678
            ],
            [
              -72.4546496180027,
              44.03378941682343
            ],
            [
              -72.45220899948667,
              44.03292890595766
            ],
            [
              -72.44958998202938,
              44.03201156222876
            ],
            [
              -72.44667796926417,
              44.03100231011418
            ],
            [
              -72.44300498120018,
              44.02973151122997
            ],
            [
              -72.43908202316273,
              44.02835614794249
            ],
            [
              -72.4356181042477,
              44.02715101366709
            ],
            [
              -72.43131232231102,
              44.02564367478076
            ],
            [
              -72.42688121473431,
              44.02408506202197
            ],
            [
              -72.42311857061755,
              44.022776575050784
            ],
            [
              -72.41822488182645,
              44.021051440004534
            ],
            [
              -72.41299413302167,
              44.01921801629812
            ],
            [
              -72.40862103646185,
              44.017704367970055
            ],
            [
              -72.40477081960323,
              44.01636649375423
            ],
            [
              -72.4015113928193,
              44.01519829504106
            ],
            [
              -72.39738822982278,
              44.01372952196871
            ],
            [
              -72.39328780731886,
              44.01228042324966
            ],
            [
              -72.38999242944344,
              44.01117207208204
            ],
            [
              -72.38578497686476,
              44.009666618154384
            ],
            [
              -72.38189919207863,
              44.008172322099064
            ],
            [
              -72.38188747903342,
              44.00816789898541
            ],
            [
              -72.38183334563455,
              44.00830032712153
            ],
            [
              -72.38079597814333,
              44.01084522971504
            ],
            [
              -72.38019577233278,
              44.01226843559942
            ],
            [
              -72.37939979874758,
              44.0142781560175
            ],
            [
              -72.3785035713605,
              44.01649656657263
            ],
            [
              -72.37751200816024,
              44.01894806407637
            ],
            [
              -72.37648669312745,
              44.021516517091875
            ],
            [
              -72.37566163024965,
              44.0235388661089
            ],
            [
              -72.37457062320526,
              44.02630622162696
            ],
            [
              -72.37362820168839,
              44.028607432015214
            ],
            [
              -72.37261351052499,
              44.03118467691669
            ],
            [
              -72.37147455314755,
              44.03395725666818
            ],
            [
              -72.37077702673518,
              44.0358060059974
            ],
            [
              -72.36973551712428,
              44.038552575823736
            ],
            [
              -72.36856828210865,
              44.041687798300956
            ],
            [
              -72.36723192686783,
              44.04523582714218
            ],
            [
              -72.36609090235486,
              44.04825125810922
            ],
            [
              -72.3641208372909,
              44.053533010381535
            ],
            [
              -72.36255842987079,
              44.057404713124164
            ],
            [
              -72.36107833151593,
              44.06111079859436
            ],
            [
              -72.35937742967998,
              44.06542347132126
            ],
            [
              -72.35743572118915,
              44.07031344201115
            ],
            [
              -72.35592750918075,
              44.07417629008926
            ],
            [
              -72.35473052672344,
              44.077556025982716
            ],
            [
              -72.35357040940221,
              44.08081609320584
            ],
            [
              -72.35235357893698,
              44.08423636523134
            ],
            [
              -72.35111878700364,
              44.08759278817505
            ],
            [
              -72.35015436524249,
              44.0902930843425
            ],
            [
              -72.3490440843942,
              44.093401062222306
            ],
            [
              -72.3487807736335,
              44.09626912875786
            ],
            [
              -72.35045523716536,
              44.096813228292525
            ],
            [
              -72.35294335100515,
              44.09766876512176
            ],
            [
              -72.35468289986042,
              44.098288216050946
            ],
            [
              -72.35842643320026,
              44.09960872599323
            ],
            [
              -72.36284412340488,
              44.101120816669635
            ],
            [
              -72.3669261584667,
              44.10253397494307
            ],
            [
              -72.3710424723701,
              44.10395341577734
            ],
            [
              -72.37613986992505,
              44.10572576915516
            ],
            [
              -72.38171800326795,
              44.10767011263526
            ],
            [
              -72.38659013551639,
              44.10934366368789
            ],
            [
              -72.39073459523073,
              44.11077871233948
            ],
            [
              -72.39559473959253,
              44.11245546706963
            ],
            [
              -72.39920166715576,
              44.11370053337654
            ],
            [
              -72.40460266798277,
              44.11556359096719
            ],
            [
              -72.40754658031379,
              44.116583105578776
            ],
            [
              -72.41213073102007,
              44.11815624104349
            ],
            [
              -72.41846180828885,
              44.1202946648179
            ],
            [
              -72.42267651766218,
              44.121732202210076
            ],
            [
              -72.42717629999254,
              44.12327056533006
            ],
            [
              -72.43259169095231,
              44.12511610493149
            ]
          ],
          [
            [
              -72.44481084685704,
              44.09746559603171
            ],
            [
              -72.44551429985812,
              44.09793182262783
            ],
            [
              -72.44470006769022,
              44.099364445935336
            ],
            [
              -72.44459117551699,
              44.09955602365617
            ],
            [
              -72.4432208020916,
              44.10049627252099
            ],
            [
              -72.44219155503104,
              44.101127745053816
            ],
            [
              -72.4413194421859,
              44.10153595590316
            ],
            [
              -72.44131940594818,
              44.101535973884694
            ],
            [
              -72.440936146417,
              44.10175822664848
            ],
            [
              -72.4419079369673,
              44.10326860527977
            ],
            [
              -72.44122845042502,
              44.103408048637796
            ],
            [
              -72.44032255488005,
              44.103582083179546
            ],
            [
              -72.43952917391206,
              44.10383298571049
            ],
            [
              -72.43911261304238,
              44.10390287050534
            ],
            [
              -72.43884989892965,
              44.10394694123087
            ],
            [
              -72.4383816482828,
              44.10420939440881
            ],
            [
              -72.43801915119232,
              44.104497902463656
            ],
            [
              -72.43731836036352,
              44.104657551225
            ],
            [
              -72.4373183266293,
              44.104657561106556
            ],
            [
              -72.43646794632717,
              44.1049691506875
            ],
            [
              -72.43589252677822,
              44.10538884790558
            ],
            [
              -72.43545123590052,
              44.10580418191768
            ],
            [
              -72.4348250698334,
              44.10640174566463
            ],
            [
              -72.43457460357011,
              44.10682291974915
            ],
            [
              -72.43506679817719,
              44.10718641873535
            ],
            [
              -72.43580654726182,
              44.10752560356668
            ],
            [
              -72.43516762975648,
              44.11331107142084
            ],
            [
              -72.43471799586771,
              44.117381883090225
            ],
            [
              -72.43535252809535,
              44.117639171780965
            ],
            [
              -72.43535256181276,
              44.11763918440008
            ],
            [
              -72.43613521839232,
              44.117907219301415
            ],
            [
              -72.43702362841677,
              44.11825221434728
            ],
            [
              -72.43739207909823,
              44.11855972424438
            ],
            [
              -72.43759976133809,
              44.118733052699206
            ],
            [
              -72.43825039351498,
              44.119697787771045
            ],
            [
              -72.43929268273052,
              44.12092646762706
            ],
            [
              -72.43940719959906,
              44.121061463315336
            ],
            [
              -72.43982618655548,
              44.121790963330774
            ],
            [
              -72.439929471822,
              44.12219348859642
            ],
            [
              -72.43988645067392,
              44.122259403847735
            ],
            [
              -72.43888508582978,
              44.122809394995635
            ],
            [
              -72.43798433877318,
              44.123304101548705
            ],
            [
              -72.42965193789654,
              44.118020315662726
            ],
            [
              -72.4296961318176,
              44.11777622565067
            ],
            [
              -72.42965181045501,
              44.117549624033146
            ],
            [
              -72.42960747204789,
              44.11732293147849
            ],
            [
              -72.42950585389642,
              44.11716462462019
            ],
            [
              -72.42939779315846,
              44.11699628313471
            ],
            [
              -72.4291659596967,
              44.11679167478665
            ],
            [
              -72.42910064058981,
              44.11676264332208
            ],
            [
              -72.42871506897453,
              44.11659129181992
            ],
            [
              -72.42858804926487,
              44.116539747531455
            ],
            [
              -72.42804641243212,
              44.117168272452055
            ],
            [
              -72.42804638497829,
              44.11716824723463
            ],
            [
              -72.42038787762522,
              44.10796870054874
            ],
            [
              -72.42011812266743,
              44.10812516821503
            ],
            [
              -72.41974193853417,
              44.108347358165865
            ],
            [
              -72.41918190397979,
              44.10854821192976
            ],
            [
              -72.41836051773674,
              44.108753095720715
            ],
            [
              -72.41766642170363,
              44.10894313429978
            ],
            [
              -72.41708627250084,
              44.109011631810596
            ],
            [
              -72.41626680981923,
              44.108946765670574
            ],
            [
              -72.41529248416288,
              44.10882007003778
            ],
            [
              -72.41479216140023,
              44.10860903811883
            ],
            [
              -72.41592081204632,
              44.10135338097034
            ],
            [
              -72.43112107361529,
              44.09959705018357
            ],
            [
              -72.43152834747023,
              44.099955034401425
            ],
            [
              -72.43172966164431,
              44.10011748918573
            ],
            [
              -72.4320483746601,
              44.10037465735517
            ],
            [
              -72.43273134086819,
              44.100739015416444
            ],
            [
              -72.43311758392959,
              44.100815336873666
            ],
            [
              -72.43323238668692,
              44.10083801669896
            ],
            [
              -72.43289152851892,
              44.10006298817125
            ],
            [
              -72.4328118870308,
              44.09936557606664
            ],
            [
              -72.43300922825576,
              44.09844543519074
            ],
            [
              -72.43341682815075,
              44.097785878770296
            ],
            [
              -72.43387582065475,
              44.09685674604062
            ],
            [
              -72.43420503291804,
              44.09627304069743
            ],
            [
              -72.43444761058029,
              44.09580562060551
            ],
            [
              -72.4345633019333,
              44.0955826712421
            ],
            [
              -72.43540364630469,
              44.09566286854035
            ],
            [
              -72.43642646149318,
              44.09591176612439
            ],
            [
              -72.43689541447317,
              44.09606512014386
            ],
            [
              -72.43775190408203,
              44.09634521613596
            ],
            [
              -72.4387726907813,
              44.096909506524796
            ],
            [
              -72.43983718882494,
              44.097275533660145
            ],
            [
              -72.44119286241973,
              44.0974290949711
            ],
            [
              -72.44226005522764,
              44.09741866096847
            ],
            [
              -72.44315139397872,
              44.09729028982379
            ],
            [
              -72.44411989921686,
              44.097238730950316
            ],
            [
              -72.44481084685704,
              44.09746559603171
            ]
          ]
        ]
      }
    }
  ]
}