{
  "type": "FeatureCollection",
  "crs": {
    "type": "name",
    "properties": {
      "name": "urn:ogc:def:crs:OGC:1.3:CRS84"
    }
  },
  "features": [
    {
      "type": "Feature",
      "properties": {
        "Abbreviated_Jurisdiction_District_Name": "ARO",
        "County": "Washington",
        "Jurisdiction_District_Name": "Waitsfield"
      },
      "geometry": {
        "type": "MultiPolygon",
        "coordinates": [
          [
            [
              [
                -72.83133651462578,
                44.15806480245145
              ],
              [
                -72.83132873239806,
                44.15822095751681
              ],
              [
                -72.83132718584513,
                44.15825199122113
              ],
              [
                -72.83132652952594,
                44.15826517449014
              ],
              [
                -72.83132211346611,
                44.15830931958189
              ],
              [
                -72.83133648690769,
                44.158293745736366
              ],
              [
                -72.83128783715759,
                44.15887290567749
              ],
              [
                -72.83167983481798,
                44.158312123660856
              ],
              [
                -72.83175749779213,
                44.1582165083055
              ],
              [
                -72.83511514430575,
                44.15942639321638
              ],
              [
                -72.8351634687362,
                44.1594358634255
              ],
              [
                -72.83516600714374,
                44.1594257994068
              ],
              [
                -72.83516586362698,
                44.15940044779957
              ],
              [
                -72.83516585429831,
                44.1593987999316
              ],
              [
                -72.83516452469932,
                44.15938521297077
              ],
              [
                -72.83516295222417,
                44.1593691364295
              ],
              [
                -72.83515795366324,
                44.15931430794859
              ],
              [
                -72.83514749999294,
                44.15926202626337
              ],
              [
                -72.83513729947927,
                44.15918555640156
              ],
              [
                -72.83513710605126,
                44.15915138496422
              ],
              [
                -72.83512789750941,
                44.15911189668751
              ],
              [
                -72.83512139679834,
                44.15906775917945
              ],
              [
                -72.83505995395498,
                44.158358770120074
              ],
              [
                -72.83503882333969,
                44.158145503851834
              ],
              [
                -72.83503909315297,
                44.157986175573676
              ],
              [
                -72.8350492979081,
                44.15778730285506
              ],
              [
                -72.8350685384012,
                44.15766659003083
              ],
              [
                -72.83512962869341,
                44.157416239365
              ],
              [
                -72.83519009242657,
                44.15726221905856
              ],
              [
                -72.8352839618755,
                44.157074631561514
              ],
              [
                -72.83537060875679,
                44.15692236219969
              ],
              [
                -72.83548432001027,
                44.1567203721116
              ],
              [
                -72.83562652618774,
                44.15644545506219
              ],
              [
                -72.83571688328678,
                44.156258862099506
              ],
              [
                -72.83580331334265,
                44.15606876431041
              ],
              [
                -72.835837484754,
                44.155963336197914
              ],
              [
                -72.83586813955027,
                44.15585791841204
              ],
              [
                -72.83587462207383,
                44.15583005521496
              ],
              [
                -72.83588568598007,
                44.155783194889466
              ],
              [
                -72.83594797905461,
                44.155608074605766
              ],
              [
                -72.83602137254357,
                44.1553928438192
              ],
              [
                -72.83615488817426,
                44.155170686100405
              ],
              [
                -72.8362655177629,
                44.15497742342362
              ],
              [
                -72.83640528204724,
                44.154824152664304
              ],
              [
                -72.83657664161431,
                44.15466277326602
              ],
              [
                -72.83670674924409,
                44.15452893724094
              ],
              [
                -72.83684658972132,
                44.154389446478625
              ],
              [
                -72.83702132717431,
                44.15420415068772
              ],
              [
                -72.83712593567252,
                44.15405196733046
              ],
              [
                -72.83721957931279,
                44.15389517584847
              ],
              [
                -72.83729731579164,
                44.153689071742505
              ],
              [
                -72.83739602351294,
                44.1534613893821
              ],
              [
                -72.83750333552972,
                44.15309854224398
              ],
              [
                -72.83757545764604,
                44.152867282449115
              ],
              [
                -72.83763061353201,
                44.152675026477844
              ],
              [
                -72.8377176836232,
                44.15246214446865
              ],
              [
                -72.83779464889358,
                44.15225843264924
              ],
              [
                -72.83791233597708,
                44.152003272508956
              ],
              [
                -72.8383372386915,
                44.1510956883517
              ],
              [
                -72.8385551708403,
                44.15067907408669
              ],
              [
                -72.83873358373816,
                44.15031967068731
              ],
              [
                -72.8388784425959,
                44.1500358818329
              ],
              [
                -72.83908859431384,
                44.1496261808454
              ],
              [
                -72.83923478494768,
                44.14937079422174
              ],
              [
                -72.83938268260428,
                44.14914085520227
              ],
              [
                -72.83950501513814,
                44.14894867942082
              ],
              [
                -72.83960693328683,
                44.14880676703963
              ],
              [
                -72.839737630218,
                44.14864311320606
              ],
              [
                -72.83988881921536,
                44.14844283578762
              ],
              [
                -72.84005444797134,
                44.148240405584026
              ],
              [
                -72.84020387751916,
                44.14807430414277
              ],
              [
                -72.84032341572572,
                44.14794049532262
              ],
              [
                -72.84045246922173,
                44.14776320425383
              ],
              [
                -72.84055919663338,
                44.14757543339811
              ],
              [
                -72.84062799529997,
                44.147380885136144
              ],
              [
                -72.840724571943,
                44.14699036281835
              ],
              [
                -72.84077402733045,
                44.1466229471448
              ],
              [
                -72.84043973152964,
                44.14652741347419
              ],
              [
                -72.83651886450194,
                44.14540681989455
              ],
              [
                -72.83176932597566,
                44.144049152337374
              ],
              [
                -72.8301693185223,
                44.14359172765915
              ],
              [
                -72.83006737296249,
                44.14375451093082
              ],
              [
                -72.82993149778326,
                44.144043324585404
              ],
              [
                -72.82766099609397,
                44.149187731229084
              ],
              [
                -72.82770910489428,
                44.14919926532656
              ],
              [
                -72.82802060017431,
                44.149301449167304
              ],
              [
                -72.82829380350694,
                44.14940135180264
              ],
              [
                -72.82861429800718,
                44.14950575905735
              ],
              [
                -72.82895100566557,
                44.14964569568905
              ],
              [
                -72.82937695518595,
                44.14981785862827
              ],
              [
                -72.82978957463246,
                44.149980777665526
              ],
              [
                -72.83008205755988,
                44.15010466742635
              ],
              [
                -72.83062817710898,
                44.15039024367689
              ],
              [
                -72.83086779566906,
                44.150559846839975
              ],
              [
                -72.83105849097315,
                44.150712294199636
              ],
              [
                -72.8312504159085,
                44.150875003057834
              ],
              [
                -72.83140438780832,
                44.1510262909073
              ],
              [
                -72.8316154880807,
                44.15119470980824
              ],
              [
                -72.83179652483435,
                44.151365464728116
              ],
              [
                -72.83216637408397,
                44.151700061593466
              ],
              [
                -72.83234107827279,
                44.15185578786925
              ],
              [
                -72.83245351249062,
                44.15198286634311
              ],
              [
                -72.83258213176379,
                44.152139851340706
              ],
              [
                -72.83277565263782,
                44.15223730305059
              ],
              [
                -72.83303914989486,
                44.15234411294347
              ],
              [
                -72.83315144493795,
                44.152446019965225
              ],
              [
                -72.83322873160012,
                44.15257432605121
              ],
              [
                -72.83329030232004,
                44.152686504959
              ],
              [
                -72.83337557006986,
                44.15284460010619
              ],
              [
                -72.83340598111515,
                44.15290343336004
              ],
              [
                -72.83140379963149,
                44.15671470421027
              ],
              [
                -72.83133651462578,
                44.15806480245145
              ]
            ]
          ],
          [
            [
              [
                -72.82945716353902,
                44.16291092803464
              ],
              [
                -72.82983931942961,
                44.163049588533944
              ],
              [
                -72.82945889753078,
                44.16290843634255
              ],
              [
                -72.82945716353902,
                44.16291092803464
              ]
            ]
          ],
          [
            [
              [
                -72.84341726990321,
                44.18126092322247
              ],
              [
                -72.84350796049199,
                44.181163370210626
              ],
              [
                -72.84363458229204,
                44.18102716680579
              ],
              [
                -72.84410762100188,
                44.18051832357308
              ],
              [
                -72.84521532338839,
                44.179326739113755
              ],
              [
                -72.84711860483797,
                44.17727919316479
              ],
              [
                -72.84478895827922,
                44.17687522586647
              ],
              [
                -72.84476766221862,
                44.17684210283437
              ],
              [
                -72.84426016450905,
                44.17626299629213
              ],
              [
                -72.84408301039525,
                44.17603993799711
              ],
              [
                -72.84399337205433,
                44.175880317565216
              ],
              [
                -72.84392312757784,
                44.1757626864342
              ],
              [
                -72.84388066878212,
                44.175651720683554
              ],
              [
                -72.84382615860991,
                44.1754845424055
              ],
              [
                -72.8437710821247,
                44.17528699007191
              ],
              [
                -72.8437358382132,
                44.17513986324985
              ],
              [
                -72.84369756397648,
                44.174941838214075
              ],
              [
                -72.84365995597241,
                44.174724124663456
              ],
              [
                -72.84366869043203,
                44.17454578687275
              ],
              [
                -72.84372154492472,
                44.17436098847304
              ],
              [
                -72.84374974383996,
                44.1741700767677
              ],
              [
                -72.84380057337827,
                44.17404040821399
              ],
              [
                -72.84389402385092,
                44.17384803468018
              ],
              [
                -72.84407152653503,
                44.17366173581151
              ],
              [
                -72.84423211156287,
                44.17345608104216
              ],
              [
                -72.84436415026488,
                44.173314355955
              ],
              [
                -72.84445195285558,
                44.173226341715754
              ],
              [
                -72.84428120398539,
                44.17316245005887
              ],
              [
                -72.84134011312294,
                44.17164873629727
              ],
              [
                -72.83361441020834,
                44.16978958398061
              ],
              [
                -72.83360122794657,
                44.16980790319058
              ],
              [
                -72.8334430840879,
                44.16989681737263
              ],
              [
                -72.83338692924892,
                44.16998641834389
              ],
              [
                -72.83334161262921,
                44.17005756654856
              ],
              [
                -72.8332693013011,
                44.17012302721473
              ],
              [
                -72.83322699988996,
                44.17017475906752
              ],
              [
                -72.833178685992,
                44.17026883703963
              ],
              [
                -72.8331225422764,
                44.170360547432814
              ],
              [
                -72.83305183923159,
                44.1704341599295
              ],
              [
                -72.83301597025986,
                44.17051779489642
              ],
              [
                -72.83297908259574,
                44.170628854788816
              ],
              [
                -72.83296831266068,
                44.170798197866475
              ],
              [
                -72.8329945587603,
                44.17087926227498
              ],
              [
                -72.83304678685626,
                44.1709944219684
              ],
              [
                -72.8331129405793,
                44.1710843690536
              ],
              [
                -72.83314223545432,
                44.171151642901414
              ],
              [
                -72.83321986800156,
                44.17126771211974
              ],
              [
                -72.83332297816276,
                44.17139748948155
              ],
              [
                -72.83341609550722,
                44.17148735770938
              ],
              [
                -72.83352708500453,
                44.17162836092963
              ],
              [
                -72.83365953111375,
                44.17183230105836
              ],
              [
                -72.8336816984986,
                44.17195218951178
              ],
              [
                -72.8336571291839,
                44.172030166680855
              ],
              [
                -72.83359119716764,
                44.17211853088099
              ],
              [
                -72.83352514924368,
                44.17218636378404
              ],
              [
                -72.83346074741355,
                44.17226895806843
              ],
              [
                -72.83339819129584,
                44.1723322807269
              ],
              [
                -72.83330689723802,
                44.17242760913635
              ],
              [
                -72.83323313001003,
                44.17251262100066
              ],
              [
                -72.8331894582562,
                44.1725986691394
              ],
              [
                -72.8331632212697,
                44.17265822995219
              ],
              [
                -72.83312720897452,
                44.17271683466867
              ],
              [
                -72.83300331013916,
                44.17285121059877
              ],
              [
                -72.83286477304144,
                44.172953848409165
              ],
              [
                -72.83275191688489,
                44.17303700465238
              ],
              [
                -72.83273007546839,
                44.17297505319087
              ],
              [
                -72.8325527820182,
                44.17236990044074
              ],
              [
                -72.83241572183758,
                44.17183114625615
              ],
              [
                -72.83216304179268,
                44.17116054033229
              ],
              [
                -72.83200513770316,
                44.1705966741631
              ],
              [
                -72.83185078130882,
                44.17010746916415
              ],
              [
                -72.83170348404954,
                44.16969221137688
              ],
              [
                -72.83165350147219,
                44.16948887282823
              ],
              [
                -72.83159069205274,
                44.169228056342845
              ],
              [
                -72.83155523791415,
                44.16889783283375
              ],
              [
                -72.83152761759749,
                44.1686405699379
              ],
              [
                -72.83150489618461,
                44.16842098104272
              ],
              [
                -72.83147987458543,
                44.168139382778584
              ],
              [
                -72.83142906810875,
                44.1677885317006
              ],
              [
                -72.83140740719746,
                44.167479080457305
              ],
              [
                -72.83141367265394,
                44.16727206315337
              ],
              [
                -72.83147199646352,
                44.16701173832693
              ],
              [
                -72.83162002304472,
                44.166652154410805
              ],
              [
                -72.83171452707332,
                44.16636388121554
              ],
              [
                -72.83178755195883,
                44.16621699764571
              ],
              [
                -72.83185544604557,
                44.16606112896569
              ],
              [
                -72.83193805198522,
                44.165811562065414
              ],
              [
                -72.83202790356096,
                44.165599801788886
              ],
              [
                -72.83218642039648,
                44.165300514230225
              ],
              [
                -72.8323559466474,
                44.16501385015971
              ],
              [
                -72.832517112468,
                44.164699929460355
              ],
              [
                -72.83254532845302,
                44.16464528503443
              ],
              [
                -72.832658803096,
                44.164466501530214
              ],
              [
                -72.83285019708109,
                44.16416537125956
              ],
              [
                -72.83251123365707,
                44.16403976300681
              ],
              [
                -72.83026957318724,
                44.16320904083933
              ],
              [
                -72.8299660600035,
                44.16309655877505
              ],
              [
                -72.82983931942961,
                44.163049588533944
              ],
              [
                -72.82965033178958,
                44.1631401337112
              ],
              [
                -72.82959367159641,
                44.163208921954435
              ],
              [
                -72.82957126929341,
                44.163255392222425
              ],
              [
                -72.8295937875865,
                44.16344038911036
              ],
              [
                -72.82961426776282,
                44.163469721218775
              ],
              [
                -72.82960780417585,
                44.16350166095497
              ],
              [
                -72.82962130906338,
                44.163611590801224
              ],
              [
                -72.82964672129134,
                44.16368464221688
              ],
              [
                -72.82966043114963,
                44.16383113293249
              ],
              [
                -72.82962829492826,
                44.16402416246627
              ],
              [
                -72.82953075572507,
                44.16425956800385
              ],
              [
                -72.8293974679951,
                44.16453079559678
              ],
              [
                -72.82931625712092,
                44.16475180970317
              ],
              [
                -72.8292787308927,
                44.16488916735521
              ],
              [
                -72.82927893427438,
                44.16492572913106
              ],
              [
                -72.82925374150497,
                44.16496250540263
              ],
              [
                -72.82925414823892,
                44.16503562895329
              ],
              [
                -72.82920417045986,
                44.16518230322432
              ],
              [
                -72.82920437379757,
                44.165218864998536
              ],
              [
                -72.82912920318019,
                44.16540217508518
              ],
              [
                -72.82907881670094,
                44.16547544495425
              ],
              [
                -72.82901633440214,
                44.165622014751655
              ],
              [
                -72.82896594837763,
                44.16569542496628
              ],
              [
                -72.82887162980481,
                44.16587864870501
              ],
              [
                -72.82885953385534,
                44.165951949536115
              ],
              [
                -72.82887889857632,
                44.166061721255204
              ],
              [
                -72.828917204882,
                44.166134876081024
              ],
              [
                -72.82892425487462,
                44.16620812089034
              ],
              [
                -72.82898836526542,
                44.16635432699852
              ],
              [
                -72.82902082758974,
                44.16650076371849
              ],
              [
                -72.82902768964692,
                44.16661057140922
              ],
              [
                -72.82904664761982,
                44.166647079157805
              ],
              [
                -72.82904059928873,
                44.166683658929266
              ],
              [
                -72.82907326567081,
                44.16686651788834
              ],
              [
                -72.82905554388495,
                44.1671227861743
              ],
              [
                -72.82906240608547,
                44.16723259385057
              ],
              [
                -72.82904992000279,
                44.16730589580819
              ],
              [
                -72.82899993905309,
                44.16745242954172
              ],
              [
                -72.82900014306115,
                44.16748913169926
              ],
              [
                -72.82895680362351,
                44.16763564628239
              ],
              [
                -72.82895682070834,
                44.16770891222136
              ],
              [
                -72.82899572277181,
                44.167818627627554
              ],
              [
                -72.82909148379481,
                44.167964741583575
              ],
              [
                -72.82928916891159,
                44.168170186456685
              ],
              [
                -72.82930815337359,
                44.16821133535524
              ],
              [
                -72.82946775964633,
                44.16838482730906
              ],
              [
                -72.82950606819914,
                44.16845798190072
              ],
              [
                -72.82956352353838,
                44.168531081245604
              ],
              [
                -72.82957662204434,
                44.16856760579701
              ],
              [
                -72.82960305677572,
                44.16882388799438
              ],
              [
                -72.82962865774438,
                44.16886037646581
              ],
              [
                -72.82966710360967,
                44.16888782790567
              ],
              [
                -72.82975633696827,
                44.16898361703931
              ],
              [
                -72.82983359404412,
                44.16924425243474
              ],
              [
                -72.82984063663926,
                44.1693861218562
              ],
              [
                -72.82986001199089,
                44.16942726862552
              ],
              [
                -72.82986145819493,
                44.169756747535544
              ],
              [
                -72.82982416743168,
                44.169866682594204
              ],
              [
                -72.82974878842282,
                44.17001328991314
              ],
              [
                -72.82971069980427,
                44.170050103475205
              ],
              [
                -72.82963511461135,
                44.17016000858197
              ],
              [
                -72.82955969186062,
                44.1702288508615
              ],
              [
                -72.82949010572305,
                44.17029317627806
              ],
              [
                -72.82924355037272,
                44.17043563644664
              ],
              [
                -72.82909146336128,
                44.17049091770015
              ],
              [
                -72.82863562683205,
                44.170592776527194
              ],
              [
                -72.8285848293722,
                44.170592922643976
              ],
              [
                -72.82853413339045,
                44.17061134915916
              ],
              [
                -72.82837564111256,
                44.17063922680925
              ],
              [
                -72.82796365295127,
                44.17068597256953
              ],
              [
                -72.82779870490596,
                44.17067716522748
              ],
              [
                -72.82773530212334,
                44.17065906552231
              ],
              [
                -72.82763337778029,
                44.17059987356115
              ],
              [
                -72.82758220046918,
                44.170531395648055
              ],
              [
                -72.82757526432104,
                44.170407807423196
              ],
              [
                -72.82760039519505,
                44.17028876672187
              ],
              [
                -72.82765665882813,
                44.170146715632065
              ],
              [
                -72.82768124623985,
                44.17000025539416
              ],
              [
                -72.8277187941359,
                44.16993602298691
              ],
              [
                -72.82772500556744,
                44.169858239229306
              ],
              [
                -72.8277685778336,
                44.16975292721156
              ],
              [
                -72.82783166016601,
                44.16964291881141
              ],
              [
                -72.82789394625186,
                44.169459647594756
              ],
              [
                -72.82793577630643,
                44.16939273073172
              ],
              [
                -72.82795316784632,
                44.169357946365196
              ],
              [
                -72.82805325857706,
                44.169157269498584
              ],
              [
                -72.82809520517287,
                44.169111446344026
              ],
              [
                -72.82814539244691,
                44.16900147389169
              ],
              [
                -72.82820852522134,
                44.16890060548348
              ],
              [
                -72.82820838953815,
                44.16887613768262
              ],
              [
                -72.82832119958903,
                44.168644064560965
              ],
              [
                -72.82834575900547,
                44.16849296294273
              ],
              [
                -72.8283707509891,
                44.16841962603137
              ],
              [
                -72.82837016741932,
                44.16831444066911
              ],
              [
                -72.82835746029474,
                44.16827777445332
              ],
              [
                -72.82832560736499,
                44.16824130366116
              ],
              [
                -72.828255666572,
                44.16824150464687
              ],
              [
                -72.82816092025485,
                44.16827833918746
              ],
              [
                -72.82804058922218,
                44.168351809458045
              ],
              [
                -72.82778720411501,
                44.16838909910385
              ],
              [
                -72.82754625754252,
                44.16834394618582
              ],
              [
                -72.82749551336387,
                44.16835337332462
              ],
              [
                -72.82741337229247,
                44.16840845182849
              ],
              [
                -72.82731922116727,
                44.16862359567924
              ],
              [
                -72.8272183635212,
                44.16875663401925
              ],
              [
                -72.82713624603596,
                44.168816353531895
              ],
              [
                -72.82694643808482,
                44.168903943610935
              ],
              [
                -72.82680099477476,
                44.16895920281592
              ],
              [
                -72.82677600109537,
                44.16903239898281
              ],
              [
                -72.8268526129804,
                44.16917857045769
              ],
              [
                -72.82685342141164,
                44.16932495788202
              ],
              [
                -72.82681593787333,
                44.16947159525209
              ],
              [
                -72.82666509959401,
                44.169682400698804
              ],
              [
                -72.82655111740146,
                44.169774273244
              ],
              [
                -72.82650042148593,
                44.169792699759135
              ],
              [
                -72.8264371712921,
                44.16980202086767
              ],
              [
                -72.82637376908632,
                44.16978378000284
              ],
              [
                -72.8262718228032,
                44.169720086900725
              ],
              [
                -72.8261700142168,
                44.16961055022424
              ],
              [
                -72.82611921758743,
                44.16961069524218
              ],
              [
                -72.82608107582453,
                44.16963822609137
              ],
              [
                -72.8260624208488,
                44.16965656005307
              ],
              [
                -72.82602483366992,
                44.169784776336364
              ],
              [
                -72.82601898533727,
                44.16985805808755
              ],
              [
                -72.82594420097764,
                44.17011434908928
              ],
              [
                -72.82594440310967,
                44.17015105124088
              ],
              [
                -72.82589421077296,
                44.17026102181948
              ],
              [
                -72.82579947216763,
                44.17037097902277
              ],
              [
                -72.82567959991162,
                44.17045822710724
              ],
              [
                -72.82561003278188,
                44.170527050083045
              ],
              [
                -72.82559149089157,
                44.17063693030722
              ],
              [
                -72.82561714124446,
                44.1706827002813
              ],
              [
                -72.82561734240521,
                44.17071926203327
              ],
              [
                -72.82565582541362,
                44.17082448063576
              ],
              [
                -72.82567550013121,
                44.17092047028765
              ],
              [
                -72.82564435356988,
                44.17101210573351
              ],
              [
                -72.82564475670253,
                44.17108536962991
              ],
              [
                -72.82560701608651,
                44.171186023815416
              ],
              [
                -72.825607218017,
                44.17122272596131
              ],
              [
                -72.82555702416057,
                44.171332697275744
              ],
              [
                -72.82555722528872,
                44.171369259023784
              ],
              [
                -72.8254945130809,
                44.17154788974373
              ],
              [
                -72.82548241182431,
                44.171621189260534
              ],
              [
                -72.82550157033299,
                44.17169425931322
              ],
              [
                -72.82559104126628,
                44.17176276941232
              ],
              [
                -72.82574970196876,
                44.17183558304982
              ],
              [
                -72.82582615154872,
                44.17188120810591
              ],
              [
                -72.82584547509136,
                44.17191307493258
              ],
              [
                -72.82595351317715,
                44.17201809410216
              ],
              [
                -72.82597931671164,
                44.172091285509
              ],
              [
                -72.82599262741066,
                44.17223763809005
              ],
              [
                -72.82596238718895,
                44.17249408177835
              ],
              [
                -72.82596884077714,
                44.17253062567794
              ],
              [
                -72.82599444237725,
                44.1725671149384
              ],
              [
                -72.82602621982129,
                44.1725899462379
              ],
              [
                -72.82617230366363,
                44.17264915393901
              ],
              [
                -72.82627405332379,
                44.17267628534539
              ],
              [
                -72.82637575344151,
                44.17269441684875
              ],
              [
                -72.82642616132755,
                44.17269427282712
              ],
              [
                -72.82662961144732,
                44.172739534383346
              ],
              [
                -72.82703588263104,
                44.172857481066984
              ],
              [
                -72.82723302031658,
                44.17296224390975
              ],
              [
                -72.82741775408175,
                44.173085323565864
              ],
              [
                -72.82748771590752,
                44.17315838805053
              ],
              [
                -72.82753892108288,
                44.17323150626988
              ],
              [
                -72.82756472633686,
                44.17330455689841
              ],
              [
                -72.8275721952789,
                44.173524331426634
              ],
              [
                -72.82759799945326,
                44.17359738204697
              ],
              [
                -72.82785968805752,
                44.17392625457399
              ],
              [
                -72.82792995534948,
                44.17405416180579
              ],
              [
                -72.82793641110588,
                44.174090845977005
              ],
              [
                -72.82797511290266,
                44.17416399987979
              ],
              [
                -72.82798156792127,
                44.174200543650635
              ],
              [
                -72.8280643760119,
                44.17426443053505
              ],
              [
                -72.8282827906381,
                44.17432919405315
              ],
              [
                -72.82845954175933,
                44.17442079420401
              ],
              [
                -72.82855408041972,
                44.1745560841134
              ],
              [
                -72.82864334510428,
                44.17465651430455
              ],
              [
                -72.82874499778336,
                44.174665363079
              ],
              [
                -72.82888420083215,
                44.1746101185171
              ],
              [
                -72.82893495093056,
                44.174600832053045
              ],
              [
                -72.82903621214955,
                44.17460968079561
              ],
              [
                -72.82913791642535,
                44.17462780982109
              ],
              [
                -72.82943676752267,
                44.174750557335635
              ],
              [
                -72.82964611387851,
                44.17480043687304
              ],
              [
                -72.82974766507633,
                44.17479100344852
              ],
              [
                -72.82995058187088,
                44.17480883956257
              ],
              [
                -72.83009659697147,
                44.174854260795364
              ],
              [
                -72.83030666690476,
                44.17496348180211
              ],
              [
                -72.83038327838892,
                44.175036525261895
              ],
              [
                -72.83042149034895,
                44.17509139904142
              ],
              [
                -72.83048505184706,
                44.175136917828894
              ],
              [
                -72.83063112049172,
                44.17519147946975
              ],
              [
                -72.83083440312323,
                44.17520467167948
              ],
              [
                -72.83099289967937,
                44.17524555654213
              ],
              [
                -72.83110129246214,
                44.17534128810366
              ],
              [
                -72.83113960884103,
                44.175414442934546
              ],
              [
                -72.83115937114654,
                44.17552421293132
              ],
              [
                -72.8311468859691,
                44.17559751410889
              ],
              [
                -72.83110938860519,
                44.175670747381716
              ],
              [
                -72.83110961916034,
                44.175711949379945
              ],
              [
                -72.83107814572274,
                44.175744102914706
              ],
              [
                -72.8310402588135,
                44.17581747859113
              ],
              [
                -72.83102154479863,
                44.175895297775
              ],
              [
                -72.83099634894509,
                44.17593193307058
              ],
              [
                -72.8309969632955,
                44.17604175856243
              ],
              [
                -72.83102879566957,
                44.176073728644205
              ],
              [
                -72.8312196717878,
                44.17617372191625
              ],
              [
                -72.83128998095503,
                44.176237642676966
              ],
              [
                -72.83132204555135,
                44.17631081466455
              ],
              [
                -72.83131604168852,
                44.17642515931525
              ],
              [
                -72.83129084658518,
                44.17646193596939
              ],
              [
                -72.83124086359147,
                44.17660847045461
              ],
              [
                -72.83116527372742,
                44.17671851686128
              ],
              [
                -72.83107797266283,
                44.176970346322996
              ],
              [
                -72.83099696794694,
                44.177300063701395
              ],
              [
                -72.83100794980152,
                44.17821535426331
              ],
              [
                -72.83108500153998,
                44.17836616175768
              ],
              [
                -72.83108600011569,
                44.1785446106658
              ],
              [
                -72.83111181163531,
                44.178617800804865
              ],
              [
                -72.83121385040654,
                44.17876403580492
              ],
              [
                -72.83122071808971,
                44.178873843110736
              ],
              [
                -72.83118990694103,
                44.17902482189689
              ],
              [
                -72.831273136736,
                44.179161971017606
              ],
              [
                -72.83136218225366,
                44.1792211960959
              ],
              [
                -72.83141959921021,
                44.17928515413604
              ],
              [
                -72.83143274626433,
                44.17939958447261
              ],
              [
                -72.83148390975406,
                44.17946342022159
              ],
              [
                -72.83153486926172,
                44.17949083466975
              ],
              [
                -72.83164903653139,
                44.179499643631964
              ],
              [
                -72.83171229624443,
                44.17949031962426
              ],
              [
                -72.83175672065008,
                44.17946740906762
              ],
              [
                -72.83185783805477,
                44.179448834691215
              ],
              [
                -72.83190866913262,
                44.17945332739086
              ],
              [
                -72.83375214455013,
                44.17917697367767
              ],
              [
                -72.83379035946281,
                44.179161956320456
              ],
              [
                -72.833866136162,
                44.17915470323324
              ],
              [
                -72.83399966004511,
                44.17913096977986
              ],
              [
                -72.8341282405602,
                44.17913143707686
              ],
              [
                -72.83429343163277,
                44.179109860641894
              ],
              [
                -72.83448866355772,
                44.179079054771506
              ],
              [
                -72.83465660413292,
                44.17905986014585
              ],
              [
                -72.83481392185911,
                44.1790280397863
              ],
              [
                -72.83497091964072,
                44.17900887676889
              ],
              [
                -72.83513876187936,
                44.178972384730784
              ],
              [
                -72.83531010219379,
                44.17893264759887
              ],
              [
                -72.83548453009527,
                44.17888587038647
              ],
              [
                -72.83564758548475,
                44.17883237546343
              ],
              [
                -72.83579774982863,
                44.178780044092825
              ],
              [
                -72.83590826857157,
                44.178697032195046
              ],
              [
                -72.83603267459193,
                44.17858205743896
              ],
              [
                -72.83614437844864,
                44.17850129181014
              ],
              [
                -72.8361932582857,
                44.17843758586643
              ],
              [
                -72.83627427159895,
                44.17838925442339
              ],
              [
                -72.83641386647788,
                44.17833399956873
              ],
              [
                -72.83648689996242,
                44.17832576912654
              ],
              [
                -72.83657583387179,
                44.178364459803994
              ],
              [
                -72.83664127218624,
                44.17839506390093
              ],
              [
                -72.83668286672398,
                44.178424753639774
              ],
              [
                -72.83674330380032,
                44.178469153132085
              ],
              [
                -72.83680572122205,
                44.178518047625836
              ],
              [
                -72.83686307129983,
                44.17856934651251
              ],
              [
                -72.83692871258832,
                44.17863552752457
              ],
              [
                -72.83700840415575,
                44.17869815167257
              ],
              [
                -72.83711542523218,
                44.178756195148104
              ],
              [
                -72.83719496087947,
                44.1787913976956
              ],
              [
                -72.8373145329219,
                44.178857277987966
              ],
              [
                -72.83746937111883,
                44.178939226881404
              ],
              [
                -72.83759209668634,
                44.1790097388367
              ],
              [
                -72.83770188084448,
                44.17907227356594
              ],
              [
                -72.83778337066676,
                44.17910746992498
              ],
              [
                -72.83790283522552,
                44.17915408463683
              ],
              [
                -72.83798088612627,
                44.179203072639254
              ],
              [
                -72.83804951244669,
                44.17924393182815
              ],
              [
                -72.83813074227344,
                44.17930204976274
              ],
              [
                -72.83829217498835,
                44.17944332093901
              ],
              [
                -72.83840039745705,
                44.17950585961644
              ],
              [
                -72.83849920213014,
                44.17956167613938
              ],
              [
                -72.83861260230691,
                44.17964121456392
              ],
              [
                -72.83867047044197,
                44.17971416755865
              ],
              [
                -72.83874044676395,
                44.179785959628276
              ],
              [
                -72.8388281782633,
                44.17981888674406
              ],
              [
                -72.83886644544675,
                44.1798131482761
              ],
              [
                -72.8389710447997,
                44.17978879101344
              ],
              [
                -72.83910454465043,
                44.179760972893554
              ],
              [
                -72.8392204250704,
                44.179727582873326
              ],
              [
                -72.83934403729347,
                44.17967926226411
              ],
              [
                -72.839459759277,
                44.17961831014729
              ],
              [
                -72.83957828348206,
                44.17956887940959
              ],
              [
                -72.83975928431616,
                44.17951012331358
              ],
              [
                -72.83993386467455,
                44.17949019738848
              ],
              [
                -72.84006910445086,
                44.179493311166084
              ],
              [
                -72.84019151243815,
                44.179507852423065
              ],
              [
                -72.84032376978091,
                44.179536005421014
              ],
              [
                -72.84043807028702,
                44.17956772715633
              ],
              [
                -72.84059899596551,
                44.17961984044604
              ],
              [
                -72.8407503948575,
                44.17971431045411
              ],
              [
                -72.84090532386237,
                44.17981101971124
              ],
              [
                -72.84103741008148,
                44.17987700004875
              ],
              [
                -72.84120166024223,
                44.17996341484078
              ],
              [
                -72.84139762648988,
                44.18006000085233
              ],
              [
                -72.84155560645884,
                44.18014305979216
              ],
              [
                -72.84168603705379,
                44.18019301272963
              ],
              [
                -72.84184696553012,
                44.18024512514674
              ],
              [
                -72.84205596900559,
                44.18036571705436
              ],
              [
                -72.8421740274724,
                44.18043848802747
              ],
              [
                -72.84228069259038,
                44.180501027681544
              ],
              [
                -72.84242573756315,
                44.18057723291085
              ],
              [
                -72.84256598075848,
                44.18063404668136
              ],
              [
                -72.84263934033785,
                44.18068177926306
              ],
              [
                -72.84271613329402,
                44.1807822357497
              ],
              [
                -72.84277261499547,
                44.1808848627138
              ],
              [
                -72.84280319905568,
                44.18096942618301
              ],
              [
                -72.84283999430178,
                44.18104694024955
              ],
              [
                -72.84288020250341,
                44.181106303780325
              ],
              [
                -72.84296501713276,
                44.181174673729295
              ],
              [
                -72.84306689509337,
                44.18122007042695
              ],
              [
                -72.84316238795842,
                44.181242705565744
              ],
              [
                -72.84324177796024,
                44.181251607399886
              ],
              [
                -72.84329261795428,
                44.181257220898026
              ],
              [
                -72.84341726990321,
                44.18126092322247
              ]
            ]
          ]
        ]
      }
    }
  ]
}