{
  "type": "FeatureCollection",
  "crs": {
    "type": "name",
    "properties": {
      "name": "urn:ogc:def:crs:OGC:1.3:CRS84"
    }
  },
  "features": [
    {
      "type": "Feature",
      "properties": {
        "Abbreviated_Jurisdiction_District_Name": "HWVO",
        "County": "Washington",
        "Jurisdiction_District_Name": "Waitsfield"
      },
      "geometry": {
        "type": "Polygon",
        "coordinates": [
          [
            [
              -72.82199997182657,
              44.19268711551348
            ],
            [
              -72.82203268479476,
              44.19269534733061
            ],
            [
              -72.82202562368543,
              44.1927038730619
            ],
            [
              -72.82324817902237,
              44.19332293048705
            ],
            [
              -72.824128792879,
              44.19254229667145
            ],
            [
              -72.82343855087255,
              44.19217640635005
            ],
            [
              -72.82468043714043,
              44.19099775712931
            ],
            [
              -72.82524254345225,
              44.19125166604394
            ],
            [
              -72.82552714633789,
              44.19140427352889
            ],
            [
              -72.82630014546163,
              44.19048465907278
            ],
            [
              -72.8253733370538,
              44.19000627178885
            ],
            [
              -72.82516026124034,
              44.18968511398277
            ],
            [
              -72.82506860599123,
              44.18962822528766
            ],
            [
              -72.82527214318547,
              44.18948308460829
            ],
            [
              -72.82548015954228,
              44.18936130721318
            ],
            [
              -72.82553648091515,
              44.18949259157458
            ],
            [
              -72.82594114287005,
              44.18956606513053
            ],
            [
              -72.82635359118346,
              44.18948000029787
            ],
            [
              -72.82735505633933,
              44.18923661910644
            ],
            [
              -72.82735333182217,
              44.18923532715849
            ],
            [
              -72.82747588225145,
              44.18917695698966
            ],
            [
              -72.82798741473862,
              44.18903832969617
            ],
            [
              -72.82775538719523,
              44.18879411117686
            ],
            [
              -72.82775969138764,
              44.1887932402348
            ],
            [
              -72.82761123609163,
              44.18851934734035
            ],
            [
              -72.82752790375856,
              44.18853101619667
            ],
            [
              -72.82732571813037,
              44.18859446019258
            ],
            [
              -72.8272784429019,
              44.18866317509528
            ],
            [
              -72.82696166067622,
              44.188829816772085
            ],
            [
              -72.82688480969226,
              44.18885465600347
            ],
            [
              -72.8268612246174,
              44.188827741702134
            ],
            [
              -72.82674308328528,
              44.188801867374856
            ],
            [
              -72.82658013623474,
              44.18877947349503
            ],
            [
              -72.82644889611407,
              44.188745558872625
            ],
            [
              -72.82645644428325,
              44.188674099469665
            ],
            [
              -72.82654719887823,
              44.18856811342596
            ],
            [
              -72.82648591960276,
              44.18851755957399
            ],
            [
              -72.82624958010301,
              44.1884474944246
            ],
            [
              -72.82587521610274,
              44.188307083148786
            ],
            [
              -72.82561851628158,
              44.18810974376624
            ],
            [
              -72.82518485861283,
              44.187912906750526
            ],
            [
              -72.82492886105248,
              44.18784289571597
            ],
            [
              -72.82475236777465,
              44.18792828491451
            ],
            [
              -72.82459569259608,
              44.188041914209585
            ],
            [
              -72.82459897250895,
              44.188044256571736
            ],
            [
              -72.82428335148684,
              44.18833426487226
            ],
            [
              -72.82437051129595,
              44.18845846754495
            ],
            [
              -72.8243511949519,
              44.188878540962975
            ],
            [
              -72.82299562852464,
              44.18787654958751
            ],
            [
              -72.82221157823707,
              44.18833921448549
            ],
            [
              -72.82213788833927,
              44.188272273830655
            ],
            [
              -72.82176549213706,
              44.18843639934236
            ],
            [
              -72.82105508813075,
              44.18896120210945
            ],
            [
              -72.82096212996406,
              44.18902861178343
            ],
            [
              -72.82022074245728,
              44.188687962469686
            ],
            [
              -72.81970103195124,
              44.18853385519876
            ],
            [
              -72.81903149685363,
              44.1886601770591
            ],
            [
              -72.8188598817974,
              44.1889095564193
            ],
            [
              -72.8190121425314,
              44.1890802505722
            ],
            [
              -72.81901732819651,
              44.18910038963035
            ],
            [
              -72.81894820554724,
              44.18925154742987
            ],
            [
              -72.81894912834257,
              44.18942266408071
            ],
            [
              -72.81903787421581,
              44.18984243478208
            ],
            [
              -72.8189824465372,
              44.18993940717618
            ],
            [
              -72.8189966475272,
              44.190215900168546
            ],
            [
              -72.81871843594854,
              44.190745588846255
            ],
            [
              -72.81869824050672,
              44.191010101695404
            ],
            [
              -72.81863430055805,
              44.19118139832826
            ],
            [
              -72.81863597683443,
              44.19149251924812
            ],
            [
              -72.81878883059724,
              44.19177210474733
            ],
            [
              -72.81887682404174,
              44.19205187199173
            ],
            [
              -72.81842722596207,
              44.19287760630957
            ],
            [
              -72.8181060886028,
              44.19346963835052
            ],
            [
              -72.81962185308909,
              44.1938854266582
            ],
            [
              -72.82038260502638,
              44.19432136048422
            ],
            [
              -72.82199997182657,
              44.19268711551348
            ]
          ]
        ]
      }
    }
  ]
}