{
  "type": "FeatureCollection",
  "crs": {
    "type": "name",
    "properties": {
      "name": "urn:ogc:def:crs:OGC:1.3:CRS84"
    }
  },
  "features": [
    {
      "type": "Feature",
      "properties": {
        "Abbreviated_Jurisdiction_District_Name": "LAK",
        "County": "Windsor",
        "Jurisdiction_District_Name": "Barnard"
      },
      "geometry": {
        "type": "Polygon",
        "coordinates": [
          [
            [
              -72.60973906164506,
              43.72406402946465
            ],
            [
              -72.6095678786611,
              43.72407074617444
            ],
            [
              -72.60840703985544,
              43.72416074634724
            ],
            [
              -72.60784466391587,
              43.7240517294279
            ],
            [
              -72.60718719849201,
              43.72401072698665
            ],
            [
              -72.60653104687778,
              43.72405297481001
            ],
            [
              -72.60589404509881,
              43.7241773331128
            ],
            [
              -72.60567851701651,
              43.724239836103635
            ],
            [
              -72.60426174085484,
              43.72468837225365
            ],
            [
              -72.6038801513723,
              43.72482837492868
            ],
            [
              -72.60334055510383,
              43.725103249356025
            ],
            [
              -72.6028749477358,
              43.72544162095019
            ],
            [
              -72.60281802175199,
              43.7254920200915
            ],
            [
              -72.60237056238758,
              43.72589886293689
            ],
            [
              -72.60205000869692,
              43.726240755386605
            ],
            [
              -72.60177188445766,
              43.72667402258048
            ],
            [
              -72.60160163173614,
              43.72713616275958
            ],
            [
              -72.60154504488251,
              43.72761296730714
            ],
            [
              -72.6015491360409,
              43.727737285308585
            ],
            [
              -72.60162026361974,
              43.728841349314195
            ],
            [
              -72.60167439292155,
              43.72919260771041
            ],
            [
              -72.60184546287144,
              43.729654299005404
            ],
            [
              -72.60212509365455,
              43.7300874842843
            ],
            [
              -72.60250376037486,
              43.73047881072388
            ],
            [
              -72.60276027959401,
              43.73066463836603
            ],
            [
              -72.60277720527604,
              43.7306952811845
            ],
            [
              -72.60301540148839,
              43.73105030915644
            ],
            [
              -72.60339408007633,
              43.73144163166852
            ],
            [
              -72.6037277195179,
              43.73169475092185
            ],
            [
              -72.6048428643032,
              43.73243880674616
            ],
            [
              -72.60497567383241,
              43.73252348630629
            ],
            [
              -72.6055170818392,
              43.73279722058705
            ],
            [
              -72.60607910272341,
              43.7329895051541
            ],
            [
              -72.60623142724603,
              43.73303084949135
            ],
            [
              -72.60636899887541,
              43.73317290215853
            ],
            [
              -72.60683566991646,
              43.733510830236
            ],
            [
              -72.60706243446795,
              43.73363817169262
            ],
            [
              -72.6074120704606,
              43.73381954071398
            ],
            [
              -72.60772634429551,
              43.733965782749735
            ],
            [
              -72.60832389388125,
              43.73416744552826
            ],
            [
              -72.60896086854413,
              43.73429087264388
            ],
            [
              -72.60961883615907,
              43.73433186521699
            ],
            [
              -72.60965626865185,
              43.73433168800062
            ],
            [
              -72.61070631923248,
              43.73432307022203
            ],
            [
              -72.61075208659047,
              43.73431993146006
            ],
            [
              -72.61103805135824,
              43.73446450508168
            ],
            [
              -72.61163561574133,
              43.73466614961338
            ],
            [
              -72.61227260369941,
              43.73478955914855
            ],
            [
              -72.61293057899324,
              43.73483053174584
            ],
            [
              -72.61358664879673,
              43.73478824733655
            ],
            [
              -72.61422355388089,
              43.734664128202716
            ],
            [
              -72.61482093032849,
              43.73446128954206
            ],
            [
              -72.61536055969232,
              43.73418664305384
            ],
            [
              -72.61582655035123,
              43.73384822073101
            ],
            [
              -72.61593707341885,
              43.733733348569096
            ],
            [
              -72.61608341717945,
              43.73319175320591
            ],
            [
              -72.61642673787266,
              43.7323162281936
            ],
            [
              -72.61672069778419,
              43.73149433513458
            ],
            [
              -72.6168131171713,
              43.731061274085654
            ],
            [
              -72.6168427265164,
              43.730922526611124
            ],
            [
              -72.61721151764824,
              43.73058279277021
            ],
            [
              -72.61780148129016,
              43.729992778221394
            ],
            [
              -72.61834199547962,
              43.72931350814265
            ],
            [
              -72.61888249746514,
              43.728634236340866
            ],
            [
              -72.61883213024,
              43.72808060860886
            ],
            [
              -72.61865772414083,
              43.727080452695205
            ],
            [
              -72.61831095852416,
              43.72609847890507
            ],
            [
              -72.61801495287642,
              43.725866598389345
            ],
            [
              -72.61762066664424,
              43.725654087798155
            ],
            [
              -72.61743587863673,
              43.72566595256741
            ],
            [
              -72.61723582429083,
              43.72570497510087
            ],
            [
              -72.6160625685994,
              43.72600109723393
            ],
            [
              -72.6137358683545,
              43.725311534359335
            ],
            [
              -72.61348613534125,
              43.72513078821181
            ],
            [
              -72.61294514870882,
              43.72485709088982
            ],
            [
              -72.61288867196185,
              43.72483394206686
            ],
            [
              -72.61179955211003,
              43.72439736686138
            ],
            [
              -72.61125914696183,
              43.72421957386036
            ],
            [
              -72.61062227312584,
              43.72409615832706
            ],
            [
              -72.60996480535363,
              43.72405517186535
            ],
            [
              -72.60973906164506,
              43.72406402946465
            ]
          ]
        ]
      }
    }
  ]
}