{
  "type": "FeatureCollection",
  "crs": {
    "type": "name",
    "properties": {
      "name": "urn:ogc:def:crs:OGC:1.3:CRS84"
    }
  },
  "features": [
    {
      "type": "Feature",
      "properties": {
        "Abbreviated_Jurisdiction_District_Name": "DRO",
        "County": "Windsor",
        "Jurisdiction_District_Name": "Woodstock Village"
      },
      "geometry": {
        "type": "Polygon",
        "coordinates": [
          [
            [
              -72.50484835466479,
              43.627319618944995
            ],
            [
              -72.50489327435045,
              43.627347392662635
            ],
            [
              -72.50516316927929,
              43.62737515641733
            ],
            [
              -72.5048336859186,
              43.62788814737956
            ],
            [
              -72.50508809899974,
              43.62797139391584
            ],
            [
              -72.50490848748612,
              43.628710172806
            ],
            [
              -72.50490849539321,
              43.62880728263611
            ],
            [
              -72.50457942465778,
              43.62977783736286
            ],
            [
              -72.50445941258513,
              43.6301939192557
            ],
            [
              -72.50418994141737,
              43.63085942726543
            ],
            [
              -72.50390535479703,
              43.631427965708546
            ],
            [
              -72.50415978056782,
              43.631497290899176
            ],
            [
              -72.50490872912074,
              43.63167755827994
            ],
            [
              -72.5051786433784,
              43.63171910492227
            ],
            [
              -72.50542300014935,
              43.63175235429269
            ],
            [
              -72.50540518478823,
              43.631730415653344
            ],
            [
              -72.50556237303425,
              43.63135912452907
            ],
            [
              -72.5057787931742,
              43.63084494224515
            ],
            [
              -72.50599482585154,
              43.63035937941994
            ],
            [
              -72.50609315562457,
              43.63007373961849
            ],
            [
              -72.50619148887148,
              43.629830993110396
            ],
            [
              -72.50642727623361,
              43.62945962618081
            ],
            [
              -72.50652561486011,
              43.62928825314288
            ],
            [
              -72.50682522400508,
              43.62833133613568
            ],
            [
              -72.50730455571042,
              43.627887665109185
            ],
            [
              -72.50760384515813,
              43.62762423028713
            ],
            [
              -72.50766422522517,
              43.62741622359415
            ],
            [
              -72.50826321696057,
              43.62713891426746
            ],
            [
              -72.50829301687212,
              43.62702794908608
            ],
            [
              -72.50836775236424,
              43.627041795902095
            ],
            [
              -72.50859275669573,
              43.627263635942064
            ],
            [
              -72.50970054812097,
              43.62700006174583
            ],
            [
              -72.50980550139953,
              43.62711101581253
            ],
            [
              -72.51005990417332,
              43.62711099370226
            ],
            [
              -72.51014770054441,
              43.62742106061742
            ],
            [
              -72.51057798371987,
              43.627361589183714
            ],
            [
              -72.51085756862817,
              43.62742372263207
            ],
            [
              -72.51129689616513,
              43.62754729641977
            ],
            [
              -72.51172886789307,
              43.627671995274135
            ],
            [
              -72.51206596948319,
              43.627787491109274
            ],
            [
              -72.51241875083419,
              43.62788477198651
            ],
            [
              -72.512729128673,
              43.62796609445021
            ],
            [
              -72.5131643839056,
              43.62803439107022
            ],
            [
              -72.51344454368531,
              43.62804799830028
            ],
            [
              -72.51381356431733,
              43.628034309054215
            ],
            [
              -72.51406429080588,
              43.62803427667677
            ],
            [
              -72.51452180590216,
              43.628075140789484
            ],
            [
              -72.51494214470182,
              43.62810236629501
            ],
            [
              -72.51554721292493,
              43.62821155644067
            ],
            [
              -72.51591085499452,
              43.62834321088571
            ],
            [
              -72.51573294872036,
              43.62910605758126
            ],
            [
              -72.51654306464259,
              43.629208320302055
            ],
            [
              -72.51612643881226,
              43.62999300267341
            ],
            [
              -72.51703072202272,
              43.630278570021005
            ],
            [
              -72.51709515811726,
              43.63015057869711
            ],
            [
              -72.51727127472503,
              43.62990323948751
            ],
            [
              -72.51753527531123,
              43.6296046925998
            ],
            [
              -72.51782292403678,
              43.62940001722812
            ],
            [
              -72.51823315546113,
              43.62927400768526
            ],
            [
              -72.51862020227453,
              43.62930101434783
            ],
            [
              -72.51913251084109,
              43.62930514482557
            ],
            [
              -72.51940104914465,
              43.62928604032951
            ],
            [
              -72.51967984131173,
              43.62924457270627
            ],
            [
              -72.52005097370397,
              43.62916173938508
            ],
            [
              -72.52061536393725,
              43.629595027447415
            ],
            [
              -72.52137846265492,
              43.62919364883092
            ],
            [
              -72.5209924655232,
              43.62883395137552
            ],
            [
              -72.5209940283772,
              43.62882415639798
            ],
            [
              -72.5210131178151,
              43.62882944177109
            ],
            [
              -72.5210393430652,
              43.628833706035095
            ],
            [
              -72.5210547689637,
              43.62879447942848
            ],
            [
              -72.5213218705351,
              43.62855056353795
            ],
            [
              -72.52125100237399,
              43.628536442749756
            ],
            [
              -72.52125719262808,
              43.6285211825106
            ],
            [
              -72.52126144971952,
              43.62851260303841
            ],
            [
              -72.52127228530081,
              43.62849340407597
            ],
            [
              -72.52128776707333,
              43.62847272721284
            ],
            [
              -72.52129744225189,
              43.628458942456554
            ],
            [
              -72.52131176518388,
              43.62844459518186
            ],
            [
              -72.52132453925736,
              43.62843390432693
            ],
            [
              -72.52133460234195,
              43.628420331014304
            ],
            [
              -72.52134311694029,
              43.62840795329864
            ],
            [
              -72.5213562768541,
              43.62839163685619
            ],
            [
              -72.52137369492232,
              43.62836983451689
            ],
            [
              -72.52138569409335,
              43.628357948491114
            ],
            [
              -72.52140427574446,
              43.62834331868207
            ],
            [
              -72.52141743565255,
              43.62832707243878
            ],
            [
              -72.52143447025836,
              43.62831771649454
            ],
            [
              -72.521453442957,
              43.6283121576296
            ],
            [
              -72.52146738147597,
              43.62830765460309
            ],
            [
              -72.52148480437802,
              43.62830308071362
            ],
            [
              -72.52150067984013,
              43.628299139870144
            ],
            [
              -72.52152546149385,
              43.628296955207624
            ],
            [
              -72.52153978831777,
              43.62829723423438
            ],
            [
              -72.52155411635549,
              43.62829744215262
            ],
            [
              -72.52156650706829,
              43.628296033887516
            ],
            [
              -72.52158122178744,
              43.62829645324865
            ],
            [
              -72.52159632296156,
              43.628296450396505
            ],
            [
              -72.52161568433615,
              43.62829672756231
            ],
            [
              -72.52163427115923,
              43.62829672404592
            ],
            [
              -72.52165517954249,
              43.628291727332304
            ],
            [
              -72.52167183105847,
              43.628292286727614
            ],
            [
              -72.5216915788612,
              43.628292072362605
            ],
            [
              -72.52172139429547,
              43.6282877769102
            ],
            [
              -72.52174540211948,
              43.62828735020702
            ],
            [
              -72.52177521460754,
              43.628278343712374
            ],
            [
              -72.5217845058575,
              43.62827236539803
            ],
            [
              -72.52181199614337,
              43.62826314781708
            ],
            [
              -72.52183444130901,
              43.628224749637205
            ],
            [
              -72.521858797535,
              43.628118985354554
            ],
            [
              -72.52194617160276,
              43.62773798101391
            ],
            [
              -72.52195274337434,
              43.62770605474323
            ],
            [
              -72.52195931430948,
              43.627675253574665
            ],
            [
              -72.52239072106467,
              43.6277850086895
            ],
            [
              -72.52265040212747,
              43.62636767923634
            ],
            [
              -72.52190111615647,
              43.62629068551002
            ],
            [
              -72.52220098869016,
              43.625702128663164
            ],
            [
              -72.52255262202561,
              43.62582638369614
            ],
            [
              -72.52295343685522,
              43.62596687156437
            ],
            [
              -72.52301385103326,
              43.62599132995379
            ],
            [
              -72.524104776552,
              43.62637251495929
            ],
            [
              -72.52404315438703,
              43.6262354067102
            ],
            [
              -72.52424866576226,
              43.62598924660484
            ],
            [
              -72.52503749256353,
              43.62618013340558
            ],
            [
              -72.52518457306616,
              43.62624113297158
            ],
            [
              -72.52535021574327,
              43.626002484549474
            ],
            [
              -72.52560209442169,
              43.625639596233256
            ],
            [
              -72.526093133685,
              43.62493375939713
            ],
            [
              -72.52642084922093,
              43.62446364664483
            ],
            [
              -72.52682871484755,
              43.62387854657971
            ],
            [
              -72.52719201647878,
              43.623357265172146
            ],
            [
              -72.52759876386314,
              43.62277362424687
            ],
            [
              -72.52748690507237,
              43.62268412356415
            ],
            [
              -72.52740859618942,
              43.62258875519185
            ],
            [
              -72.52733273128335,
              43.622497040516244
            ],
            [
              -72.52710734090617,
              43.62231844754496
            ],
            [
              -72.5271936770202,
              43.6223023947625
            ],
            [
              -72.52770313682008,
              43.62213181923351
            ],
            [
              -72.52818508785256,
              43.62192883082887
            ],
            [
              -72.52826212523435,
              43.62182178474684
            ],
            [
              -72.52839647718825,
              43.62162909229445
            ],
            [
              -72.52857600675782,
              43.621371601318174
            ],
            [
              -72.52877616075457,
              43.62108452812914
            ],
            [
              -72.5291146902254,
              43.620598872780505
            ],
            [
              -72.52862744219902,
              43.62069631013155
            ],
            [
              -72.5283707786755,
              43.62076866249668
            ],
            [
              -72.52818651619451,
              43.620841135967694
            ],
            [
              -72.52790780325805,
              43.62095997391668
            ],
            [
              -72.52772354671359,
              43.62104784705882
            ],
            [
              -72.52756173422095,
              43.62110983710555
            ],
            [
              -72.52738869026544,
              43.62116676664714
            ],
            [
              -72.5271324051654,
              43.6212287786818
            ],
            [
              -72.52685327196981,
              43.621280599370515
            ],
            [
              -72.52676965017008,
              43.62130129299125
            ],
            [
              -72.52627840063411,
              43.62149246309977
            ],
            [
              -72.52603260569045,
              43.62164286200172
            ],
            [
              -72.52585146584161,
              43.62178684617763
            ],
            [
              -72.52568194497697,
              43.6219409524858
            ],
            [
              -72.52551234069246,
              43.62189985397576
            ],
            [
              -72.52532842316704,
              43.621889628530525
            ],
            [
              -72.52524358315779,
              43.62177671479193
            ],
            [
              -72.52494662543658,
              43.6218075799244
            ],
            [
              -72.52464968965383,
              43.621889847116805
            ],
            [
              -72.52431054101532,
              43.62195158983077
            ],
            [
              -72.5240561641108,
              43.621961909993786
            ],
            [
              -72.52392877685423,
              43.621951670386025
            ],
            [
              -72.52360103321695,
              43.62147799966307
            ],
            [
              -72.5223611468395,
              43.622172296594165
            ],
            [
              -72.52215049081389,
              43.622099487600906
            ],
            [
              -72.52208504162574,
              43.62206075439654
            ],
            [
              -72.52190775826416,
              43.622191792876784
            ],
            [
              -72.52158882086772,
              43.62248276303954
            ],
            [
              -72.5214916106522,
              43.62240810238501
            ],
            [
              -72.52115587281016,
              43.62227842707415
            ],
            [
              -72.52098278860319,
              43.622243088421406
            ],
            [
              -72.5208918240928,
              43.62223291074483
            ],
            [
              -72.52089004048543,
              43.622177249045436
            ],
            [
              -72.52048109665706,
              43.621864612646874
            ],
            [
              -72.51993365416415,
              43.62115990574238
            ],
            [
              -72.51948970221301,
              43.62129048894132
            ],
            [
              -72.51935895126202,
              43.62105375331682
            ],
            [
              -72.51930340069306,
              43.62106929814526
            ],
            [
              -72.51919371590738,
              43.620891021860096
            ],
            [
              -72.51905729469422,
              43.62092392202123
            ],
            [
              -72.51893236505767,
              43.62071291829919
            ],
            [
              -72.51886438364804,
              43.62059612575172
            ],
            [
              -72.51874397930501,
              43.62062997068368
            ],
            [
              -72.51858516984996,
              43.62039182561381
            ],
            [
              -72.51844883386566,
              43.62022680844819
            ],
            [
              -72.51818488104678,
              43.61992032740643
            ],
            [
              -72.51836586073071,
              43.61985968686459
            ],
            [
              -72.5181358103074,
              43.61960410894864
            ],
            [
              -72.51819580701655,
              43.619586520786804
            ],
            [
              -72.51809001862246,
              43.61933438463818
            ],
            [
              -72.51796107332932,
              43.61907506935628
            ],
            [
              -72.51790960177804,
              43.61894531781152
            ],
            [
              -72.51753520133576,
              43.618908179915145
            ],
            [
              -72.51728162003795,
              43.61894338029397
            ],
            [
              -72.51761553023357,
              43.619495331540115
            ],
            [
              -72.516366880101,
              43.619943994447084
            ],
            [
              -72.51641318769744,
              43.61999628534304
            ],
            [
              -72.51647803702436,
              43.62019185959467
            ],
            [
              -72.51652059829719,
              43.62033008462667
            ],
            [
              -72.51660389524892,
              43.6205887222531
            ],
            [
              -72.51670520926238,
              43.62083575960456
            ],
            [
              -72.51681667645391,
              43.621185734260294
            ],
            [
              -72.51686323237824,
              43.621439002662896
            ],
            [
              -72.51695272627917,
              43.6215883356947
            ],
            [
              -72.5170237691184,
              43.62178853868993
            ],
            [
              -72.51711482440263,
              43.62195300804759
            ],
            [
              -72.5172505464688,
              43.62212798266365
            ],
            [
              -72.51732196540907,
              43.622208415870595
            ],
            [
              -72.5174411410846,
              43.62233376669054
            ],
            [
              -72.51750207033054,
              43.622377241280105
            ],
            [
              -72.51744394589228,
              43.62239275949306
            ],
            [
              -72.5174590579021,
              43.62243529960158
            ],
            [
              -72.51749081858294,
              43.62247418192496
            ],
            [
              -72.51752257922263,
              43.62251278161322
            ],
            [
              -72.51755395337497,
              43.62255152266477
            ],
            [
              -72.51758726266699,
              43.62258949023856
            ],
            [
              -72.51762057193916,
              43.622627246282924
            ],
            [
              -72.51766123618084,
              43.62266141435115
            ],
            [
              -72.51769222269047,
              43.62270015542364
            ],
            [
              -72.51772127411684,
              43.622739599752144
            ],
            [
              -72.51773367715315,
              43.62278368838412
            ],
            [
              -72.51774491805796,
              43.622827916707664
            ],
            [
              -72.51774725442044,
              43.6228728502774
            ],
            [
              -72.51775578575918,
              43.62291750205878
            ],
            [
              -72.51775502460323,
              43.622962436108786
            ],
            [
              -72.51774226083836,
              43.6230063873316
            ],
            [
              -72.51773801432533,
              43.62305132192177
            ],
            [
              -72.51773531779257,
              43.623096185164364
            ],
            [
              -72.5177302968833,
              43.6231411198737
            ],
            [
              -72.51772914913244,
              43.62318605398172
            ],
            [
              -72.51773032331934,
              43.623231057935705
            ],
            [
              -72.51773730594388,
              43.62327578016231
            ],
            [
              -72.51774119107144,
              43.623320642381735
            ],
            [
              -72.5177508845872,
              43.623365012253686
            ],
            [
              -72.51776715950771,
              43.62340839641116
            ],
            [
              -72.51778343441026,
              43.62345164015308
            ],
            [
              -72.51780241899641,
              43.62349460264458
            ],
            [
              -72.51782256568897,
              43.62353714191253
            ],
            [
              -72.51783729205147,
              43.623580948438914
            ],
            [
              -72.51784272599282,
              43.62362559979146
            ],
            [
              -72.51784777334545,
              43.62367018189741
            ],
            [
              -72.5178466244331,
              43.62371511600264
            ],
            [
              -72.51784315349656,
              43.62375976874414
            ],
            [
              -72.5178234185162,
              43.623802595954636
            ],
            [
              -72.51779981242498,
              43.62384422845456
            ],
            [
              -72.51777504392435,
              43.62388529857844
            ],
            [
              -72.5177603433102,
              43.62392903947805
            ],
            [
              -72.5177479658196,
              43.623972638701716
            ],
            [
              -72.51774604245185,
              43.62401764313025
            ],
            [
              -72.51774566909286,
              43.62406257711131
            ],
            [
              -72.5177340661271,
              43.62410673966392
            ],
            [
              -72.51773098172609,
              43.62415160295828
            ],
            [
              -72.51772247644985,
              43.624196187167186
            ],
            [
              -72.51771977865708,
              43.62424119171359
            ],
            [
              -72.51770856345708,
              43.624285353302
            ],
            [
              -72.5176915393528,
              43.624328602204464
            ],
            [
              -72.51767374080296,
              43.624371781017366
            ],
            [
              -72.51764897202057,
              43.624412921316654
            ],
            [
              -72.51762962448869,
              43.62445567822251
            ],
            [
              -72.51760020877713,
              43.62449527198537
            ],
            [
              -72.51756111094092,
              43.62452994557717
            ],
            [
              -72.51751697924227,
              43.62456180626907
            ],
            [
              -72.51747788255419,
              43.62459647983182
            ],
            [
              -72.5174438197421,
              43.624634316402876
            ],
            [
              -72.51741711386141,
              43.62467475398121
            ],
            [
              -72.51738963477898,
              43.62471519167062
            ],
            [
              -72.51737570806867,
              43.6247588621902
            ],
            [
              -72.51736333029194,
              43.624803023917494
            ],
            [
              -72.51735714787215,
              43.62484760684113
            ],
            [
              -72.51735987060862,
              43.624892540344185
            ],
            [
              -72.5173583347255,
              43.62493747449364
            ],
            [
              -72.51736105870599,
              43.62498240799577
            ],
            [
              -72.5173622352446,
              43.625036412763315
            ],
            [
              -72.51736226093129,
              43.62512564783125
            ],
            [
              -72.51704629863903,
              43.625115428148916
            ],
            [
              -72.51684734252474,
              43.62535637100267
            ],
            [
              -72.51662972480398,
              43.62532433743638
            ],
            [
              -72.516623147315,
              43.62534480086613
            ],
            [
              -72.5166138581545,
              43.625358585178255
            ],
            [
              -72.51660805406306,
              43.62537089194809
            ],
            [
              -72.51660457127389,
              43.62538066644864
            ],
            [
              -72.51659644504018,
              43.62539698162197
            ],
            [
              -72.51659102727736,
              43.62540837385104
            ],
            [
              -72.51658560864252,
              43.62541660229042
            ],
            [
              -72.51658173956885,
              43.62542750194924
            ],
            [
              -72.51657245036687,
              43.625441216051385
            ],
            [
              -72.51655851343787,
              43.6254504295142
            ],
            [
              -72.51654960946418,
              43.62545922100818
            ],
            [
              -72.51653412242602,
              43.62546379386777
            ],
            [
              -72.51651205536682,
              43.62547525870659
            ],
            [
              -72.51649269805512,
              43.625486442324465
            ],
            [
              -72.51648108325337,
              43.62549164737595
            ],
            [
              -72.51646133652993,
              43.625497065117045
            ],
            [
              -72.5164439145938,
              43.62550360672315
            ],
            [
              -72.51641990940952,
              43.62550979824039
            ],
            [
              -72.51629717821129,
              43.62556248502467
            ],
            [
              -72.51593595603374,
              43.62572230057304
            ],
            [
              -72.51552515933442,
              43.625849141804345
            ],
            [
              -72.51563942700919,
              43.62600403938974
            ],
            [
              -72.51535484528384,
              43.62607798283016
            ],
            [
              -72.51537305158934,
              43.626104490505874
            ],
            [
              -72.51533084812446,
              43.6261170838249
            ],
            [
              -72.51526271651682,
              43.62618670800511
            ],
            [
              -72.51523715910693,
              43.62618108590096
            ],
            [
              -72.5152116013826,
              43.6261741982755
            ],
            [
              -72.51518294593419,
              43.626167170643
            ],
            [
              -72.51514654556784,
              43.626157400579196
            ],
            [
              -72.51510278882836,
              43.626147702582564
            ],
            [
              -72.51507684330232,
              43.62614081497817
            ],
            [
              -72.5150605793416,
              43.62613652733031
            ],
            [
              -72.51504237894508,
              43.626128231868684
            ],
            [
              -72.5150226298346,
              43.62612542170902
            ],
            [
              -72.51500133276922,
              43.62612120582064
            ],
            [
              -72.51498351967618,
              43.62611572305586
            ],
            [
              -72.51496686791548,
              43.626111506551986
            ],
            [
              -72.51495757381122,
              43.6261073583894
            ],
            [
              -72.51494402098501,
              43.62610314147661
            ],
            [
              -72.51492736923034,
              43.62609892406691
            ],
            [
              -72.51490994453795,
              43.626095692345665
            ],
            [
              -72.5148952288562,
              43.62608901385377
            ],
            [
              -72.51488244875337,
              43.62608289765937
            ],
            [
              -72.5148688960591,
              43.62607917218257
            ],
            [
              -72.51484992039111,
              43.62607228361967
            ],
            [
              -72.51483714115487,
              43.626064620178646
            ],
            [
              -72.51480964464025,
              43.6260487318921
            ],
            [
              -72.51462649614845,
              43.62605585802532
            ],
            [
              -72.51444838068814,
              43.626062771709684
            ],
            [
              -72.5144708714473,
              43.62619827354853
            ],
            [
              -72.51428732745009,
              43.626175091618705
            ],
            [
              -72.51418316371016,
              43.62616181397732
            ],
            [
              -72.5139531537887,
              43.62613540237174
            ],
            [
              -72.5137231425166,
              43.626102169479985
            ],
            [
              -72.51354347196943,
              43.62608236119885
            ],
            [
              -72.5135361475652,
              43.62622489819273
            ],
            [
              -72.51331776409357,
              43.626243980388836
            ],
            [
              -72.51279966824718,
              43.626216896703596
            ],
            [
              -72.51248447406523,
              43.62620005502516
            ],
            [
              -72.51248519963517,
              43.62596406417594
            ],
            [
              -72.51246889960457,
              43.62578418990782
            ],
            [
              -72.51170222730055,
              43.625795873938586
            ],
            [
              -72.51169293567808,
              43.62580311785194
            ],
            [
              -72.51145325238208,
              43.62580314212214
            ],
            [
              -72.51143822020846,
              43.62616366888647
            ],
            [
              -72.51089922137113,
              43.6261637215587
            ],
            [
              -72.51088413951729,
              43.62627468603554
            ],
            [
              -72.50953624895396,
              43.626247030815136
            ],
            [
              -72.50953618975315,
              43.6258726523996
            ],
            [
              -72.50901190957146,
              43.62588661831746
            ],
            [
              -72.50871220900615,
              43.62588664155774
            ],
            [
              -72.50851782956954,
              43.62588665621085
            ],
            [
              -72.50851666651552,
              43.62588096057674
            ],
            [
              -72.5084888169431,
              43.62609086453786
            ],
            [
              -72.50833470541887,
              43.62608067974947
            ],
            [
              -72.50831613518119,
              43.62619600414197
            ],
            [
              -72.50820887854046,
              43.62619945741154
            ],
            [
              -72.50820423614798,
              43.62622997593365
            ],
            [
              -72.50793318401092,
              43.62620285219107
            ],
            [
              -72.50763425328877,
              43.626179104980004
            ],
            [
              -72.50764855025504,
              43.62594845794165
            ],
            [
              -72.50764388695423,
              43.62581611735275
            ],
            [
              -72.5076341974616,
              43.62573813486844
            ],
            [
              -72.50763419831623,
              43.62574488548581
            ],
            [
              -72.50763419871676,
              43.62574804927513
            ],
            [
              -72.50667548422544,
              43.62588677868267
            ],
            [
              -72.50664684902277,
              43.62605315516226
            ],
            [
              -72.506018008743,
              43.62595854005839
            ],
            [
              -72.50598123049248,
              43.626032798777864
            ],
            [
              -72.50568849276681,
              43.62596678459032
            ],
            [
              -72.50539304601278,
              43.62590280846669
            ],
            [
              -72.50523390543219,
              43.62594205405495
            ],
            [
              -72.50517157332159,
              43.62603698767178
            ],
            [
              -72.50512627410303,
              43.626096830782956
            ],
            [
              -72.5052397337574,
              43.62616700414998
            ],
            [
              -72.50537913609114,
              43.62623506639236
            ],
            [
              -72.50549530409896,
              43.62628252580125
            ],
            [
              -72.50556113292869,
              43.62631170508253
            ],
            [
              -72.50552629233934,
              43.62640509030389
            ],
            [
              -72.50484835466479,
              43.627319618944995
            ]
          ]
        ]
      }
    },
    {
      "type": "Feature",
      "properties": {
        "Abbreviated_Jurisdiction_District_Name": "SRO",
        "County": "Windsor",
        "Jurisdiction_District_Name": "Woodstock Village"
      },
      "geometry": {
        "type": "MultiPolygon",
        "coordinates": [
          [
            [
              [
                -72.51986776711554,
                43.6153260025638
              ],
              [
                -72.51995282646776,
                43.61555691508593
              ],
              [
                -72.52009188756874,
                43.61577361383207
              ],
              [
                -72.52028069190351,
                43.61596941713985
              ],
              [
                -72.52051323422666,
                43.616138561705874
              ],
              [
                -72.5207833195973,
                43.61627563348798
              ],
              [
                -72.52108126835854,
                43.61637669524121
              ],
              [
                -72.52139914028885,
                43.61643865464848
              ],
              [
                -72.52172745045735,
                43.61645940445184
              ],
              [
                -72.52205477683138,
                43.61643852462691
              ],
              [
                -72.52237279498249,
                43.616376719776746
              ],
              [
                -72.52267105248852,
                43.616275539295344
              ],
              [
                -72.52294064640408,
                43.616138431543405
              ],
              [
                -72.52067619558727,
                43.615358090296446
              ],
              [
                -72.5198397674787,
                43.61516694098577
              ],
              [
                -72.51986776711554,
                43.6153260025638
              ]
            ]
          ],
          [
            [
              [
                -72.50826000304252,
                43.62169525674516
              ],
              [
                -72.50725644010973,
                43.62312366905124
              ],
              [
                -72.51277637037128,
                43.62468106446181
              ],
              [
                -72.51310472243448,
                43.62470183899278
              ],
              [
                -72.51343209651709,
                43.624680983880495
              ],
              [
                -72.51375016695226,
                43.62461920309925
              ],
              [
                -72.51404847966805,
                43.624518045252614
              ],
              [
                -72.51431813000958,
                43.62438095802506
              ],
              [
                -72.51455079232466,
                43.62421194984458
              ],
              [
                -72.5147396926881,
                43.62401580394678
              ],
              [
                -72.51487863782665,
                43.62379941328484
              ],
              [
                -72.51496395210928,
                43.62356840313644
              ],
              [
                -72.51499273235495,
                43.62332987655338
              ],
              [
                -72.51496382271642,
                43.62309178055921
              ],
              [
                -72.51487857730064,
                43.622860864654704
              ],
              [
                -72.51473971186391,
                43.62264415981151
              ],
              [
                -72.51455071133044,
                43.62244834760719
              ],
              [
                -72.51431816139485,
                43.62227919110121
              ],
              [
                -72.51404825711272,
                43.622142105067596
              ],
              [
                -72.50898567164722,
                43.62068520080806
              ],
              [
                -72.50826000304252,
                43.62169525674516
              ]
            ]
          ]
        ]
      }
    }
  ]
}